<?xml version="1.0"?>
<osm version="0.6" generator="uvmogr2osm" upload="false">
<node visible="true" id="-2" lat="37.30875442" lon="-122.03269351200001"/>
<node visible="true" id="-3" lat="37.308753495000005" lon="-122.033032872"/>
<node visible="true" id="-4" lat="37.308782253000004" lon="-122.033033015"/>
<node visible="true" id="-5" lat="37.308782235" lon="-122.03304701100001"/>
<node visible="true" id="-6" lat="37.309085854" lon="-122.03304828700001"/>
<node visible="true" id="-7" lat="37.309086316000005" lon="-122.03288072000001"/>
<node visible="true" id="-8" lat="37.309204561" lon="-122.03288122000001"/>
<node visible="true" id="-9" lat="37.309205098" lon="-122.03267851000001"/>
<node visible="true" id="-10" lat="37.30878208" lon="-122.032676714"/>
<node visible="true" id="-11" lat="37.308782025" lon="-122.032693632"/>
<node visible="true" id="-13" lat="37.311819619000005" lon="-122.03283020200001"/>
<node visible="true" id="-14" lat="37.311820027" lon="-122.032857757"/>
<node visible="true" id="-15" lat="37.311856874" lon="-122.032856862"/>
<node visible="true" id="-16" lat="37.311856438" lon="-122.03282930700001"/>
<node visible="true" id="-18" lat="37.308382018" lon="-122.03274695"/>
<node visible="true" id="-19" lat="37.308382128000005" lon="-122.03288550200001"/>
<node visible="true" id="-20" lat="37.308713265" lon="-122.03288507200001"/>
<node visible="true" id="-21" lat="37.30871316" lon="-122.032748307"/>
<node visible="true" id="-22" lat="37.308707143" lon="-122.032748322"/>
<node visible="true" id="-23" lat="37.308707144" lon="-122.03272727500001"/>
<node visible="true" id="-24" lat="37.308387682" lon="-122.032727671"/>
<node visible="true" id="-25" lat="37.308387704000005" lon="-122.03274692900001"/>
<node visible="true" id="-27" lat="37.310192972" lon="-122.033453124"/>
<node visible="true" id="-28" lat="37.310192531000006" lon="-122.03375329600001"/>
<node visible="true" id="-29" lat="37.310399746" lon="-122.03375380000001"/>
<node visible="true" id="-30" lat="37.310399466" lon="-122.03394307100001"/>
<node visible="true" id="-31" lat="37.310422319000004" lon="-122.033943127"/>
<node visible="true" id="-32" lat="37.310421938000005" lon="-122.034196671"/>
<node visible="true" id="-33" lat="37.31181677" lon="-122.03419992200001"/>
<node visible="true" id="-34" lat="37.311817584" lon="-122.033642584"/>
<node visible="true" id="-35" lat="37.311823600000004" lon="-122.03364260500001"/>
<node visible="true" id="-36" lat="37.311823873" lon="-122.033449649"/>
<node visible="true" id="-37" lat="37.311663215" lon="-122.03344927600001"/>
<node visible="true" id="-38" lat="37.311663271" lon="-122.033413511"/>
<node visible="true" id="-39" lat="37.311176464" lon="-122.03341236300001"/>
<node visible="true" id="-40" lat="37.311176393000004" lon="-122.03345559"/>
<node visible="true" id="-41" lat="37.311131977" lon="-122.03345546800001"/>
<node visible="true" id="-42" lat="37.311132043" lon="-122.03341262200001"/>
<node visible="true" id="-43" lat="37.311121963000005" lon="-122.03341258600001"/>
<node visible="true" id="-44" lat="37.311121995" lon="-122.033387035"/>
<node visible="true" id="-45" lat="37.311049646" lon="-122.03338689300001"/>
<node visible="true" id="-46" lat="37.311049635" lon="-122.033391879"/>
<node visible="true" id="-47" lat="37.311041532000004" lon="-122.03339184900001"/>
<node visible="true" id="-48" lat="37.311041515" lon="-122.033412036"/>
<node visible="true" id="-49" lat="37.310856081000004" lon="-122.033411602"/>
<node visible="true" id="-50" lat="37.310856132000005" lon="-122.03338261200001"/>
<node visible="true" id="-51" lat="37.310846848000004" lon="-122.033382594"/>
<node visible="true" id="-52" lat="37.31084681" lon="-122.03339390800001"/>
<node visible="true" id="-53" lat="37.310633743000004" lon="-122.033393422"/>
<node visible="true" id="-54" lat="37.310633757000005" lon="-122.03339658600001"/>
<node visible="true" id="-55" lat="37.310610079" lon="-122.033396549"/>
<node visible="true" id="-56" lat="37.310609999" lon="-122.033457208"/>
<node visible="true" id="-57" lat="37.310560613" lon="-122.03345709000001"/>
<node visible="true" id="-58" lat="37.310560727" lon="-122.03338539100001"/>
<node visible="true" id="-59" lat="37.310527931" lon="-122.03338530200001"/>
<node visible="true" id="-60" lat="37.310527833" lon="-122.03345576400001"/>
<node visible="true" id="-61" lat="37.310490202000004" lon="-122.03345568"/>
<node visible="true" id="-62" lat="37.310490199" lon="-122.03345382200001"/>
<node visible="true" id="-64" lat="37.311809851" lon="-122.03287127"/>
<node visible="true" id="-65" lat="37.311809628" lon="-122.03289891600001"/>
<node visible="true" id="-66" lat="37.311846373" lon="-122.03289942800001"/>
<node visible="true" id="-67" lat="37.311846598" lon="-122.032871783"/>
<node visible="true" id="-69" lat="37.311798646" lon="-122.03291110400001"/>
<node visible="true" id="-70" lat="37.311798282000005" lon="-122.032938884"/>
<node visible="true" id="-71" lat="37.31183508" lon="-122.032939604"/>
<node visible="true" id="-72" lat="37.311835416" lon="-122.032911858"/>
<node visible="true" id="-73" lat="37.309100793" lon="-122.03272717200001"><tag k="addr:city" v="San Jose"/><tag k="addr:housenumber" v="1035"/><tag k="addr:street" v="South De Anza Boulevard"/><tag k="addr:unit" v="5A"/><tag k="addr:postcode" v="95129"/></node>
<node visible="true" id="-74" lat="37.30887552" lon="-122.03272558900001"><tag k="addr:city" v="San Jose"/><tag k="addr:housenumber" v="1035"/><tag k="addr:street" v="South De Anza Boulevard"/><tag k="addr:unit" v="3"/><tag k="addr:postcode" v="95129"/></node>
<node visible="true" id="-75" lat="37.309074450000004" lon="-122.032726421"><tag k="addr:city" v="San Jose"/><tag k="addr:housenumber" v="1035"/><tag k="addr:street" v="South De Anza Boulevard"/><tag k="addr:unit" v="5"/><tag k="addr:postcode" v="95129"/></node>
<node visible="true" id="-76" lat="37.30950886" lon="-122.033079184"><tag k="addr:city" v="San Jose"/><tag k="addr:housenumber" v="1025"/><tag k="addr:street" v="South De Anza Boulevard"/><tag k="addr:postcode" v="95129"/></node>
<node visible="true" id="-77" lat="37.309552779" lon="-122.032805744"><tag k="addr:city" v="San Jose"/><tag k="addr:housenumber" v="1025"/><tag k="addr:street" v="South De Anza Boulevard"/><tag k="addr:unit" v="1"/><tag k="addr:postcode" v="95129"/></node>
<node visible="true" id="-78" lat="37.308944743000005" lon="-122.03272612600001"><tag k="addr:city" v="San Jose"/><tag k="addr:housenumber" v="1035"/><tag k="addr:street" v="South De Anza Boulevard"/><tag k="addr:unit" v="4"/><tag k="addr:postcode" v="95129"/></node>
<node visible="true" id="-79" lat="37.308656869000004" lon="-122.03279994900001"><tag k="addr:city" v="San Jose"/><tag k="addr:housenumber" v="1043"/><tag k="addr:street" v="South De Anza Boulevard"/><tag k="addr:postcode" v="95129"/></node>
<node visible="true" id="-80" lat="37.308793245000004" lon="-122.03295022200001"><tag k="addr:city" v="San Jose"/><tag k="addr:housenumber" v="1035"/><tag k="addr:street" v="South De Anza Boulevard"/><tag k="addr:unit" v="7"/><tag k="addr:postcode" v="95129"/></node>
<node visible="true" id="-81" lat="37.308567505" lon="-122.03267455800001"><tag k="addr:city" v="San Jose"/><tag k="addr:housenumber" v="1045"/><tag k="addr:street" v="South De Anza Boulevard"/><tag k="addr:postcode" v="95129"/></node>
<node visible="true" id="-82" lat="37.308611194" lon="-122.032791848"><tag k="addr:city" v="San Jose"/><tag k="addr:housenumber" v="1047"/><tag k="addr:street" v="South De Anza Boulevard"/><tag k="addr:postcode" v="95129"/></node>
<node visible="true" id="-83" lat="37.310942264000005" lon="-122.033646945"><tag k="addr:city" v="San Jose"/><tag k="addr:housenumber" v="975"/><tag k="addr:street" v="South De Anza Boulevard"/><tag k="addr:postcode" v="95129"/></node>
<node visible="true" id="-84" lat="37.308803889" lon="-122.03272648000001"><tag k="addr:city" v="San Jose"/><tag k="addr:housenumber" v="1035"/><tag k="addr:street" v="South De Anza Boulevard"/><tag k="addr:unit" v="1"/><tag k="addr:postcode" v="95129"/></node>
<node visible="true" id="-85" lat="37.308989982" lon="-122.03272843200001"><tag k="addr:city" v="San Jose"/><tag k="addr:housenumber" v="1035"/><tag k="addr:street" v="South De Anza Boulevard"/><tag k="addr:unit" v="4B"/><tag k="addr:postcode" v="95129"/></node>
<node visible="true" id="-86" lat="37.309019561" lon="-122.03294574300001"><tag k="addr:city" v="San Jose"/><tag k="addr:housenumber" v="1035"/><tag k="addr:street" v="South De Anza Boulevard"/><tag k="addr:unit" v="8"/><tag k="addr:postcode" v="95129"/></node>
<node visible="true" id="-87" lat="37.31030293" lon="-122.03260626000001"><tag k="addr:city" v="San Jose"/><tag k="addr:housenumber" v="1011;1017;1021;1023"/><tag k="addr:street" v="South De Anza Boulevard"/><tag k="addr:postcode" v="95129"/></node>
<node visible="true" id="-89" lat="37.309855515" lon="-122.03258049700001"/>
<node visible="true" id="-90" lat="37.309855377000005" lon="-122.032767397"/>
<node visible="true" id="-91" lat="37.309867216" lon="-122.032767398"/>
<node visible="true" id="-92" lat="37.309867108" lon="-122.03291630000001"/>
<node visible="true" id="-93" lat="37.309919571" lon="-122.03291637900001"/>
<node visible="true" id="-94" lat="37.309919568000005" lon="-122.032912459"/>
<node visible="true" id="-95" lat="37.309968131000005" lon="-122.032912526"/>
<node visible="true" id="-96" lat="37.309968248000004" lon="-122.032775489"/>
<node visible="true" id="-97" lat="37.309978768" lon="-122.032775498"/>
<node visible="true" id="-98" lat="37.309978789000006" lon="-122.032713048"/>
<node visible="true" id="-99" lat="37.309972581000004" lon="-122.03271305800001"/>
<node visible="true" id="-100" lat="37.309972604" lon="-122.032684035"/>
<node visible="true" id="-101" lat="37.309974911000005" lon="-122.03268401400001"/>
<node visible="true" id="-102" lat="37.309974937" lon="-122.032671531"/>
<node visible="true" id="-103" lat="37.309959500000005" lon="-122.032671523"/>
<node visible="true" id="-104" lat="37.309959563" lon="-122.0325806"/>
<node visible="true" id="-106" lat="37.308379363" lon="-122.032901573"/>
<node visible="true" id="-107" lat="37.308379349" lon="-122.03300759300001"/>
<node visible="true" id="-108" lat="37.308506775000005" lon="-122.03300762600001"/>
<node visible="true" id="-109" lat="37.308506776" lon="-122.033015949"/>
<node visible="true" id="-110" lat="37.308517323000004" lon="-122.03301595800001"/>
<node visible="true" id="-111" lat="37.308517319" lon="-122.033007877"/>
<node visible="true" id="-112" lat="37.308557945000004" lon="-122.033007885"/>
<node visible="true" id="-113" lat="37.308557946" lon="-122.032976352"/>
<node visible="true" id="-114" lat="37.308564236" lon="-122.03297637700001"/>
<node visible="true" id="-115" lat="37.308564224" lon="-122.03290161700001"/>
<node visible="true" id="-117" lat="37.311781270000004" lon="-122.032651931"/>
<node visible="true" id="-118" lat="37.311782058000006" lon="-122.032795422"/>
<node visible="true" id="-119" lat="37.311813238" lon="-122.03279516600001"/>
<node visible="true" id="-120" lat="37.311813323" lon="-122.03281171"/>
<node visible="true" id="-121" lat="37.311865134" lon="-122.03281125900001"/>
<node visible="true" id="-122" lat="37.311865043000005" lon="-122.03279516200001"/>
<node visible="true" id="-123" lat="37.311975699" lon="-122.03279419900001"/>
<node visible="true" id="-124" lat="37.311975779" lon="-122.032811155"/>
<node visible="true" id="-125" lat="37.312004047" lon="-122.03281091000001"/>
<node visible="true" id="-126" lat="37.312003944000004" lon="-122.03279154600001"/>
<node visible="true" id="-127" lat="37.312034876000006" lon="-122.03279128700001"/>
<node visible="true" id="-128" lat="37.312033521000004" lon="-122.032546334"/>
<node visible="true" id="-129" lat="37.311809024000006" lon="-122.0325483"/>
<node visible="true" id="-130" lat="37.311809593" lon="-122.03265168600001"/>
<way visible="true" id="-1"><nd ref="-2"/><nd ref="-3"/><nd ref="-4"/><nd ref="-5"/><nd ref="-6"/><nd ref="-7"/><nd ref="-8"/><nd ref="-9"/><nd ref="-10"/><nd ref="-11"/><nd ref="-2"/><tag k="building" v="yes"/><tag k="height" v="4.55"/><tag k="ele" v="86.12"/></way>
<way visible="true" id="-12"><nd ref="-13"/><nd ref="-14"/><nd ref="-15"/><nd ref="-16"/><nd ref="-13"/><tag k="building" v="yes"/><tag k="height" v="3.46"/><tag k="ele" v="82.62"/></way>
<way visible="true" id="-17"><nd ref="-18"/><nd ref="-19"/><nd ref="-20"/><nd ref="-21"/><nd ref="-22"/><nd ref="-23"/><nd ref="-24"/><nd ref="-25"/><nd ref="-18"/><tag k="building" v="yes"/><tag k="height" v="3.72"/><tag k="ele" v="85.03"/></way>
<way visible="true" id="-26"><nd ref="-27"/><nd ref="-28"/><nd ref="-29"/><nd ref="-30"/><nd ref="-31"/><nd ref="-32"/><nd ref="-33"/><nd ref="-34"/><nd ref="-35"/><nd ref="-36"/><nd ref="-37"/><nd ref="-38"/><nd ref="-39"/><nd ref="-40"/><nd ref="-41"/><nd ref="-42"/><nd ref="-43"/><nd ref="-44"/><nd ref="-45"/><nd ref="-46"/><nd ref="-47"/><nd ref="-48"/><nd ref="-49"/><nd ref="-50"/><nd ref="-51"/><nd ref="-52"/><nd ref="-53"/><nd ref="-54"/><nd ref="-55"/><nd ref="-56"/><nd ref="-57"/><nd ref="-58"/><nd ref="-59"/><nd ref="-60"/><nd ref="-61"/><nd ref="-62"/><nd ref="-27"/><tag k="building" v="yes"/><tag k="height" v="8.18"/><tag k="ele" v="91.34"/></way>
<way visible="true" id="-63"><nd ref="-64"/><nd ref="-65"/><nd ref="-66"/><nd ref="-67"/><nd ref="-64"/><tag k="building" v="yes"/><tag k="height" v="3.42"/><tag k="ele" v="82.62"/></way>
<way visible="true" id="-68"><nd ref="-69"/><nd ref="-70"/><nd ref="-71"/><nd ref="-72"/><nd ref="-69"/><tag k="building" v="yes"/><tag k="height" v="3.36"/><tag k="ele" v="82.62"/></way>
<way visible="true" id="-88"><nd ref="-89"/><nd ref="-90"/><nd ref="-91"/><nd ref="-92"/><nd ref="-93"/><nd ref="-94"/><nd ref="-95"/><nd ref="-96"/><nd ref="-97"/><nd ref="-98"/><nd ref="-99"/><nd ref="-100"/><nd ref="-101"/><nd ref="-102"/><nd ref="-103"/><nd ref="-104"/><nd ref="-89"/><tag k="building" v="yes"/><tag k="height" v="3.60"/><tag k="ele" v="85.35"/><tag k="addr:city" v="San Jose"/><tag k="addr:housenumber" v="1007"/><tag k="addr:street" v="South De Anza Boulevard"/><tag k="addr:postcode" v="95129"/></way>
<way visible="true" id="-105"><nd ref="-106"/><nd ref="-107"/><nd ref="-108"/><nd ref="-109"/><nd ref="-110"/><nd ref="-111"/><nd ref="-112"/><nd ref="-113"/><nd ref="-114"/><nd ref="-115"/><nd ref="-106"/><tag k="building" v="yes"/><tag k="height" v="2.71"/><tag k="ele" v="84.29"/><tag k="addr:city" v="San Jose"/><tag k="addr:housenumber" v="7325"/><tag k="addr:street" v="Fallenleaf Lane"/><tag k="addr:postcode" v="95129"/></way>
<way visible="true" id="-116"><nd ref="-117"/><nd ref="-118"/><nd ref="-119"/><nd ref="-120"/><nd ref="-121"/><nd ref="-122"/><nd ref="-123"/><nd ref="-124"/><nd ref="-125"/><nd ref="-126"/><nd ref="-127"/><nd ref="-128"/><nd ref="-129"/><nd ref="-130"/><nd ref="-117"/><tag k="building" v="yes"/><tag k="height" v="7.21"/><tag k="ele" v="86.99"/><tag k="addr:city" v="San Jose"/><tag k="addr:housenumber" v="965"/><tag k="addr:street" v="South De Anza Boulevard"/><tag k="addr:postcode" v="95129"/></way>
</osm>