<?xml version="1.0"?>
<osm version="0.6" generator="uvmogr2osm" upload="false">
<node visible="true" id="-3" lat="37.250032055000005" lon="-121.847068573"/>
<node visible="true" id="-4" lat="37.250031726" lon="-121.84710900900001"/>
<node visible="true" id="-5" lat="37.250036890000004" lon="-121.847109067"/>
<node visible="true" id="-6" lat="37.250033834" lon="-121.84746285400001"/>
<node visible="true" id="-7" lat="37.250154864" lon="-121.84746451900001"/>
<node visible="true" id="-8" lat="37.250154812000005" lon="-121.847471596"/>
<node visible="true" id="-9" lat="37.25018524" lon="-121.84747200700001"/>
<node visible="true" id="-10" lat="37.25018527" lon="-121.84746705900001"/>
<node visible="true" id="-11" lat="37.250217896" lon="-121.84746751"/>
<node visible="true" id="-12" lat="37.250217256" lon="-121.84753982800001"/>
<node visible="true" id="-13" lat="37.250343725" lon="-121.84754152100001"/>
<node visible="true" id="-14" lat="37.250348394" lon="-121.847006956"/>
<node visible="true" id="-15" lat="37.250206327" lon="-121.847005017"/>
<node visible="true" id="-16" lat="37.250206591" lon="-121.84697251700001"/>
<node visible="true" id="-17" lat="37.250038762" lon="-121.84697025000001"/>
<node visible="true" id="-18" lat="37.250037904" lon="-121.84706864300001"/>
<node visible="true" id="-20" lat="37.250177489" lon="-121.84732934"/>
<node visible="true" id="-21" lat="37.250180339" lon="-121.847141304"/>
<node visible="true" id="-22" lat="37.250220431" lon="-121.847142231"/>
<node visible="true" id="-23" lat="37.250217609" lon="-121.84733026900001"/>
<node visible="true" id="-24" lat="37.246267954000004" lon="-121.85224141500001"><tag k="addr:city" v="San Jose"/><tag k="addr:housenumber" v="5680"/><tag k="addr:street" v="Calmor Court"/><tag k="addr:unit" v="1"/><tag k="addr:postcode" v="95123"/></node>
<node visible="true" id="-25" lat="37.248674147" lon="-121.852897869"><tag k="addr:city" v="San Jose"/><tag k="addr:housenumber" v="761"/><tag k="addr:street" v="Warring Drive"/><tag k="addr:unit" v="3"/><tag k="addr:postcode" v="95123"/></node>
<node visible="true" id="-26" lat="37.248723795000004" lon="-121.852913301"><tag k="addr:city" v="San Jose"/><tag k="addr:housenumber" v="761"/><tag k="addr:street" v="Warring Drive"/><tag k="addr:unit" v="1"/><tag k="addr:postcode" v="95123"/></node>
<node visible="true" id="-27" lat="37.248698199" lon="-121.85291301000001"><tag k="addr:city" v="San Jose"/><tag k="addr:housenumber" v="761"/><tag k="addr:street" v="Warring Drive"/><tag k="addr:unit" v="2"/><tag k="addr:postcode" v="95123"/></node>
<node visible="true" id="-28" lat="37.247177877000006" lon="-121.851869565"><tag k="addr:city" v="San Jose"/><tag k="addr:housenumber" v="5656"/><tag k="addr:street" v="Calmor Avenue"/><tag k="addr:unit" v="3"/><tag k="addr:postcode" v="95123"/></node>
<node visible="true" id="-29" lat="37.247161067" lon="-121.851831501"><tag k="addr:city" v="San Jose"/><tag k="addr:housenumber" v="5656"/><tag k="addr:street" v="Calmor Avenue"/><tag k="addr:unit" v="4"/><tag k="addr:postcode" v="95123"/></node>
<node visible="true" id="-30" lat="37.248922279000006" lon="-121.853371468"><tag k="addr:city" v="San Jose"/><tag k="addr:housenumber" v="5644"/><tag k="addr:street" v="Playa Del Rey"/><tag k="addr:unit" v="1"/><tag k="addr:postcode" v="95123"/></node>
<node visible="true" id="-31" lat="37.248899924" lon="-121.853304613"><tag k="addr:city" v="San Jose"/><tag k="addr:housenumber" v="5644"/><tag k="addr:street" v="Playa Del Rey"/><tag k="addr:unit" v="2"/><tag k="addr:postcode" v="95123"/></node>
<node visible="true" id="-32" lat="37.248878188" lon="-121.853279309"><tag k="addr:city" v="San Jose"/><tag k="addr:housenumber" v="5644"/><tag k="addr:street" v="Playa Del Rey"/><tag k="addr:unit" v="3"/><tag k="addr:postcode" v="95123"/></node>
<node visible="true" id="-33" lat="37.248841194" lon="-121.85327895"><tag k="addr:city" v="San Jose"/><tag k="addr:housenumber" v="5644"/><tag k="addr:street" v="Playa Del Rey"/><tag k="addr:unit" v="4"/><tag k="addr:postcode" v="95123"/></node>
<node visible="true" id="-34" lat="37.250113592000005" lon="-121.847046116"><tag k="addr:city" v="San Jose"/><tag k="addr:housenumber" v="704"/><tag k="addr:street" v="Blossom Hill Road"/><tag k="addr:unit" v="100"/><tag k="addr:postcode" v="95123"/></node>
<node visible="true" id="-35" lat="37.250291341" lon="-121.84705683300001"><tag k="addr:city" v="San Jose"/><tag k="addr:housenumber" v="704"/><tag k="addr:street" v="Blossom Hill Road"/><tag k="addr:unit" v="101"/><tag k="addr:postcode" v="95123"/></node>
<node visible="true" id="-36" lat="37.250114153000006" lon="-121.84713823000001"><tag k="addr:city" v="San Jose"/><tag k="addr:housenumber" v="704"/><tag k="addr:street" v="Blossom Hill Road"/><tag k="addr:unit" v="102"/><tag k="addr:postcode" v="95123"/></node>
<node visible="true" id="-37" lat="37.250289062" lon="-121.84714710600001"><tag k="addr:city" v="San Jose"/><tag k="addr:housenumber" v="704"/><tag k="addr:street" v="Blossom Hill Road"/><tag k="addr:unit" v="103"/><tag k="addr:postcode" v="95123"/></node>
<node visible="true" id="-38" lat="37.247043782000006" lon="-121.851990732"><tag k="addr:city" v="San Jose"/><tag k="addr:housenumber" v="5660"/><tag k="addr:street" v="Calmor Avenue"/><tag k="addr:unit" v="1"/><tag k="addr:postcode" v="95123"/></node>
<node visible="true" id="-39" lat="37.247028812" lon="-121.85194569000001"><tag k="addr:city" v="San Jose"/><tag k="addr:housenumber" v="5660"/><tag k="addr:street" v="Calmor Avenue"/><tag k="addr:unit" v="2"/><tag k="addr:postcode" v="95123"/></node>
<node visible="true" id="-40" lat="37.247010243000005" lon="-121.85191714700001"><tag k="addr:city" v="San Jose"/><tag k="addr:housenumber" v="5660"/><tag k="addr:street" v="Calmor Avenue"/><tag k="addr:unit" v="3"/><tag k="addr:postcode" v="95123"/></node>
<node visible="true" id="-41" lat="37.246992513" lon="-121.851870821"><tag k="addr:city" v="San Jose"/><tag k="addr:housenumber" v="5660"/><tag k="addr:street" v="Calmor Avenue"/><tag k="addr:unit" v="4"/><tag k="addr:postcode" v="95123"/></node>
<node visible="true" id="-42" lat="37.246862514" lon="-121.85203693400001"><tag k="addr:city" v="San Jose"/><tag k="addr:housenumber" v="5664"/><tag k="addr:street" v="Calmor Avenue"/><tag k="addr:unit" v="2"/><tag k="addr:postcode" v="95123"/></node>
<node visible="true" id="-43" lat="37.246841492" lon="-121.85200680000001"><tag k="addr:city" v="San Jose"/><tag k="addr:housenumber" v="5664"/><tag k="addr:street" v="Calmor Avenue"/><tag k="addr:unit" v="3"/><tag k="addr:postcode" v="95123"/></node>
<node visible="true" id="-44" lat="37.246818174000005" lon="-121.85196858200001"><tag k="addr:city" v="San Jose"/><tag k="addr:housenumber" v="5664"/><tag k="addr:street" v="Calmor Avenue"/><tag k="addr:unit" v="4"/><tag k="addr:postcode" v="95123"/></node>
<node visible="true" id="-45" lat="37.246706712000005" lon="-121.852113556"><tag k="addr:city" v="San Jose"/><tag k="addr:housenumber" v="5668"/><tag k="addr:street" v="Calmor Avenue"/><tag k="addr:unit" v="2"/><tag k="addr:postcode" v="95123"/></node>
<node visible="true" id="-46" lat="37.24669152" lon="-121.85207579700001"><tag k="addr:city" v="San Jose"/><tag k="addr:housenumber" v="5668"/><tag k="addr:street" v="Calmor Avenue"/><tag k="addr:unit" v="3"/><tag k="addr:postcode" v="95123"/></node>
<node visible="true" id="-47" lat="37.246673434" lon="-121.852038776"><tag k="addr:city" v="San Jose"/><tag k="addr:housenumber" v="5668"/><tag k="addr:street" v="Calmor Avenue"/><tag k="addr:unit" v="4"/><tag k="addr:postcode" v="95123"/></node>
<node visible="true" id="-48" lat="37.246249155" lon="-121.85216875100001"><tag k="addr:city" v="San Jose"/><tag k="addr:housenumber" v="5680"/><tag k="addr:street" v="Calmor Court"/><tag k="addr:unit" v="2"/><tag k="addr:postcode" v="95123"/></node>
<node visible="true" id="-49" lat="37.246222167" lon="-121.852143835"><tag k="addr:city" v="San Jose"/><tag k="addr:housenumber" v="5680"/><tag k="addr:street" v="Calmor Court"/><tag k="addr:unit" v="3"/><tag k="addr:postcode" v="95123"/></node>
<node visible="true" id="-50" lat="37.246188677" lon="-121.852139726"><tag k="addr:city" v="San Jose"/><tag k="addr:housenumber" v="5680"/><tag k="addr:street" v="Calmor Court"/><tag k="addr:unit" v="4"/><tag k="addr:postcode" v="95123"/></node>
<node visible="true" id="-51" lat="37.246122611000004" lon="-121.85231626800001"><tag k="addr:city" v="San Jose"/><tag k="addr:housenumber" v="5684"/><tag k="addr:street" v="Calmor Court"/><tag k="addr:unit" v="1"/><tag k="addr:postcode" v="95123"/></node>
<node visible="true" id="-52" lat="37.246097267" lon="-121.85228468100001"><tag k="addr:city" v="San Jose"/><tag k="addr:housenumber" v="5684"/><tag k="addr:street" v="Calmor Court"/><tag k="addr:unit" v="2"/><tag k="addr:postcode" v="95123"/></node>
<node visible="true" id="-53" lat="37.246067141000005" lon="-121.852241429"><tag k="addr:city" v="San Jose"/><tag k="addr:housenumber" v="5684"/><tag k="addr:street" v="Calmor Court"/><tag k="addr:unit" v="3"/><tag k="addr:postcode" v="95123"/></node>
<node visible="true" id="-54" lat="37.246036374" lon="-121.852206068"><tag k="addr:city" v="San Jose"/><tag k="addr:housenumber" v="5684"/><tag k="addr:street" v="Calmor Court"/><tag k="addr:unit" v="4"/><tag k="addr:postcode" v="95123"/></node>
<node visible="true" id="-55" lat="37.250112762" lon="-121.84723436600001"><tag k="addr:city" v="San Jose"/><tag k="addr:housenumber" v="704"/><tag k="addr:street" v="Blossom Hill Road"/><tag k="addr:unit" v="104"/><tag k="addr:postcode" v="95123"/></node>
<node visible="true" id="-56" lat="37.250289469" lon="-121.847277516"><tag k="addr:city" v="San Jose"/><tag k="addr:housenumber" v="704"/><tag k="addr:street" v="Blossom Hill Road"/><tag k="addr:unit" v="105"/><tag k="addr:postcode" v="95123"/></node>
<node visible="true" id="-57" lat="37.250120324" lon="-121.847364427"><tag k="addr:city" v="San Jose"/><tag k="addr:housenumber" v="704"/><tag k="addr:street" v="Blossom Hill Road"/><tag k="addr:unit" v="106"/><tag k="addr:postcode" v="95123"/></node>
<node visible="true" id="-58" lat="37.250286473" lon="-121.847388656"><tag k="addr:city" v="San Jose"/><tag k="addr:housenumber" v="704"/><tag k="addr:street" v="Blossom Hill Road"/><tag k="addr:unit" v="107"/><tag k="addr:postcode" v="95123"/></node>
<node visible="true" id="-59" lat="37.248871708" lon="-121.85248768000001"><tag k="addr:city" v="San Jose"/><tag k="addr:housenumber" v="757"/><tag k="addr:street" v="Warring Drive"/><tag k="addr:unit" v="1"/><tag k="addr:postcode" v="95123"/></node>
<node visible="true" id="-60" lat="37.248837988000005" lon="-121.85248693300001"><tag k="addr:city" v="San Jose"/><tag k="addr:housenumber" v="757"/><tag k="addr:street" v="Warring Drive"/><tag k="addr:unit" v="2"/><tag k="addr:postcode" v="95123"/></node>
<node visible="true" id="-61" lat="37.24879094" lon="-121.852481788"><tag k="addr:city" v="San Jose"/><tag k="addr:housenumber" v="757"/><tag k="addr:street" v="Warring Drive"/><tag k="addr:unit" v="3"/><tag k="addr:postcode" v="95123"/></node>
<node visible="true" id="-62" lat="37.248762076000006" lon="-121.85247429100001"><tag k="addr:city" v="San Jose"/><tag k="addr:housenumber" v="757"/><tag k="addr:street" v="Warring Drive"/><tag k="addr:unit" v="4"/><tag k="addr:postcode" v="95123"/></node>
<node visible="true" id="-63" lat="37.248611741000005" lon="-121.85284320900001"><tag k="addr:city" v="San Jose"/><tag k="addr:housenumber" v="761"/><tag k="addr:street" v="Warring Drive"/><tag k="addr:unit" v="4"/><tag k="addr:postcode" v="95123"/></node>
<node visible="true" id="-64" lat="37.249174557" lon="-121.852823387"><tag k="addr:city" v="San Jose"/><tag k="addr:housenumber" v="796"/><tag k="addr:street" v="Delaware Avenue"/><tag k="addr:unit" v="3"/><tag k="addr:postcode" v="95123"/></node>
<node visible="true" id="-65" lat="37.249129107" lon="-121.85282747800001"><tag k="addr:city" v="San Jose"/><tag k="addr:housenumber" v="796"/><tag k="addr:street" v="Delaware Avenue"/><tag k="addr:unit" v="4"/><tag k="addr:postcode" v="95123"/></node>
<node visible="true" id="-66" lat="37.249238252000005" lon="-121.85300417100001"><tag k="addr:city" v="San Jose"/><tag k="addr:housenumber" v="798"/><tag k="addr:street" v="Delaware Avenue"/><tag k="addr:unit" v="3"/><tag k="addr:postcode" v="95123"/></node>
<node visible="true" id="-67" lat="37.249193013" lon="-121.853023214"><tag k="addr:city" v="San Jose"/><tag k="addr:housenumber" v="798"/><tag k="addr:street" v="Delaware Avenue"/><tag k="addr:unit" v="4"/><tag k="addr:postcode" v="95123"/></node>
<way visible="true" id="-2"><nd ref="-3"/><nd ref="-4"/><nd ref="-5"/><nd ref="-6"/><nd ref="-7"/><nd ref="-8"/><nd ref="-9"/><nd ref="-10"/><nd ref="-11"/><nd ref="-12"/><nd ref="-13"/><nd ref="-14"/><nd ref="-15"/><nd ref="-16"/><nd ref="-17"/><nd ref="-18"/><nd ref="-3"/></way>
<way visible="true" id="-19"><nd ref="-20"/><nd ref="-21"/><nd ref="-22"/><nd ref="-23"/><nd ref="-20"/></way>
<relation visible="true" id="-1"><member type="way" ref="-2" role="outer"/><member type="way" ref="-19" role="inner"/><tag k="type" v="multipolygon"/><tag k="building" v="yes"/><tag k="height" v="5.93"/><tag k="ele" v="56.72"/></relation>
</osm>