<?xml version="1.0"?>
<osm version="0.6" generator="uvmogr2osm" upload="false">
<node visible="true" id="-2" lat="37.403224707" lon="-121.88640707"/>
<node visible="true" id="-3" lat="37.403325988" lon="-121.88656671400001"/>
<node visible="true" id="-4" lat="37.403262671" lon="-121.88662982000001"/>
<node visible="true" id="-5" lat="37.403378378" lon="-121.88681221600001"/>
<node visible="true" id="-6" lat="37.403932141000006" lon="-121.88626024000001"/>
<node visible="true" id="-7" lat="37.403735644" lon="-121.88595049800001"/>
<node visible="true" id="-8" lat="37.403734004" lon="-121.88595212000001"/>
<node visible="true" id="-9" lat="37.403713511" lon="-121.88591985500001"/>
<node visible="true" id="-11" lat="37.401976015" lon="-121.88547130200001"/>
<node visible="true" id="-12" lat="37.402019092" lon="-121.88553576400001"/>
<node visible="true" id="-13" lat="37.402025712000004" lon="-121.885528828"/>
<node visible="true" id="-14" lat="37.402053808000005" lon="-121.88557094100001"/>
<node visible="true" id="-15" lat="37.402058564" lon="-121.88556596900001"/>
<node visible="true" id="-16" lat="37.402093434" lon="-121.88561819300001"/>
<node visible="true" id="-17" lat="37.402098553" lon="-121.88561281300001"/>
<node visible="true" id="-18" lat="37.40210028" lon="-121.88561539300001"/>
<node visible="true" id="-19" lat="37.402123697" lon="-121.885590797"/>
<node visible="true" id="-20" lat="37.402133469" lon="-121.885605439"/>
<node visible="true" id="-21" lat="37.402111330000004" lon="-121.885628647"/>
<node visible="true" id="-22" lat="37.402114353" lon="-121.88563314500001"/>
<node visible="true" id="-23" lat="37.402106371" lon="-121.88564153600001"/>
<node visible="true" id="-24" lat="37.402153631000004" lon="-121.885712306"/>
<node visible="true" id="-25" lat="37.402282542" lon="-121.88557701100001"/>
<node visible="true" id="-26" lat="37.402269425" lon="-121.88555734900001"/>
<node visible="true" id="-27" lat="37.402260247" lon="-121.88556699200001"/>
<node visible="true" id="-28" lat="37.402224485000005" lon="-121.88551344300001"/>
<node visible="true" id="-29" lat="37.402204182000006" lon="-121.885534722"/>
<node visible="true" id="-30" lat="37.402195247" lon="-121.885521405"/>
<node visible="true" id="-31" lat="37.402214743" lon="-121.88550093500001"/>
<node visible="true" id="-32" lat="37.402178036" lon="-121.885445992"/>
<node visible="true" id="-33" lat="37.402189969000005" lon="-121.88543344000001"/>
<node visible="true" id="-34" lat="37.402160279" lon="-121.88538899000001"/>
<node visible="true" id="-35" lat="37.402173406" lon="-121.88537525500001"/>
<node visible="true" id="-36" lat="37.402161827" lon="-121.885357893"/>
<node visible="true" id="-37" lat="37.402156376" lon="-121.885363611"/>
<node visible="true" id="-38" lat="37.40213975" lon="-121.885338719"/>
<node visible="true" id="-39" lat="37.402133965000004" lon="-121.88534477500001"/>
<node visible="true" id="-40" lat="37.402115908" lon="-121.885317756"/>
<node visible="true" id="-41" lat="37.402068155" lon="-121.88536786200001"/>
<node visible="true" id="-42" lat="37.402082946" lon="-121.88538999800001"/>
<node visible="true" id="-43" lat="37.402045872" lon="-121.885428907"/>
<node visible="true" id="-44" lat="37.402031135" lon="-121.88540683800001"/>
<node visible="true" id="-45" lat="37.401981157" lon="-121.88545927800001"/>
<node visible="true" id="-46" lat="37.401983748" lon="-121.88546318300001"/>
<node visible="true" id="-48" lat="37.397526885000005" lon="-121.881093148"/>
<node visible="true" id="-49" lat="37.397607761" lon="-121.881220548"/>
<node visible="true" id="-50" lat="37.397660623" lon="-121.88116785300001"/>
<node visible="true" id="-51" lat="37.397655554" lon="-121.881159873"/>
<node visible="true" id="-52" lat="37.397658028" lon="-121.881157407"/>
<node visible="true" id="-53" lat="37.397663097" lon="-121.88116538400001"/>
<node visible="true" id="-54" lat="37.397715962" lon="-121.88111265500001"/>
<node visible="true" id="-55" lat="37.397710865" lon="-121.88110464100001"/>
<node visible="true" id="-56" lat="37.397713588" lon="-121.88110193800001"/>
<node visible="true" id="-57" lat="37.397718658" lon="-121.88110995000001"/>
<node visible="true" id="-58" lat="37.39777105" lon="-121.881057693"/>
<node visible="true" id="-59" lat="37.397765737" lon="-121.881049297"/>
<node visible="true" id="-60" lat="37.397769184000005" lon="-121.88104585"/>
<node visible="true" id="-61" lat="37.397774497" lon="-121.881054245"/>
<node visible="true" id="-62" lat="37.397826776" lon="-121.881002123"/>
<node visible="true" id="-63" lat="37.397822137000006" lon="-121.880994841"/>
<node visible="true" id="-64" lat="37.397825085" lon="-121.880991901"/>
<node visible="true" id="-65" lat="37.397829723" lon="-121.88099918200001"/>
<node visible="true" id="-66" lat="37.397882003" lon="-121.88094706000001"/>
<node visible="true" id="-67" lat="37.397877365" lon="-121.880939745"/>
<node visible="true" id="-68" lat="37.397880562000005" lon="-121.88093653300001"/>
<node visible="true" id="-69" lat="37.397885199" lon="-121.880943849"/>
<node visible="true" id="-70" lat="37.397938008000004" lon="-121.88089118600001"/>
<node visible="true" id="-71" lat="37.39793488" lon="-121.880886239"/>
<node visible="true" id="-72" lat="37.397962508" lon="-121.880858656"/>
<node visible="true" id="-73" lat="37.397894955000005" lon="-121.880752227"/>
<node visible="true" id="-74" lat="37.397869273000005" lon="-121.88077785"/>
<node visible="true" id="-75" lat="37.397859078" lon="-121.88076182500001"/>
<node visible="true" id="-76" lat="37.397805437" lon="-121.880815298"/>
<node visible="true" id="-77" lat="37.397814282" lon="-121.88082923300001"/>
<node visible="true" id="-78" lat="37.397811197" lon="-121.88083230900001"/>
<node visible="true" id="-79" lat="37.397802379000005" lon="-121.880818375"/>
<node visible="true" id="-80" lat="37.397749737000005" lon="-121.880870869"/>
<node visible="true" id="-81" lat="37.397759554000004" lon="-121.88088633500001"/>
<node visible="true" id="-82" lat="37.397755579000005" lon="-121.88089029100001"/>
<node visible="true" id="-83" lat="37.397745763" lon="-121.88087482300001"/>
<node visible="true" id="-84" lat="37.397693927" lon="-121.88092654"/>
<node visible="true" id="-85" lat="37.397703582000005" lon="-121.88094173"/>
<node visible="true" id="-86" lat="37.397700441000005" lon="-121.880944838"/>
<node visible="true" id="-87" lat="37.397690787" lon="-121.88092964900001"/>
<node visible="true" id="-88" lat="37.397638144000005" lon="-121.88098214300001"/>
<node visible="true" id="-89" lat="37.397647934000005" lon="-121.88099757500001"/>
<node visible="true" id="-90" lat="37.397645155" lon="-121.88100034700001"/>
<node visible="true" id="-91" lat="37.397635365" lon="-121.88098491400001"/>
<node visible="true" id="-92" lat="37.397582945" lon="-121.88103723900001"/>
<node visible="true" id="-93" lat="37.397592816" lon="-121.88105277700001"/>
<node visible="true" id="-94" lat="37.397590175000005" lon="-121.881055414"/>
<node visible="true" id="-95" lat="37.397580305000005" lon="-121.881039842"/>
<node visible="true" id="-96" lat="37.394268475000004" lon="-121.879309473"><tag k="addr:city" v="San Jose"/><tag k="addr:housenumber" v="2269"/><tag k="addr:street" v="Hostetter Road"/><tag k="addr:postcode" v="95131"/></node>
<node visible="true" id="-97" lat="37.402120552" lon="-121.885105021"><tag k="addr:city" v="San Jose"/><tag k="addr:housenumber" v="2467"/><tag k="addr:street" v="Jubilee Lane"/><tag k="addr:postcode" v="95131"/></node>
<node visible="true" id="-98" lat="37.402117032" lon="-121.88517574900001"><tag k="addr:city" v="San Jose"/><tag k="addr:housenumber" v="2469"/><tag k="addr:street" v="Jubilee Lane"/><tag k="addr:postcode" v="95131"/></node>
<node visible="true" id="-99" lat="37.402156352000006" lon="-121.885174586"><tag k="addr:city" v="San Jose"/><tag k="addr:housenumber" v="2471"/><tag k="addr:street" v="Jubilee Lane"/><tag k="addr:postcode" v="95131"/></node>
<node visible="true" id="-100" lat="37.40215414" lon="-121.88511242800001"><tag k="addr:city" v="San Jose"/><tag k="addr:housenumber" v="2481"/><tag k="addr:street" v="Jubilee Lane"/><tag k="addr:postcode" v="95131"/></node>
<node visible="true" id="-101" lat="37.402187874" lon="-121.885109782"><tag k="addr:city" v="San Jose"/><tag k="addr:housenumber" v="2483"/><tag k="addr:street" v="Jubilee Lane"/><tag k="addr:postcode" v="95131"/></node>
<node visible="true" id="-102" lat="37.402187256000005" lon="-121.885174366"><tag k="addr:city" v="San Jose"/><tag k="addr:housenumber" v="2485"/><tag k="addr:street" v="Jubilee Lane"/><tag k="addr:postcode" v="95131"/></node>
<node visible="true" id="-103" lat="37.402223755" lon="-121.88517476800001"><tag k="addr:city" v="San Jose"/><tag k="addr:housenumber" v="2487"/><tag k="addr:street" v="Jubilee Lane"/><tag k="addr:postcode" v="95131"/></node>
<node visible="true" id="-104" lat="37.403112716" lon="-121.885438132"><tag k="addr:city" v="San Jose"/><tag k="addr:housenumber" v="2381"/><tag k="addr:street" v="Trade Zone Boulevard"/><tag k="addr:postcode" v="95131"/></node>
<node visible="true" id="-105" lat="37.403108813" lon="-121.88538664900001"><tag k="addr:city" v="San Jose"/><tag k="addr:housenumber" v="2383"/><tag k="addr:street" v="Trade Zone Boulevard"/><tag k="addr:postcode" v="95131"/></node>
<node visible="true" id="-106" lat="37.403105831000005" lon="-121.885332407"><tag k="addr:city" v="San Jose"/><tag k="addr:housenumber" v="2385"/><tag k="addr:street" v="Trade Zone Boulevard"/><tag k="addr:postcode" v="95131"/></node>
<node visible="true" id="-107" lat="37.403100987" lon="-121.885276261"><tag k="addr:city" v="San Jose"/><tag k="addr:housenumber" v="2387"/><tag k="addr:street" v="Trade Zone Boulevard"/><tag k="addr:postcode" v="95131"/></node>
<node visible="true" id="-108" lat="37.403093936000005" lon="-121.88521827400001"><tag k="addr:city" v="San Jose"/><tag k="addr:housenumber" v="2389"/><tag k="addr:street" v="Trade Zone Boulevard"/><tag k="addr:postcode" v="95131"/></node>
<node visible="true" id="-109" lat="37.403093497" lon="-121.885164383"><tag k="addr:city" v="San Jose"/><tag k="addr:housenumber" v="2391"/><tag k="addr:street" v="Trade Zone Boulevard"/><tag k="addr:postcode" v="95131"/></node>
<node visible="true" id="-110" lat="37.403084577" lon="-121.88510805000001"><tag k="addr:city" v="San Jose"/><tag k="addr:housenumber" v="2393"/><tag k="addr:street" v="Trade Zone Boulevard"/><tag k="addr:postcode" v="95131"/></node>
<node visible="true" id="-111" lat="37.40308325" lon="-121.88505514100001"><tag k="addr:city" v="San Jose"/><tag k="addr:housenumber" v="2395"/><tag k="addr:street" v="Trade Zone Boulevard"/><tag k="addr:postcode" v="95131"/></node>
<node visible="true" id="-112" lat="37.401840248" lon="-121.88543512800001"><tag k="addr:city" v="San Jose"/><tag k="addr:housenumber" v="2401"/><tag k="addr:street" v="Jubilee Lane"/><tag k="addr:postcode" v="95131"/></node>
<node visible="true" id="-113" lat="37.401873947000006" lon="-121.885435477"><tag k="addr:city" v="San Jose"/><tag k="addr:housenumber" v="2403"/><tag k="addr:street" v="Jubilee Lane"/><tag k="addr:postcode" v="95131"/></node>
<node visible="true" id="-114" lat="37.401779533" lon="-121.885506844"><tag k="addr:city" v="San Jose"/><tag k="addr:housenumber" v="2405"/><tag k="addr:street" v="Jubilee Lane"/><tag k="addr:postcode" v="95131"/></node>
<node visible="true" id="-115" lat="37.401816039" lon="-121.88550673"><tag k="addr:city" v="San Jose"/><tag k="addr:housenumber" v="2407"/><tag k="addr:street" v="Jubilee Lane"/><tag k="addr:postcode" v="95131"/></node>
<node visible="true" id="-116" lat="37.401775728000004" lon="-121.88543042"><tag k="addr:city" v="San Jose"/><tag k="addr:housenumber" v="2417"/><tag k="addr:street" v="Jubilee Lane"/><tag k="addr:postcode" v="95131"/></node>
<node visible="true" id="-117" lat="37.401806553" lon="-121.88543450300001"><tag k="addr:city" v="San Jose"/><tag k="addr:housenumber" v="2419"/><tag k="addr:street" v="Jubilee Lane"/><tag k="addr:postcode" v="95131"/></node>
<node visible="true" id="-118" lat="37.402009417" lon="-121.88546583600001"><tag k="addr:city" v="San Jose"/><tag k="addr:housenumber" v="2433"/><tag k="addr:street" v="Jubilee Lane"/><tag k="addr:postcode" v="95131"/></node>
<node visible="true" id="-119" lat="37.402039718000005" lon="-121.88551673500001"><tag k="addr:city" v="San Jose"/><tag k="addr:housenumber" v="2435"/><tag k="addr:street" v="Jubilee Lane"/><tag k="addr:postcode" v="95131"/></node>
<node visible="true" id="-120" lat="37.402059217" lon="-121.885530904"><tag k="addr:city" v="San Jose"/><tag k="addr:housenumber" v="2437"/><tag k="addr:street" v="Jubilee Lane"/><tag k="addr:postcode" v="95131"/></node>
<node visible="true" id="-121" lat="37.402081349" lon="-121.88555944400001"><tag k="addr:city" v="San Jose"/><tag k="addr:housenumber" v="2439"/><tag k="addr:street" v="Jubilee Lane"/><tag k="addr:postcode" v="95131"/></node>
<node visible="true" id="-122" lat="37.402103443" lon="-121.88558881"><tag k="addr:city" v="San Jose"/><tag k="addr:housenumber" v="2441"/><tag k="addr:street" v="Jubilee Lane"/><tag k="addr:postcode" v="95131"/></node>
<node visible="true" id="-123" lat="37.402131334" lon="-121.885606405"><tag k="addr:city" v="San Jose"/><tag k="addr:housenumber" v="2443"/><tag k="addr:street" v="Jubilee Lane"/><tag k="addr:postcode" v="95131"/></node>
<node visible="true" id="-124" lat="37.402201834" lon="-121.885539256"><tag k="addr:city" v="San Jose"/><tag k="addr:housenumber" v="2445"/><tag k="addr:street" v="Jubilee Lane"/><tag k="addr:postcode" v="95131"/></node>
<node visible="true" id="-125" lat="37.402235165" lon="-121.88557072500001"><tag k="addr:city" v="San Jose"/><tag k="addr:housenumber" v="2447"/><tag k="addr:street" v="Jubilee Lane"/><tag k="addr:postcode" v="95131"/></node>
<node visible="true" id="-126" lat="37.402135384000005" lon="-121.88546062200001"><tag k="addr:city" v="San Jose"/><tag k="addr:housenumber" v="2449"/><tag k="addr:street" v="Jubilee Lane"/><tag k="addr:postcode" v="95131"/></node>
<node visible="true" id="-127" lat="37.402168582" lon="-121.885503451"><tag k="addr:city" v="San Jose"/><tag k="addr:housenumber" v="2451"/><tag k="addr:street" v="Jubilee Lane"/><tag k="addr:postcode" v="95131"/></node>
<node visible="true" id="-128" lat="37.402074637000005" lon="-121.88537125"><tag k="addr:city" v="San Jose"/><tag k="addr:housenumber" v="2453"/><tag k="addr:street" v="Jubilee Lane"/><tag k="addr:postcode" v="95131"/></node>
<node visible="true" id="-129" lat="37.402104985" lon="-121.885418087"><tag k="addr:city" v="San Jose"/><tag k="addr:housenumber" v="2455"/><tag k="addr:street" v="Jubilee Lane"/><tag k="addr:postcode" v="95131"/></node>
<node visible="true" id="-130" lat="37.402086898" lon="-121.885100886"><tag k="addr:city" v="San Jose"/><tag k="addr:housenumber" v="2465"/><tag k="addr:street" v="Jubilee Lane"/><tag k="addr:postcode" v="95131"/></node>
<node visible="true" id="-131" lat="37.403181673" lon="-121.884574692"><tag k="addr:city" v="San Jose"/><tag k="addr:housenumber" v="2553"/><tag k="addr:street" v="Alveswood Circle"/><tag k="addr:postcode" v="95131"/></node>
<node visible="true" id="-132" lat="37.403178964000006" lon="-121.884532706"><tag k="addr:city" v="San Jose"/><tag k="addr:housenumber" v="2555"/><tag k="addr:street" v="Alveswood Circle"/><tag k="addr:postcode" v="95131"/></node>
<node visible="true" id="-133" lat="37.403175327" lon="-121.884486139"><tag k="addr:city" v="San Jose"/><tag k="addr:housenumber" v="2557"/><tag k="addr:street" v="Alveswood Circle"/><tag k="addr:postcode" v="95131"/></node>
<node visible="true" id="-134" lat="37.402600218" lon="-121.88134363500001"><tag k="addr:city" v="San Jose"/><tag k="addr:housenumber" v="1921"/><tag k="addr:street" v="North Capitol Avenue"/><tag k="addr:postcode" v="95132"/></node>
<node visible="true" id="-136" lat="37.393275397000004" lon="-121.88231441"/>
<node visible="true" id="-137" lat="37.393313066000005" lon="-121.882369467"/>
<node visible="true" id="-138" lat="37.393344113000005" lon="-121.88233606300001"/>
<node visible="true" id="-139" lat="37.393359613" lon="-121.88235869300001"/>
<node visible="true" id="-140" lat="37.393467333000004" lon="-121.88224284500001"/>
<node visible="true" id="-141" lat="37.393422725" lon="-121.88217767600001"/>
<node visible="true" id="-142" lat="37.393452603" lon="-121.88214555900001"/>
<node visible="true" id="-143" lat="37.39340929" lon="-121.88208227400001"/>
<node visible="true" id="-144" lat="37.393359465" lon="-121.882135847"/>
<node visible="true" id="-145" lat="37.393362759000006" lon="-121.882140659"/>
<node visible="true" id="-146" lat="37.393307619000005" lon="-121.88219998800001"/>
<node visible="true" id="-147" lat="37.393339077" lon="-121.88224594500001"/>
<node visible="true" id="-149" lat="37.393010775" lon="-121.882134901"/>
<node visible="true" id="-150" lat="37.393057872" lon="-121.88215904600001"/>
<node visible="true" id="-151" lat="37.393029433" lon="-121.88224609900001"/>
<node visible="true" id="-152" lat="37.393110359000005" lon="-121.88228760000001"/>
<node visible="true" id="-153" lat="37.393157491000004" lon="-121.88214316000001"/>
<node visible="true" id="-154" lat="37.393099665" lon="-121.882113516"/>
<node visible="true" id="-155" lat="37.393103939" lon="-121.882100444"/>
<node visible="true" id="-156" lat="37.393033771" lon="-121.88206444400001"/>
<node visible="true" id="-158" lat="37.392788415000005" lon="-121.88255054400001"/>
<node visible="true" id="-159" lat="37.392820903" lon="-121.88255802900001"/>
<node visible="true" id="-160" lat="37.392819857" lon="-121.88256517100001"/>
<node visible="true" id="-161" lat="37.392875248" lon="-121.882577901"/>
<node visible="true" id="-162" lat="37.392865895" lon="-121.88264190000001"/>
<node visible="true" id="-163" lat="37.392997822000005" lon="-121.88267222700001"/>
<node visible="true" id="-164" lat="37.393009740000004" lon="-121.88259085700001"/>
<node visible="true" id="-165" lat="37.392943120000005" lon="-121.882575544"/>
<node visible="true" id="-166" lat="37.392956564" lon="-121.882483565"/>
<node visible="true" id="-167" lat="37.392886191" lon="-121.88246738900001"/>
<node visible="true" id="-168" lat="37.392895481000004" lon="-121.88240397700001"/>
<node visible="true" id="-169" lat="37.392835215000005" lon="-121.88239012400001"/>
<node visible="true" id="-170" lat="37.392829420000005" lon="-121.88242967500001"/>
<node visible="true" id="-171" lat="37.392806876" lon="-121.882424506"/>
<node visible="true" id="-173" lat="37.392199600000005" lon="-121.88236331"/>
<node visible="true" id="-174" lat="37.392247901000005" lon="-121.88237859600001"/>
<node visible="true" id="-175" lat="37.39223553" lon="-121.882440023"/>
<node visible="true" id="-176" lat="37.392242345" lon="-121.88244218000001"/>
<node visible="true" id="-177" lat="37.392234058" lon="-121.88248337200001"/>
<node visible="true" id="-178" lat="37.392275901000005" lon="-121.88249660900001"/>
<node visible="true" id="-179" lat="37.392284449" lon="-121.88245411400001"/>
<node visible="true" id="-180" lat="37.392312553000004" lon="-121.882463"/>
<node visible="true" id="-181" lat="37.39232688" lon="-121.882391763"/>
<node visible="true" id="-182" lat="37.39232023" lon="-121.882389642"/>
<node visible="true" id="-183" lat="37.392338873" lon="-121.882297037"/>
<node visible="true" id="-184" lat="37.392275029000004" lon="-121.88227685300001"/>
<node visible="true" id="-185" lat="37.392286933" lon="-121.88221772300001"/>
<node visible="true" id="-186" lat="37.392219203" lon="-121.88219629500001"/>
<node visible="true" id="-187" lat="37.39220196" lon="-121.882281938"/>
<node visible="true" id="-188" lat="37.392215151" lon="-121.88228610600001"/>
<node visible="true" id="-190" lat="37.402386629000006" lon="-121.88621993800001"/>
<node visible="true" id="-191" lat="37.402393262000004" lon="-121.88630483000001"/>
<node visible="true" id="-192" lat="37.402555116" lon="-121.886284973"/>
<node visible="true" id="-193" lat="37.402552969000006" lon="-121.88625745700001"/>
<node visible="true" id="-194" lat="37.402545404" lon="-121.886258384"/>
<node visible="true" id="-195" lat="37.402540085000005" lon="-121.886190216"/>
<node visible="true" id="-196" lat="37.402520856" lon="-121.88619257900001"/>
<node visible="true" id="-197" lat="37.402521118" lon="-121.88619602700001"/>
<node visible="true" id="-198" lat="37.402499662000004" lon="-121.886198659"/>
<node visible="true" id="-199" lat="37.402499421" lon="-121.886195865"/>
<node visible="true" id="-200" lat="37.402443168000005" lon="-121.88620277400001"/>
<node visible="true" id="-201" lat="37.402443955" lon="-121.886212877"/>
<node visible="true" id="-203" lat="37.393643351" lon="-121.88260358900001"/>
<node visible="true" id="-204" lat="37.393674993000005" lon="-121.88268521500001"/>
<node visible="true" id="-205" lat="37.39368949" lon="-121.88267639600001"/>
<node visible="true" id="-206" lat="37.393727769" lon="-121.882775186"/>
<node visible="true" id="-207" lat="37.393722235000006" lon="-121.882778525"/>
<node visible="true" id="-208" lat="37.393742842" lon="-121.88283164900001"/>
<node visible="true" id="-209" lat="37.393797013000004" lon="-121.882798639"/>
<node visible="true" id="-210" lat="37.393780458" lon="-121.882756021"/>
<node visible="true" id="-211" lat="37.393854907000005" lon="-121.88271068300001"/>
<node visible="true" id="-212" lat="37.393805965000006" lon="-121.88258446500001"/>
<node visible="true" id="-213" lat="37.393737990000005" lon="-121.88262586"/>
<node visible="true" id="-214" lat="37.393728152" lon="-121.88260051300001"/>
<node visible="true" id="-215" lat="37.393719548" lon="-121.88260575800001"/>
<node visible="true" id="-216" lat="37.393704327" lon="-121.88256647000001"/>
<node visible="true" id="-218" lat="37.393516007" lon="-121.882802006"/>
<node visible="true" id="-219" lat="37.393573089" lon="-121.88281094700001"/>
<node visible="true" id="-220" lat="37.393568947000006" lon="-121.88285235400001"/>
<node visible="true" id="-221" lat="37.393630252" lon="-121.88286195900001"/>
<node visible="true" id="-222" lat="37.393634144" lon="-121.88282302600001"/>
<node visible="true" id="-223" lat="37.393645906" lon="-121.882824861"/>
<node visible="true" id="-224" lat="37.393658364000004" lon="-121.88270012400001"/>
<node visible="true" id="-225" lat="37.393590836" lon="-121.882689544"/>
<node visible="true" id="-226" lat="37.393595912" lon="-121.88263872"/>
<node visible="true" id="-227" lat="37.393528959" lon="-121.88262825500001"/>
<node visible="true" id="-228" lat="37.393520237000004" lon="-121.882715743"/>
<node visible="true" id="-229" lat="37.393524542" lon="-121.88271640800001"/>
<node visible="true" id="-231" lat="37.392338903" lon="-121.88241343300001"/>
<node visible="true" id="-232" lat="37.392346974000006" lon="-121.88241606000001"/>
<node visible="true" id="-233" lat="37.392339839" lon="-121.882450527"/>
<node visible="true" id="-234" lat="37.392391937" lon="-121.882467499"/>
<node visible="true" id="-235" lat="37.392398898" lon="-121.88243389"/>
<node visible="true" id="-236" lat="37.392466127000006" lon="-121.88245575600001"/>
<node visible="true" id="-237" lat="37.392483428000006" lon="-121.88237224900001"/>
<node visible="true" id="-238" lat="37.392486219000006" lon="-121.882373197"/>
<node visible="true" id="-239" lat="37.392504451" lon="-121.882285162"/>
<node visible="true" id="-240" lat="37.39243889" lon="-121.88226384400001"/>
<node visible="true" id="-241" lat="37.392428637" lon="-121.882313365"/>
<node visible="true" id="-242" lat="37.392363979" lon="-121.88229233800001"/>
<node visible="true" id="-244" lat="37.391432628000004" lon="-121.882164728"/>
<node visible="true" id="-245" lat="37.391550847000005" lon="-121.88220213400001"/>
<node visible="true" id="-246" lat="37.39157652" lon="-121.88207471800001"/>
<node visible="true" id="-247" lat="37.391591434000006" lon="-121.88207943500001"/>
<node visible="true" id="-248" lat="37.391609055" lon="-121.88199201"/>
<node visible="true" id="-249" lat="37.391543377000005" lon="-121.881971241"/>
<node visible="true" id="-250" lat="37.391536201" lon="-121.882006806"/>
<node visible="true" id="-251" lat="37.391468745000005" lon="-121.881985454"/>
<node visible="true" id="-253" lat="37.391293916" lon="-121.88206446000001"/>
<node visible="true" id="-254" lat="37.391336153000005" lon="-121.88207918500001"/>
<node visible="true" id="-255" lat="37.391327218" lon="-121.882119435"/>
<node visible="true" id="-256" lat="37.391377689" lon="-121.88213703100001"/>
<node visible="true" id="-257" lat="37.391374122" lon="-121.88215304100001"/>
<node visible="true" id="-258" lat="37.391406865" lon="-121.882164457"/>
<node visible="true" id="-259" lat="37.391446172" lon="-121.881987308"/>
<node visible="true" id="-260" lat="37.391381641" lon="-121.881964839"/>
<node visible="true" id="-261" lat="37.391392288000006" lon="-121.88191677100001"/>
<node visible="true" id="-262" lat="37.391327074" lon="-121.88189401400001"/>
<node visible="true" id="-263" lat="37.391306041" lon="-121.88198884600001"/>
<node visible="true" id="-264" lat="37.391310363" lon="-121.881990371"/>
<node visible="true" id="-266" lat="37.390995107" lon="-121.88196329700001"/>
<node visible="true" id="-267" lat="37.391070714" lon="-121.88198996400001"/>
<node visible="true" id="-268" lat="37.391060886000005" lon="-121.882033777"/>
<node visible="true" id="-269" lat="37.391030112" lon="-121.882022949"/>
<node visible="true" id="-270" lat="37.391017587" lon="-121.882078831"/>
<node visible="true" id="-271" lat="37.391063624000004" lon="-121.88209503600001"/>
<node visible="true" id="-272" lat="37.391078903" lon="-121.882026847"/>
<node visible="true" id="-273" lat="37.391113014000005" lon="-121.88203883800001"/>
<node visible="true" id="-274" lat="37.391120119" lon="-121.88200705700001"/>
<node visible="true" id="-275" lat="37.391122717" lon="-121.882008001"/>
<node visible="true" id="-276" lat="37.391149707000004" lon="-121.881887668"/>
<node visible="true" id="-277" lat="37.391103068" lon="-121.88187124400001"/>
<node visible="true" id="-278" lat="37.391101069" lon="-121.881880123"/>
<node visible="true" id="-279" lat="37.39108099" lon="-121.88187303900001"/>
<node visible="true" id="-280" lat="37.391092470000004" lon="-121.88182188900001"/>
<node visible="true" id="-281" lat="37.391025972" lon="-121.881798453"/>
<node visible="true" id="-282" lat="37.391007651" lon="-121.88188014900001"/>
<node visible="true" id="-283" lat="37.39101334" lon="-121.881882148"/>
<node visible="true" id="-285" lat="37.402556191" lon="-121.88548024400001"/>
<node visible="true" id="-286" lat="37.40256076" lon="-121.88553521200001"/>
<node visible="true" id="-287" lat="37.402720813" lon="-121.885514357"/>
<node visible="true" id="-288" lat="37.402719298" lon="-121.885496149"/>
<node visible="true" id="-289" lat="37.402725955" lon="-121.885495309"/>
<node visible="true" id="-290" lat="37.402721483" lon="-121.885441376"/>
<node visible="true" id="-291" lat="37.40271887" lon="-121.88544170600001"/>
<node visible="true" id="-292" lat="37.402717788000004" lon="-121.88542867100001"/>
<node visible="true" id="-293" lat="37.402656633" lon="-121.88543666000001"/>
<node visible="true" id="-294" lat="37.402655886000005" lon="-121.88542779800001"/>
<node visible="true" id="-295" lat="37.402558803000005" lon="-121.885440457"/>
<node visible="true" id="-296" lat="37.40256205" lon="-121.885479493"/>
<node visible="true" id="-298" lat="37.393804292000006" lon="-121.88288952200001"/>
<node visible="true" id="-299" lat="37.393837077" lon="-121.88291608700001"/>
<node visible="true" id="-300" lat="37.393832551" lon="-121.88292488500001"/>
<node visible="true" id="-301" lat="37.393900433" lon="-121.88297991700001"/>
<node visible="true" id="-302" lat="37.393975824" lon="-121.882833864"/>
<node visible="true" id="-303" lat="37.393935229" lon="-121.882800958"/>
<node visible="true" id="-304" lat="37.393958534" lon="-121.882755774"/>
<node visible="true" id="-305" lat="37.393888827000005" lon="-121.882699297"/>
<node visible="true" id="-306" lat="37.39385369" lon="-121.882767396"/>
<node visible="true" id="-307" lat="37.393863294" lon="-121.882775182"/>
<node visible="true" id="-309" lat="37.393253431000005" lon="-121.882446614"/>
<node visible="true" id="-310" lat="37.393265507" lon="-121.882596523"/>
<node visible="true" id="-311" lat="37.393346438" lon="-121.88258628300001"/>
<node visible="true" id="-312" lat="37.393339538" lon="-121.88250057100001"/>
<node visible="true" id="-313" lat="37.393390703" lon="-121.88249411700001"/>
<node visible="true" id="-314" lat="37.393384065" lon="-121.88241181800001"/>
<node visible="true" id="-315" lat="37.393315541" lon="-121.882420498"/>
<node visible="true" id="-316" lat="37.393316976" lon="-121.88243856400001"/>
<node visible="true" id="-318" lat="37.392978349" lon="-121.88232485"/>
<node visible="true" id="-319" lat="37.393015826" lon="-121.882344857"/>
<node visible="true" id="-320" lat="37.392987201000004" lon="-121.88242908400001"/>
<node visible="true" id="-321" lat="37.393096986" lon="-121.882487646"/>
<node visible="true" id="-322" lat="37.393119181" lon="-121.88242226800001"/>
<node visible="true" id="-323" lat="37.393095461" lon="-121.88240960700001"/>
<node visible="true" id="-324" lat="37.393124228000005" lon="-121.88232493500001"/>
<node visible="true" id="-325" lat="37.393048591" lon="-121.88228459800001"/>
<node visible="true" id="-326" lat="37.393047823" lon="-121.88228685600001"/>
<node visible="true" id="-327" lat="37.392999918" lon="-121.88226131900001"/>
<node visible="true" id="-329" lat="37.392498581000005" lon="-121.882463896"/>
<node visible="true" id="-330" lat="37.392545922000004" lon="-121.88247902600001"/>
<node visible="true" id="-331" lat="37.392532916" lon="-121.88254309300001"/>
<node visible="true" id="-332" lat="37.392607977000004" lon="-121.88256706600001"/>
<node visible="true" id="-333" lat="37.392622761000005" lon="-121.88249432200001"/>
<node visible="true" id="-334" lat="37.39261882" lon="-121.88249307800001"/>
<node visible="true" id="-335" lat="37.392636432" lon="-121.88240644400001"/>
<node visible="true" id="-336" lat="37.392637718" lon="-121.88240684700001"/>
<node visible="true" id="-337" lat="37.392650693" lon="-121.88234302000001"/>
<node visible="true" id="-338" lat="37.392612794" lon="-121.88233092300001"/>
<node visible="true" id="-339" lat="37.392610694000005" lon="-121.88234128200001"/>
<node visible="true" id="-340" lat="37.39259671" lon="-121.882336823"/>
<node visible="true" id="-341" lat="37.392587934000005" lon="-121.88237996800001"/>
<node visible="true" id="-342" lat="37.392565714" lon="-121.88237287700001"/>
<node visible="true" id="-343" lat="37.392577142" lon="-121.88231673300001"/>
<node visible="true" id="-344" lat="37.392524713" lon="-121.882299961"/>
<node visible="true" id="-345" lat="37.392508471" lon="-121.882379908"/>
<node visible="true" id="-346" lat="37.39251523" lon="-121.882382065"/>
<node visible="true" id="-348" lat="37.391136245000006" lon="-121.88205111"/>
<node visible="true" id="-349" lat="37.391193693000005" lon="-121.88207100500001"/>
<node visible="true" id="-350" lat="37.39120234" lon="-121.882031748"/>
<node visible="true" id="-351" lat="37.391260007" lon="-121.882051715"/>
<node visible="true" id="-352" lat="37.391278841" lon="-121.881966172"/>
<node visible="true" id="-353" lat="37.391289784" lon="-121.881969955"/>
<node visible="true" id="-354" lat="37.391306209" lon="-121.88189538300001"/>
<node visible="true" id="-355" lat="37.391250785000004" lon="-121.881876215"/>
<node visible="true" id="-356" lat="37.391238074" lon="-121.88193395200001"/>
<node visible="true" id="-357" lat="37.391167413000005" lon="-121.881909511"/>
<node visible="true" id="-359" lat="37.402341468" lon="-121.88565306100001"/>
<node visible="true" id="-360" lat="37.402348094000004" lon="-121.88573853700001"/>
<node visible="true" id="-361" lat="37.402509176" lon="-121.88571890600001"/>
<node visible="true" id="-362" lat="37.402505887000004" lon="-121.885676427"/>
<node visible="true" id="-363" lat="37.402498598" lon="-121.88567732400001"/>
<node visible="true" id="-364" lat="37.402494615" lon="-121.88562612000001"/>
<node visible="true" id="-365" lat="37.402474068000004" lon="-121.885628631"/>
<node visible="true" id="-366" lat="37.402474184" lon="-121.88563042400001"/>
<node visible="true" id="-367" lat="37.402440681" lon="-121.88563448500001"/>
<node visible="true" id="-368" lat="37.402440536" lon="-121.885632727"/>
<node visible="true" id="-369" lat="37.402399661000004" lon="-121.88563771700001"/>
<node visible="true" id="-370" lat="37.402400305" lon="-121.885645889"/>
<node visible="true" id="-372" lat="37.402148155" lon="-121.886108362"/>
<node visible="true" id="-373" lat="37.402167925" lon="-121.88613913200001"/>
<node visible="true" id="-374" lat="37.402162587" lon="-121.88614454"/>
<node visible="true" id="-375" lat="37.402190099" lon="-121.886187332"/>
<node visible="true" id="-376" lat="37.40231553" lon="-121.886060685"/>
<node visible="true" id="-377" lat="37.402299967000005" lon="-121.88603646700001"/>
<node visible="true" id="-378" lat="37.402302941" lon="-121.88603345700001"/>
<node visible="true" id="-379" lat="37.402280258000005" lon="-121.885998158"/>
<node visible="true" id="-380" lat="37.402277644" lon="-121.88600083000001"/>
<node visible="true" id="-381" lat="37.402273302000005" lon="-121.88599407000001"/>
<node visible="true" id="-382" lat="37.402227906" lon="-121.88603991500001"/>
<node visible="true" id="-383" lat="37.402222996" lon="-121.886032283"/>
<node visible="true" id="-384" lat="37.402189388000004" lon="-121.886066193"/>
<node visible="true" id="-385" lat="37.40219141" lon="-121.88606936400001"/>
<node visible="true" id="-386" lat="37.402165501" lon="-121.88609553100001"/>
<node visible="true" id="-387" lat="37.402163695000006" lon="-121.88609270900001"/>
<node visible="true" id="-389" lat="37.402090419000004" lon="-121.886019906"/>
<node visible="true" id="-390" lat="37.402110379" lon="-121.886050885"/>
<node visible="true" id="-391" lat="37.402104986000005" lon="-121.886056327"/>
<node visible="true" id="-392" lat="37.402132876" lon="-121.88609960900001"/>
<node visible="true" id="-393" lat="37.402257588000005" lon="-121.88597339500001"/>
<node visible="true" id="-394" lat="37.402248309" lon="-121.88595896800001"/>
<node visible="true" id="-395" lat="37.402250922" lon="-121.885956332"/>
<node visible="true" id="-396" lat="37.402217125" lon="-121.88590381700001"/>
<node visible="true" id="-397" lat="37.402170227" lon="-121.88595128700001"/>
<node visible="true" id="-398" lat="37.402165534000005" lon="-121.88594396900001"/>
<node visible="true" id="-399" lat="37.402132285" lon="-121.88597761000001"/>
<node visible="true" id="-400" lat="37.402133796" lon="-121.88597998"/>
<node visible="true" id="-401" lat="37.402106301" lon="-121.88600780600001"/>
<node visible="true" id="-402" lat="37.402104764" lon="-121.88600540200001"/>
<node visible="true" id="-404" lat="37.394128174" lon="-121.883007305"/>
<node visible="true" id="-405" lat="37.394205882" lon="-121.88303280800001"/>
<node visible="true" id="-406" lat="37.394194384" lon="-121.88308771300001"/>
<node visible="true" id="-407" lat="37.394242322000004" lon="-121.883103473"/>
<node visible="true" id="-408" lat="37.394253907" lon="-121.88304805400001"/>
<node visible="true" id="-409" lat="37.394255851000004" lon="-121.883048676"/>
<node visible="true" id="-410" lat="37.39428068" lon="-121.88292998400001"/>
<node visible="true" id="-411" lat="37.394237175" lon="-121.88291568300001"/>
<node visible="true" id="-412" lat="37.394235516" lon="-121.882923605"/>
<node visible="true" id="-413" lat="37.394213352" lon="-121.88291634400001"/>
<node visible="true" id="-414" lat="37.394224879" lon="-121.88286123300001"/>
<node visible="true" id="-415" lat="37.39416069" lon="-121.882840145"/>
<node visible="true" id="-416" lat="37.394143515" lon="-121.88292227900001"/>
<node visible="true" id="-417" lat="37.394145786" lon="-121.88292301000001"/>
<node visible="true" id="-419" lat="37.393072357" lon="-121.88193447600001"/>
<node visible="true" id="-420" lat="37.39310771" lon="-121.88198793900001"/>
<node visible="true" id="-421" lat="37.393140078" lon="-121.881954284"/>
<node visible="true" id="-422" lat="37.393175647" lon="-121.882008029"/>
<node visible="true" id="-423" lat="37.393280234" lon="-121.881899352"/>
<node visible="true" id="-424" lat="37.393239645" lon="-121.88183801100001"/>
<node visible="true" id="-425" lat="37.393206109000005" lon="-121.88187284800001"/>
<node visible="true" id="-426" lat="37.393163065" lon="-121.88180774300001"/>
<node visible="true" id="-427" lat="37.393090624" lon="-121.881883001"/>
<node visible="true" id="-428" lat="37.393103363" lon="-121.881902241"/>
<node visible="true" id="-430" lat="37.392019679" lon="-121.882403632"/>
<node visible="true" id="-431" lat="37.392065661000004" lon="-121.88241983700001"/>
<node visible="true" id="-432" lat="37.392074097000005" lon="-121.88238226200001"/>
<node visible="true" id="-433" lat="37.392068545" lon="-121.88238030100001"/>
<node visible="true" id="-434" lat="37.392071821" lon="-121.88236569600001"/>
<node visible="true" id="-435" lat="37.392085169000005" lon="-121.88237038400001"/>
<node visible="true" id="-436" lat="37.392094129" lon="-121.882330374"/>
<node visible="true" id="-437" lat="37.392166863" lon="-121.882355992"/>
<node visible="true" id="-438" lat="37.392186199" lon="-121.88226983700001"/>
<node visible="true" id="-439" lat="37.392189168" lon="-121.882269617"/>
<node visible="true" id="-440" lat="37.392204847" lon="-121.88218845600001"/>
<node visible="true" id="-441" lat="37.392140510000004" lon="-121.882165817"/>
<node visible="true" id="-442" lat="37.392129232" lon="-121.882216146"/>
<node visible="true" id="-443" lat="37.392067083" lon="-121.882194271"/>
<node visible="true" id="-444" lat="37.39203157" lon="-121.88235266100001"/>
<node visible="true" id="-445" lat="37.392059143000004" lon="-121.88236236200001"/>
<node visible="true" id="-446" lat="37.392055838000005" lon="-121.88237703600001"/>
<node visible="true" id="-447" lat="37.392027855" lon="-121.882367188"/>
<node visible="true" id="-449" lat="37.391891025" lon="-121.88226344300001"/>
<node visible="true" id="-450" lat="37.392017644" lon="-121.88230599600001"/>
<node visible="true" id="-451" lat="37.392043079000004" lon="-121.88218714800001"/>
<node visible="true" id="-452" lat="37.391976322000005" lon="-121.88216467100001"/>
<node visible="true" id="-453" lat="37.391987049" lon="-121.88211447100001"/>
<node visible="true" id="-454" lat="37.391922673" lon="-121.88209283100001"/>
<node visible="true" id="-455" lat="37.391904591" lon="-121.882177424"/>
<node visible="true" id="-456" lat="37.391909133000006" lon="-121.88217895300001"/>
<node visible="true" id="-458" lat="37.402034498" lon="-121.88593131100001"/>
<node visible="true" id="-459" lat="37.402053620000004" lon="-121.885961241"/>
<node visible="true" id="-460" lat="37.402047254" lon="-121.88596763100001"/>
<node visible="true" id="-461" lat="37.402075031" lon="-121.88601115"/>
<node visible="true" id="-462" lat="37.402200673" lon="-121.88588519400001"/>
<node visible="true" id="-463" lat="37.402183979" lon="-121.885859061"/>
<node visible="true" id="-464" lat="37.402186565" lon="-121.885856493"/>
<node visible="true" id="-465" lat="37.402160647" lon="-121.885815901"/>
<node visible="true" id="-466" lat="37.402112865" lon="-121.88586380100001"/>
<node visible="true" id="-467" lat="37.402107876" lon="-121.88585596200001"/>
<node visible="true" id="-468" lat="37.402076076" lon="-121.88588784000001"/>
<node visible="true" id="-469" lat="37.402077721000005" lon="-121.885890418"/>
<node visible="true" id="-470" lat="37.402062961000006" lon="-121.88590522400001"/>
<node visible="true" id="-471" lat="37.402062017000006" lon="-121.88590376100001"/>
<node visible="true" id="-474" lat="37.397230167000004" lon="-121.87987595800001"/>
<node visible="true" id="-475" lat="37.397309528" lon="-121.880001469"/>
<node visible="true" id="-476" lat="37.397354765" lon="-121.880008606"/>
<node visible="true" id="-477" lat="37.397348049" lon="-121.88005888500001"/>
<node visible="true" id="-478" lat="37.397272258" lon="-121.880134225"/>
<node visible="true" id="-479" lat="37.397361111" lon="-121.880274681"/>
<node visible="true" id="-480" lat="37.397353273" lon="-121.88028249000001"/>
<node visible="true" id="-481" lat="37.397355108" lon="-121.88028538100001"/>
<node visible="true" id="-482" lat="37.397358997000005" lon="-121.880281529"/>
<node visible="true" id="-483" lat="37.397364606000004" lon="-121.880290411"/>
<node visible="true" id="-484" lat="37.397351433000004" lon="-121.88030349200001"/>
<node visible="true" id="-485" lat="37.397353644" lon="-121.88030697500001"/>
<node visible="true" id="-486" lat="37.397366457000004" lon="-121.880294233"/>
<node visible="true" id="-487" lat="37.397371581" lon="-121.880302314"/>
<node visible="true" id="-488" lat="37.397366494" lon="-121.88030738500001"/>
<node visible="true" id="-489" lat="37.397368436" lon="-121.88031045000001"/>
<node visible="true" id="-490" lat="37.397377052" lon="-121.880301864"/>
<node visible="true" id="-491" lat="37.397466369" lon="-121.88044253800001"/>
<node visible="true" id="-492" lat="37.397566264000005" lon="-121.880344887"/>
<node visible="true" id="-493" lat="37.397572756" lon="-121.880285755"/>
<node visible="true" id="-494" lat="37.397613271000004" lon="-121.880292737"/>
<node visible="true" id="-495" lat="37.397789031" lon="-121.88057557900001"/>
<node visible="true" id="-496" lat="37.397793342" lon="-121.88055001100001"/>
<node visible="true" id="-497" lat="37.397810237" lon="-121.880554454"/>
<node visible="true" id="-498" lat="37.397808170000005" lon="-121.88056667100001"/>
<node visible="true" id="-499" lat="37.397811162" lon="-121.88056696800001"/>
<node visible="true" id="-500" lat="37.397822077" lon="-121.88043765"/>
<node visible="true" id="-501" lat="37.397831423" lon="-121.88042773500001"/>
<node visible="true" id="-502" lat="37.397838113" lon="-121.88043818700001"/>
<node visible="true" id="-503" lat="37.397917672000005" lon="-121.88035999"/>
<node visible="true" id="-504" lat="37.397910788000004" lon="-121.88034981000001"/>
<node visible="true" id="-505" lat="37.397919771000005" lon="-121.88034030300001"/>
<node visible="true" id="-506" lat="37.398021107000005" lon="-121.880356051"/>
<node visible="true" id="-507" lat="37.398021545" lon="-121.88035154800001"/>
<node visible="true" id="-508" lat="37.398013401" lon="-121.88035026300001"/>
<node visible="true" id="-509" lat="37.398015491" lon="-121.88032909200001"/>
<node visible="true" id="-510" lat="37.398036986" lon="-121.880332416"/>
<node visible="true" id="-511" lat="37.397858760000005" lon="-121.88005135200001"/>
<node visible="true" id="-512" lat="37.397794413" lon="-121.880041246"/>
<node visible="true" id="-513" lat="37.397802196" lon="-121.87996334"/>
<node visible="true" id="-514" lat="37.397878664000004" lon="-121.87988877000001"/>
<node visible="true" id="-515" lat="37.397789518" lon="-121.879745208"/>
<node visible="true" id="-516" lat="37.397792073000005" lon="-121.87974270800001"/>
<node visible="true" id="-517" lat="37.397785739" lon="-121.87973250300001"/>
<node visible="true" id="-518" lat="37.397801522" lon="-121.879717095"/>
<node visible="true" id="-519" lat="37.397799608" lon="-121.879714031"/>
<node visible="true" id="-520" lat="37.39778402" lon="-121.87972923500001"/>
<node visible="true" id="-521" lat="37.397777847" lon="-121.87971927500001"/>
<node visible="true" id="-522" lat="37.39777379" lon="-121.879723228"/>
<node visible="true" id="-523" lat="37.397684644" lon="-121.87957966600001"/>
<node visible="true" id="-524" lat="37.397583639000004" lon="-121.879678193"/>
<node visible="true" id="-525" lat="37.397578184000004" lon="-121.87973328000001"/>
<node visible="true" id="-526" lat="37.397538183" lon="-121.879727067"/>
<node visible="true" id="-527" lat="37.397477297" lon="-121.879630473"/>
<node visible="true" id="-528" lat="37.397364266000004" lon="-121.87974272000001"/>
<node visible="true" id="-529" lat="37.397357255" lon="-121.87973160800001"/>
<node visible="true" id="-530" lat="37.397354336" lon="-121.87973451500001"/>
<node visible="true" id="-531" lat="37.397358463" lon="-121.879741029"/>
<node visible="true" id="-532" lat="37.397353015" lon="-121.87974643700001"/>
<node visible="true" id="-533" lat="37.397343685" lon="-121.879731702"/>
<node visible="true" id="-534" lat="37.3973401" lon="-121.87973525000001"/>
<node visible="true" id="-535" lat="37.3973497" lon="-121.879750404"/>
<node visible="true" id="-536" lat="37.397343253" lon="-121.87975679200001"/>
<node visible="true" id="-537" lat="37.397338722" lon="-121.87974965000001"/>
<node visible="true" id="-538" lat="37.397336304" lon="-121.87975201600001"/>
<node visible="true" id="-539" lat="37.397343505" lon="-121.879763373"/>
<node visible="true" id="-541" lat="37.39758891" lon="-121.879886376"/>
<node visible="true" id="-542" lat="37.397593928" lon="-121.879833277"/>
<node visible="true" id="-543" lat="37.397668565000004" lon="-121.87984436500001"/>
<node visible="true" id="-544" lat="37.397659686000004" lon="-121.87993832800001"/>
<node visible="true" id="-545" lat="37.397617268000005" lon="-121.87993203600001"/>
<node visible="true" id="-546" lat="37.397621127" lon="-121.87989117100001"/>
<node visible="true" id="-548" lat="37.397480894000005" lon="-121.880179291"/>
<node visible="true" id="-549" lat="37.397489291" lon="-121.880086559"/>
<node visible="true" id="-550" lat="37.397532864000006" lon="-121.88009277100001"/>
<node visible="true" id="-551" lat="37.397529393" lon="-121.88013102500001"/>
<node visible="true" id="-552" lat="37.397560818" lon="-121.88013549600001"/>
<node visible="true" id="-553" lat="37.397555864000005" lon="-121.880189939"/>
<node visible="true" id="-555" lat="37.397432084" lon="-121.87998786400001"/>
<node visible="true" id="-556" lat="37.39744198" lon="-121.87989147500001"/>
<node visible="true" id="-557" lat="37.397517483" lon="-121.879903646"/>
<node visible="true" id="-558" lat="37.397511961" lon="-121.879957321"/>
<node visible="true" id="-559" lat="37.397479638" lon="-121.87995211100001"/>
<node visible="true" id="-560" lat="37.397475263000004" lon="-121.87999482400001"/>
<node visible="true" id="-562" lat="37.392636897" lon="-121.88251138400001"/>
<node visible="true" id="-563" lat="37.392763594" lon="-121.88255431700001"/>
<node visible="true" id="-564" lat="37.392789511000004" lon="-121.882434203"/>
<node visible="true" id="-565" lat="37.392723632" lon="-121.88241188"/>
<node visible="true" id="-566" lat="37.392734034" lon="-121.882363635"/>
<node visible="true" id="-567" lat="37.392668074" lon="-121.88234127700001"/>
<node visible="true" id="-568" lat="37.392650119" lon="-121.88242439300001"/>
<node visible="true" id="-569" lat="37.39265529" lon="-121.88242614100001"/>
<node visible="true" id="-571" lat="37.391592043" lon="-121.88216526900001"/>
<node visible="true" id="-572" lat="37.391719336" lon="-121.88220649200001"/>
<node visible="true" id="-573" lat="37.391744011" lon="-121.882086907"/>
<node visible="true" id="-574" lat="37.391678066000004" lon="-121.88206554700001"/>
<node visible="true" id="-575" lat="37.391688436" lon="-121.882015339"/>
<node visible="true" id="-576" lat="37.391624543" lon="-121.88199463800001"/>
<node visible="true" id="-577" lat="37.391607005000004" lon="-121.882079688"/>
<node visible="true" id="-578" lat="37.391609523" lon="-121.88208049200001"/>
<node visible="true" id="-580" lat="37.39396884" lon="-121.88301154800001"/>
<node visible="true" id="-581" lat="37.394038457" lon="-121.88303363200001"/>
<node visible="true" id="-582" lat="37.394039974" lon="-121.88302612100001"/>
<node visible="true" id="-583" lat="37.394048868000006" lon="-121.883028902"/>
<node visible="true" id="-584" lat="37.394046184000004" lon="-121.883042106"/>
<node visible="true" id="-585" lat="37.394035238" lon="-121.88303866700001"/>
<node visible="true" id="-586" lat="37.394027392000005" lon="-121.883077563"/>
<node visible="true" id="-587" lat="37.394080453" lon="-121.883094381"/>
<node visible="true" id="-588" lat="37.394088884000006" lon="-121.88305253700001"/>
<node visible="true" id="-589" lat="37.394062121000005" lon="-121.88304405500001"/>
<node visible="true" id="-590" lat="37.394064163" lon="-121.883033901"/>
<node visible="true" id="-591" lat="37.394091693" lon="-121.88304260500001"/>
<node visible="true" id="-592" lat="37.394100328" lon="-121.88299976600001"/>
<node visible="true" id="-593" lat="37.394107252000005" lon="-121.88300196"/>
<node visible="true" id="-594" lat="37.394124435" lon="-121.88291676200001"/>
<node visible="true" id="-595" lat="37.394127993000005" lon="-121.882917895"/>
<node visible="true" id="-596" lat="37.394144884" lon="-121.882834138"/>
<node visible="true" id="-597" lat="37.394078523000005" lon="-121.88281314700001"/>
<node visible="true" id="-598" lat="37.394068924" lon="-121.882860824"/>
<node visible="true" id="-599" lat="37.394003328000004" lon="-121.88284005400001"/>
<node visible="true" id="-600" lat="37.393995452000006" lon="-121.88287911900001"/>
<node visible="true" id="-601" lat="37.394003196" lon="-121.88288157000001"/>
<node visible="true" id="-602" lat="37.394001066" lon="-121.882892099"/>
<node visible="true" id="-603" lat="37.393996113" lon="-121.882890527"/>
<node visible="true" id="-604" lat="37.393982752" lon="-121.88295682600001"/>
<node visible="true" id="-605" lat="37.393980043" lon="-121.88295595000001"/>
<node visible="true" id="-607" lat="37.391742817" lon="-121.882209164"/>
<node visible="true" id="-608" lat="37.391753427000005" lon="-121.882213182"/>
<node visible="true" id="-609" lat="37.391745686" lon="-121.88224543300001"/>
<node visible="true" id="-610" lat="37.391795565" lon="-121.882264257"/>
<node visible="true" id="-611" lat="37.391804492000006" lon="-121.88222696800001"/>
<node visible="true" id="-612" lat="37.391858856" lon="-121.88224745900001"/>
<node visible="true" id="-613" lat="37.391876391000004" lon="-121.88217438800001"/>
<node visible="true" id="-614" lat="37.391888259000005" lon="-121.882178843"/>
<node visible="true" id="-615" lat="37.391908306000005" lon="-121.88209531800001"/>
<node visible="true" id="-616" lat="37.391843823" lon="-121.882071025"/>
<node visible="true" id="-617" lat="37.391830652" lon="-121.882125931"/>
<node visible="true" id="-618" lat="37.391768410000005" lon="-121.882102505"/>
<node visible="true" id="-620" lat="37.393336633000004" lon="-121.882774929"/>
<node visible="true" id="-621" lat="37.393388829" lon="-121.882792937"/>
<node visible="true" id="-622" lat="37.393395417" lon="-121.88276293700001"/>
<node visible="true" id="-623" lat="37.393467693000005" lon="-121.88278789200001"/>
<node visible="true" id="-624" lat="37.393486880000005" lon="-121.88270042500001"/>
<node visible="true" id="-625" lat="37.393489342" lon="-121.882701298"/>
<node visible="true" id="-626" lat="37.39350754" lon="-121.88261846"/>
<node visible="true" id="-627" lat="37.393441229000004" lon="-121.88259557800001"/>
<node visible="true" id="-628" lat="37.393429967" lon="-121.882646906"/>
<node visible="true" id="-629" lat="37.393364858000005" lon="-121.88262445800001"/>
<node visible="true" id="-630" lat="37.393355859" lon="-121.882665465"/>
<node visible="true" id="-631" lat="37.393357911" lon="-121.882666157"/>
<node visible="true" id="-632" lat="37.393341135" lon="-121.88274258400001"/>
<node visible="true" id="-633" lat="37.39334357" lon="-121.882743421"/>
<node visible="true" id="-635" lat="37.393209510000005" lon="-121.882050413"/>
<node visible="true" id="-636" lat="37.393255901" lon="-121.88211809500001"/>
<node visible="true" id="-637" lat="37.393234146000005" lon="-121.88214148"/>
<node visible="true" id="-638" lat="37.393265227" lon="-121.882186845"/>
<node visible="true" id="-639" lat="37.393353084000005" lon="-121.88209228400001"/>
<node visible="true" id="-640" lat="37.393309608" lon="-121.88202885700001"/>
<node visible="true" id="-641" lat="37.393344773" lon="-121.88199101900001"/>
<node visible="true" id="-642" lat="37.393299975000005" lon="-121.88192564"/>
<node visible="true" id="-643" lat="37.393247061000004" lon="-121.8819826"/>
<node visible="true" id="-644" lat="37.393257862000006" lon="-121.881998361"/>
<node visible="true" id="-646" lat="37.402631039" lon="-121.886384683"/>
<node visible="true" id="-647" lat="37.402635236" lon="-121.886438576"/>
<node visible="true" id="-648" lat="37.402797008" lon="-121.886418753"/>
<node visible="true" id="-649" lat="37.402794381" lon="-121.88638534"/>
<node visible="true" id="-650" lat="37.402797517" lon="-121.88638495100001"/>
<node visible="true" id="-651" lat="37.40279401" lon="-121.886340023"/>
<node visible="true" id="-652" lat="37.402791644000004" lon="-121.88634032300001"/>
<node visible="true" id="-653" lat="37.402791094" lon="-121.88633342600001"/>
<node visible="true" id="-654" lat="37.402728789" lon="-121.886341083"/>
<node visible="true" id="-655" lat="37.402728168" lon="-121.886333257"/>
<node visible="true" id="-656" lat="37.402685971000004" lon="-121.88633843000001"/>
<node visible="true" id="-657" lat="37.402686135" lon="-121.88634080800001"/>
<node visible="true" id="-658" lat="37.402660719000004" lon="-121.886343917"/>
<node visible="true" id="-659" lat="37.402660504" lon="-121.886341193"/>
<node visible="true" id="-660" lat="37.402633189" lon="-121.886344542"/>
<node visible="true" id="-661" lat="37.402636266" lon="-121.886384022"/>
<way visible="true" id="-1"><nd ref="-2"/><nd ref="-3"/><nd ref="-4"/><nd ref="-5"/><nd ref="-6"/><nd ref="-7"/><nd ref="-8"/><nd ref="-9"/><nd ref="-2"/><tag k="building" v="yes"/><tag k="height" v="6.04"/><tag k="ele" v="24.28"/></way>
<way visible="true" id="-10"><nd ref="-11"/><nd ref="-12"/><nd ref="-13"/><nd ref="-14"/><nd ref="-15"/><nd ref="-16"/><nd ref="-17"/><nd ref="-18"/><nd ref="-19"/><nd ref="-20"/><nd ref="-21"/><nd ref="-22"/><nd ref="-23"/><nd ref="-24"/><nd ref="-25"/><nd ref="-26"/><nd ref="-27"/><nd ref="-28"/><nd ref="-29"/><nd ref="-30"/><nd ref="-31"/><nd ref="-32"/><nd ref="-33"/><nd ref="-34"/><nd ref="-35"/><nd ref="-36"/><nd ref="-37"/><nd ref="-38"/><nd ref="-39"/><nd ref="-40"/><nd ref="-41"/><nd ref="-42"/><nd ref="-43"/><nd ref="-44"/><nd ref="-45"/><nd ref="-46"/><nd ref="-11"/><tag k="building" v="yes"/><tag k="height" v="8.84"/><tag k="ele" v="29.69"/></way>
<way visible="true" id="-47"><nd ref="-48"/><nd ref="-49"/><nd ref="-50"/><nd ref="-51"/><nd ref="-52"/><nd ref="-53"/><nd ref="-54"/><nd ref="-55"/><nd ref="-56"/><nd ref="-57"/><nd ref="-58"/><nd ref="-59"/><nd ref="-60"/><nd ref="-61"/><nd ref="-62"/><nd ref="-63"/><nd ref="-64"/><nd ref="-65"/><nd ref="-66"/><nd ref="-67"/><nd ref="-68"/><nd ref="-69"/><nd ref="-70"/><nd ref="-71"/><nd ref="-72"/><nd ref="-73"/><nd ref="-74"/><nd ref="-75"/><nd ref="-76"/><nd ref="-77"/><nd ref="-78"/><nd ref="-79"/><nd ref="-80"/><nd ref="-81"/><nd ref="-82"/><nd ref="-83"/><nd ref="-84"/><nd ref="-85"/><nd ref="-86"/><nd ref="-87"/><nd ref="-88"/><nd ref="-89"/><nd ref="-90"/><nd ref="-91"/><nd ref="-92"/><nd ref="-93"/><nd ref="-94"/><nd ref="-95"/><nd ref="-48"/><tag k="building" v="yes"/><tag k="height" v="3.40"/><tag k="ele" v="28.25"/></way>
<way visible="true" id="-135"><nd ref="-136"/><nd ref="-137"/><nd ref="-138"/><nd ref="-139"/><nd ref="-140"/><nd ref="-141"/><nd ref="-142"/><nd ref="-143"/><nd ref="-144"/><nd ref="-145"/><nd ref="-146"/><nd ref="-147"/><nd ref="-136"/><tag k="building" v="yes"/><tag k="height" v="3.86"/><tag k="ele" v="28.76"/><tag k="addr:city" v="San Jose"/><tag k="addr:housenumber" v="1755"/><tag k="addr:street" v="Flickinger Avenue"/><tag k="addr:postcode" v="95131"/></way>
<way visible="true" id="-148"><nd ref="-149"/><nd ref="-150"/><nd ref="-151"/><nd ref="-152"/><nd ref="-153"/><nd ref="-154"/><nd ref="-155"/><nd ref="-156"/><nd ref="-149"/><tag k="building" v="yes"/><tag k="height" v="3.72"/><tag k="ele" v="29.06"/><tag k="addr:city" v="San Jose"/><tag k="addr:housenumber" v="1743"/><tag k="addr:street" v="Silvertree Drive"/><tag k="addr:postcode" v="95131"/></way>
<way visible="true" id="-157"><nd ref="-158"/><nd ref="-159"/><nd ref="-160"/><nd ref="-161"/><nd ref="-162"/><nd ref="-163"/><nd ref="-164"/><nd ref="-165"/><nd ref="-166"/><nd ref="-167"/><nd ref="-168"/><nd ref="-169"/><nd ref="-170"/><nd ref="-171"/><nd ref="-158"/><tag k="building" v="yes"/><tag k="height" v="3.43"/><tag k="ele" v="28.96"/><tag k="addr:city" v="San Jose"/><tag k="addr:housenumber" v="1739"/><tag k="addr:street" v="Silvertree Drive"/><tag k="addr:postcode" v="95131"/></way>
<way visible="true" id="-172"><nd ref="-173"/><nd ref="-174"/><nd ref="-175"/><nd ref="-176"/><nd ref="-177"/><nd ref="-178"/><nd ref="-179"/><nd ref="-180"/><nd ref="-181"/><nd ref="-182"/><nd ref="-183"/><nd ref="-184"/><nd ref="-185"/><nd ref="-186"/><nd ref="-187"/><nd ref="-188"/><nd ref="-173"/><tag k="building" v="yes"/><tag k="height" v="3.20"/><tag k="ele" v="29.26"/><tag k="addr:city" v="San Jose"/><tag k="addr:housenumber" v="1727"/><tag k="addr:street" v="Silvertree Drive"/><tag k="addr:postcode" v="95131"/></way>
<way visible="true" id="-189"><nd ref="-190"/><nd ref="-191"/><nd ref="-192"/><nd ref="-193"/><nd ref="-194"/><nd ref="-195"/><nd ref="-196"/><nd ref="-197"/><nd ref="-198"/><nd ref="-199"/><nd ref="-200"/><nd ref="-201"/><nd ref="-190"/><tag k="building" v="yes"/><tag k="height" v="8.04"/><tag k="ele" v="27.31"/><tag k="addr:city" v="San Jose"/><tag k="addr:housenumber" v="1930"/><tag k="addr:street" v="Moriset Way"/><tag k="addr:postcode" v="95131"/></way>
<way visible="true" id="-202"><nd ref="-203"/><nd ref="-204"/><nd ref="-205"/><nd ref="-206"/><nd ref="-207"/><nd ref="-208"/><nd ref="-209"/><nd ref="-210"/><nd ref="-211"/><nd ref="-212"/><nd ref="-213"/><nd ref="-214"/><nd ref="-215"/><nd ref="-216"/><nd ref="-203"/><tag k="building" v="yes"/><tag k="height" v="3.88"/><tag k="ele" v="28.76"/><tag k="addr:city" v="San Jose"/><tag k="addr:housenumber" v="1767"/><tag k="addr:street" v="Flickinger Avenue"/><tag k="addr:postcode" v="95131"/></way>
<way visible="true" id="-217"><nd ref="-218"/><nd ref="-219"/><nd ref="-220"/><nd ref="-221"/><nd ref="-222"/><nd ref="-223"/><nd ref="-224"/><nd ref="-225"/><nd ref="-226"/><nd ref="-227"/><nd ref="-228"/><nd ref="-229"/><nd ref="-218"/><tag k="building" v="yes"/><tag k="height" v="4.11"/><tag k="ele" v="28.66"/><tag k="addr:city" v="San Jose"/><tag k="addr:housenumber" v="1765"/><tag k="addr:street" v="Flickinger Avenue"/><tag k="addr:postcode" v="95131"/></way>
<way visible="true" id="-230"><nd ref="-231"/><nd ref="-232"/><nd ref="-233"/><nd ref="-234"/><nd ref="-235"/><nd ref="-236"/><nd ref="-237"/><nd ref="-238"/><nd ref="-239"/><nd ref="-240"/><nd ref="-241"/><nd ref="-242"/><nd ref="-231"/><tag k="building" v="yes"/><tag k="height" v="4.08"/><tag k="ele" v="29.26"/><tag k="addr:city" v="San Jose"/><tag k="addr:housenumber" v="1731"/><tag k="addr:street" v="Silvertree Drive"/><tag k="addr:postcode" v="95131"/></way>
<way visible="true" id="-243"><nd ref="-244"/><nd ref="-245"/><nd ref="-246"/><nd ref="-247"/><nd ref="-248"/><nd ref="-249"/><nd ref="-250"/><nd ref="-251"/><nd ref="-244"/><tag k="building" v="yes"/><tag k="height" v="3.61"/><tag k="ele" v="29.57"/><tag k="addr:city" v="San Jose"/><tag k="addr:housenumber" v="1707"/><tag k="addr:street" v="Silvertree Drive"/><tag k="addr:postcode" v="95131"/></way>
<way visible="true" id="-252"><nd ref="-253"/><nd ref="-254"/><nd ref="-255"/><nd ref="-256"/><nd ref="-257"/><nd ref="-258"/><nd ref="-259"/><nd ref="-260"/><nd ref="-261"/><nd ref="-262"/><nd ref="-263"/><nd ref="-264"/><nd ref="-253"/><tag k="building" v="yes"/><tag k="height" v="3.73"/><tag k="ele" v="29.77"/><tag k="addr:city" v="San Jose"/><tag k="addr:housenumber" v="1703"/><tag k="addr:street" v="Silvertree Drive"/><tag k="addr:postcode" v="95131"/></way>
<way visible="true" id="-265"><nd ref="-266"/><nd ref="-267"/><nd ref="-268"/><nd ref="-269"/><nd ref="-270"/><nd ref="-271"/><nd ref="-272"/><nd ref="-273"/><nd ref="-274"/><nd ref="-275"/><nd ref="-276"/><nd ref="-277"/><nd ref="-278"/><nd ref="-279"/><nd ref="-280"/><nd ref="-281"/><nd ref="-282"/><nd ref="-283"/><nd ref="-266"/><tag k="building" v="yes"/><tag k="height" v="4.00"/><tag k="ele" v="29.97"/><tag k="addr:city" v="San Jose"/><tag k="addr:housenumber" v="1695"/><tag k="addr:street" v="Silvertree Drive"/><tag k="addr:postcode" v="95131"/></way>
<way visible="true" id="-284"><nd ref="-285"/><nd ref="-286"/><nd ref="-287"/><nd ref="-288"/><nd ref="-289"/><nd ref="-290"/><nd ref="-291"/><nd ref="-292"/><nd ref="-293"/><nd ref="-294"/><nd ref="-295"/><nd ref="-296"/><nd ref="-285"/><tag k="building" v="yes"/><tag k="height" v="7.92"/><tag k="ele" v="27.46"/><tag k="addr:city" v="San Jose"/><tag k="addr:housenumber" v="2398"/><tag k="addr:street" v="Trade Zone Boulevard"/><tag k="addr:postcode" v="95131"/></way>
<way visible="true" id="-297"><nd ref="-298"/><nd ref="-299"/><nd ref="-300"/><nd ref="-301"/><nd ref="-302"/><nd ref="-303"/><nd ref="-304"/><nd ref="-305"/><nd ref="-306"/><nd ref="-307"/><nd ref="-298"/><tag k="building" v="yes"/><tag k="height" v="4.06"/><tag k="ele" v="28.36"/><tag k="addr:city" v="San Jose"/><tag k="addr:housenumber" v="1775"/><tag k="addr:street" v="Flickinger Avenue"/><tag k="addr:postcode" v="95131"/></way>
<way visible="true" id="-308"><nd ref="-309"/><nd ref="-310"/><nd ref="-311"/><nd ref="-312"/><nd ref="-313"/><nd ref="-314"/><nd ref="-315"/><nd ref="-316"/><nd ref="-309"/><tag k="building" v="yes"/><tag k="height" v="5.76"/><tag k="ele" v="28.46"/><tag k="addr:city" v="San Jose"/><tag k="addr:housenumber" v="1759"/><tag k="addr:street" v="Flickinger Avenue"/><tag k="addr:postcode" v="95131"/></way>
<way visible="true" id="-317"><nd ref="-318"/><nd ref="-319"/><nd ref="-320"/><nd ref="-321"/><nd ref="-322"/><nd ref="-323"/><nd ref="-324"/><nd ref="-325"/><nd ref="-326"/><nd ref="-327"/><nd ref="-318"/><tag k="building" v="yes"/><tag k="height" v="4.01"/><tag k="ele" v="29.06"/><tag k="addr:city" v="San Jose"/><tag k="addr:housenumber" v="1741"/><tag k="addr:street" v="Silvertree Drive"/><tag k="addr:postcode" v="95131"/></way>
<way visible="true" id="-328"><nd ref="-329"/><nd ref="-330"/><nd ref="-331"/><nd ref="-332"/><nd ref="-333"/><nd ref="-334"/><nd ref="-335"/><nd ref="-336"/><nd ref="-337"/><nd ref="-338"/><nd ref="-339"/><nd ref="-340"/><nd ref="-341"/><nd ref="-342"/><nd ref="-343"/><nd ref="-344"/><nd ref="-345"/><nd ref="-346"/><nd ref="-329"/><tag k="building" v="yes"/><tag k="height" v="3.44"/><tag k="ele" v="29.26"/><tag k="addr:city" v="San Jose"/><tag k="addr:housenumber" v="1735"/><tag k="addr:street" v="Silvertree Drive"/><tag k="addr:postcode" v="95131"/></way>
<way visible="true" id="-347"><nd ref="-348"/><nd ref="-349"/><nd ref="-350"/><nd ref="-351"/><nd ref="-352"/><nd ref="-353"/><nd ref="-354"/><nd ref="-355"/><nd ref="-356"/><nd ref="-357"/><nd ref="-348"/><tag k="building" v="yes"/><tag k="height" v="3.74"/><tag k="ele" v="29.97"/><tag k="addr:city" v="San Jose"/><tag k="addr:housenumber" v="1699"/><tag k="addr:street" v="Silvertree Drive"/><tag k="addr:postcode" v="95131"/></way>
<way visible="true" id="-358"><nd ref="-359"/><nd ref="-360"/><nd ref="-361"/><nd ref="-362"/><nd ref="-363"/><nd ref="-364"/><nd ref="-365"/><nd ref="-366"/><nd ref="-367"/><nd ref="-368"/><nd ref="-369"/><nd ref="-370"/><nd ref="-359"/><tag k="building" v="yes"/><tag k="height" v="8.06"/><tag k="ele" v="27.31"/><tag k="addr:city" v="San Jose"/><tag k="addr:housenumber" v="1960"/><tag k="addr:street" v="Moriset Way"/><tag k="addr:postcode" v="95131"/></way>
<way visible="true" id="-371"><nd ref="-372"/><nd ref="-373"/><nd ref="-374"/><nd ref="-375"/><nd ref="-376"/><nd ref="-377"/><nd ref="-378"/><nd ref="-379"/><nd ref="-380"/><nd ref="-381"/><nd ref="-382"/><nd ref="-383"/><nd ref="-384"/><nd ref="-385"/><nd ref="-386"/><nd ref="-387"/><nd ref="-372"/><tag k="building" v="yes"/><tag k="height" v="7.88"/><tag k="ele" v="27.66"/><tag k="addr:city" v="San Jose"/><tag k="addr:housenumber" v="1966"/><tag k="addr:street" v="Moriset Way"/><tag k="addr:postcode" v="95131"/></way>
<way visible="true" id="-388"><nd ref="-389"/><nd ref="-390"/><nd ref="-391"/><nd ref="-392"/><nd ref="-393"/><nd ref="-394"/><nd ref="-395"/><nd ref="-396"/><nd ref="-397"/><nd ref="-398"/><nd ref="-399"/><nd ref="-400"/><nd ref="-401"/><nd ref="-402"/><nd ref="-389"/><tag k="building" v="yes"/><tag k="height" v="7.90"/><tag k="ele" v="27.56"/><tag k="addr:city" v="San Jose"/><tag k="addr:housenumber" v="1972"/><tag k="addr:street" v="Moriset Way"/><tag k="addr:postcode" v="95131"/></way>
<way visible="true" id="-403"><nd ref="-404"/><nd ref="-405"/><nd ref="-406"/><nd ref="-407"/><nd ref="-408"/><nd ref="-409"/><nd ref="-410"/><nd ref="-411"/><nd ref="-412"/><nd ref="-413"/><nd ref="-414"/><nd ref="-415"/><nd ref="-416"/><nd ref="-417"/><nd ref="-404"/><tag k="building" v="yes"/><tag k="height" v="3.24"/><tag k="ele" v="28.36"/><tag k="addr:city" v="San Jose"/><tag k="addr:housenumber" v="1789"/><tag k="addr:street" v="Flickinger Avenue"/><tag k="addr:postcode" v="95131"/></way>
<way visible="true" id="-418"><nd ref="-419"/><nd ref="-420"/><nd ref="-421"/><nd ref="-422"/><nd ref="-423"/><nd ref="-424"/><nd ref="-425"/><nd ref="-426"/><nd ref="-427"/><nd ref="-428"/><nd ref="-419"/><tag k="building" v="yes"/><tag k="height" v="3.95"/><tag k="ele" v="28.86"/><tag k="addr:city" v="San Jose"/><tag k="addr:housenumber" v="1745"/><tag k="addr:street" v="Flickinger Avenue"/><tag k="addr:postcode" v="95131"/></way>
<way visible="true" id="-429"><nd ref="-430"/><nd ref="-431"/><nd ref="-432"/><nd ref="-433"/><nd ref="-434"/><nd ref="-435"/><nd ref="-436"/><nd ref="-437"/><nd ref="-438"/><nd ref="-439"/><nd ref="-440"/><nd ref="-441"/><nd ref="-442"/><nd ref="-443"/><nd ref="-444"/><nd ref="-445"/><nd ref="-446"/><nd ref="-447"/><nd ref="-430"/><tag k="building" v="yes"/><tag k="height" v="3.77"/><tag k="ele" v="29.36"/><tag k="addr:city" v="San Jose"/><tag k="addr:housenumber" v="1723"/><tag k="addr:street" v="Silvertree Drive"/><tag k="addr:postcode" v="95131"/></way>
<way visible="true" id="-448"><nd ref="-449"/><nd ref="-450"/><nd ref="-451"/><nd ref="-452"/><nd ref="-453"/><nd ref="-454"/><nd ref="-455"/><nd ref="-456"/><nd ref="-449"/><tag k="building" v="yes"/><tag k="height" v="3.37"/><tag k="ele" v="29.47"/><tag k="addr:city" v="San Jose"/><tag k="addr:housenumber" v="1719"/><tag k="addr:street" v="Silvertree Drive"/><tag k="addr:postcode" v="95131"/></way>
<way visible="true" id="-457"><nd ref="-458"/><nd ref="-459"/><nd ref="-460"/><nd ref="-461"/><nd ref="-462"/><nd ref="-463"/><nd ref="-464"/><nd ref="-465"/><nd ref="-466"/><nd ref="-467"/><nd ref="-468"/><nd ref="-469"/><nd ref="-470"/><nd ref="-471"/><nd ref="-458"/><tag k="building" v="yes"/><tag k="height" v="7.70"/><tag k="ele" v="27.56"/><tag k="addr:city" v="San Jose"/><tag k="addr:housenumber" v="1978"/><tag k="addr:street" v="Moriset Way"/><tag k="addr:postcode" v="95131"/></way>
<way visible="true" id="-473"><nd ref="-474"/><nd ref="-475"/><nd ref="-476"/><nd ref="-477"/><nd ref="-478"/><nd ref="-479"/><nd ref="-480"/><nd ref="-481"/><nd ref="-482"/><nd ref="-483"/><nd ref="-484"/><nd ref="-485"/><nd ref="-486"/><nd ref="-487"/><nd ref="-488"/><nd ref="-489"/><nd ref="-490"/><nd ref="-491"/><nd ref="-492"/><nd ref="-493"/><nd ref="-494"/><nd ref="-495"/><nd ref="-496"/><nd ref="-497"/><nd ref="-498"/><nd ref="-499"/><nd ref="-500"/><nd ref="-501"/><nd ref="-502"/><nd ref="-503"/><nd ref="-504"/><nd ref="-505"/><nd ref="-506"/><nd ref="-507"/><nd ref="-508"/><nd ref="-509"/><nd ref="-510"/><nd ref="-511"/><nd ref="-512"/><nd ref="-513"/><nd ref="-514"/><nd ref="-515"/><nd ref="-516"/><nd ref="-517"/><nd ref="-518"/><nd ref="-519"/><nd ref="-520"/><nd ref="-521"/><nd ref="-522"/><nd ref="-523"/><nd ref="-524"/><nd ref="-525"/><nd ref="-526"/><nd ref="-527"/><nd ref="-528"/><nd ref="-529"/><nd ref="-530"/><nd ref="-531"/><nd ref="-532"/><nd ref="-533"/><nd ref="-534"/><nd ref="-535"/><nd ref="-536"/><nd ref="-537"/><nd ref="-538"/><nd ref="-539"/><nd ref="-474"/></way>
<way visible="true" id="-540"><nd ref="-541"/><nd ref="-542"/><nd ref="-543"/><nd ref="-544"/><nd ref="-545"/><nd ref="-546"/><nd ref="-541"/></way>
<way visible="true" id="-547"><nd ref="-548"/><nd ref="-549"/><nd ref="-550"/><nd ref="-551"/><nd ref="-552"/><nd ref="-553"/><nd ref="-548"/></way>
<way visible="true" id="-554"><nd ref="-555"/><nd ref="-556"/><nd ref="-557"/><nd ref="-558"/><nd ref="-559"/><nd ref="-560"/><nd ref="-555"/></way>
<way visible="true" id="-561"><nd ref="-562"/><nd ref="-563"/><nd ref="-564"/><nd ref="-565"/><nd ref="-566"/><nd ref="-567"/><nd ref="-568"/><nd ref="-569"/><nd ref="-562"/><tag k="building" v="yes"/><tag k="height" v="3.16"/><tag k="ele" v="29.06"/><tag k="addr:city" v="San Jose"/><tag k="addr:housenumber" v="1737"/><tag k="addr:street" v="Silvertree Drive"/><tag k="addr:postcode" v="95131"/></way>
<way visible="true" id="-570"><nd ref="-571"/><nd ref="-572"/><nd ref="-573"/><nd ref="-574"/><nd ref="-575"/><nd ref="-576"/><nd ref="-577"/><nd ref="-578"/><nd ref="-571"/><tag k="building" v="yes"/><tag k="height" v="3.09"/><tag k="ele" v="29.67"/><tag k="addr:city" v="San Jose"/><tag k="addr:housenumber" v="1711"/><tag k="addr:street" v="Silvertree Drive"/><tag k="addr:postcode" v="95131"/></way>
<way visible="true" id="-579"><nd ref="-580"/><nd ref="-581"/><nd ref="-582"/><nd ref="-583"/><nd ref="-584"/><nd ref="-585"/><nd ref="-586"/><nd ref="-587"/><nd ref="-588"/><nd ref="-589"/><nd ref="-590"/><nd ref="-591"/><nd ref="-592"/><nd ref="-593"/><nd ref="-594"/><nd ref="-595"/><nd ref="-596"/><nd ref="-597"/><nd ref="-598"/><nd ref="-599"/><nd ref="-600"/><nd ref="-601"/><nd ref="-602"/><nd ref="-603"/><nd ref="-604"/><nd ref="-605"/><nd ref="-580"/><tag k="building" v="yes"/><tag k="height" v="3.05"/><tag k="ele" v="28.15"/><tag k="addr:city" v="San Jose"/><tag k="addr:housenumber" v="1783"/><tag k="addr:street" v="Flickinger Avenue"/><tag k="addr:postcode" v="95131"/></way>
<way visible="true" id="-606"><nd ref="-607"/><nd ref="-608"/><nd ref="-609"/><nd ref="-610"/><nd ref="-611"/><nd ref="-612"/><nd ref="-613"/><nd ref="-614"/><nd ref="-615"/><nd ref="-616"/><nd ref="-617"/><nd ref="-618"/><nd ref="-607"/><tag k="building" v="yes"/><tag k="height" v="3.78"/><tag k="ele" v="29.57"/><tag k="addr:city" v="San Jose"/><tag k="addr:housenumber" v="1715"/><tag k="addr:street" v="Silvertree Drive"/><tag k="addr:postcode" v="95131"/></way>
<way visible="true" id="-619"><nd ref="-620"/><nd ref="-621"/><nd ref="-622"/><nd ref="-623"/><nd ref="-624"/><nd ref="-625"/><nd ref="-626"/><nd ref="-627"/><nd ref="-628"/><nd ref="-629"/><nd ref="-630"/><nd ref="-631"/><nd ref="-632"/><nd ref="-633"/><nd ref="-620"/><tag k="building" v="yes"/><tag k="height" v="3.86"/><tag k="ele" v="28.76"/><tag k="addr:city" v="San Jose"/><tag k="addr:housenumber" v="1761"/><tag k="addr:street" v="Flickinger Avenue"/><tag k="addr:postcode" v="95131"/></way>
<way visible="true" id="-634"><nd ref="-635"/><nd ref="-636"/><nd ref="-637"/><nd ref="-638"/><nd ref="-639"/><nd ref="-640"/><nd ref="-641"/><nd ref="-642"/><nd ref="-643"/><nd ref="-644"/><nd ref="-635"/><tag k="building" v="yes"/><tag k="height" v="3.62"/><tag k="ele" v="28.86"/><tag k="addr:city" v="San Jose"/><tag k="addr:housenumber" v="1749"/><tag k="addr:street" v="Flickinger Avenue"/><tag k="addr:postcode" v="95131"/></way>
<way visible="true" id="-645"><nd ref="-646"/><nd ref="-647"/><nd ref="-648"/><nd ref="-649"/><nd ref="-650"/><nd ref="-651"/><nd ref="-652"/><nd ref="-653"/><nd ref="-654"/><nd ref="-655"/><nd ref="-656"/><nd ref="-657"/><nd ref="-658"/><nd ref="-659"/><nd ref="-660"/><nd ref="-661"/><nd ref="-646"/><tag k="building" v="yes"/><tag k="height" v="7.84"/><tag k="ele" v="27.26"/><tag k="addr:city" v="San Jose"/><tag k="addr:housenumber" v="2350"/><tag k="addr:street" v="Trade Zone Boulevard"/><tag k="addr:postcode" v="95131"/></way>
<relation visible="true" id="-472"><member type="way" ref="-473" role="outer"/><member type="way" ref="-540" role="inner"/><member type="way" ref="-547" role="inner"/><member type="way" ref="-554" role="inner"/><tag k="type" v="multipolygon"/><tag k="building" v="yes"/><tag k="height" v="4.32"/><tag k="ele" v="32.18"/><tag k="addr:city" v="San Jose"/><tag k="addr:housenumber" v="1781"/><tag k="addr:street" v="Olivetree Drive"/><tag k="addr:postcode" v="95131"/></relation>
</osm>