<?xml version="1.0"?>
<osm version="0.6" generator="uvmogr2osm" upload="false">
<node visible="true" id="-1" lat="37.415333883" lon="-121.87448029100001"><tag k="addr:city" v="San Jose"/><tag k="addr:housenumber" v="2148"/><tag k="addr:street" v="Morrill Avenue"/><tag k="addr:postcode" v="95132"/></node>
<node visible="true" id="-2" lat="37.419467586" lon="-121.86650223500001"><tag k="addr:city" v="San Jose"/><tag k="addr:housenumber" v="3312"/><tag k="addr:street" v="Landess Avenue"/><tag k="addr:postcode" v="95132"/></node>
<node visible="true" id="-3" lat="37.417752418" lon="-121.86364516500001"><tag k="addr:city" v="San Jose"/><tag k="addr:housenumber" v="3435"/><tag k="addr:street" v="Birchwood Lane"/><tag k="addr:postcode" v="95132"/></node>
<node visible="true" id="-4" lat="37.415167458" lon="-121.874509754"><tag k="addr:city" v="San Jose"/><tag k="addr:housenumber" v="2144"/><tag k="addr:street" v="Morrill Avenue"/><tag k="addr:postcode" v="95132"/></node>
<node visible="true" id="-5" lat="37.415977283000004" lon="-121.87399958600001"><tag k="addr:city" v="San Jose"/><tag k="addr:housenumber" v="3120"/><tag k="addr:street" v="Landess Avenue"/><tag k="addr:unit" v="D"/><tag k="addr:postcode" v="95132"/></node>
<node visible="true" id="-6" lat="37.419105534" lon="-121.86733008"><tag k="addr:city" v="San Jose"/><tag k="addr:housenumber" v="3302"/><tag k="addr:street" v="Landess Avenue"/><tag k="addr:postcode" v="95132"/></node>
<node visible="true" id="-7" lat="37.419175535" lon="-121.86718007900001"><tag k="addr:city" v="San Jose"/><tag k="addr:housenumber" v="3304"/><tag k="addr:street" v="Landess Avenue"/><tag k="addr:postcode" v="95132"/></node>
<node visible="true" id="-8" lat="37.421277453" lon="-121.86241274800001"><tag k="addr:city" v="San Jose"/><tag k="addr:housenumber" v="3380"/><tag k="addr:street" v="Landess Avenue"/><tag k="addr:postcode" v="95132"/></node>
<node visible="true" id="-9" lat="37.421241285" lon="-121.86238522500001"><tag k="addr:city" v="San Jose"/><tag k="addr:housenumber" v="3380"/><tag k="addr:street" v="Landess Avenue"/><tag k="addr:unit" v="A"/><tag k="addr:postcode" v="95132"/></node>
<node visible="true" id="-10" lat="37.421680249000005" lon="-121.861246401"><tag k="addr:city" v="San Jose"/><tag k="addr:housenumber" v="3398"/><tag k="addr:street" v="Landess Avenue"/><tag k="addr:unit" v="B"/><tag k="addr:postcode" v="95132"/></node>
<node visible="true" id="-11" lat="37.421647714" lon="-121.861209646"><tag k="addr:city" v="San Jose"/><tag k="addr:housenumber" v="3398"/><tag k="addr:street" v="Landess Avenue"/><tag k="addr:unit" v="C"/><tag k="addr:postcode" v="95132"/></node>
<node visible="true" id="-12" lat="37.421610203" lon="-121.861187438"><tag k="addr:city" v="San Jose"/><tag k="addr:housenumber" v="3398"/><tag k="addr:street" v="Landess Avenue"/><tag k="addr:unit" v="D"/><tag k="addr:postcode" v="95132"/></node>
<node visible="true" id="-13" lat="37.414045563" lon="-121.87152565500001"><tag k="addr:city" v="San Jose"/><tag k="addr:housenumber" v="2095"/><tag k="addr:street" v="Warmwood Lane"/><tag k="addr:postcode" v="95132"/></node>
<node visible="true" id="-14" lat="37.411421262000005" lon="-121.868674111"><tag k="addr:city" v="San Jose"/><tag k="addr:housenumber" v="1970"/><tag k="addr:street" v="Morrill Avenue"/><tag k="addr:postcode" v="95132"/></node>
<node visible="true" id="-15" lat="37.409232540000005" lon="-121.86396108900001"><tag k="addr:city" v="San Jose"/><tag k="addr:housenumber" v="3018"/><tag k="addr:street" v="Ironside Court"/><tag k="addr:postcode" v="95132"/></node>
<node visible="true" id="-16" lat="37.410245591" lon="-121.861071526"><tag k="addr:city" v="San Jose"/><tag k="addr:housenumber" v="1880"/><tag k="addr:street" v="Messina Drive"/><tag k="addr:postcode" v="95132"/></node>
<node visible="true" id="-17" lat="37.41916916" lon="-121.86709696800001"><tag k="addr:city" v="San Jose"/><tag k="addr:housenumber" v="3304"/><tag k="addr:street" v="Landess Avenue"/><tag k="addr:unit" v="A"/><tag k="addr:postcode" v="95132"/></node>
<node visible="true" id="-18" lat="37.419120093000004" lon="-121.86706717400001"><tag k="addr:city" v="San Jose"/><tag k="addr:housenumber" v="3304"/><tag k="addr:street" v="Landess Avenue"/><tag k="addr:unit" v="B"/><tag k="addr:postcode" v="95132"/></node>
<node visible="true" id="-19" lat="37.419080693000005" lon="-121.867054056"><tag k="addr:city" v="San Jose"/><tag k="addr:housenumber" v="3304"/><tag k="addr:street" v="Landess Avenue"/><tag k="addr:unit" v="C"/><tag k="addr:postcode" v="95132"/></node>
<node visible="true" id="-20" lat="37.419034941" lon="-121.86702019200001"><tag k="addr:city" v="San Jose"/><tag k="addr:housenumber" v="3304"/><tag k="addr:street" v="Landess Avenue"/><tag k="addr:unit" v="D"/><tag k="addr:postcode" v="95132"/></node>
<node visible="true" id="-21" lat="37.419305534" lon="-121.86688007800001"><tag k="addr:city" v="San Jose"/><tag k="addr:housenumber" v="3308"/><tag k="addr:street" v="Landess Avenue"/><tag k="addr:postcode" v="95132"/></node>
<node visible="true" id="-22" lat="37.41925075" lon="-121.86688377200001"><tag k="addr:city" v="San Jose"/><tag k="addr:housenumber" v="3308"/><tag k="addr:street" v="Landess Avenue"/><tag k="addr:unit" v="A"/><tag k="addr:postcode" v="95132"/></node>
<node visible="true" id="-23" lat="37.419204711" lon="-121.86687466400001"><tag k="addr:city" v="San Jose"/><tag k="addr:housenumber" v="3308"/><tag k="addr:street" v="Landess Avenue"/><tag k="addr:unit" v="B"/><tag k="addr:postcode" v="95132"/></node>
<node visible="true" id="-24" lat="37.419165502000006" lon="-121.866845052"><tag k="addr:city" v="San Jose"/><tag k="addr:housenumber" v="3308"/><tag k="addr:street" v="Landess Avenue"/><tag k="addr:unit" v="C"/><tag k="addr:postcode" v="95132"/></node>
<node visible="true" id="-25" lat="37.419122978000004" lon="-121.86681951400001"><tag k="addr:city" v="San Jose"/><tag k="addr:housenumber" v="3308"/><tag k="addr:street" v="Landess Avenue"/><tag k="addr:unit" v="D"/><tag k="addr:postcode" v="95132"/></node>
<node visible="true" id="-26" lat="37.419433138" lon="-121.86649906000001"><tag k="addr:city" v="San Jose"/><tag k="addr:housenumber" v="3312"/><tag k="addr:street" v="Landess Avenue"/><tag k="addr:unit" v="A"/><tag k="addr:postcode" v="95132"/></node>
<node visible="true" id="-27" lat="37.420190466" lon="-121.86484524800001"><tag k="addr:city" v="San Jose"/><tag k="addr:housenumber" v="3332"/><tag k="addr:street" v="Landess Avenue"/><tag k="addr:postcode" v="95132"/></node>
<node visible="true" id="-28" lat="37.420164151" lon="-121.86484309100001"><tag k="addr:city" v="San Jose"/><tag k="addr:housenumber" v="3332"/><tag k="addr:street" v="Landess Avenue"/><tag k="addr:unit" v="A"/><tag k="addr:postcode" v="95132"/></node>
<node visible="true" id="-29" lat="37.420280465000005" lon="-121.86465524600001"><tag k="addr:city" v="San Jose"/><tag k="addr:housenumber" v="3336"/><tag k="addr:street" v="Landess Avenue"/><tag k="addr:postcode" v="95132"/></node>
<node visible="true" id="-30" lat="37.420230001" lon="-121.86466032300001"><tag k="addr:city" v="San Jose"/><tag k="addr:housenumber" v="3336"/><tag k="addr:street" v="Landess Avenue"/><tag k="addr:unit" v="A"/><tag k="addr:postcode" v="95132"/></node>
<node visible="true" id="-31" lat="37.421177453000006" lon="-121.86263274900001"><tag k="addr:city" v="San Jose"/><tag k="addr:housenumber" v="3376"/><tag k="addr:street" v="Landess Avenue"/><tag k="addr:postcode" v="95132"/></node>
<node visible="true" id="-32" lat="37.421145316" lon="-121.86260033600001"><tag k="addr:city" v="San Jose"/><tag k="addr:housenumber" v="3376"/><tag k="addr:street" v="Landess Avenue"/><tag k="addr:unit" v="A"/><tag k="addr:postcode" v="95132"/></node>
</osm>