<?xml version="1.0"?>
<osm version="0.6" generator="uvmogr2osm" upload="false">
<node visible="true" id="-2" lat="37.275054756" lon="-121.858979011"/>
<node visible="true" id="-3" lat="37.275071091" lon="-121.85903650300001"/>
<node visible="true" id="-4" lat="37.2750963" lon="-121.85902527500001"/>
<node visible="true" id="-5" lat="37.275079937" lon="-121.85896778300001"/>
<node visible="true" id="-7" lat="37.275391088" lon="-121.86088386700001"/>
<node visible="true" id="-8" lat="37.275396885" lon="-121.860921575"/>
<node visible="true" id="-9" lat="37.275497756" lon="-121.86100813700001"/>
<node visible="true" id="-10" lat="37.275498205000005" lon="-121.861007321"/>
<node visible="true" id="-11" lat="37.275751244000006" lon="-121.86054817700001"/>
<node visible="true" id="-12" lat="37.275632293" lon="-121.860445544"/>
<node visible="true" id="-14" lat="37.275666857000004" lon="-121.86018700700001"/>
<node visible="true" id="-15" lat="37.275734368" lon="-121.86033397300001"/>
<node visible="true" id="-16" lat="37.275729827" lon="-121.86033722500001"/>
<node visible="true" id="-17" lat="37.275717475" lon="-121.860310361"/>
<node visible="true" id="-18" lat="37.275673488" lon="-121.86034204200001"/>
<node visible="true" id="-19" lat="37.275684580000004" lon="-121.86036609800001"/>
<node visible="true" id="-20" lat="37.275679567000005" lon="-121.860369719"/>
<node visible="true" id="-21" lat="37.275737952" lon="-121.860425089"/>
<node visible="true" id="-22" lat="37.275840189" lon="-121.86035153700001"/>
<node visible="true" id="-23" lat="37.275843163000005" lon="-121.860358019"/>
<node visible="true" id="-24" lat="37.275915125000004" lon="-121.860306222"/>
<node visible="true" id="-25" lat="37.275880887" lon="-121.86023173400001"/>
<node visible="true" id="-26" lat="37.276013400000004" lon="-121.860136389"/>
<node visible="true" id="-27" lat="37.275944790000004" lon="-121.85998706500001"/>
<node visible="true" id="-29" lat="37.275050867000004" lon="-121.85874614100001"/>
<node visible="true" id="-30" lat="37.275076351" lon="-121.858824764"/>
<node visible="true" id="-31" lat="37.275128904" lon="-121.85879811900001"/>
<node visible="true" id="-32" lat="37.275190239000004" lon="-121.85898745300001"/>
<node visible="true" id="-33" lat="37.275346902" lon="-121.85890798000001"/>
<node visible="true" id="-34" lat="37.275401582" lon="-121.859076778"/>
<node visible="true" id="-35" lat="37.275324080000004" lon="-121.85911606600001"/>
<node visible="true" id="-36" lat="37.275375736" lon="-121.859275494"/>
<node visible="true" id="-37" lat="37.27553265" lon="-121.859195854"/>
<node visible="true" id="-38" lat="37.275544026000006" lon="-121.85923094700001"/>
<node visible="true" id="-39" lat="37.275531149" lon="-121.85923748500001"/>
<node visible="true" id="-40" lat="37.275582568000004" lon="-121.85939618600001"/>
<node visible="true" id="-41" lat="37.27559489" lon="-121.85938991500001"/>
<node visible="true" id="-42" lat="37.275611544" lon="-121.859441294"/>
<node visible="true" id="-43" lat="37.276755108" lon="-121.85886118200001"/>
<node visible="true" id="-44" lat="37.276480617000004" lon="-121.858011798"/>
<node visible="true" id="-45" lat="37.276477108" lon="-121.858013592"/>
<node visible="true" id="-46" lat="37.276422643000004" lon="-121.85784507100001"/>
<node visible="true" id="-47" lat="37.276190936" lon="-121.857962645"/>
<node visible="true" id="-48" lat="37.276229997" lon="-121.858083245"/>
<node visible="true" id="-49" lat="37.275878375000005" lon="-121.85826164400001"/>
<node visible="true" id="-50" lat="37.2758701" lon="-121.85823612700001"/>
<node visible="true" id="-51" lat="37.275608249" lon="-121.85836896400001"/>
<node visible="true" id="-52" lat="37.275615992000006" lon="-121.85839289"/>
<node visible="true" id="-53" lat="37.275455737" lon="-121.85847419000001"/>
<node visible="true" id="-54" lat="37.275471992" lon="-121.85852435800001"/>
<node visible="true" id="-55" lat="37.275390124000005" lon="-121.858565905"/>
<node visible="true" id="-56" lat="37.275369758000004" lon="-121.85850301200001"/>
<node visible="true" id="-57" lat="37.275321405" lon="-121.858527534"/>
<node visible="true" id="-58" lat="37.275341373" lon="-121.858589183"/>
<node visible="true" id="-59" lat="37.275333305000004" lon="-121.858593264"/>
<node visible="true" id="-60" lat="37.275335984" lon="-121.85860152800001"/>
<node visible="true" id="-61" lat="37.275259011" lon="-121.85863536100001"/>
<node visible="true" id="-63" lat="37.27555851" lon="-121.86118574500001"/>
<node visible="true" id="-64" lat="37.275568737" lon="-121.86119452400001"/>
<node visible="true" id="-65" lat="37.275559560000005" lon="-121.861211268"/>
<node visible="true" id="-66" lat="37.275589067000006" lon="-121.861236656"/>
<node visible="true" id="-67" lat="37.275599339" lon="-121.86121790300001"/>
<node visible="true" id="-68" lat="37.275678995" lon="-121.861286414"/>
<node visible="true" id="-69" lat="37.275977567000005" lon="-121.860742958"/>
<node visible="true" id="-70" lat="37.275858206" lon="-121.86064024800001"/>
<node visible="true" id="-71" lat="37.276275332000004" lon="-121.86107311200001"><tag k="addr:city" v="San Jose"/><tag k="addr:housenumber" v="3300"/><tag k="addr:street" v="Narvaez Avenue"/><tag k="addr:unit" v="198"/><tag k="addr:postcode" v="95136"/></node>
<node visible="true" id="-72" lat="37.276193887000005" lon="-121.86121535500001"><tag k="addr:city" v="San Jose"/><tag k="addr:housenumber" v="3300"/><tag k="addr:street" v="Narvaez Avenue"/><tag k="addr:unit" v="199"/><tag k="addr:postcode" v="95136"/></node>
<node visible="true" id="-73" lat="37.276161278000004" lon="-121.86068854300001"><tag k="addr:city" v="San Jose"/><tag k="addr:housenumber" v="3300"/><tag k="addr:street" v="Narvaez Avenue"/><tag k="addr:unit" v="44"/><tag k="addr:postcode" v="95136"/></node>
<node visible="true" id="-74" lat="37.276086093" lon="-121.86081885300001"><tag k="addr:city" v="San Jose"/><tag k="addr:housenumber" v="3300"/><tag k="addr:street" v="Narvaez Avenue"/><tag k="addr:unit" v="45"/><tag k="addr:postcode" v="95136"/></node>
<node visible="true" id="-75" lat="37.278869122" lon="-121.86162442800001"><tag k="addr:city" v="San Jose"/><tag k="addr:housenumber" v="625"/><tag k="addr:street" v="Shadow Creek Drive"/><tag k="addr:postcode" v="95136"/></node>
<node visible="true" id="-76" lat="37.278635018" lon="-121.857271631"><tag k="addr:city" v="San Jose"/><tag k="addr:housenumber" v="302"/><tag k="addr:street" v="Ballymore Circle"/><tag k="addr:postcode" v="95136"/></node>
<node visible="true" id="-77" lat="37.280006642000004" lon="-121.86107234500001"><tag k="addr:city" v="San Jose"/><tag k="addr:housenumber" v="3206"/><tag k="addr:street" v="Lago De Como Place"/><tag k="addr:postcode" v="95136"/></node>
<node visible="true" id="-78" lat="37.279667323000005" lon="-121.860995211"><tag k="addr:city" v="San Jose"/><tag k="addr:housenumber" v="3214"/><tag k="addr:street" v="Lago De Como Place"/><tag k="addr:postcode" v="95136"/></node>
<node visible="true" id="-79" lat="37.279687794000004" lon="-121.86093079400001"><tag k="addr:city" v="San Jose"/><tag k="addr:housenumber" v="3218"/><tag k="addr:street" v="Lago De Como Place"/><tag k="addr:postcode" v="95136"/></node>
<node visible="true" id="-80" lat="37.276995228000004" lon="-121.85794404200001"><tag k="addr:city" v="San Jose"/><tag k="addr:housenumber" v="3330"/><tag k="addr:street" v="Midtown Place"/><tag k="addr:postcode" v="95136"/></node>
<node visible="true" id="-81" lat="37.276897865" lon="-121.856846094"><tag k="addr:city" v="San Jose"/><tag k="addr:housenumber" v="3340"/><tag k="addr:street" v="City Lights Place"/><tag k="addr:postcode" v="95136"/></node>
<node visible="true" id="-82" lat="37.276794857000006" lon="-121.85684883100001"><tag k="addr:city" v="San Jose"/><tag k="addr:housenumber" v="3358"/><tag k="addr:street" v="City Lights Place"/><tag k="addr:postcode" v="95136"/></node>
<node visible="true" id="-83" lat="37.276471793" lon="-121.85683836400001"><tag k="addr:city" v="San Jose"/><tag k="addr:housenumber" v="3406"/><tag k="addr:street" v="City Lights Place"/><tag k="addr:postcode" v="95136"/></node>
<node visible="true" id="-84" lat="37.279092988" lon="-121.86153980200001"><tag k="addr:city" v="San Jose"/><tag k="addr:housenumber" v="505"/><tag k="addr:street" v="Mountain Home Drive"/><tag k="addr:postcode" v="95136"/></node>
<node visible="true" id="-85" lat="37.279713184" lon="-121.863812468"><tag k="addr:city" v="San Jose"/><tag k="addr:housenumber" v="527"/><tag k="addr:street" v="Mountain Home Drive"/><tag k="addr:postcode" v="95136"/></node>
<node visible="true" id="-86" lat="37.277854973000004" lon="-121.85827746500001"><tag k="addr:city" v="San Jose"/><tag k="addr:housenumber" v="531"/><tag k="addr:street" v="Manhattan Place"/><tag k="addr:postcode" v="95136"/></node>
<node visible="true" id="-87" lat="37.278815013" lon="-121.86376986200001"><tag k="addr:city" v="San Jose"/><tag k="addr:housenumber" v="537"/><tag k="addr:street" v="Mountain Home Drive"/><tag k="addr:postcode" v="95136"/></node>
<node visible="true" id="-88" lat="37.278607792" lon="-121.86366373000001"><tag k="addr:city" v="San Jose"/><tag k="addr:housenumber" v="539"/><tag k="addr:street" v="Mountain Home Drive"/><tag k="addr:postcode" v="95136"/></node>
<node visible="true" id="-89" lat="37.278824121" lon="-121.862538544"><tag k="addr:city" v="San Jose"/><tag k="addr:housenumber" v="546"/><tag k="addr:street" v="Mountain Home Drive"/><tag k="addr:postcode" v="95136"/></node>
<node visible="true" id="-90" lat="37.278833901000006" lon="-121.863451053"><tag k="addr:city" v="San Jose"/><tag k="addr:housenumber" v="551"/><tag k="addr:street" v="Mountain Home Drive"/><tag k="addr:postcode" v="95136"/></node>
<node visible="true" id="-91" lat="37.279184086" lon="-121.862904568"><tag k="addr:city" v="San Jose"/><tag k="addr:housenumber" v="556"/><tag k="addr:street" v="Mountain Home Drive"/><tag k="addr:postcode" v="95136"/></node>
<node visible="true" id="-92" lat="37.279664385000004" lon="-121.86221439600001"><tag k="addr:city" v="San Jose"/><tag k="addr:housenumber" v="565"/><tag k="addr:street" v="Mountain Home Drive"/><tag k="addr:postcode" v="95136"/></node>
<node visible="true" id="-93" lat="37.279639218" lon="-121.863028231"><tag k="addr:city" v="San Jose"/><tag k="addr:housenumber" v="580"/><tag k="addr:street" v="Mountain Home Drive"/><tag k="addr:postcode" v="95136"/></node>
<node visible="true" id="-94" lat="37.279762552" lon="-121.862610789"><tag k="addr:city" v="San Jose"/><tag k="addr:housenumber" v="582"/><tag k="addr:street" v="Mountain Home Drive"/><tag k="addr:postcode" v="95136"/></node>
<node visible="true" id="-95" lat="37.279294804" lon="-121.86178596"><tag k="addr:city" v="San Jose"/><tag k="addr:housenumber" v="590"/><tag k="addr:street" v="Mountain Home Drive"/><tag k="addr:postcode" v="95136"/></node>
<node visible="true" id="-96" lat="37.279210685" lon="-121.86210611700001"><tag k="addr:city" v="San Jose"/><tag k="addr:housenumber" v="592"/><tag k="addr:street" v="Mountain Home Drive"/><tag k="addr:postcode" v="95136"/></node>
<node visible="true" id="-97" lat="37.279004661" lon="-121.861154846"><tag k="addr:city" v="San Jose"/><tag k="addr:housenumber" v="619"/><tag k="addr:street" v="Shadow Creek Drive"/><tag k="addr:postcode" v="95136"/></node>
<node visible="true" id="-98" lat="37.278514811" lon="-121.86276668000001"><tag k="addr:city" v="San Jose"/><tag k="addr:housenumber" v="639"/><tag k="addr:street" v="Shadow Creek Drive"/><tag k="addr:postcode" v="95136"/></node>
<node visible="true" id="-99" lat="37.278480687000005" lon="-121.863076375"><tag k="addr:city" v="San Jose"/><tag k="addr:housenumber" v="643"/><tag k="addr:street" v="Shadow Creek Drive"/><tag k="addr:postcode" v="95136"/></node>
<node visible="true" id="-100" lat="37.279866114" lon="-121.857971108"><tag k="addr:city" v="San Jose"/><tag k="addr:housenumber" v="371;373"/><tag k="addr:street" v="Maeve Court"/><tag k="addr:postcode" v="95136"/></node>
<node visible="true" id="-101" lat="37.279919443000004" lon="-121.857622766"><tag k="addr:city" v="San Jose"/><tag k="addr:housenumber" v="365;367"/><tag k="addr:street" v="Maeve Court"/><tag k="addr:postcode" v="95136"/></node>
<node visible="true" id="-102" lat="37.279695263" lon="-121.857641899"><tag k="addr:city" v="San Jose"/><tag k="addr:housenumber" v="364"/><tag k="addr:street" v="Maeve Court"/><tag k="addr:postcode" v="95136"/></node>
<node visible="true" id="-103" lat="37.279658479000005" lon="-121.85798108700001"><tag k="addr:city" v="San Jose"/><tag k="addr:housenumber" v="381"/><tag k="addr:street" v="Maeve Court"/><tag k="addr:postcode" v="95136"/></node>
<node visible="true" id="-104" lat="37.27964475" lon="-121.85798073400001"><tag k="addr:city" v="San Jose"/><tag k="addr:housenumber" v="379"/><tag k="addr:street" v="Maeve Court"/><tag k="addr:postcode" v="95136"/></node>
<node visible="true" id="-105" lat="37.279018627" lon="-121.862823211"><tag k="addr:city" v="San Jose"/><tag k="addr:housenumber" v="547"/><tag k="addr:street" v="Mountain Home Drive"/><tag k="addr:postcode" v="95136"/></node>
<node visible="true" id="-106" lat="37.279146518000005" lon="-121.86306325400001"><tag k="addr:city" v="San Jose"/><tag k="addr:housenumber" v="555"/><tag k="addr:street" v="Mountain Home Drive"/><tag k="addr:postcode" v="95136"/></node>
<node visible="true" id="-107" lat="37.279508503" lon="-121.862767472"><tag k="addr:city" v="San Jose"/><tag k="addr:housenumber" v="568"/><tag k="addr:street" v="Mountain Home Drive"/><tag k="addr:postcode" v="95136"/></node>
<node visible="true" id="-108" lat="37.27947297" lon="-121.86293797900001"><tag k="addr:city" v="San Jose"/><tag k="addr:housenumber" v="569"/><tag k="addr:street" v="Mountain Home Drive"/><tag k="addr:postcode" v="95136"/></node>
<node visible="true" id="-109" lat="37.276532133" lon="-121.860019577"><tag k="addr:city" v="San Jose"/><tag k="addr:housenumber" v="3300"/><tag k="addr:street" v="Narvaez Avenue"/><tag k="addr:unit" v="39"/><tag k="addr:postcode" v="95136"/></node>
<node visible="true" id="-110" lat="37.277004054" lon="-121.857410255"><tag k="addr:city" v="San Jose"/><tag k="addr:housenumber" v="3320"/><tag k="addr:street" v="Skyward Place"/><tag k="addr:postcode" v="95136"/></node>
<node visible="true" id="-111" lat="37.276634622" lon="-121.85738588400001"><tag k="addr:city" v="San Jose"/><tag k="addr:housenumber" v="3374"/><tag k="addr:street" v="Skyward Place"/><tag k="addr:postcode" v="95136"/></node>
<node visible="true" id="-112" lat="37.279991029" lon="-121.861143021"><tag k="addr:city" v="San Jose"/><tag k="addr:housenumber" v="3202"/><tag k="addr:street" v="Lago De Como Place"/><tag k="addr:postcode" v="95136"/></node>
<node visible="true" id="-113" lat="37.279836642" lon="-121.861063082"><tag k="addr:city" v="San Jose"/><tag k="addr:housenumber" v="3210"/><tag k="addr:street" v="Lago De Como Place"/><tag k="addr:postcode" v="95136"/></node>
<node visible="true" id="-114" lat="37.279854756" lon="-121.86098936600001"><tag k="addr:city" v="San Jose"/><tag k="addr:housenumber" v="3222"/><tag k="addr:street" v="Lago De Como Place"/><tag k="addr:postcode" v="95136"/></node>
<node visible="true" id="-115" lat="37.279705837" lon="-121.860863248"><tag k="addr:city" v="San Jose"/><tag k="addr:housenumber" v="3226"/><tag k="addr:street" v="Lago De Como Place"/><tag k="addr:postcode" v="95136"/></node>
<node visible="true" id="-116" lat="37.279872690000005" lon="-121.860931074"><tag k="addr:city" v="San Jose"/><tag k="addr:housenumber" v="3230"/><tag k="addr:street" v="Lago De Como Place"/><tag k="addr:postcode" v="95136"/></node>
<node visible="true" id="-117" lat="37.278722934" lon="-121.86372039800001"><tag k="addr:city" v="San Jose"/><tag k="addr:housenumber" v="538"/><tag k="addr:street" v="Mountain Home Drive"/><tag k="addr:postcode" v="95136"/></node>
<node visible="true" id="-118" lat="37.278555232" lon="-121.86349207100001"><tag k="addr:city" v="San Jose"/><tag k="addr:housenumber" v="540"/><tag k="addr:street" v="Mountain Home Drive"/><tag k="addr:postcode" v="95136"/></node>
<node visible="true" id="-119" lat="37.278602936000006" lon="-121.863328096"><tag k="addr:city" v="San Jose"/><tag k="addr:housenumber" v="541"/><tag k="addr:street" v="Mountain Home Drive"/><tag k="addr:postcode" v="95136"/></node>
<node visible="true" id="-120" lat="37.279008313000006" lon="-121.863534559"><tag k="addr:city" v="San Jose"/><tag k="addr:housenumber" v="552"/><tag k="addr:street" v="Mountain Home Drive"/><tag k="addr:postcode" v="95136"/></node>
<node visible="true" id="-121" lat="37.279061746" lon="-121.86337701400001"><tag k="addr:city" v="San Jose"/><tag k="addr:housenumber" v="553"/><tag k="addr:street" v="Mountain Home Drive"/><tag k="addr:postcode" v="95136"/></node>
<node visible="true" id="-122" lat="37.279390952" lon="-121.862176532"><tag k="addr:city" v="San Jose"/><tag k="addr:housenumber" v="557"/><tag k="addr:street" v="Mountain Home Drive"/><tag k="addr:postcode" v="95136"/></node>
<node visible="true" id="-123" lat="37.279438728" lon="-121.86200740400001"><tag k="addr:city" v="San Jose"/><tag k="addr:housenumber" v="558"/><tag k="addr:street" v="Mountain Home Drive"/><tag k="addr:postcode" v="95136"/></node>
<node visible="true" id="-124" lat="37.279783914" lon="-121.86177777200001"><tag k="addr:city" v="San Jose"/><tag k="addr:housenumber" v="562"/><tag k="addr:street" v="Mountain Home Drive"/><tag k="addr:postcode" v="95136"/></node>
<node visible="true" id="-125" lat="37.279748887000004" lon="-121.86192049600001"><tag k="addr:city" v="San Jose"/><tag k="addr:housenumber" v="563"/><tag k="addr:street" v="Mountain Home Drive"/><tag k="addr:postcode" v="95136"/></node>
<node visible="true" id="-126" lat="37.2771555" lon="-121.85794898"><tag k="addr:city" v="San Jose"/><tag k="addr:housenumber" v="3300"/><tag k="addr:street" v="Midtown Place"/><tag k="addr:postcode" v="95136"/></node>
<node visible="true" id="-127" lat="37.277915586" lon="-121.860867209"><tag k="addr:city" v="San Jose"/><tag k="addr:housenumber" v="3300"/><tag k="addr:street" v="Narvaez Avenue"/><tag k="addr:unit" v="100"/><tag k="addr:postcode" v="95136"/></node>
<node visible="true" id="-128" lat="37.27784384" lon="-121.86102007500001"><tag k="addr:city" v="San Jose"/><tag k="addr:housenumber" v="3300"/><tag k="addr:street" v="Narvaez Avenue"/><tag k="addr:unit" v="101"/><tag k="addr:postcode" v="95136"/></node>
<node visible="true" id="-129" lat="37.277533747" lon="-121.861008544"><tag k="addr:city" v="San Jose"/><tag k="addr:housenumber" v="3300"/><tag k="addr:street" v="Narvaez Avenue"/><tag k="addr:unit" v="122"/><tag k="addr:postcode" v="95136"/></node>
<node visible="true" id="-130" lat="37.277604469" lon="-121.86088979200001"><tag k="addr:city" v="San Jose"/><tag k="addr:housenumber" v="3300"/><tag k="addr:street" v="Narvaez Avenue"/><tag k="addr:unit" v="123"/><tag k="addr:postcode" v="95136"/></node>
<node visible="true" id="-131" lat="37.278377897000006" lon="-121.860399751"><tag k="addr:city" v="San Jose"/><tag k="addr:housenumber" v="3300"/><tag k="addr:street" v="Narvaez Avenue"/><tag k="addr:unit" v="95"/><tag k="addr:postcode" v="95136"/></node>
<node visible="true" id="-132" lat="37.278201357" lon="-121.86036291500001"><tag k="addr:city" v="San Jose"/><tag k="addr:housenumber" v="3300"/><tag k="addr:street" v="Narvaez Avenue"/><tag k="addr:unit" v="96"/><tag k="addr:postcode" v="95136"/></node>
<node visible="true" id="-133" lat="37.278134712" lon="-121.860483305"><tag k="addr:city" v="San Jose"/><tag k="addr:housenumber" v="3300"/><tag k="addr:street" v="Narvaez Avenue"/><tag k="addr:unit" v="97"/><tag k="addr:postcode" v="95136"/></node>
<node visible="true" id="-134" lat="37.278078808000004" lon="-121.86059321"><tag k="addr:city" v="San Jose"/><tag k="addr:housenumber" v="3300"/><tag k="addr:street" v="Narvaez Avenue"/><tag k="addr:unit" v="98"/><tag k="addr:postcode" v="95136"/></node>
<node visible="true" id="-135" lat="37.278003645000005" lon="-121.860746765"><tag k="addr:city" v="San Jose"/><tag k="addr:housenumber" v="3300"/><tag k="addr:street" v="Narvaez Avenue"/><tag k="addr:unit" v="99"/><tag k="addr:postcode" v="95136"/></node>
<node visible="true" id="-136" lat="37.276935947000005" lon="-121.858233518"><tag k="addr:city" v="San Jose"/><tag k="addr:housenumber" v="3343"/><tag k="addr:street" v="Midtown Place"/><tag k="addr:postcode" v="95136"/></node>
<node visible="true" id="-137" lat="37.278992309" lon="-121.857812522"><tag k="addr:city" v="San Jose"/><tag k="addr:housenumber" v="439"/><tag k="addr:street" v="Ashling Court"/><tag k="addr:postcode" v="95136"/></node>
<node visible="true" id="-138" lat="37.278992313" lon="-121.85781218000001"><tag k="addr:city" v="San Jose"/><tag k="addr:housenumber" v="435;437"/><tag k="addr:street" v="Ashling Court"/><tag k="addr:postcode" v="95136"/></node>
<node visible="true" id="-139" lat="37.277394814000004" lon="-121.85840941900001"><tag k="addr:city" v="San Jose"/><tag k="addr:housenumber" v="541"/><tag k="addr:street" v="Cityscape Place"/><tag k="addr:postcode" v="95136"/></node>
<node visible="true" id="-140" lat="37.278648914" lon="-121.85725761900001"><tag k="addr:city" v="San Jose"/><tag k="addr:housenumber" v="304"/><tag k="addr:street" v="Ballymore Circle"/><tag k="addr:postcode" v="95136"/></node>
<node visible="true" id="-141" lat="37.278585472" lon="-121.857034072"><tag k="addr:city" v="San Jose"/><tag k="addr:housenumber" v="308"/><tag k="addr:street" v="Ballymore Circle"/><tag k="addr:postcode" v="95136"/></node>
<node visible="true" id="-142" lat="37.279731237" lon="-121.86079892100001"><tag k="addr:city" v="San Jose"/><tag k="addr:housenumber" v="3234"/><tag k="addr:street" v="Lago De Como Place"/><tag k="addr:postcode" v="95136"/></node>
<node visible="true" id="-143" lat="37.279500862" lon="-121.86089345600001"><tag k="addr:city" v="San Jose"/><tag k="addr:housenumber" v="3242"/><tag k="addr:street" v="Lago De Como Place"/><tag k="addr:postcode" v="95136"/></node>
<node visible="true" id="-144" lat="37.279341583000004" lon="-121.86081034200001"><tag k="addr:city" v="San Jose"/><tag k="addr:housenumber" v="3246"/><tag k="addr:street" v="Lago De Como Place"/><tag k="addr:postcode" v="95136"/></node>
<node visible="true" id="-145" lat="37.279518869" lon="-121.860828995"><tag k="addr:city" v="San Jose"/><tag k="addr:housenumber" v="3250"/><tag k="addr:street" v="Lago De Como Place"/><tag k="addr:postcode" v="95136"/></node>
<node visible="true" id="-146" lat="37.27935716" lon="-121.86074275200001"><tag k="addr:city" v="San Jose"/><tag k="addr:housenumber" v="3254"/><tag k="addr:street" v="Lago De Como Place"/><tag k="addr:postcode" v="95136"/></node>
<node visible="true" id="-147" lat="37.279536840000006" lon="-121.86076761800001"><tag k="addr:city" v="San Jose"/><tag k="addr:housenumber" v="3258"/><tag k="addr:street" v="Lago De Como Place"/><tag k="addr:postcode" v="95136"/></node>
<node visible="true" id="-148" lat="37.279377559000004" lon="-121.86068450500001"><tag k="addr:city" v="San Jose"/><tag k="addr:housenumber" v="3262"/><tag k="addr:street" v="Lago De Como Place"/><tag k="addr:postcode" v="95136"/></node>
<node visible="true" id="-149" lat="37.279559776" lon="-121.86070324600001"><tag k="addr:city" v="San Jose"/><tag k="addr:housenumber" v="3266"/><tag k="addr:street" v="Lago De Como Place"/><tag k="addr:postcode" v="95136"/></node>
<node visible="true" id="-150" lat="37.279395636000004" lon="-121.86061387500001"><tag k="addr:city" v="San Jose"/><tag k="addr:housenumber" v="3270"/><tag k="addr:street" v="Lago De Como Place"/><tag k="addr:postcode" v="95136"/></node>
<node visible="true" id="-151" lat="37.278985153" lon="-121.86072055800001"><tag k="addr:city" v="San Jose"/><tag k="addr:housenumber" v="3274"/><tag k="addr:street" v="Lago De Como Place"/><tag k="addr:postcode" v="95136"/></node>
<node visible="true" id="-152" lat="37.279172263" lon="-121.860742474"><tag k="addr:city" v="San Jose"/><tag k="addr:housenumber" v="3278"/><tag k="addr:street" v="Lago De Como Place"/><tag k="addr:postcode" v="95136"/></node>
<node visible="true" id="-153" lat="37.278995765000005" lon="-121.86065596300001"><tag k="addr:city" v="San Jose"/><tag k="addr:housenumber" v="3282"/><tag k="addr:street" v="Lago De Como Place"/><tag k="addr:postcode" v="95136"/></node>
<node visible="true" id="-154" lat="37.27919034" lon="-121.86067184400001"><tag k="addr:city" v="San Jose"/><tag k="addr:housenumber" v="3286"/><tag k="addr:street" v="Lago De Como Place"/><tag k="addr:postcode" v="95136"/></node>
<node visible="true" id="-155" lat="37.279013843" lon="-121.860585333"><tag k="addr:city" v="San Jose"/><tag k="addr:housenumber" v="3290"/><tag k="addr:street" v="Lago De Como Place"/><tag k="addr:postcode" v="95136"/></node>
<node visible="true" id="-156" lat="37.279210884" lon="-121.86060125700001"><tag k="addr:city" v="San Jose"/><tag k="addr:housenumber" v="3294"/><tag k="addr:street" v="Lago De Como Place"/><tag k="addr:postcode" v="95136"/></node>
<node visible="true" id="-157" lat="37.279036778000005" lon="-121.860520961"><tag k="addr:city" v="San Jose"/><tag k="addr:housenumber" v="3298"/><tag k="addr:street" v="Lago De Como Place"/><tag k="addr:postcode" v="95136"/></node>
<node visible="true" id="-158" lat="37.277281516" lon="-121.86204685000001"><tag k="addr:city" v="San Jose"/><tag k="addr:housenumber" v="3300"/><tag k="addr:street" v="Narvaez Avenue"/><tag k="addr:unit" v="108"/><tag k="addr:postcode" v="95136"/></node>
<node visible="true" id="-159" lat="37.277475256" lon="-121.86143302200001"><tag k="addr:city" v="San Jose"/><tag k="addr:housenumber" v="330"/><tag k="addr:street" v="Shadow Creek Drive"/><tag k="addr:postcode" v="95136"/></node>
<node visible="true" id="-160" lat="37.277724292" lon="-121.86317079300001"><tag k="addr:city" v="San Jose"/><tag k="addr:housenumber" v="3300"/><tag k="addr:street" v="Narvaez Avenue"/><tag k="addr:unit" v="1"/><tag k="addr:postcode" v="95136"/></node>
<node visible="true" id="-161" lat="37.278319967" lon="-121.86221309000001"><tag k="addr:city" v="San Jose"/><tag k="addr:housenumber" v="3300"/><tag k="addr:street" v="Narvaez Avenue"/><tag k="addr:unit" v="10"/><tag k="addr:postcode" v="95136"/></node>
<node visible="true" id="-162" lat="37.277752159" lon="-121.861152075"><tag k="addr:city" v="San Jose"/><tag k="addr:housenumber" v="3300"/><tag k="addr:street" v="Narvaez Avenue"/><tag k="addr:unit" v="102"/><tag k="addr:postcode" v="95136"/></node>
<node visible="true" id="-163" lat="37.277688646" lon="-121.861314918"><tag k="addr:city" v="San Jose"/><tag k="addr:housenumber" v="3300"/><tag k="addr:street" v="Narvaez Avenue"/><tag k="addr:unit" v="103"/><tag k="addr:postcode" v="95136"/></node>
<node visible="true" id="-164" lat="37.277599403" lon="-121.861452381"><tag k="addr:city" v="San Jose"/><tag k="addr:housenumber" v="3300"/><tag k="addr:street" v="Narvaez Avenue"/><tag k="addr:unit" v="104"/><tag k="addr:postcode" v="95136"/></node>
<node visible="true" id="-165" lat="37.27750923" lon="-121.861620583"><tag k="addr:city" v="San Jose"/><tag k="addr:housenumber" v="3300"/><tag k="addr:street" v="Narvaez Avenue"/><tag k="addr:unit" v="105"/><tag k="addr:postcode" v="95136"/></node>
<node visible="true" id="-166" lat="37.27744547" lon="-121.861777778"><tag k="addr:city" v="San Jose"/><tag k="addr:housenumber" v="3300"/><tag k="addr:street" v="Narvaez Avenue"/><tag k="addr:unit" v="106"/><tag k="addr:postcode" v="95136"/></node>
<node visible="true" id="-167" lat="37.277368612000004" lon="-121.86190221100001"><tag k="addr:city" v="San Jose"/><tag k="addr:housenumber" v="3300"/><tag k="addr:street" v="Narvaez Avenue"/><tag k="addr:unit" v="107"/><tag k="addr:postcode" v="95136"/></node>
<node visible="true" id="-168" lat="37.277200263000005" lon="-121.862201631"><tag k="addr:city" v="San Jose"/><tag k="addr:housenumber" v="3300"/><tag k="addr:street" v="Narvaez Avenue"/><tag k="addr:unit" v="109"/><tag k="addr:postcode" v="95136"/></node>
<node visible="true" id="-169" lat="37.278367831000004" lon="-121.86204849"><tag k="addr:city" v="San Jose"/><tag k="addr:housenumber" v="3300"/><tag k="addr:street" v="Narvaez Avenue"/><tag k="addr:unit" v="11"/><tag k="addr:postcode" v="95136"/></node>
<node visible="true" id="-170" lat="37.277116345" lon="-121.862332429"><tag k="addr:city" v="San Jose"/><tag k="addr:housenumber" v="3300"/><tag k="addr:street" v="Narvaez Avenue"/><tag k="addr:unit" v="110"/><tag k="addr:postcode" v="95136"/></node>
<node visible="true" id="-171" lat="37.277053112000004" lon="-121.862482771"><tag k="addr:city" v="San Jose"/><tag k="addr:housenumber" v="3300"/><tag k="addr:street" v="Narvaez Avenue"/><tag k="addr:unit" v="111"/><tag k="addr:postcode" v="95136"/></node>
<node visible="true" id="-172" lat="37.276802148" lon="-121.862346087"><tag k="addr:city" v="San Jose"/><tag k="addr:housenumber" v="3300"/><tag k="addr:street" v="Narvaez Avenue"/><tag k="addr:unit" v="112"/><tag k="addr:postcode" v="95136"/></node>
<node visible="true" id="-173" lat="37.276887191" lon="-121.86222852600001"><tag k="addr:city" v="San Jose"/><tag k="addr:housenumber" v="3300"/><tag k="addr:street" v="Narvaez Avenue"/><tag k="addr:unit" v="113"/><tag k="addr:postcode" v="95136"/></node>
<node visible="true" id="-174" lat="37.276951349" lon="-121.86208127900001"><tag k="addr:city" v="San Jose"/><tag k="addr:housenumber" v="3300"/><tag k="addr:street" v="Narvaez Avenue"/><tag k="addr:unit" v="114"/><tag k="addr:postcode" v="95136"/></node>
<node visible="true" id="-175" lat="37.277035499" lon="-121.86192633900001"><tag k="addr:city" v="San Jose"/><tag k="addr:housenumber" v="3300"/><tag k="addr:street" v="Narvaez Avenue"/><tag k="addr:unit" v="115"/><tag k="addr:postcode" v="95136"/></node>
<node visible="true" id="-176" lat="37.277113463" lon="-121.861798167"><tag k="addr:city" v="San Jose"/><tag k="addr:housenumber" v="3300"/><tag k="addr:street" v="Narvaez Avenue"/><tag k="addr:unit" v="116"/><tag k="addr:postcode" v="95136"/></node>
<node visible="true" id="-177" lat="37.277172704" lon="-121.861660021"><tag k="addr:city" v="San Jose"/><tag k="addr:housenumber" v="3300"/><tag k="addr:street" v="Narvaez Avenue"/><tag k="addr:unit" v="117"/><tag k="addr:postcode" v="95136"/></node>
<node visible="true" id="-178" lat="37.277255844" lon="-121.861522738"><tag k="addr:city" v="San Jose"/><tag k="addr:housenumber" v="3300"/><tag k="addr:street" v="Narvaez Avenue"/><tag k="addr:unit" v="118"/><tag k="addr:postcode" v="95136"/></node>
<node visible="true" id="-179" lat="37.277323729" lon="-121.86139924800001"><tag k="addr:city" v="San Jose"/><tag k="addr:housenumber" v="3300"/><tag k="addr:street" v="Narvaez Avenue"/><tag k="addr:unit" v="119"/><tag k="addr:postcode" v="95136"/></node>
<node visible="true" id="-180" lat="37.278412037" lon="-121.86188987700001"><tag k="addr:city" v="San Jose"/><tag k="addr:housenumber" v="3300"/><tag k="addr:street" v="Narvaez Avenue"/><tag k="addr:unit" v="12"/><tag k="addr:postcode" v="95136"/></node>
<node visible="true" id="-181" lat="37.277405603000005" lon="-121.86125439800001"><tag k="addr:city" v="San Jose"/><tag k="addr:housenumber" v="3300"/><tag k="addr:street" v="Narvaez Avenue"/><tag k="addr:unit" v="120"/><tag k="addr:postcode" v="95136"/></node>
<node visible="true" id="-182" lat="37.277467377" lon="-121.86114921500001"><tag k="addr:city" v="San Jose"/><tag k="addr:housenumber" v="3300"/><tag k="addr:street" v="Narvaez Avenue"/><tag k="addr:unit" v="121"/><tag k="addr:postcode" v="95136"/></node>
<node visible="true" id="-183" lat="37.277667408" lon="-121.860772272"><tag k="addr:city" v="San Jose"/><tag k="addr:housenumber" v="3300"/><tag k="addr:street" v="Narvaez Avenue"/><tag k="addr:unit" v="124"/><tag k="addr:postcode" v="95136"/></node>
<node visible="true" id="-184" lat="37.277746749" lon="-121.860632229"><tag k="addr:city" v="San Jose"/><tag k="addr:housenumber" v="3300"/><tag k="addr:street" v="Narvaez Avenue"/><tag k="addr:unit" v="125"/><tag k="addr:postcode" v="95136"/></node>
<node visible="true" id="-185" lat="37.277831465000006" lon="-121.86049065600001"><tag k="addr:city" v="San Jose"/><tag k="addr:housenumber" v="3300"/><tag k="addr:street" v="Narvaez Avenue"/><tag k="addr:unit" v="126"/><tag k="addr:postcode" v="95136"/></node>
<node visible="true" id="-186" lat="37.277909608" lon="-121.86034698"><tag k="addr:city" v="San Jose"/><tag k="addr:housenumber" v="3300"/><tag k="addr:street" v="Narvaez Avenue"/><tag k="addr:unit" v="127"/><tag k="addr:postcode" v="95136"/></node>
<node visible="true" id="-187" lat="37.277994102" lon="-121.86021261100001"><tag k="addr:city" v="San Jose"/><tag k="addr:housenumber" v="3300"/><tag k="addr:street" v="Narvaez Avenue"/><tag k="addr:unit" v="128"/><tag k="addr:postcode" v="95136"/></node>
<node visible="true" id="-188" lat="37.277828377000006" lon="-121.86010909800001"><tag k="addr:city" v="San Jose"/><tag k="addr:housenumber" v="3300"/><tag k="addr:street" v="Narvaez Avenue"/><tag k="addr:unit" v="129"/><tag k="addr:postcode" v="95136"/></node>
<node visible="true" id="-189" lat="37.278455925" lon="-121.86172555300001"><tag k="addr:city" v="San Jose"/><tag k="addr:housenumber" v="3300"/><tag k="addr:street" v="Narvaez Avenue"/><tag k="addr:unit" v="13"/><tag k="addr:postcode" v="95136"/></node>
<node visible="true" id="-190" lat="37.277758995" lon="-121.860261264"><tag k="addr:city" v="San Jose"/><tag k="addr:housenumber" v="3300"/><tag k="addr:street" v="Narvaez Avenue"/><tag k="addr:unit" v="130"/><tag k="addr:postcode" v="95136"/></node>
<node visible="true" id="-191" lat="37.277679095" lon="-121.860406185"><tag k="addr:city" v="San Jose"/><tag k="addr:housenumber" v="3300"/><tag k="addr:street" v="Narvaez Avenue"/><tag k="addr:unit" v="131"/><tag k="addr:postcode" v="95136"/></node>
<node visible="true" id="-192" lat="37.277584537" lon="-121.860548659"><tag k="addr:city" v="San Jose"/><tag k="addr:housenumber" v="3300"/><tag k="addr:street" v="Narvaez Avenue"/><tag k="addr:unit" v="132"/><tag k="addr:postcode" v="95136"/></node>
<node visible="true" id="-193" lat="37.277519786" lon="-121.86068250400001"><tag k="addr:city" v="San Jose"/><tag k="addr:housenumber" v="3300"/><tag k="addr:street" v="Narvaez Avenue"/><tag k="addr:unit" v="133"/><tag k="addr:postcode" v="95136"/></node>
<node visible="true" id="-194" lat="37.277447937000005" lon="-121.860809723"><tag k="addr:city" v="San Jose"/><tag k="addr:housenumber" v="3300"/><tag k="addr:street" v="Narvaez Avenue"/><tag k="addr:unit" v="134"/><tag k="addr:postcode" v="95136"/></node>
<node visible="true" id="-195" lat="37.277368131" lon="-121.860965324"><tag k="addr:city" v="San Jose"/><tag k="addr:housenumber" v="3300"/><tag k="addr:street" v="Narvaez Avenue"/><tag k="addr:unit" v="135"/><tag k="addr:postcode" v="95136"/></node>
<node visible="true" id="-196" lat="37.277303536000005" lon="-121.86108404900001"><tag k="addr:city" v="San Jose"/><tag k="addr:housenumber" v="3300"/><tag k="addr:street" v="Narvaez Avenue"/><tag k="addr:unit" v="136"/><tag k="addr:postcode" v="95136"/></node>
<node visible="true" id="-197" lat="37.277201248000004" lon="-121.86121577200001"><tag k="addr:city" v="San Jose"/><tag k="addr:housenumber" v="3300"/><tag k="addr:street" v="Narvaez Avenue"/><tag k="addr:unit" v="137"/><tag k="addr:postcode" v="95136"/></node>
<node visible="true" id="-198" lat="37.277142783" lon="-121.861364949"><tag k="addr:city" v="San Jose"/><tag k="addr:housenumber" v="3300"/><tag k="addr:street" v="Narvaez Avenue"/><tag k="addr:unit" v="138"/><tag k="addr:postcode" v="95136"/></node>
<node visible="true" id="-199" lat="37.277059164" lon="-121.86150658300001"><tag k="addr:city" v="San Jose"/><tag k="addr:housenumber" v="3300"/><tag k="addr:street" v="Narvaez Avenue"/><tag k="addr:unit" v="139"/><tag k="addr:postcode" v="95136"/></node>
<node visible="true" id="-200" lat="37.278493061" lon="-121.86154633900001"><tag k="addr:city" v="San Jose"/><tag k="addr:housenumber" v="3300"/><tag k="addr:street" v="Narvaez Avenue"/><tag k="addr:unit" v="14"/><tag k="addr:postcode" v="95136"/></node>
<node visible="true" id="-201" lat="37.276995033000006" lon="-121.861646069"><tag k="addr:city" v="San Jose"/><tag k="addr:housenumber" v="3300"/><tag k="addr:street" v="Narvaez Avenue"/><tag k="addr:unit" v="140"/><tag k="addr:postcode" v="95136"/></node>
<node visible="true" id="-202" lat="37.276908738" lon="-121.86177976200001"><tag k="addr:city" v="San Jose"/><tag k="addr:housenumber" v="3300"/><tag k="addr:street" v="Narvaez Avenue"/><tag k="addr:unit" v="141"/><tag k="addr:postcode" v="95136"/></node>
<node visible="true" id="-203" lat="37.276843491" lon="-121.861924212"><tag k="addr:city" v="San Jose"/><tag k="addr:housenumber" v="3300"/><tag k="addr:street" v="Narvaez Avenue"/><tag k="addr:unit" v="142"/><tag k="addr:postcode" v="95136"/></node>
<node visible="true" id="-204" lat="37.276764071" lon="-121.86204888"><tag k="addr:city" v="San Jose"/><tag k="addr:housenumber" v="3300"/><tag k="addr:street" v="Narvaez Avenue"/><tag k="addr:unit" v="143"/><tag k="addr:postcode" v="95136"/></node>
<node visible="true" id="-205" lat="37.276686911000006" lon="-121.862186191"><tag k="addr:city" v="San Jose"/><tag k="addr:housenumber" v="3300"/><tag k="addr:street" v="Narvaez Avenue"/><tag k="addr:unit" v="144"/><tag k="addr:postcode" v="95136"/></node>
<node visible="true" id="-206" lat="37.276525160000006" lon="-121.861940527"><tag k="addr:city" v="San Jose"/><tag k="addr:housenumber" v="3300"/><tag k="addr:street" v="Narvaez Avenue"/><tag k="addr:unit" v="145"/><tag k="addr:postcode" v="95136"/></node>
<node visible="true" id="-207" lat="37.276599151" lon="-121.86179556500001"><tag k="addr:city" v="San Jose"/><tag k="addr:housenumber" v="3300"/><tag k="addr:street" v="Narvaez Avenue"/><tag k="addr:unit" v="146"/><tag k="addr:postcode" v="95136"/></node>
<node visible="true" id="-208" lat="37.276666154000004" lon="-121.86164514000001"><tag k="addr:city" v="San Jose"/><tag k="addr:housenumber" v="3300"/><tag k="addr:street" v="Narvaez Avenue"/><tag k="addr:unit" v="147"/><tag k="addr:postcode" v="95136"/></node>
<node visible="true" id="-209" lat="37.276759237" lon="-121.861503913"><tag k="addr:city" v="San Jose"/><tag k="addr:housenumber" v="3300"/><tag k="addr:street" v="Narvaez Avenue"/><tag k="addr:unit" v="148"/><tag k="addr:postcode" v="95136"/></node>
<node visible="true" id="-210" lat="37.276840652000004" lon="-121.861352068"><tag k="addr:city" v="San Jose"/><tag k="addr:housenumber" v="3300"/><tag k="addr:street" v="Narvaez Avenue"/><tag k="addr:unit" v="149"/><tag k="addr:postcode" v="95136"/></node>
<node visible="true" id="-211" lat="37.27853606" lon="-121.861388719"><tag k="addr:city" v="San Jose"/><tag k="addr:housenumber" v="3300"/><tag k="addr:street" v="Narvaez Avenue"/><tag k="addr:unit" v="15"/><tag k="addr:postcode" v="95136"/></node>
<node visible="true" id="-212" lat="37.276921366" lon="-121.86121237500001"><tag k="addr:city" v="San Jose"/><tag k="addr:housenumber" v="3300"/><tag k="addr:street" v="Narvaez Avenue"/><tag k="addr:unit" v="150"/><tag k="addr:postcode" v="95136"/></node>
<node visible="true" id="-213" lat="37.276993143000006" lon="-121.86106237700001"><tag k="addr:city" v="San Jose"/><tag k="addr:housenumber" v="3300"/><tag k="addr:street" v="Narvaez Avenue"/><tag k="addr:unit" v="151"/><tag k="addr:postcode" v="95136"/></node>
<node visible="true" id="-214" lat="37.277062897" lon="-121.86092148200001"><tag k="addr:city" v="San Jose"/><tag k="addr:housenumber" v="3300"/><tag k="addr:street" v="Narvaez Avenue"/><tag k="addr:unit" v="152"/><tag k="addr:postcode" v="95136"/></node>
<node visible="true" id="-215" lat="37.277156705" lon="-121.860774762"><tag k="addr:city" v="San Jose"/><tag k="addr:housenumber" v="3300"/><tag k="addr:street" v="Narvaez Avenue"/><tag k="addr:unit" v="153"/><tag k="addr:postcode" v="95136"/></node>
<node visible="true" id="-216" lat="37.277222688" lon="-121.86063033"><tag k="addr:city" v="San Jose"/><tag k="addr:housenumber" v="3300"/><tag k="addr:street" v="Narvaez Avenue"/><tag k="addr:unit" v="154"/><tag k="addr:postcode" v="95136"/></node>
<node visible="true" id="-217" lat="37.277323999000004" lon="-121.86048245600001"><tag k="addr:city" v="San Jose"/><tag k="addr:housenumber" v="3300"/><tag k="addr:street" v="Narvaez Avenue"/><tag k="addr:unit" v="155"/><tag k="addr:postcode" v="95136"/></node>
<node visible="true" id="-218" lat="37.277400672" lon="-121.860325461"><tag k="addr:city" v="San Jose"/><tag k="addr:housenumber" v="3300"/><tag k="addr:street" v="Narvaez Avenue"/><tag k="addr:unit" v="156"/><tag k="addr:postcode" v="95136"/></node>
<node visible="true" id="-219" lat="37.277471318" lon="-121.86019273500001"><tag k="addr:city" v="San Jose"/><tag k="addr:housenumber" v="3300"/><tag k="addr:street" v="Narvaez Avenue"/><tag k="addr:unit" v="157"/><tag k="addr:postcode" v="95136"/></node>
<node visible="true" id="-220" lat="37.277556746" lon="-121.860054019"><tag k="addr:city" v="San Jose"/><tag k="addr:housenumber" v="3300"/><tag k="addr:street" v="Narvaez Avenue"/><tag k="addr:unit" v="158"/><tag k="addr:postcode" v="95136"/></node>
<node visible="true" id="-221" lat="37.277611301" lon="-121.859925595"><tag k="addr:city" v="San Jose"/><tag k="addr:housenumber" v="3300"/><tag k="addr:street" v="Narvaez Avenue"/><tag k="addr:unit" v="159"/><tag k="addr:postcode" v="95136"/></node>
<node visible="true" id="-222" lat="37.278579345000004" lon="-121.861223726"><tag k="addr:city" v="San Jose"/><tag k="addr:housenumber" v="3300"/><tag k="addr:street" v="Narvaez Avenue"/><tag k="addr:unit" v="16"/><tag k="addr:postcode" v="95136"/></node>
<node visible="true" id="-223" lat="37.27742671" lon="-121.859889964"><tag k="addr:city" v="San Jose"/><tag k="addr:housenumber" v="3300"/><tag k="addr:street" v="Narvaez Avenue"/><tag k="addr:unit" v="160"/><tag k="addr:postcode" v="95136"/></node>
<node visible="true" id="-224" lat="37.277364683" lon="-121.86003429300001"><tag k="addr:city" v="San Jose"/><tag k="addr:housenumber" v="3300"/><tag k="addr:street" v="Narvaez Avenue"/><tag k="addr:unit" v="161"/><tag k="addr:postcode" v="95136"/></node>
<node visible="true" id="-225" lat="37.277278200000005" lon="-121.86016854600001"><tag k="addr:city" v="San Jose"/><tag k="addr:housenumber" v="3300"/><tag k="addr:street" v="Narvaez Avenue"/><tag k="addr:unit" v="162"/><tag k="addr:postcode" v="95136"/></node>
<node visible="true" id="-226" lat="37.277195839" lon="-121.860303935"><tag k="addr:city" v="San Jose"/><tag k="addr:housenumber" v="3300"/><tag k="addr:street" v="Narvaez Avenue"/><tag k="addr:unit" v="163"/><tag k="addr:postcode" v="95136"/></node>
<node visible="true" id="-227" lat="37.27712025" lon="-121.86046163600001"><tag k="addr:city" v="San Jose"/><tag k="addr:housenumber" v="3300"/><tag k="addr:street" v="Narvaez Avenue"/><tag k="addr:unit" v="164"/><tag k="addr:postcode" v="95136"/></node>
<node visible="true" id="-228" lat="37.277046181" lon="-121.860615589"><tag k="addr:city" v="San Jose"/><tag k="addr:housenumber" v="3300"/><tag k="addr:street" v="Narvaez Avenue"/><tag k="addr:unit" v="165"/><tag k="addr:postcode" v="95136"/></node>
<node visible="true" id="-229" lat="37.276949846" lon="-121.86076400600001"><tag k="addr:city" v="San Jose"/><tag k="addr:housenumber" v="3300"/><tag k="addr:street" v="Narvaez Avenue"/><tag k="addr:unit" v="166"/><tag k="addr:postcode" v="95136"/></node>
<node visible="true" id="-230" lat="37.276874585" lon="-121.860895811"><tag k="addr:city" v="San Jose"/><tag k="addr:housenumber" v="3300"/><tag k="addr:street" v="Narvaez Avenue"/><tag k="addr:unit" v="167"/><tag k="addr:postcode" v="95136"/></node>
<node visible="true" id="-231" lat="37.276798244000005" lon="-121.86104453600001"><tag k="addr:city" v="San Jose"/><tag k="addr:housenumber" v="3300"/><tag k="addr:street" v="Narvaez Avenue"/><tag k="addr:unit" v="168"/><tag k="addr:postcode" v="95136"/></node>
<node visible="true" id="-232" lat="37.276710012" lon="-121.861193352"><tag k="addr:city" v="San Jose"/><tag k="addr:housenumber" v="3300"/><tag k="addr:street" v="Narvaez Avenue"/><tag k="addr:unit" v="169"/><tag k="addr:postcode" v="95136"/></node>
<node visible="true" id="-233" lat="37.278632706" lon="-121.86106857000001"><tag k="addr:city" v="San Jose"/><tag k="addr:housenumber" v="3300"/><tag k="addr:street" v="Narvaez Avenue"/><tag k="addr:unit" v="17"/><tag k="addr:postcode" v="95136"/></node>
<node visible="true" id="-234" lat="37.276643025000006" lon="-121.861346228"><tag k="addr:city" v="San Jose"/><tag k="addr:housenumber" v="3300"/><tag k="addr:street" v="Narvaez Avenue"/><tag k="addr:unit" v="170"/><tag k="addr:postcode" v="95136"/></node>
<node visible="true" id="-235" lat="37.27656392" lon="-121.861487381"><tag k="addr:city" v="San Jose"/><tag k="addr:housenumber" v="3300"/><tag k="addr:street" v="Narvaez Avenue"/><tag k="addr:unit" v="171"/><tag k="addr:postcode" v="95136"/></node>
<node visible="true" id="-236" lat="37.276480369000005" lon="-121.861633612"><tag k="addr:city" v="San Jose"/><tag k="addr:housenumber" v="3300"/><tag k="addr:street" v="Narvaez Avenue"/><tag k="addr:unit" v="172"/><tag k="addr:postcode" v="95136"/></node>
<node visible="true" id="-237" lat="37.276407104" lon="-121.86177790900001"><tag k="addr:city" v="San Jose"/><tag k="addr:housenumber" v="3300"/><tag k="addr:street" v="Narvaez Avenue"/><tag k="addr:unit" v="173"/><tag k="addr:postcode" v="95136"/></node>
<node visible="true" id="-238" lat="37.276237062" lon="-121.861525748"><tag k="addr:city" v="San Jose"/><tag k="addr:housenumber" v="3300"/><tag k="addr:street" v="Narvaez Avenue"/><tag k="addr:unit" v="174"/><tag k="addr:postcode" v="95136"/></node>
<node visible="true" id="-239" lat="37.276316819" lon="-121.861389352"><tag k="addr:city" v="San Jose"/><tag k="addr:housenumber" v="3300"/><tag k="addr:street" v="Narvaez Avenue"/><tag k="addr:unit" v="175"/><tag k="addr:postcode" v="95136"/></node>
<node visible="true" id="-240" lat="37.276390019000004" lon="-121.861241784"><tag k="addr:city" v="San Jose"/><tag k="addr:housenumber" v="3300"/><tag k="addr:street" v="Narvaez Avenue"/><tag k="addr:unit" v="176"/><tag k="addr:postcode" v="95136"/></node>
<node visible="true" id="-241" lat="37.276456036" lon="-121.86109897300001"><tag k="addr:city" v="San Jose"/><tag k="addr:housenumber" v="3300"/><tag k="addr:street" v="Narvaez Avenue"/><tag k="addr:unit" v="177"/><tag k="addr:postcode" v="95136"/></node>
<node visible="true" id="-242" lat="37.276539354" lon="-121.86096626400001"><tag k="addr:city" v="San Jose"/><tag k="addr:housenumber" v="3300"/><tag k="addr:street" v="Narvaez Avenue"/><tag k="addr:unit" v="178"/><tag k="addr:postcode" v="95136"/></node>
<node visible="true" id="-243" lat="37.276617714000004" lon="-121.86081786400001"><tag k="addr:city" v="San Jose"/><tag k="addr:housenumber" v="3300"/><tag k="addr:street" v="Narvaez Avenue"/><tag k="addr:unit" v="179"/><tag k="addr:postcode" v="95136"/></node>
<node visible="true" id="-244" lat="37.278670589" lon="-121.860895678"><tag k="addr:city" v="San Jose"/><tag k="addr:housenumber" v="3300"/><tag k="addr:street" v="Narvaez Avenue"/><tag k="addr:unit" v="18"/><tag k="addr:postcode" v="95136"/></node>
<node visible="true" id="-245" lat="37.276697932000005" lon="-121.86065791200001"><tag k="addr:city" v="San Jose"/><tag k="addr:housenumber" v="3300"/><tag k="addr:street" v="Narvaez Avenue"/><tag k="addr:unit" v="180"/><tag k="addr:postcode" v="95136"/></node>
<node visible="true" id="-246" lat="37.276776731000005" lon="-121.86052420700001"><tag k="addr:city" v="San Jose"/><tag k="addr:housenumber" v="3300"/><tag k="addr:street" v="Narvaez Avenue"/><tag k="addr:unit" v="181"/><tag k="addr:postcode" v="95136"/></node>
<node visible="true" id="-247" lat="37.276852953" lon="-121.860374367"><tag k="addr:city" v="San Jose"/><tag k="addr:housenumber" v="3300"/><tag k="addr:street" v="Narvaez Avenue"/><tag k="addr:unit" v="182"/><tag k="addr:postcode" v="95136"/></node>
<node visible="true" id="-248" lat="37.276936972" lon="-121.86025072700001"><tag k="addr:city" v="San Jose"/><tag k="addr:housenumber" v="3300"/><tag k="addr:street" v="Narvaez Avenue"/><tag k="addr:unit" v="183"/><tag k="addr:postcode" v="95136"/></node>
<node visible="true" id="-249" lat="37.277005119" lon="-121.860101627"><tag k="addr:city" v="San Jose"/><tag k="addr:housenumber" v="3300"/><tag k="addr:street" v="Narvaez Avenue"/><tag k="addr:unit" v="184"/><tag k="addr:postcode" v="95136"/></node>
<node visible="true" id="-250" lat="37.277094022" lon="-121.85996041300001"><tag k="addr:city" v="San Jose"/><tag k="addr:housenumber" v="3300"/><tag k="addr:street" v="Narvaez Avenue"/><tag k="addr:unit" v="185"/><tag k="addr:postcode" v="95136"/></node>
<node visible="true" id="-251" lat="37.277156058" lon="-121.859805561"><tag k="addr:city" v="San Jose"/><tag k="addr:housenumber" v="3300"/><tag k="addr:street" v="Narvaez Avenue"/><tag k="addr:unit" v="186"/><tag k="addr:postcode" v="95136"/></node>
<node visible="true" id="-252" lat="37.277219521" lon="-121.859709139"><tag k="addr:city" v="San Jose"/><tag k="addr:housenumber" v="3300"/><tag k="addr:street" v="Narvaez Avenue"/><tag k="addr:unit" v="187"/><tag k="addr:postcode" v="95136"/></node>
<node visible="true" id="-253" lat="37.277053743" lon="-121.85964271700001"><tag k="addr:city" v="San Jose"/><tag k="addr:housenumber" v="3300"/><tag k="addr:street" v="Narvaez Avenue"/><tag k="addr:unit" v="188"/><tag k="addr:postcode" v="95136"/></node>
<node visible="true" id="-254" lat="37.276975018" lon="-121.85978248400001"><tag k="addr:city" v="San Jose"/><tag k="addr:housenumber" v="3300"/><tag k="addr:street" v="Narvaez Avenue"/><tag k="addr:unit" v="189"/><tag k="addr:postcode" v="95136"/></node>
<node visible="true" id="-255" lat="37.278719528" lon="-121.86074348800001"><tag k="addr:city" v="San Jose"/><tag k="addr:housenumber" v="3300"/><tag k="addr:street" v="Narvaez Avenue"/><tag k="addr:unit" v="19"/><tag k="addr:postcode" v="95136"/></node>
<node visible="true" id="-256" lat="37.276894738" lon="-121.85993440200001"><tag k="addr:city" v="San Jose"/><tag k="addr:housenumber" v="3300"/><tag k="addr:street" v="Narvaez Avenue"/><tag k="addr:unit" v="190"/><tag k="addr:postcode" v="95136"/></node>
<node visible="true" id="-257" lat="37.276818152000004" lon="-121.86008340800001"><tag k="addr:city" v="San Jose"/><tag k="addr:housenumber" v="3300"/><tag k="addr:street" v="Narvaez Avenue"/><tag k="addr:unit" v="191"/><tag k="addr:postcode" v="95136"/></node>
<node visible="true" id="-258" lat="37.276730645" lon="-121.86021421000001"><tag k="addr:city" v="San Jose"/><tag k="addr:housenumber" v="3300"/><tag k="addr:street" v="Narvaez Avenue"/><tag k="addr:unit" v="192"/><tag k="addr:postcode" v="95136"/></node>
<node visible="true" id="-259" lat="37.276654021" lon="-121.860371009"><tag k="addr:city" v="San Jose"/><tag k="addr:housenumber" v="3300"/><tag k="addr:street" v="Narvaez Avenue"/><tag k="addr:unit" v="193"/><tag k="addr:postcode" v="95136"/></node>
<node visible="true" id="-260" lat="37.276587823" lon="-121.860496557"><tag k="addr:city" v="San Jose"/><tag k="addr:housenumber" v="3300"/><tag k="addr:street" v="Narvaez Avenue"/><tag k="addr:unit" v="194"/><tag k="addr:postcode" v="95136"/></node>
<node visible="true" id="-261" lat="37.276506192" lon="-121.860655238"><tag k="addr:city" v="San Jose"/><tag k="addr:housenumber" v="3300"/><tag k="addr:street" v="Narvaez Avenue"/><tag k="addr:unit" v="195"/><tag k="addr:postcode" v="95136"/></node>
<node visible="true" id="-262" lat="37.27641828" lon="-121.86079849000001"><tag k="addr:city" v="San Jose"/><tag k="addr:housenumber" v="3300"/><tag k="addr:street" v="Narvaez Avenue"/><tag k="addr:unit" v="196"/><tag k="addr:postcode" v="95136"/></node>
<node visible="true" id="-263" lat="37.276355903" lon="-121.86094042200001"><tag k="addr:city" v="San Jose"/><tag k="addr:housenumber" v="3300"/><tag k="addr:street" v="Narvaez Avenue"/><tag k="addr:unit" v="197"/><tag k="addr:postcode" v="95136"/></node>
<node visible="true" id="-264" lat="37.277859997" lon="-121.863221377"><tag k="addr:city" v="San Jose"/><tag k="addr:housenumber" v="3300"/><tag k="addr:street" v="Narvaez Avenue"/><tag k="addr:unit" v="2"/><tag k="addr:postcode" v="95136"/></node>
<node visible="true" id="-265" lat="37.278760315" lon="-121.86059555800001"><tag k="addr:city" v="San Jose"/><tag k="addr:housenumber" v="3300"/><tag k="addr:street" v="Narvaez Avenue"/><tag k="addr:unit" v="20"/><tag k="addr:postcode" v="95136"/></node>
<node visible="true" id="-266" lat="37.276124785" lon="-121.86135546300001"><tag k="addr:city" v="San Jose"/><tag k="addr:housenumber" v="3300"/><tag k="addr:street" v="Narvaez Avenue"/><tag k="addr:unit" v="200"/><tag k="addr:postcode" v="95136"/></node>
<node visible="true" id="-267" lat="37.278795636000005" lon="-121.86044160600001"><tag k="addr:city" v="San Jose"/><tag k="addr:housenumber" v="3300"/><tag k="addr:street" v="Narvaez Avenue"/><tag k="addr:unit" v="21"/><tag k="addr:postcode" v="95136"/></node>
<node visible="true" id="-268" lat="37.278829887" lon="-121.86030703600001"><tag k="addr:city" v="San Jose"/><tag k="addr:housenumber" v="3300"/><tag k="addr:street" v="Narvaez Avenue"/><tag k="addr:unit" v="22"/><tag k="addr:postcode" v="95136"/></node>
<node visible="true" id="-269" lat="37.278593916000005" lon="-121.860207431"><tag k="addr:city" v="San Jose"/><tag k="addr:housenumber" v="3300"/><tag k="addr:street" v="Narvaez Avenue"/><tag k="addr:unit" v="23"/><tag k="addr:postcode" v="95136"/></node>
<node visible="true" id="-270" lat="37.278471186000004" lon="-121.860137909"><tag k="addr:city" v="San Jose"/><tag k="addr:housenumber" v="3300"/><tag k="addr:street" v="Narvaez Avenue"/><tag k="addr:unit" v="24"/><tag k="addr:postcode" v="95136"/></node>
<node visible="true" id="-271" lat="37.27835657" lon="-121.86006241400001"><tag k="addr:city" v="San Jose"/><tag k="addr:housenumber" v="3300"/><tag k="addr:street" v="Narvaez Avenue"/><tag k="addr:unit" v="25"/><tag k="addr:postcode" v="95136"/></node>
<node visible="true" id="-272" lat="37.278249112000005" lon="-121.85998936300001"><tag k="addr:city" v="San Jose"/><tag k="addr:housenumber" v="3300"/><tag k="addr:street" v="Narvaez Avenue"/><tag k="addr:unit" v="26"/><tag k="addr:postcode" v="95136"/></node>
<node visible="true" id="-273" lat="37.278120053" lon="-121.85992132700001"><tag k="addr:city" v="San Jose"/><tag k="addr:housenumber" v="3300"/><tag k="addr:street" v="Narvaez Avenue"/><tag k="addr:unit" v="27"/><tag k="addr:postcode" v="95136"/></node>
<node visible="true" id="-274" lat="37.278014353" lon="-121.859855937"><tag k="addr:city" v="San Jose"/><tag k="addr:housenumber" v="3300"/><tag k="addr:street" v="Narvaez Avenue"/><tag k="addr:unit" v="28"/><tag k="addr:postcode" v="95136"/></node>
<node visible="true" id="-275" lat="37.277901423" lon="-121.85977631300001"><tag k="addr:city" v="San Jose"/><tag k="addr:housenumber" v="3300"/><tag k="addr:street" v="Narvaez Avenue"/><tag k="addr:unit" v="29"/><tag k="addr:postcode" v="95136"/></node>
<node visible="true" id="-276" lat="37.277957221" lon="-121.86328445900001"><tag k="addr:city" v="San Jose"/><tag k="addr:housenumber" v="3300"/><tag k="addr:street" v="Narvaez Avenue"/><tag k="addr:unit" v="3"/><tag k="addr:postcode" v="95136"/></node>
<node visible="true" id="-277" lat="37.277793734" lon="-121.859719178"><tag k="addr:city" v="San Jose"/><tag k="addr:housenumber" v="3300"/><tag k="addr:street" v="Narvaez Avenue"/><tag k="addr:unit" v="30"/><tag k="addr:postcode" v="95136"/></node>
<node visible="true" id="-278" lat="37.277684148000006" lon="-121.85964329100001"><tag k="addr:city" v="San Jose"/><tag k="addr:housenumber" v="3300"/><tag k="addr:street" v="Narvaez Avenue"/><tag k="addr:unit" v="31"/><tag k="addr:postcode" v="95136"/></node>
<node visible="true" id="-279" lat="37.277561582000004" lon="-121.85956847400001"><tag k="addr:city" v="San Jose"/><tag k="addr:housenumber" v="3300"/><tag k="addr:street" v="Narvaez Avenue"/><tag k="addr:unit" v="32"/><tag k="addr:postcode" v="95136"/></node>
<node visible="true" id="-280" lat="37.277446032" lon="-121.85950729100001"><tag k="addr:city" v="San Jose"/><tag k="addr:housenumber" v="3300"/><tag k="addr:street" v="Narvaez Avenue"/><tag k="addr:unit" v="33"/><tag k="addr:postcode" v="95136"/></node>
<node visible="true" id="-281" lat="37.277336893000005" lon="-121.85943597200001"><tag k="addr:city" v="San Jose"/><tag k="addr:housenumber" v="3300"/><tag k="addr:street" v="Narvaez Avenue"/><tag k="addr:unit" v="34"/><tag k="addr:postcode" v="95136"/></node>
<node visible="true" id="-282" lat="37.27722107" lon="-121.85936806800001"><tag k="addr:city" v="San Jose"/><tag k="addr:housenumber" v="3300"/><tag k="addr:street" v="Narvaez Avenue"/><tag k="addr:unit" v="35"/><tag k="addr:postcode" v="95136"/></node>
<node visible="true" id="-283" lat="37.276760784000004" lon="-121.859608389"><tag k="addr:city" v="San Jose"/><tag k="addr:housenumber" v="3300"/><tag k="addr:street" v="Narvaez Avenue"/><tag k="addr:unit" v="36"/><tag k="addr:postcode" v="95136"/></node>
<node visible="true" id="-284" lat="37.276684147000005" lon="-121.85973729300001"><tag k="addr:city" v="San Jose"/><tag k="addr:housenumber" v="3300"/><tag k="addr:street" v="Narvaez Avenue"/><tag k="addr:unit" v="37"/><tag k="addr:postcode" v="95136"/></node>
<node visible="true" id="-285" lat="37.276609984000004" lon="-121.859894323"><tag k="addr:city" v="San Jose"/><tag k="addr:housenumber" v="3300"/><tag k="addr:street" v="Narvaez Avenue"/><tag k="addr:unit" v="38"/><tag k="addr:postcode" v="95136"/></node>
<node visible="true" id="-286" lat="37.278066089" lon="-121.863307054"><tag k="addr:city" v="San Jose"/><tag k="addr:housenumber" v="3300"/><tag k="addr:street" v="Narvaez Avenue"/><tag k="addr:unit" v="4"/><tag k="addr:postcode" v="95136"/></node>
<node visible="true" id="-287" lat="37.276457496" lon="-121.860146935"><tag k="addr:city" v="San Jose"/><tag k="addr:housenumber" v="3300"/><tag k="addr:street" v="Narvaez Avenue"/><tag k="addr:unit" v="40"/><tag k="addr:postcode" v="95136"/></node>
<node visible="true" id="-288" lat="37.276387975000006" lon="-121.86028630700001"><tag k="addr:city" v="San Jose"/><tag k="addr:housenumber" v="3300"/><tag k="addr:street" v="Narvaez Avenue"/><tag k="addr:unit" v="41"/><tag k="addr:postcode" v="95136"/></node>
<node visible="true" id="-289" lat="37.276315164" lon="-121.86043295300001"><tag k="addr:city" v="San Jose"/><tag k="addr:housenumber" v="3300"/><tag k="addr:street" v="Narvaez Avenue"/><tag k="addr:unit" v="42"/><tag k="addr:postcode" v="95136"/></node>
<node visible="true" id="-290" lat="37.276246666000006" lon="-121.860567825"><tag k="addr:city" v="San Jose"/><tag k="addr:housenumber" v="3300"/><tag k="addr:street" v="Narvaez Avenue"/><tag k="addr:unit" v="43"/><tag k="addr:postcode" v="95136"/></node>
<node visible="true" id="-291" lat="37.27601506" lon="-121.860967802"><tag k="addr:city" v="San Jose"/><tag k="addr:housenumber" v="3300"/><tag k="addr:street" v="Narvaez Avenue"/><tag k="addr:unit" v="46"/><tag k="addr:postcode" v="95136"/></node>
<node visible="true" id="-292" lat="37.275942052000005" lon="-121.86110067700001"><tag k="addr:city" v="San Jose"/><tag k="addr:housenumber" v="3300"/><tag k="addr:street" v="Narvaez Avenue"/><tag k="addr:unit" v="47"/><tag k="addr:postcode" v="95136"/></node>
<node visible="true" id="-293" lat="37.275767963" lon="-121.86134178100001"><tag k="addr:city" v="San Jose"/><tag k="addr:housenumber" v="3300"/><tag k="addr:street" v="Narvaez Avenue"/><tag k="addr:unit" v="48"/><tag k="addr:postcode" v="95136"/></node>
<node visible="true" id="-294" lat="37.275832819" lon="-121.86145010700001"><tag k="addr:city" v="San Jose"/><tag k="addr:housenumber" v="3300"/><tag k="addr:street" v="Narvaez Avenue"/><tag k="addr:unit" v="49"/><tag k="addr:postcode" v="95136"/></node>
<node visible="true" id="-295" lat="37.278104952" lon="-121.863016298"><tag k="addr:city" v="San Jose"/><tag k="addr:housenumber" v="3300"/><tag k="addr:street" v="Narvaez Avenue"/><tag k="addr:unit" v="5"/><tag k="addr:postcode" v="95136"/></node>
<node visible="true" id="-296" lat="37.27591548" lon="-121.86153356800001"><tag k="addr:city" v="San Jose"/><tag k="addr:housenumber" v="3300"/><tag k="addr:street" v="Narvaez Avenue"/><tag k="addr:unit" v="50"/><tag k="addr:postcode" v="95136"/></node>
<node visible="true" id="-297" lat="37.275973807" lon="-121.86165747700001"><tag k="addr:city" v="San Jose"/><tag k="addr:housenumber" v="3300"/><tag k="addr:street" v="Narvaez Avenue"/><tag k="addr:unit" v="51"/><tag k="addr:postcode" v="95136"/></node>
<node visible="true" id="-298" lat="37.276059058" lon="-121.861768792"><tag k="addr:city" v="San Jose"/><tag k="addr:housenumber" v="3300"/><tag k="addr:street" v="Narvaez Avenue"/><tag k="addr:unit" v="52"/><tag k="addr:postcode" v="95136"/></node>
<node visible="true" id="-299" lat="37.276122357000006" lon="-121.861880783"><tag k="addr:city" v="San Jose"/><tag k="addr:housenumber" v="3300"/><tag k="addr:street" v="Narvaez Avenue"/><tag k="addr:unit" v="53"/><tag k="addr:postcode" v="95136"/></node>
<node visible="true" id="-300" lat="37.276221564000004" lon="-121.86201899400001"><tag k="addr:city" v="San Jose"/><tag k="addr:housenumber" v="3300"/><tag k="addr:street" v="Narvaez Avenue"/><tag k="addr:unit" v="54"/><tag k="addr:postcode" v="95136"/></node>
<node visible="true" id="-301" lat="37.276308889" lon="-121.86211470100001"><tag k="addr:city" v="San Jose"/><tag k="addr:housenumber" v="3300"/><tag k="addr:street" v="Narvaez Avenue"/><tag k="addr:unit" v="55"/><tag k="addr:postcode" v="95136"/></node>
<node visible="true" id="-302" lat="37.276382022" lon="-121.862255532"><tag k="addr:city" v="San Jose"/><tag k="addr:housenumber" v="3300"/><tag k="addr:street" v="Narvaez Avenue"/><tag k="addr:unit" v="56"/><tag k="addr:postcode" v="95136"/></node>
<node visible="true" id="-303" lat="37.276458234" lon="-121.86235743"><tag k="addr:city" v="San Jose"/><tag k="addr:housenumber" v="3300"/><tag k="addr:street" v="Narvaez Avenue"/><tag k="addr:unit" v="57"/><tag k="addr:postcode" v="95136"/></node>
<node visible="true" id="-304" lat="37.276542788" lon="-121.86249324600001"><tag k="addr:city" v="San Jose"/><tag k="addr:housenumber" v="3300"/><tag k="addr:street" v="Narvaez Avenue"/><tag k="addr:unit" v="58"/><tag k="addr:postcode" v="95136"/></node>
<node visible="true" id="-305" lat="37.276664365" lon="-121.862622274"><tag k="addr:city" v="San Jose"/><tag k="addr:housenumber" v="3300"/><tag k="addr:street" v="Narvaez Avenue"/><tag k="addr:unit" v="59"/><tag k="addr:postcode" v="95136"/></node>
<node visible="true" id="-306" lat="37.278145659" lon="-121.862851621"><tag k="addr:city" v="San Jose"/><tag k="addr:housenumber" v="3300"/><tag k="addr:street" v="Narvaez Avenue"/><tag k="addr:unit" v="6"/><tag k="addr:postcode" v="95136"/></node>
<node visible="true" id="-307" lat="37.276779081" lon="-121.862680005"><tag k="addr:city" v="San Jose"/><tag k="addr:housenumber" v="3300"/><tag k="addr:street" v="Narvaez Avenue"/><tag k="addr:unit" v="60"/><tag k="addr:postcode" v="95136"/></node>
<node visible="true" id="-308" lat="37.276898848" lon="-121.862750144"><tag k="addr:city" v="San Jose"/><tag k="addr:housenumber" v="3300"/><tag k="addr:street" v="Narvaez Avenue"/><tag k="addr:unit" v="61"/><tag k="addr:postcode" v="95136"/></node>
<node visible="true" id="-309" lat="37.277022546000005" lon="-121.86282420100001"><tag k="addr:city" v="San Jose"/><tag k="addr:housenumber" v="3300"/><tag k="addr:street" v="Narvaez Avenue"/><tag k="addr:unit" v="62"/><tag k="addr:postcode" v="95136"/></node>
<node visible="true" id="-310" lat="37.277163159000004" lon="-121.86289527800001"><tag k="addr:city" v="San Jose"/><tag k="addr:housenumber" v="3300"/><tag k="addr:street" v="Narvaez Avenue"/><tag k="addr:unit" v="63"/><tag k="addr:postcode" v="95136"/></node>
<node visible="true" id="-311" lat="37.277288526" lon="-121.86295091900001"><tag k="addr:city" v="San Jose"/><tag k="addr:housenumber" v="3300"/><tag k="addr:street" v="Narvaez Avenue"/><tag k="addr:unit" v="64"/><tag k="addr:postcode" v="95136"/></node>
<node visible="true" id="-312" lat="37.277405906000006" lon="-121.86303076300001"><tag k="addr:city" v="San Jose"/><tag k="addr:housenumber" v="3300"/><tag k="addr:street" v="Narvaez Avenue"/><tag k="addr:unit" v="65"/><tag k="addr:postcode" v="95136"/></node>
<node visible="true" id="-313" lat="37.277773827000004" lon="-121.862154106"><tag k="addr:city" v="San Jose"/><tag k="addr:housenumber" v="3300"/><tag k="addr:street" v="Narvaez Avenue"/><tag k="addr:unit" v="66"/><tag k="addr:postcode" v="95136"/></node>
<node visible="true" id="-314" lat="37.277899994" lon="-121.862202377"><tag k="addr:city" v="San Jose"/><tag k="addr:housenumber" v="3300"/><tag k="addr:street" v="Narvaez Avenue"/><tag k="addr:unit" v="67"/><tag k="addr:postcode" v="95136"/></node>
<node visible="true" id="-315" lat="37.278037101" lon="-121.86226374600001"><tag k="addr:city" v="San Jose"/><tag k="addr:housenumber" v="3300"/><tag k="addr:street" v="Narvaez Avenue"/><tag k="addr:unit" v="68"/><tag k="addr:postcode" v="95136"/></node>
<node visible="true" id="-316" lat="37.278056769" lon="-121.862049959"><tag k="addr:city" v="San Jose"/><tag k="addr:housenumber" v="3300"/><tag k="addr:street" v="Narvaez Avenue"/><tag k="addr:unit" v="69"/><tag k="addr:postcode" v="95136"/></node>
<node visible="true" id="-317" lat="37.27817575" lon="-121.86268985900001"><tag k="addr:city" v="San Jose"/><tag k="addr:housenumber" v="3300"/><tag k="addr:street" v="Narvaez Avenue"/><tag k="addr:unit" v="7"/><tag k="addr:postcode" v="95136"/></node>
<node visible="true" id="-318" lat="37.278114215" lon="-121.861894547"><tag k="addr:city" v="San Jose"/><tag k="addr:housenumber" v="3300"/><tag k="addr:street" v="Narvaez Avenue"/><tag k="addr:unit" v="70"/><tag k="addr:postcode" v="95136"/></node>
<node visible="true" id="-319" lat="37.278170187" lon="-121.86174962700001"><tag k="addr:city" v="San Jose"/><tag k="addr:housenumber" v="3300"/><tag k="addr:street" v="Narvaez Avenue"/><tag k="addr:unit" v="71"/><tag k="addr:postcode" v="95136"/></node>
<node visible="true" id="-320" lat="37.278223069" lon="-121.86158844100001"><tag k="addr:city" v="San Jose"/><tag k="addr:housenumber" v="3300"/><tag k="addr:street" v="Narvaez Avenue"/><tag k="addr:unit" v="72"/><tag k="addr:postcode" v="95136"/></node>
<node visible="true" id="-321" lat="37.278280902" lon="-121.86119024000001"><tag k="addr:city" v="San Jose"/><tag k="addr:housenumber" v="3300"/><tag k="addr:street" v="Narvaez Avenue"/><tag k="addr:unit" v="73"/><tag k="addr:postcode" v="95136"/></node>
<node visible="true" id="-322" lat="37.278224349000006" lon="-121.86131042100001"><tag k="addr:city" v="San Jose"/><tag k="addr:housenumber" v="3300"/><tag k="addr:street" v="Narvaez Avenue"/><tag k="addr:unit" v="74"/><tag k="addr:postcode" v="95136"/></node>
<node visible="true" id="-323" lat="37.278156579000004" lon="-121.861419103"><tag k="addr:city" v="San Jose"/><tag k="addr:housenumber" v="3300"/><tag k="addr:street" v="Narvaez Avenue"/><tag k="addr:unit" v="75"/><tag k="addr:postcode" v="95136"/></node>
<node visible="true" id="-324" lat="37.278068499" lon="-121.86152839300001"><tag k="addr:city" v="San Jose"/><tag k="addr:housenumber" v="3300"/><tag k="addr:street" v="Narvaez Avenue"/><tag k="addr:unit" v="76"/><tag k="addr:postcode" v="95136"/></node>
<node visible="true" id="-325" lat="37.278005805" lon="-121.861671016"><tag k="addr:city" v="San Jose"/><tag k="addr:housenumber" v="3300"/><tag k="addr:street" v="Narvaez Avenue"/><tag k="addr:unit" v="77"/><tag k="addr:postcode" v="95136"/></node>
<node visible="true" id="-326" lat="37.277942894" lon="-121.861803858"><tag k="addr:city" v="San Jose"/><tag k="addr:housenumber" v="3300"/><tag k="addr:street" v="Narvaez Avenue"/><tag k="addr:unit" v="78"/><tag k="addr:postcode" v="95136"/></node>
<node visible="true" id="-327" lat="37.277885335" lon="-121.86197739900001"><tag k="addr:city" v="San Jose"/><tag k="addr:housenumber" v="3300"/><tag k="addr:street" v="Narvaez Avenue"/><tag k="addr:unit" v="79"/><tag k="addr:postcode" v="95136"/></node>
<node visible="true" id="-328" lat="37.278232612000004" lon="-121.86253543400001"><tag k="addr:city" v="San Jose"/><tag k="addr:housenumber" v="3300"/><tag k="addr:street" v="Narvaez Avenue"/><tag k="addr:unit" v="8"/><tag k="addr:postcode" v="95136"/></node>
<node visible="true" id="-329" lat="37.277240488000004" lon="-121.862515986"><tag k="addr:city" v="San Jose"/><tag k="addr:housenumber" v="3300"/><tag k="addr:street" v="Narvaez Avenue"/><tag k="addr:unit" v="80"/><tag k="addr:postcode" v="95136"/></node>
<node visible="true" id="-330" lat="37.277317501" lon="-121.86234698800001"><tag k="addr:city" v="San Jose"/><tag k="addr:housenumber" v="3300"/><tag k="addr:street" v="Narvaez Avenue"/><tag k="addr:unit" v="81"/><tag k="addr:postcode" v="95136"/></node>
<node visible="true" id="-331" lat="37.277394104" lon="-121.86221001300001"><tag k="addr:city" v="San Jose"/><tag k="addr:housenumber" v="3300"/><tag k="addr:street" v="Narvaez Avenue"/><tag k="addr:unit" v="82"/><tag k="addr:postcode" v="95136"/></node>
<node visible="true" id="-332" lat="37.277471459000004" lon="-121.862069489"><tag k="addr:city" v="San Jose"/><tag k="addr:housenumber" v="3300"/><tag k="addr:street" v="Narvaez Avenue"/><tag k="addr:unit" v="83"/><tag k="addr:postcode" v="95136"/></node>
<node visible="true" id="-333" lat="37.277562424" lon="-121.861929531"><tag k="addr:city" v="San Jose"/><tag k="addr:housenumber" v="3300"/><tag k="addr:street" v="Narvaez Avenue"/><tag k="addr:unit" v="84"/><tag k="addr:postcode" v="95136"/></node>
<node visible="true" id="-334" lat="37.277627202000005" lon="-121.861782422"><tag k="addr:city" v="San Jose"/><tag k="addr:housenumber" v="3300"/><tag k="addr:street" v="Narvaez Avenue"/><tag k="addr:unit" v="85"/><tag k="addr:postcode" v="95136"/></node>
<node visible="true" id="-335" lat="37.277715256" lon="-121.861605874"><tag k="addr:city" v="San Jose"/><tag k="addr:housenumber" v="3300"/><tag k="addr:street" v="Narvaez Avenue"/><tag k="addr:unit" v="86"/><tag k="addr:postcode" v="95136"/></node>
<node visible="true" id="-336" lat="37.277801917000005" lon="-121.861479942"><tag k="addr:city" v="San Jose"/><tag k="addr:housenumber" v="3300"/><tag k="addr:street" v="Narvaez Avenue"/><tag k="addr:unit" v="87"/><tag k="addr:postcode" v="95136"/></node>
<node visible="true" id="-337" lat="37.277876808" lon="-121.861329952"><tag k="addr:city" v="San Jose"/><tag k="addr:housenumber" v="3300"/><tag k="addr:street" v="Narvaez Avenue"/><tag k="addr:unit" v="88"/><tag k="addr:postcode" v="95136"/></node>
<node visible="true" id="-338" lat="37.277962959" lon="-121.86118929400001"><tag k="addr:city" v="San Jose"/><tag k="addr:housenumber" v="3300"/><tag k="addr:street" v="Narvaez Avenue"/><tag k="addr:unit" v="89"/><tag k="addr:postcode" v="95136"/></node>
<node visible="true" id="-339" lat="37.278276166000005" lon="-121.862368485"><tag k="addr:city" v="San Jose"/><tag k="addr:housenumber" v="3300"/><tag k="addr:street" v="Narvaez Avenue"/><tag k="addr:unit" v="9"/><tag k="addr:postcode" v="95136"/></node>
<node visible="true" id="-340" lat="37.278039713000005" lon="-121.86102547700001"><tag k="addr:city" v="San Jose"/><tag k="addr:housenumber" v="3300"/><tag k="addr:street" v="Narvaez Avenue"/><tag k="addr:unit" v="90"/><tag k="addr:postcode" v="95136"/></node>
<node visible="true" id="-341" lat="37.278123296000004" lon="-121.860881546"><tag k="addr:city" v="San Jose"/><tag k="addr:housenumber" v="3300"/><tag k="addr:street" v="Narvaez Avenue"/><tag k="addr:unit" v="91"/><tag k="addr:postcode" v="95136"/></node>
<node visible="true" id="-342" lat="37.278195072" lon="-121.860756369"><tag k="addr:city" v="San Jose"/><tag k="addr:housenumber" v="3300"/><tag k="addr:street" v="Narvaez Avenue"/><tag k="addr:unit" v="92"/><tag k="addr:postcode" v="95136"/></node>
<node visible="true" id="-343" lat="37.278252567" lon="-121.86065740000001"><tag k="addr:city" v="San Jose"/><tag k="addr:housenumber" v="3300"/><tag k="addr:street" v="Narvaez Avenue"/><tag k="addr:unit" v="93"/><tag k="addr:postcode" v="95136"/></node>
<node visible="true" id="-344" lat="37.278318804" lon="-121.86052545700001"><tag k="addr:city" v="San Jose"/><tag k="addr:housenumber" v="3300"/><tag k="addr:street" v="Narvaez Avenue"/><tag k="addr:unit" v="94"/><tag k="addr:postcode" v="95136"/></node>
<node visible="true" id="-345" lat="37.279219031000004" lon="-121.86053661800001"><tag k="addr:city" v="San Jose"/><tag k="addr:housenumber" v="3302"/><tag k="addr:street" v="Lago De Como Place"/><tag k="addr:postcode" v="95136"/></node>
<node visible="true" id="-346" lat="37.276979964" lon="-121.857708895"><tag k="addr:city" v="San Jose"/><tag k="addr:housenumber" v="3303"/><tag k="addr:street" v="Skyward Place"/><tag k="addr:postcode" v="95136"/></node>
<node visible="true" id="-347" lat="37.277157386" lon="-121.856859841"><tag k="addr:city" v="San Jose"/><tag k="addr:housenumber" v="3304"/><tag k="addr:street" v="City Lights Place"/><tag k="addr:postcode" v="95136"/></node>
<node visible="true" id="-348" lat="37.279057213" lon="-121.86045963000001"><tag k="addr:city" v="San Jose"/><tag k="addr:housenumber" v="3306"/><tag k="addr:street" v="Lago De Como Place"/><tag k="addr:postcode" v="95136"/></node>
<node visible="true" id="-349" lat="37.277121393" lon="-121.857945954"><tag k="addr:city" v="San Jose"/><tag k="addr:housenumber" v="3306"/><tag k="addr:street" v="Midtown Place"/><tag k="addr:postcode" v="95136"/></node>
<node visible="true" id="-350" lat="37.277016159000006" lon="-121.85771429600001"><tag k="addr:city" v="San Jose"/><tag k="addr:housenumber" v="3309"/><tag k="addr:street" v="Skyward Place"/><tag k="addr:postcode" v="95136"/></node>
<node visible="true" id="-351" lat="37.277119707000004" lon="-121.85686397"><tag k="addr:city" v="San Jose"/><tag k="addr:housenumber" v="3310"/><tag k="addr:street" v="City Lights Place"/><tag k="addr:postcode" v="95136"/></node>
<node visible="true" id="-352" lat="37.27709054" lon="-121.85794656300001"><tag k="addr:city" v="San Jose"/><tag k="addr:housenumber" v="3312"/><tag k="addr:street" v="Midtown Place"/><tag k="addr:postcode" v="95136"/></node>
<node visible="true" id="-353" lat="37.277050078" lon="-121.85770745200001"><tag k="addr:city" v="San Jose"/><tag k="addr:housenumber" v="3315"/><tag k="addr:street" v="Skyward Place"/><tag k="addr:postcode" v="95136"/></node>
<node visible="true" id="-354" lat="37.27708946" lon="-121.856852629"><tag k="addr:city" v="San Jose"/><tag k="addr:housenumber" v="3316"/><tag k="addr:street" v="City Lights Place"/><tag k="addr:postcode" v="95136"/></node>
<node visible="true" id="-355" lat="37.277059820000005" lon="-121.85794270500001"><tag k="addr:city" v="San Jose"/><tag k="addr:housenumber" v="3318"/><tag k="addr:street" v="Midtown Place"/><tag k="addr:postcode" v="95136"/></node>
<node visible="true" id="-356" lat="37.276814527" lon="-121.85822509200001"><tag k="addr:city" v="San Jose"/><tag k="addr:housenumber" v="3319"/><tag k="addr:street" v="Midtown Place"/><tag k="addr:postcode" v="95136"/></node>
<node visible="true" id="-357" lat="37.277079378" lon="-121.857715271"><tag k="addr:city" v="San Jose"/><tag k="addr:housenumber" v="3321"/><tag k="addr:street" v="Skyward Place"/><tag k="addr:postcode" v="95136"/></node>
<node visible="true" id="-358" lat="37.277059712" lon="-121.85685971900001"><tag k="addr:city" v="San Jose"/><tag k="addr:housenumber" v="3322"/><tag k="addr:street" v="City Lights Place"/><tag k="addr:postcode" v="95136"/></node>
<node visible="true" id="-359" lat="37.276851156" lon="-121.85715305400001"><tag k="addr:city" v="San Jose"/><tag k="addr:housenumber" v="3323"/><tag k="addr:street" v="City Lights Place"/><tag k="addr:postcode" v="95136"/></node>
<node visible="true" id="-360" lat="37.277029316000004" lon="-121.857943973"><tag k="addr:city" v="San Jose"/><tag k="addr:housenumber" v="3324"/><tag k="addr:street" v="Midtown Place"/><tag k="addr:postcode" v="95136"/></node>
<node visible="true" id="-361" lat="37.276846676000005" lon="-121.85823120900001"><tag k="addr:city" v="San Jose"/><tag k="addr:housenumber" v="3325"/><tag k="addr:street" v="Midtown Place"/><tag k="addr:postcode" v="95136"/></node>
<node visible="true" id="-362" lat="37.276971656" lon="-121.857404306"><tag k="addr:city" v="San Jose"/><tag k="addr:housenumber" v="3326"/><tag k="addr:street" v="Skyward Place"/><tag k="addr:postcode" v="95136"/></node>
<node visible="true" id="-363" lat="37.277106294" lon="-121.85771785600001"><tag k="addr:city" v="San Jose"/><tag k="addr:housenumber" v="3327"/><tag k="addr:street" v="Skyward Place"/><tag k="addr:postcode" v="95136"/></node>
<node visible="true" id="-364" lat="37.277030530000005" lon="-121.85685599400001"><tag k="addr:city" v="San Jose"/><tag k="addr:housenumber" v="3328"/><tag k="addr:street" v="City Lights Place"/><tag k="addr:postcode" v="95136"/></node>
<node visible="true" id="-365" lat="37.276883214" lon="-121.85715996100001"><tag k="addr:city" v="San Jose"/><tag k="addr:housenumber" v="3329"/><tag k="addr:street" v="City Lights Place"/><tag k="addr:postcode" v="95136"/></node>
<node visible="true" id="-366" lat="37.276876928" lon="-121.858235058"><tag k="addr:city" v="San Jose"/><tag k="addr:housenumber" v="3331"/><tag k="addr:street" v="Midtown Place"/><tag k="addr:postcode" v="95136"/></node>
<node visible="true" id="-367" lat="37.276938977" lon="-121.857401271"><tag k="addr:city" v="San Jose"/><tag k="addr:housenumber" v="3332"/><tag k="addr:street" v="Skyward Place"/><tag k="addr:postcode" v="95136"/></node>
<node visible="true" id="-368" lat="37.277142886" lon="-121.85772216400001"><tag k="addr:city" v="San Jose"/><tag k="addr:housenumber" v="3333"/><tag k="addr:street" v="Skyward Place"/><tag k="addr:postcode" v="95136"/></node>
<node visible="true" id="-369" lat="37.276994569" lon="-121.85684688600001"><tag k="addr:city" v="San Jose"/><tag k="addr:housenumber" v="3334"/><tag k="addr:street" v="City Lights Place"/><tag k="addr:postcode" v="95136"/></node>
<node visible="true" id="-370" lat="37.276914277" lon="-121.85717200500001"><tag k="addr:city" v="San Jose"/><tag k="addr:housenumber" v="3335"/><tag k="addr:street" v="City Lights Place"/><tag k="addr:postcode" v="95136"/></node>
<node visible="true" id="-371" lat="37.276899220000004" lon="-121.857949516"><tag k="addr:city" v="San Jose"/><tag k="addr:housenumber" v="3336"/><tag k="addr:street" v="Midtown Place"/><tag k="addr:postcode" v="95136"/></node>
<node visible="true" id="-372" lat="37.276907091000005" lon="-121.858241828"><tag k="addr:city" v="San Jose"/><tag k="addr:housenumber" v="3337"/><tag k="addr:street" v="Midtown Place"/><tag k="addr:postcode" v="95136"/></node>
<node visible="true" id="-373" lat="37.276912601" lon="-121.857399555"><tag k="addr:city" v="San Jose"/><tag k="addr:housenumber" v="3338"/><tag k="addr:street" v="Skyward Place"/><tag k="addr:postcode" v="95136"/></node>
<node visible="true" id="-374" lat="37.276717415" lon="-121.857688593"><tag k="addr:city" v="San Jose"/><tag k="addr:housenumber" v="3339"/><tag k="addr:street" v="Skyward Place"/><tag k="addr:postcode" v="95136"/></node>
<node visible="true" id="-375" lat="37.276944894" lon="-121.85716101000001"><tag k="addr:city" v="San Jose"/><tag k="addr:housenumber" v="3341"/><tag k="addr:street" v="City Lights Place"/><tag k="addr:postcode" v="95136"/></node>
<node visible="true" id="-376" lat="37.276862359" lon="-121.857942385"><tag k="addr:city" v="San Jose"/><tag k="addr:housenumber" v="3342"/><tag k="addr:street" v="Midtown Place"/><tag k="addr:postcode" v="95136"/></node>
<node visible="true" id="-377" lat="37.276880937" lon="-121.857401421"><tag k="addr:city" v="San Jose"/><tag k="addr:housenumber" v="3344"/><tag k="addr:street" v="Skyward Place"/><tag k="addr:postcode" v="95136"/></node>
<node visible="true" id="-378" lat="37.276761459" lon="-121.857687502"><tag k="addr:city" v="San Jose"/><tag k="addr:housenumber" v="3345"/><tag k="addr:street" v="Skyward Place"/><tag k="addr:postcode" v="95136"/></node>
<node visible="true" id="-379" lat="37.276856658" lon="-121.85684421200001"><tag k="addr:city" v="San Jose"/><tag k="addr:housenumber" v="3346"/><tag k="addr:street" v="City Lights Place"/><tag k="addr:postcode" v="95136"/></node>
<node visible="true" id="-380" lat="37.276973743" lon="-121.857172155"><tag k="addr:city" v="San Jose"/><tag k="addr:housenumber" v="3347"/><tag k="addr:street" v="City Lights Place"/><tag k="addr:postcode" v="95136"/></node>
<node visible="true" id="-381" lat="37.276833548" lon="-121.85794210300001"><tag k="addr:city" v="San Jose"/><tag k="addr:housenumber" v="3348"/><tag k="addr:street" v="Midtown Place"/><tag k="addr:postcode" v="95136"/></node>
<node visible="true" id="-382" lat="37.276969314000006" lon="-121.85823639200001"><tag k="addr:city" v="San Jose"/><tag k="addr:housenumber" v="3349"/><tag k="addr:street" v="Midtown Place"/><tag k="addr:postcode" v="95136"/></node>
<node visible="true" id="-383" lat="37.276845791" lon="-121.857397965"><tag k="addr:city" v="San Jose"/><tag k="addr:housenumber" v="3350"/><tag k="addr:street" v="Skyward Place"/><tag k="addr:postcode" v="95136"/></node>
<node visible="true" id="-384" lat="37.276789025" lon="-121.85769559900001"><tag k="addr:city" v="San Jose"/><tag k="addr:housenumber" v="3351"/><tag k="addr:street" v="Skyward Place"/><tag k="addr:postcode" v="95136"/></node>
<node visible="true" id="-385" lat="37.276825262" lon="-121.85685130700001"><tag k="addr:city" v="San Jose"/><tag k="addr:housenumber" v="3352"/><tag k="addr:street" v="City Lights Place"/><tag k="addr:postcode" v="95136"/></node>
<node visible="true" id="-386" lat="37.277009422" lon="-121.85717228600001"><tag k="addr:city" v="San Jose"/><tag k="addr:housenumber" v="3353"/><tag k="addr:street" v="City Lights Place"/><tag k="addr:postcode" v="95136"/></node>
<node visible="true" id="-387" lat="37.27680454" lon="-121.85794229800001"><tag k="addr:city" v="San Jose"/><tag k="addr:housenumber" v="3354"/><tag k="addr:street" v="Midtown Place"/><tag k="addr:postcode" v="95136"/></node>
<node visible="true" id="-388" lat="37.276722808" lon="-121.857394083"><tag k="addr:city" v="San Jose"/><tag k="addr:housenumber" v="3356"/><tag k="addr:street" v="Skyward Place"/><tag k="addr:postcode" v="95136"/></node>
<node visible="true" id="-389" lat="37.276821784" lon="-121.85769650200001"><tag k="addr:city" v="San Jose"/><tag k="addr:housenumber" v="3357"/><tag k="addr:street" v="Skyward Place"/><tag k="addr:postcode" v="95136"/></node>
<node visible="true" id="-390" lat="37.276576389" lon="-121.857144218"><tag k="addr:city" v="San Jose"/><tag k="addr:housenumber" v="3359"/><tag k="addr:street" v="City Lights Place"/><tag k="addr:postcode" v="95136"/></node>
<node visible="true" id="-391" lat="37.276773667" lon="-121.85793751000001"><tag k="addr:city" v="San Jose"/><tag k="addr:housenumber" v="3360"/><tag k="addr:street" v="Midtown Place"/><tag k="addr:postcode" v="95136"/></node>
<node visible="true" id="-392" lat="37.276693539" lon="-121.857385887"><tag k="addr:city" v="San Jose"/><tag k="addr:housenumber" v="3362"/><tag k="addr:street" v="Skyward Place"/><tag k="addr:postcode" v="95136"/></node>
<node visible="true" id="-393" lat="37.276851793000006" lon="-121.85769993500001"><tag k="addr:city" v="San Jose"/><tag k="addr:housenumber" v="3363"/><tag k="addr:street" v="Skyward Place"/><tag k="addr:postcode" v="95136"/></node>
<node visible="true" id="-394" lat="37.276765105" lon="-121.85684684700001"><tag k="addr:city" v="San Jose"/><tag k="addr:housenumber" v="3364"/><tag k="addr:street" v="City Lights Place"/><tag k="addr:postcode" v="95136"/></node>
<node visible="true" id="-395" lat="37.276605763" lon="-121.85715276"><tag k="addr:city" v="San Jose"/><tag k="addr:housenumber" v="3365"/><tag k="addr:street" v="City Lights Place"/><tag k="addr:postcode" v="95136"/></node>
<node visible="true" id="-396" lat="37.276736695000004" lon="-121.857937629"><tag k="addr:city" v="San Jose"/><tag k="addr:housenumber" v="3366"/><tag k="addr:street" v="Midtown Place"/><tag k="addr:postcode" v="95136"/></node>
<node visible="true" id="-397" lat="37.276664509" lon="-121.85739037900001"><tag k="addr:city" v="San Jose"/><tag k="addr:housenumber" v="3368"/><tag k="addr:street" v="Skyward Place"/><tag k="addr:postcode" v="95136"/></node>
<node visible="true" id="-398" lat="37.276883255" lon="-121.85769902800001"><tag k="addr:city" v="San Jose"/><tag k="addr:housenumber" v="3369"/><tag k="addr:street" v="Skyward Place"/><tag k="addr:postcode" v="95136"/></node>
<node visible="true" id="-399" lat="37.276730595000004" lon="-121.85684773400001"><tag k="addr:city" v="San Jose"/><tag k="addr:housenumber" v="3370"/><tag k="addr:street" v="City Lights Place"/><tag k="addr:postcode" v="95136"/></node>
<node visible="true" id="-400" lat="37.276636001" lon="-121.85716492600001"><tag k="addr:city" v="San Jose"/><tag k="addr:housenumber" v="3371"/><tag k="addr:street" v="City Lights Place"/><tag k="addr:postcode" v="95136"/></node>
<node visible="true" id="-401" lat="37.276638052" lon="-121.856845781"><tag k="addr:city" v="San Jose"/><tag k="addr:housenumber" v="3376"/><tag k="addr:street" v="City Lights Place"/><tag k="addr:postcode" v="95136"/></node>
<node visible="true" id="-402" lat="37.276666269" lon="-121.85717221300001"><tag k="addr:city" v="San Jose"/><tag k="addr:housenumber" v="3377"/><tag k="addr:street" v="City Lights Place"/><tag k="addr:postcode" v="95136"/></node>
<node visible="true" id="-403" lat="37.276600973" lon="-121.85738829700001"><tag k="addr:city" v="San Jose"/><tag k="addr:housenumber" v="3380"/><tag k="addr:street" v="Skyward Place"/><tag k="addr:postcode" v="95136"/></node>
<node visible="true" id="-404" lat="37.276600327000004" lon="-121.85684681400001"><tag k="addr:city" v="San Jose"/><tag k="addr:housenumber" v="3382"/><tag k="addr:street" v="City Lights Place"/><tag k="addr:postcode" v="95136"/></node>
<node visible="true" id="-405" lat="37.276695554" lon="-121.85716233000001"><tag k="addr:city" v="San Jose"/><tag k="addr:housenumber" v="3383"/><tag k="addr:street" v="City Lights Place"/><tag k="addr:postcode" v="95136"/></node>
<node visible="true" id="-406" lat="37.276555629" lon="-121.85738544700001"><tag k="addr:city" v="San Jose"/><tag k="addr:housenumber" v="3386"/><tag k="addr:street" v="Skyward Place"/><tag k="addr:postcode" v="95136"/></node>
<node visible="true" id="-407" lat="37.276571032" lon="-121.85684563000001"><tag k="addr:city" v="San Jose"/><tag k="addr:housenumber" v="3388"/><tag k="addr:street" v="City Lights Place"/><tag k="addr:postcode" v="95136"/></node>
<node visible="true" id="-408" lat="37.276723981" lon="-121.85716494200001"><tag k="addr:city" v="San Jose"/><tag k="addr:housenumber" v="3389"/><tag k="addr:street" v="City Lights Place"/><tag k="addr:postcode" v="95136"/></node>
<node visible="true" id="-409" lat="37.276542102" lon="-121.85683675300001"><tag k="addr:city" v="San Jose"/><tag k="addr:housenumber" v="3394"/><tag k="addr:street" v="City Lights Place"/><tag k="addr:postcode" v="95136"/></node>
<node visible="true" id="-410" lat="37.276510519000006" lon="-121.856840992"><tag k="addr:city" v="San Jose"/><tag k="addr:housenumber" v="3400"/><tag k="addr:street" v="City Lights Place"/><tag k="addr:postcode" v="95136"/></node>
<node visible="true" id="-411" lat="37.279667832" lon="-121.857638789"><tag k="addr:city" v="San Jose"/><tag k="addr:housenumber" v="366"/><tag k="addr:street" v="Maeve Court"/><tag k="addr:postcode" v="95136"/></node>
<node visible="true" id="-412" lat="37.279919463" lon="-121.857619845"><tag k="addr:city" v="San Jose"/><tag k="addr:housenumber" v="369"/><tag k="addr:street" v="Maeve Court"/><tag k="addr:postcode" v="95136"/></node>
<node visible="true" id="-413" lat="37.279672215000005" lon="-121.857980889"><tag k="addr:city" v="San Jose"/><tag k="addr:housenumber" v="377"/><tag k="addr:street" v="Maeve Court"/><tag k="addr:postcode" v="95136"/></node>
<node visible="true" id="-414" lat="37.279187608" lon="-121.857608416"><tag k="addr:city" v="San Jose"/><tag k="addr:housenumber" v="390"/><tag k="addr:street" v="Castlemaine Court"/><tag k="addr:postcode" v="95136"/></node>
<node visible="true" id="-415" lat="37.279463392000004" lon="-121.85761483200001"><tag k="addr:city" v="San Jose"/><tag k="addr:housenumber" v="391"/><tag k="addr:street" v="Castlemaine Court"/><tag k="addr:postcode" v="95136"/></node>
<node visible="true" id="-416" lat="37.279461107" lon="-121.857937492"><tag k="addr:city" v="San Jose"/><tag k="addr:housenumber" v="395"/><tag k="addr:street" v="Castlemaine Court"/><tag k="addr:postcode" v="95136"/></node>
<node visible="true" id="-417" lat="37.279265175" lon="-121.85794270000001"><tag k="addr:city" v="San Jose"/><tag k="addr:housenumber" v="401"/><tag k="addr:street" v="Castlemaine Court"/><tag k="addr:postcode" v="95136"/></node>
<node visible="true" id="-418" lat="37.277743852" lon="-121.85826726100001"><tag k="addr:city" v="San Jose"/><tag k="addr:housenumber" v="501"/><tag k="addr:street" v="Manhattan Place"/><tag k="addr:postcode" v="95136"/></node>
<node visible="true" id="-419" lat="37.278919524" lon="-121.862178544"><tag k="addr:city" v="San Jose"/><tag k="addr:housenumber" v="501"/><tag k="addr:street" v="Mountain Home Drive"/><tag k="addr:postcode" v="95136"/></node>
<node visible="true" id="-420" lat="37.278957792" lon="-121.862017308"><tag k="addr:city" v="San Jose"/><tag k="addr:housenumber" v="502"/><tag k="addr:street" v="Mountain Home Drive"/><tag k="addr:postcode" v="95136"/></node>
<node visible="true" id="-421" lat="37.2790051" lon="-121.86185067400001"><tag k="addr:city" v="San Jose"/><tag k="addr:housenumber" v="503"/><tag k="addr:street" v="Mountain Home Drive"/><tag k="addr:postcode" v="95136"/></node>
<node visible="true" id="-422" lat="37.279049001000004" lon="-121.861696405"><tag k="addr:city" v="San Jose"/><tag k="addr:housenumber" v="504"/><tag k="addr:street" v="Mountain Home Drive"/><tag k="addr:postcode" v="95136"/></node>
<node visible="true" id="-423" lat="37.279136217" lon="-121.86137525100001"><tag k="addr:city" v="San Jose"/><tag k="addr:housenumber" v="506"/><tag k="addr:street" v="Mountain Home Drive"/><tag k="addr:postcode" v="95136"/></node>
<node visible="true" id="-424" lat="37.279177134" lon="-121.86122658400001"><tag k="addr:city" v="San Jose"/><tag k="addr:housenumber" v="507"/><tag k="addr:street" v="Mountain Home Drive"/><tag k="addr:postcode" v="95136"/></node>
<node visible="true" id="-425" lat="37.279222142" lon="-121.86106234900001"><tag k="addr:city" v="San Jose"/><tag k="addr:housenumber" v="508"/><tag k="addr:street" v="Mountain Home Drive"/><tag k="addr:postcode" v="95136"/></node>
<node visible="true" id="-426" lat="37.279431976000005" lon="-121.861199502"><tag k="addr:city" v="San Jose"/><tag k="addr:housenumber" v="509"/><tag k="addr:street" v="Mountain Home Drive"/><tag k="addr:postcode" v="95136"/></node>
<node visible="true" id="-427" lat="37.27956125" lon="-121.861267513"><tag k="addr:city" v="San Jose"/><tag k="addr:housenumber" v="510"/><tag k="addr:street" v="Mountain Home Drive"/><tag k="addr:postcode" v="95136"/></node>
<node visible="true" id="-428" lat="37.279683397" lon="-121.86131257500001"><tag k="addr:city" v="San Jose"/><tag k="addr:housenumber" v="511"/><tag k="addr:street" v="Mountain Home Drive"/><tag k="addr:postcode" v="95136"/></node>
<node visible="true" id="-429" lat="37.279811561" lon="-121.86137532400001"><tag k="addr:city" v="San Jose"/><tag k="addr:housenumber" v="512"/><tag k="addr:street" v="Mountain Home Drive"/><tag k="addr:postcode" v="95136"/></node>
<node visible="true" id="-430" lat="37.279917095" lon="-121.86142461700001"><tag k="addr:city" v="San Jose"/><tag k="addr:housenumber" v="513"/><tag k="addr:street" v="Mountain Home Drive"/><tag k="addr:postcode" v="95136"/></node>
<node visible="true" id="-431" lat="37.280022616000004" lon="-121.861479309"><tag k="addr:city" v="San Jose"/><tag k="addr:housenumber" v="514"/><tag k="addr:street" v="Mountain Home Drive"/><tag k="addr:postcode" v="95136"/></node>
<node visible="true" id="-432" lat="37.280112744" lon="-121.86152689000001"><tag k="addr:city" v="San Jose"/><tag k="addr:housenumber" v="515"/><tag k="addr:street" v="Mountain Home Drive"/><tag k="addr:postcode" v="95136"/></node>
<node visible="true" id="-433" lat="37.280183434" lon="-121.86205553900001"><tag k="addr:city" v="San Jose"/><tag k="addr:housenumber" v="516"/><tag k="addr:street" v="Mountain Home Drive"/><tag k="addr:postcode" v="95136"/></node>
<node visible="true" id="-434" lat="37.280143970000005" lon="-121.862212071"><tag k="addr:city" v="San Jose"/><tag k="addr:housenumber" v="517"/><tag k="addr:street" v="Mountain Home Drive"/><tag k="addr:postcode" v="95136"/></node>
<node visible="true" id="-435" lat="37.280094028" lon="-121.862380293"><tag k="addr:city" v="San Jose"/><tag k="addr:housenumber" v="518"/><tag k="addr:street" v="Mountain Home Drive"/><tag k="addr:postcode" v="95136"/></node>
<node visible="true" id="-436" lat="37.277808319" lon="-121.858276308"><tag k="addr:city" v="San Jose"/><tag k="addr:housenumber" v="519"/><tag k="addr:street" v="Manhattan Place"/><tag k="addr:postcode" v="95136"/></node>
<node visible="true" id="-437" lat="37.280055875" lon="-121.86254197800001"><tag k="addr:city" v="San Jose"/><tag k="addr:housenumber" v="519"/><tag k="addr:street" v="Mountain Home Drive"/><tag k="addr:postcode" v="95136"/></node>
<node visible="true" id="-438" lat="37.280018940000005" lon="-121.86270020500001"><tag k="addr:city" v="San Jose"/><tag k="addr:housenumber" v="520"/><tag k="addr:street" v="Mountain Home Drive"/><tag k="addr:postcode" v="95136"/></node>
<node visible="true" id="-439" lat="37.279970949" lon="-121.86283730100001"><tag k="addr:city" v="San Jose"/><tag k="addr:housenumber" v="521"/><tag k="addr:street" v="Mountain Home Drive"/><tag k="addr:postcode" v="95136"/></node>
<node visible="true" id="-440" lat="37.277167007" lon="-121.85840164700001"><tag k="addr:city" v="San Jose"/><tag k="addr:housenumber" v="522"/><tag k="addr:street" v="Cityscape Place"/><tag k="addr:postcode" v="95136"/></node>
<node visible="true" id="-441" lat="37.279927865000005" lon="-121.86301603800001"><tag k="addr:city" v="San Jose"/><tag k="addr:housenumber" v="522"/><tag k="addr:street" v="Mountain Home Drive"/><tag k="addr:postcode" v="95136"/></node>
<node visible="true" id="-442" lat="37.277325331" lon="-121.85840857000001"><tag k="addr:city" v="San Jose"/><tag k="addr:housenumber" v="523"/><tag k="addr:street" v="Cityscape Place"/><tag k="addr:postcode" v="95136"/></node>
<node visible="true" id="-443" lat="37.279884766" lon="-121.86317611800001"><tag k="addr:city" v="San Jose"/><tag k="addr:housenumber" v="523"/><tag k="addr:street" v="Mountain Home Drive"/><tag k="addr:postcode" v="95136"/></node>
<node visible="true" id="-444" lat="37.279834944" lon="-121.863352546"><tag k="addr:city" v="San Jose"/><tag k="addr:housenumber" v="524"/><tag k="addr:street" v="Mountain Home Drive"/><tag k="addr:postcode" v="95136"/></node>
<node visible="true" id="-445" lat="37.277831298" lon="-121.85827256700001"><tag k="addr:city" v="San Jose"/><tag k="addr:housenumber" v="525"/><tag k="addr:street" v="Manhattan Place"/><tag k="addr:postcode" v="95136"/></node>
<node visible="true" id="-446" lat="37.279798247" lon="-121.86350813800001"><tag k="addr:city" v="San Jose"/><tag k="addr:housenumber" v="525"/><tag k="addr:street" v="Mountain Home Drive"/><tag k="addr:postcode" v="95136"/></node>
<node visible="true" id="-447" lat="37.277593938" lon="-121.858455899"><tag k="addr:city" v="San Jose"/><tag k="addr:housenumber" v="526"/><tag k="addr:street" v="Manhattan Place"/><tag k="addr:postcode" v="95136"/></node>
<node visible="true" id="-448" lat="37.279744087000005" lon="-121.86366884700001"><tag k="addr:city" v="San Jose"/><tag k="addr:housenumber" v="526"/><tag k="addr:street" v="Mountain Home Drive"/><tag k="addr:postcode" v="95136"/></node>
<node visible="true" id="-449" lat="37.277155391" lon="-121.858408404"><tag k="addr:city" v="San Jose"/><tag k="addr:housenumber" v="528"/><tag k="addr:street" v="Cityscape Place"/><tag k="addr:postcode" v="95136"/></node>
<node visible="true" id="-450" lat="37.27968456" lon="-121.863954422"><tag k="addr:city" v="San Jose"/><tag k="addr:housenumber" v="528"/><tag k="addr:street" v="Mountain Home Drive"/><tag k="addr:postcode" v="95136"/></node>
<node visible="true" id="-451" lat="37.27735011" lon="-121.85840348500001"><tag k="addr:city" v="San Jose"/><tag k="addr:housenumber" v="529"/><tag k="addr:street" v="Cityscape Place"/><tag k="addr:postcode" v="95136"/></node>
<node visible="true" id="-452" lat="37.279644156" lon="-121.86406256400001"><tag k="addr:city" v="San Jose"/><tag k="addr:housenumber" v="529"/><tag k="addr:street" v="Mountain Home Drive"/><tag k="addr:postcode" v="95136"/></node>
<node visible="true" id="-453" lat="37.279620525000006" lon="-121.86417684300001"><tag k="addr:city" v="San Jose"/><tag k="addr:housenumber" v="530"/><tag k="addr:street" v="Mountain Home Drive"/><tag k="addr:postcode" v="95136"/></node>
<node visible="true" id="-454" lat="37.279416752" lon="-121.864056512"><tag k="addr:city" v="San Jose"/><tag k="addr:housenumber" v="531"/><tag k="addr:street" v="Mountain Home Drive"/><tag k="addr:postcode" v="95136"/></node>
<node visible="true" id="-455" lat="37.277564850000005" lon="-121.85845822300001"><tag k="addr:city" v="San Jose"/><tag k="addr:housenumber" v="532"/><tag k="addr:street" v="Manhattan Place"/><tag k="addr:postcode" v="95136"/></node>
<node visible="true" id="-456" lat="37.279309677" lon="-121.86398403400001"><tag k="addr:city" v="San Jose"/><tag k="addr:housenumber" v="532"/><tag k="addr:street" v="Mountain Home Drive"/><tag k="addr:postcode" v="95136"/></node>
<node visible="true" id="-457" lat="37.279201505" lon="-121.863943387"><tag k="addr:city" v="San Jose"/><tag k="addr:housenumber" v="533"/><tag k="addr:street" v="Mountain Home Drive"/><tag k="addr:postcode" v="95136"/></node>
<node visible="true" id="-458" lat="37.277127683" lon="-121.858412439"><tag k="addr:city" v="San Jose"/><tag k="addr:housenumber" v="534"/><tag k="addr:street" v="Cityscape Place"/><tag k="addr:postcode" v="95136"/></node>
<node visible="true" id="-459" lat="37.279104995000004" lon="-121.863901392"><tag k="addr:city" v="San Jose"/><tag k="addr:housenumber" v="534"/><tag k="addr:street" v="Mountain Home Drive"/><tag k="addr:postcode" v="95136"/></node>
<node visible="true" id="-460" lat="37.279022985000005" lon="-121.86385995"><tag k="addr:city" v="San Jose"/><tag k="addr:housenumber" v="535"/><tag k="addr:street" v="Mountain Home Drive"/><tag k="addr:postcode" v="95136"/></node>
<node visible="true" id="-461" lat="37.278912686000005" lon="-121.86381788000001"><tag k="addr:city" v="San Jose"/><tag k="addr:housenumber" v="536"/><tag k="addr:street" v="Mountain Home Drive"/><tag k="addr:postcode" v="95136"/></node>
<node visible="true" id="-462" lat="37.277720912" lon="-121.858591641"><tag k="addr:city" v="San Jose"/><tag k="addr:housenumber" v="537"/><tag k="addr:street" v="Manhattan Place"/><tag k="addr:postcode" v="95136"/></node>
<node visible="true" id="-463" lat="37.277542197" lon="-121.85845513100001"><tag k="addr:city" v="San Jose"/><tag k="addr:housenumber" v="538"/><tag k="addr:street" v="Manhattan Place"/><tag k="addr:postcode" v="95136"/></node>
<node visible="true" id="-464" lat="37.277100957" lon="-121.858412435"><tag k="addr:city" v="San Jose"/><tag k="addr:housenumber" v="540"/><tag k="addr:street" v="Cityscape Place"/><tag k="addr:postcode" v="95136"/></node>
<node visible="true" id="-465" lat="37.278641845" lon="-121.86317614900001"><tag k="addr:city" v="San Jose"/><tag k="addr:housenumber" v="542"/><tag k="addr:street" v="Mountain Home Drive"/><tag k="addr:postcode" v="95136"/></node>
<node visible="true" id="-466" lat="37.277744655" lon="-121.85859784700001"><tag k="addr:city" v="San Jose"/><tag k="addr:housenumber" v="543"/><tag k="addr:street" v="Manhattan Place"/><tag k="addr:postcode" v="95136"/></node>
<node visible="true" id="-467" lat="37.278691501000004" lon="-121.863007218"><tag k="addr:city" v="San Jose"/><tag k="addr:housenumber" v="543"/><tag k="addr:street" v="Mountain Home Drive"/><tag k="addr:postcode" v="95136"/></node>
<node visible="true" id="-468" lat="37.278735221000005" lon="-121.862849412"><tag k="addr:city" v="San Jose"/><tag k="addr:housenumber" v="544"/><tag k="addr:street" v="Mountain Home Drive"/><tag k="addr:postcode" v="95136"/></node>
<node visible="true" id="-469" lat="37.278772203" lon="-121.86268762200001"><tag k="addr:city" v="San Jose"/><tag k="addr:housenumber" v="545"/><tag k="addr:street" v="Mountain Home Drive"/><tag k="addr:postcode" v="95136"/></node>
<node visible="true" id="-470" lat="37.277077207000005" lon="-121.85840695"><tag k="addr:city" v="San Jose"/><tag k="addr:housenumber" v="546"/><tag k="addr:street" v="Cityscape Place"/><tag k="addr:postcode" v="95136"/></node>
<node visible="true" id="-471" lat="37.277517992" lon="-121.85845335"><tag k="addr:city" v="San Jose"/><tag k="addr:housenumber" v="546"/><tag k="addr:street" v="Manhattan Place"/><tag k="addr:postcode" v="95136"/></node>
<node visible="true" id="-472" lat="37.277416300000006" lon="-121.85841125300001"><tag k="addr:city" v="San Jose"/><tag k="addr:housenumber" v="547"/><tag k="addr:street" v="Cityscape Place"/><tag k="addr:postcode" v="95136"/></node>
<node visible="true" id="-473" lat="37.278958654" lon="-121.862978834"><tag k="addr:city" v="San Jose"/><tag k="addr:housenumber" v="548"/><tag k="addr:street" v="Mountain Home Drive"/><tag k="addr:postcode" v="95136"/></node>
<node visible="true" id="-474" lat="37.278926892" lon="-121.86313455000001"><tag k="addr:city" v="San Jose"/><tag k="addr:housenumber" v="549"/><tag k="addr:street" v="Mountain Home Drive"/><tag k="addr:postcode" v="95136"/></node>
<node visible="true" id="-475" lat="37.278885502" lon="-121.86331383000001"><tag k="addr:city" v="San Jose"/><tag k="addr:housenumber" v="550"/><tag k="addr:street" v="Mountain Home Drive"/><tag k="addr:postcode" v="95136"/></node>
<node visible="true" id="-476" lat="37.277050002" lon="-121.85840081900001"><tag k="addr:city" v="San Jose"/><tag k="addr:housenumber" v="552"/><tag k="addr:street" v="Cityscape Place"/><tag k="addr:postcode" v="95136"/></node>
<node visible="true" id="-477" lat="37.277494839" lon="-121.858450798"><tag k="addr:city" v="San Jose"/><tag k="addr:housenumber" v="552"/><tag k="addr:street" v="Manhattan Place"/><tag k="addr:postcode" v="95136"/></node>
<node visible="true" id="-478" lat="37.279103156000005" lon="-121.863221702"><tag k="addr:city" v="San Jose"/><tag k="addr:housenumber" v="554"/><tag k="addr:street" v="Mountain Home Drive"/><tag k="addr:postcode" v="95136"/></node>
<node visible="true" id="-479" lat="37.277439108" lon="-121.858415242"><tag k="addr:city" v="San Jose"/><tag k="addr:housenumber" v="555"/><tag k="addr:street" v="Cityscape Place"/><tag k="addr:postcode" v="95136"/></node>
<node visible="true" id="-480" lat="37.27714254" lon="-121.858715739"><tag k="addr:city" v="San Jose"/><tag k="addr:housenumber" v="558"/><tag k="addr:street" v="Cityscape Place"/><tag k="addr:postcode" v="95136"/></node>
<node visible="true" id="-481" lat="37.277470602" lon="-121.85844224600001"><tag k="addr:city" v="San Jose"/><tag k="addr:housenumber" v="558"/><tag k="addr:street" v="Manhattan Place"/><tag k="addr:postcode" v="95136"/></node>
<node visible="true" id="-482" lat="37.277282659" lon="-121.858727118"><tag k="addr:city" v="San Jose"/><tag k="addr:housenumber" v="559"/><tag k="addr:street" v="Cityscape Place"/><tag k="addr:postcode" v="95136"/></node>
<node visible="true" id="-483" lat="37.279478823000005" lon="-121.86185197100001"><tag k="addr:city" v="San Jose"/><tag k="addr:housenumber" v="559"/><tag k="addr:street" v="Mountain Home Drive"/><tag k="addr:postcode" v="95136"/></node>
<node visible="true" id="-484" lat="37.279521402" lon="-121.861715497"><tag k="addr:city" v="San Jose"/><tag k="addr:housenumber" v="560"/><tag k="addr:street" v="Mountain Home Drive"/><tag k="addr:postcode" v="95136"/></node>
<node visible="true" id="-485" lat="37.277815824" lon="-121.85860732"><tag k="addr:city" v="San Jose"/><tag k="addr:housenumber" v="561"/><tag k="addr:street" v="Manhattan Place"/><tag k="addr:postcode" v="95136"/></node>
<node visible="true" id="-486" lat="37.279561499" lon="-121.86158531900001"><tag k="addr:city" v="San Jose"/><tag k="addr:housenumber" v="561"/><tag k="addr:street" v="Mountain Home Drive"/><tag k="addr:postcode" v="95136"/></node>
<node visible="true" id="-487" lat="37.277117136" lon="-121.85871785600001"><tag k="addr:city" v="San Jose"/><tag k="addr:housenumber" v="564"/><tag k="addr:street" v="Cityscape Place"/><tag k="addr:postcode" v="95136"/></node>
<node visible="true" id="-488" lat="37.277561529" lon="-121.858772916"><tag k="addr:city" v="San Jose"/><tag k="addr:housenumber" v="564"/><tag k="addr:street" v="Manhattan Place"/><tag k="addr:postcode" v="95136"/></node>
<node visible="true" id="-489" lat="37.279701808000006" lon="-121.86206256000001"><tag k="addr:city" v="San Jose"/><tag k="addr:housenumber" v="564"/><tag k="addr:street" v="Mountain Home Drive"/><tag k="addr:postcode" v="95136"/></node>
<node visible="true" id="-490" lat="37.277305694" lon="-121.85873035600001"><tag k="addr:city" v="San Jose"/><tag k="addr:housenumber" v="565"/><tag k="addr:street" v="Cityscape Place"/><tag k="addr:postcode" v="95136"/></node>
<node visible="true" id="-491" lat="37.279626432" lon="-121.86236898400001"><tag k="addr:city" v="San Jose"/><tag k="addr:housenumber" v="566"/><tag k="addr:street" v="Mountain Home Drive"/><tag k="addr:postcode" v="95136"/></node>
<node visible="true" id="-492" lat="37.277837419" lon="-121.85861152800001"><tag k="addr:city" v="San Jose"/><tag k="addr:housenumber" v="567"/><tag k="addr:street" v="Manhattan Place"/><tag k="addr:postcode" v="95136"/></node>
<node visible="true" id="-493" lat="37.279585605" lon="-121.862531398"><tag k="addr:city" v="San Jose"/><tag k="addr:housenumber" v="567"/><tag k="addr:street" v="Mountain Home Drive"/><tag k="addr:postcode" v="95136"/></node>
<node visible="true" id="-494" lat="37.277091878" lon="-121.858716778"><tag k="addr:city" v="San Jose"/><tag k="addr:housenumber" v="570"/><tag k="addr:street" v="Cityscape Place"/><tag k="addr:postcode" v="95136"/></node>
<node visible="true" id="-495" lat="37.277540723" lon="-121.858774017"><tag k="addr:city" v="San Jose"/><tag k="addr:housenumber" v="570"/><tag k="addr:street" v="Manhattan Place"/><tag k="addr:postcode" v="95136"/></node>
<node visible="true" id="-496" lat="37.279426830000006" lon="-121.863079196"><tag k="addr:city" v="San Jose"/><tag k="addr:housenumber" v="570"/><tag k="addr:street" v="Mountain Home Drive"/><tag k="addr:postcode" v="95136"/></node>
<node visible="true" id="-497" lat="37.277326296000005" lon="-121.85873502700001"><tag k="addr:city" v="San Jose"/><tag k="addr:housenumber" v="571"/><tag k="addr:street" v="Cityscape Place"/><tag k="addr:postcode" v="95136"/></node>
<node visible="true" id="-498" lat="37.279389937000005" lon="-121.86322177500001"><tag k="addr:city" v="San Jose"/><tag k="addr:housenumber" v="571"/><tag k="addr:street" v="Mountain Home Drive"/><tag k="addr:postcode" v="95136"/></node>
<node visible="true" id="-499" lat="37.279362513" lon="-121.863339189"><tag k="addr:city" v="San Jose"/><tag k="addr:housenumber" v="572"/><tag k="addr:street" v="Mountain Home Drive"/><tag k="addr:postcode" v="95136"/></node>
<node visible="true" id="-500" lat="37.277682993" lon="-121.858990539"><tag k="addr:city" v="San Jose"/><tag k="addr:housenumber" v="573"/><tag k="addr:street" v="Manhattan Place"/><tag k="addr:postcode" v="95136"/></node>
<node visible="true" id="-501" lat="37.279320576" lon="-121.86346012800001"><tag k="addr:city" v="San Jose"/><tag k="addr:housenumber" v="573"/><tag k="addr:street" v="Mountain Home Drive"/><tag k="addr:postcode" v="95136"/></node>
<node visible="true" id="-502" lat="37.279298012000005" lon="-121.86357855400001"><tag k="addr:city" v="San Jose"/><tag k="addr:housenumber" v="574"/><tag k="addr:street" v="Mountain Home Drive"/><tag k="addr:postcode" v="95136"/></node>
<node visible="true" id="-503" lat="37.279467618000005" lon="-121.86366650000001"><tag k="addr:city" v="San Jose"/><tag k="addr:housenumber" v="575"/><tag k="addr:street" v="Mountain Home Drive"/><tag k="addr:postcode" v="95136"/></node>
<node visible="true" id="-504" lat="37.277068115000006" lon="-121.85871232500001"><tag k="addr:city" v="San Jose"/><tag k="addr:housenumber" v="576"/><tag k="addr:street" v="Cityscape Place"/><tag k="addr:postcode" v="95136"/></node>
<node visible="true" id="-505" lat="37.279502473" lon="-121.86351844100001"><tag k="addr:city" v="San Jose"/><tag k="addr:housenumber" v="576"/><tag k="addr:street" v="Mountain Home Drive"/><tag k="addr:postcode" v="95136"/></node>
<node visible="true" id="-506" lat="37.277349105" lon="-121.85873172900001"><tag k="addr:city" v="San Jose"/><tag k="addr:housenumber" v="577"/><tag k="addr:street" v="Cityscape Place"/><tag k="addr:postcode" v="95136"/></node>
<node visible="true" id="-507" lat="37.279539979" lon="-121.863399673"><tag k="addr:city" v="San Jose"/><tag k="addr:housenumber" v="577"/><tag k="addr:street" v="Mountain Home Drive"/><tag k="addr:postcode" v="95136"/></node>
<node visible="true" id="-508" lat="37.279567576000005" lon="-121.86327296200001"><tag k="addr:city" v="San Jose"/><tag k="addr:housenumber" v="578"/><tag k="addr:street" v="Mountain Home Drive"/><tag k="addr:postcode" v="95136"/></node>
<node visible="true" id="-509" lat="37.279607060000004" lon="-121.86315400000001"><tag k="addr:city" v="San Jose"/><tag k="addr:housenumber" v="579"/><tag k="addr:street" v="Mountain Home Drive"/><tag k="addr:postcode" v="95136"/></node>
<node visible="true" id="-510" lat="37.279684655000004" lon="-121.862840805"><tag k="addr:city" v="San Jose"/><tag k="addr:housenumber" v="581"/><tag k="addr:street" v="Mountain Home Drive"/><tag k="addr:postcode" v="95136"/></node>
<node visible="true" id="-511" lat="37.277045673" lon="-121.85871006100001"><tag k="addr:city" v="San Jose"/><tag k="addr:housenumber" v="582"/><tag k="addr:street" v="Cityscape Place"/><tag k="addr:postcode" v="95136"/></node>
<node visible="true" id="-512" lat="37.277371137" lon="-121.85873848800001"><tag k="addr:city" v="San Jose"/><tag k="addr:housenumber" v="583"/><tag k="addr:street" v="Cityscape Place"/><tag k="addr:postcode" v="95136"/></node>
<node visible="true" id="-513" lat="37.279805839000005" lon="-121.86244388600001"><tag k="addr:city" v="San Jose"/><tag k="addr:housenumber" v="583"/><tag k="addr:street" v="Mountain Home Drive"/><tag k="addr:postcode" v="95136"/></node>
<node visible="true" id="-514" lat="37.279844634" lon="-121.862286982"><tag k="addr:city" v="San Jose"/><tag k="addr:housenumber" v="584"/><tag k="addr:street" v="Mountain Home Drive"/><tag k="addr:postcode" v="95136"/></node>
<node visible="true" id="-515" lat="37.279886178000005" lon="-121.862132942"><tag k="addr:city" v="San Jose"/><tag k="addr:housenumber" v="585"/><tag k="addr:street" v="Mountain Home Drive"/><tag k="addr:postcode" v="95136"/></node>
<node visible="true" id="-516" lat="37.279918403" lon="-121.86197843800001"><tag k="addr:city" v="San Jose"/><tag k="addr:housenumber" v="586"/><tag k="addr:street" v="Mountain Home Drive"/><tag k="addr:postcode" v="95136"/></node>
<node visible="true" id="-517" lat="37.279960645" lon="-121.861852083"><tag k="addr:city" v="San Jose"/><tag k="addr:housenumber" v="587"/><tag k="addr:street" v="Mountain Home Drive"/><tag k="addr:postcode" v="95136"/></node>
<node visible="true" id="-518" lat="37.277022383" lon="-121.858707472"><tag k="addr:city" v="San Jose"/><tag k="addr:housenumber" v="588"/><tag k="addr:street" v="Cityscape Place"/><tag k="addr:postcode" v="95136"/></node>
<node visible="true" id="-519" lat="37.277471457000004" lon="-121.85876866800001"><tag k="addr:city" v="San Jose"/><tag k="addr:housenumber" v="588"/><tag k="addr:street" v="Manhattan Place"/><tag k="addr:postcode" v="95136"/></node>
<node visible="true" id="-520" lat="37.279379215000006" lon="-121.86149588100001"><tag k="addr:city" v="San Jose"/><tag k="addr:housenumber" v="588"/><tag k="addr:street" v="Mountain Home Drive"/><tag k="addr:postcode" v="95136"/></node>
<node visible="true" id="-521" lat="37.277394998000005" lon="-121.85874163700001"><tag k="addr:city" v="San Jose"/><tag k="addr:housenumber" v="589"/><tag k="addr:street" v="Cityscape Place"/><tag k="addr:postcode" v="95136"/></node>
<node visible="true" id="-522" lat="37.279346204" lon="-121.86164872200001"><tag k="addr:city" v="San Jose"/><tag k="addr:housenumber" v="589"/><tag k="addr:street" v="Mountain Home Drive"/><tag k="addr:postcode" v="95136"/></node>
<node visible="true" id="-523" lat="37.277752455000005" lon="-121.858995617"><tag k="addr:city" v="San Jose"/><tag k="addr:housenumber" v="591"/><tag k="addr:street" v="Manhattan Place"/><tag k="addr:postcode" v="95136"/></node>
<node visible="true" id="-524" lat="37.279241138" lon="-121.861945413"><tag k="addr:city" v="San Jose"/><tag k="addr:housenumber" v="591"/><tag k="addr:street" v="Mountain Home Drive"/><tag k="addr:postcode" v="95136"/></node>
<node visible="true" id="-525" lat="37.277447373" lon="-121.858763452"><tag k="addr:city" v="San Jose"/><tag k="addr:housenumber" v="594"/><tag k="addr:street" v="Manhattan Place"/><tag k="addr:postcode" v="95136"/></node>
<node visible="true" id="-526" lat="37.277778228" lon="-121.85899959100001"><tag k="addr:city" v="San Jose"/><tag k="addr:housenumber" v="597"/><tag k="addr:street" v="Manhattan Place"/><tag k="addr:postcode" v="95136"/></node>
<node visible="true" id="-527" lat="37.277797617000004" lon="-121.85899746800001"><tag k="addr:city" v="San Jose"/><tag k="addr:housenumber" v="603"/><tag k="addr:street" v="Manhattan Place"/><tag k="addr:postcode" v="95136"/></node>
<node visible="true" id="-528" lat="37.279029377" lon="-121.86099775000001"><tag k="addr:city" v="San Jose"/><tag k="addr:housenumber" v="617"/><tag k="addr:street" v="Shadow Creek Drive"/><tag k="addr:postcode" v="95136"/></node>
<node visible="true" id="-529" lat="37.278941916" lon="-121.861301702"><tag k="addr:city" v="San Jose"/><tag k="addr:housenumber" v="621"/><tag k="addr:street" v="Shadow Creek Drive"/><tag k="addr:postcode" v="95136"/></node>
<node visible="true" id="-530" lat="37.278893783" lon="-121.861472105"><tag k="addr:city" v="San Jose"/><tag k="addr:housenumber" v="623"/><tag k="addr:street" v="Shadow Creek Drive"/><tag k="addr:postcode" v="95136"/></node>
<node visible="true" id="-531" lat="37.278810078" lon="-121.86178089900001"><tag k="addr:city" v="San Jose"/><tag k="addr:housenumber" v="627"/><tag k="addr:street" v="Shadow Creek Drive"/><tag k="addr:postcode" v="95136"/></node>
<node visible="true" id="-532" lat="37.278762366" lon="-121.86194712300001"><tag k="addr:city" v="San Jose"/><tag k="addr:housenumber" v="629"/><tag k="addr:street" v="Shadow Creek Drive"/><tag k="addr:postcode" v="95136"/></node>
<node visible="true" id="-533" lat="37.27871493" lon="-121.862089483"><tag k="addr:city" v="San Jose"/><tag k="addr:housenumber" v="631"/><tag k="addr:street" v="Shadow Creek Drive"/><tag k="addr:postcode" v="95136"/></node>
<node visible="true" id="-534" lat="37.279260795" lon="-121.86263041900001"><tag k="addr:city" v="San Jose"/><tag k="addr:housenumber" v="633"/><tag k="addr:street" v="Shadow Creek Drive"/><tag k="addr:postcode" v="95136"/></node>
<node visible="true" id="-535" lat="37.278625022" lon="-121.86247010400001"><tag k="addr:city" v="San Jose"/><tag k="addr:housenumber" v="635"/><tag k="addr:street" v="Shadow Creek Drive"/><tag k="addr:postcode" v="95136"/></node>
<node visible="true" id="-536" lat="37.278600388" lon="-121.86262501700001"><tag k="addr:city" v="San Jose"/><tag k="addr:housenumber" v="637"/><tag k="addr:street" v="Shadow Creek Drive"/><tag k="addr:postcode" v="95136"/></node>
<node visible="true" id="-537" lat="37.278531827" lon="-121.86294363200001"><tag k="addr:city" v="San Jose"/><tag k="addr:housenumber" v="641"/><tag k="addr:street" v="Shadow Creek Drive"/><tag k="addr:postcode" v="95136"/></node>
<node visible="true" id="-538" lat="37.278413791000006" lon="-121.86325179800001"><tag k="addr:city" v="San Jose"/><tag k="addr:housenumber" v="645"/><tag k="addr:street" v="Shadow Creek Drive"/><tag k="addr:postcode" v="95136"/></node>
<node visible="true" id="-539" lat="37.278366132" lon="-121.863413249"><tag k="addr:city" v="San Jose"/><tag k="addr:housenumber" v="647"/><tag k="addr:street" v="Shadow Creek Drive"/><tag k="addr:postcode" v="95136"/></node>
<node visible="true" id="-540" lat="37.278375193" lon="-121.863610648"><tag k="addr:city" v="San Jose"/><tag k="addr:housenumber" v="649"/><tag k="addr:street" v="Shadow Creek Drive"/><tag k="addr:postcode" v="95136"/></node>
<node visible="true" id="-541" lat="37.27877411" lon="-121.85761789200001"><tag k="addr:city" v="San Jose"/><tag k="addr:housenumber" v="436"/><tag k="addr:street" v="Ashling Court"/><tag k="addr:postcode" v="95136"/></node>
<node visible="true" id="-542" lat="37.27878784" lon="-121.85761824400001"><tag k="addr:city" v="San Jose"/><tag k="addr:housenumber" v="438"/><tag k="addr:street" v="Ashling Court"/><tag k="addr:postcode" v="95136"/></node>
<node visible="true" id="-543" lat="37.278801576" lon="-121.85761808000001"><tag k="addr:city" v="San Jose"/><tag k="addr:housenumber" v="434"/><tag k="addr:street" v="Ashling Court"/><tag k="addr:postcode" v="95136"/></node>
<node visible="true" id="-544" lat="37.279433612000005" lon="-121.857939915"><tag k="addr:city" v="San Jose"/><tag k="addr:housenumber" v="397"/><tag k="addr:street" v="Castlemaine Court"/><tag k="addr:postcode" v="95136"/></node>
<node visible="true" id="-545" lat="37.279447342000005" lon="-121.85794016400001"><tag k="addr:city" v="San Jose"/><tag k="addr:housenumber" v="399"/><tag k="addr:street" v="Castlemaine Court"/><tag k="addr:postcode" v="95136"/></node>
<node visible="true" id="-546" lat="37.279435935" lon="-121.857613989"><tag k="addr:city" v="San Jose"/><tag k="addr:housenumber" v="389"/><tag k="addr:street" v="Castlemaine Court"/><tag k="addr:postcode" v="95136"/></node>
<node visible="true" id="-547" lat="37.279449669" lon="-121.85761393000001"><tag k="addr:city" v="San Jose"/><tag k="addr:housenumber" v="393"/><tag k="addr:street" v="Castlemaine Court"/><tag k="addr:postcode" v="95136"/></node>
<node visible="true" id="-548" lat="37.279237720000005" lon="-121.85794154800001"><tag k="addr:city" v="San Jose"/><tag k="addr:housenumber" v="403"/><tag k="addr:street" v="Castlemaine Court"/><tag k="addr:postcode" v="95136"/></node>
<node visible="true" id="-549" lat="37.279251448000004" lon="-121.85794210700001"><tag k="addr:city" v="San Jose"/><tag k="addr:housenumber" v="405"/><tag k="addr:street" v="Castlemaine Court"/><tag k="addr:postcode" v="95136"/></node>
<node visible="true" id="-550" lat="37.279215066" lon="-121.857609362"><tag k="addr:city" v="San Jose"/><tag k="addr:housenumber" v="388"/><tag k="addr:street" v="Castlemaine Court"/><tag k="addr:postcode" v="95136"/></node>
<node visible="true" id="-551" lat="37.279201336" lon="-121.857609009"><tag k="addr:city" v="San Jose"/><tag k="addr:housenumber" v="392"/><tag k="addr:street" v="Castlemaine Court"/><tag k="addr:postcode" v="95136"/></node>
<node visible="true" id="-552" lat="37.277371584" lon="-121.858408791"><tag k="addr:city" v="San Jose"/><tag k="addr:housenumber" v="535"/><tag k="addr:street" v="Cityscape Place"/><tag k="addr:postcode" v="95136"/></node>
<node visible="true" id="-553" lat="37.275771007" lon="-121.862969906"><tag k="addr:city" v="San Jose"/><tag k="addr:housenumber" v="3780"/><tag k="addr:street" v="Narvaez Avenue"/><tag k="addr:postcode" v="95136"/></node>
<node visible="true" id="-554" lat="37.27769292" lon="-121.86259160200001"><tag k="addr:city" v="San Jose"/><tag k="addr:housenumber" v="3300"/><tag k="addr:street" v="Narvaez Avenue"/><tag k="addr:postcode" v="95136"/></node>
<node visible="true" id="-555" lat="37.279866109000004" lon="-121.857971417"><tag k="addr:city" v="San Jose"/><tag k="addr:housenumber" v="375"/><tag k="addr:street" v="Maeve Court"/><tag k="addr:postcode" v="95136"/></node>
<node visible="true" id="-556" lat="37.279681528000005" lon="-121.85764196000001"><tag k="addr:city" v="San Jose"/><tag k="addr:housenumber" v="368"/><tag k="addr:street" v="Maeve Court"/><tag k="addr:postcode" v="95136"/></node>
<node visible="true" id="-557" lat="37.277792954" lon="-121.858601612"><tag k="addr:city" v="San Jose"/><tag k="addr:housenumber" v="555"/><tag k="addr:street" v="Manhattan Place"/><tag k="addr:postcode" v="95136"/></node>
<node visible="true" id="-558" lat="37.277768791" lon="-121.858600897"><tag k="addr:city" v="San Jose"/><tag k="addr:housenumber" v="549"/><tag k="addr:street" v="Manhattan Place"/><tag k="addr:postcode" v="95136"/></node>
<node visible="true" id="-559" lat="37.277762542000005" lon="-121.85827300300001"><tag k="addr:city" v="San Jose"/><tag k="addr:housenumber" v="507"/><tag k="addr:street" v="Manhattan Place"/><tag k="addr:postcode" v="95136"/></node>
<node visible="true" id="-560" lat="37.277786655" lon="-121.858273302"><tag k="addr:city" v="San Jose"/><tag k="addr:housenumber" v="513"/><tag k="addr:street" v="Manhattan Place"/><tag k="addr:postcode" v="95136"/></node>
<node visible="true" id="-561" lat="37.277515212000004" lon="-121.85877582200001"><tag k="addr:city" v="San Jose"/><tag k="addr:housenumber" v="576"/><tag k="addr:street" v="Manhattan Place"/><tag k="addr:postcode" v="95136"/></node>
<node visible="true" id="-562" lat="37.277491592000004" lon="-121.85877563300001"><tag k="addr:city" v="San Jose"/><tag k="addr:housenumber" v="582"/><tag k="addr:street" v="Manhattan Place"/><tag k="addr:postcode" v="95136"/></node>
<node visible="true" id="-563" lat="37.277729424" lon="-121.858994339"><tag k="addr:city" v="San Jose"/><tag k="addr:housenumber" v="585"/><tag k="addr:street" v="Manhattan Place"/><tag k="addr:postcode" v="95136"/></node>
<node visible="true" id="-564" lat="37.277707452" lon="-121.858994146"><tag k="addr:city" v="San Jose"/><tag k="addr:housenumber" v="579"/><tag k="addr:street" v="Manhattan Place"/><tag k="addr:postcode" v="95136"/></node>
<node visible="true" id="-565" lat="37.276648914" lon="-121.85738597400001"><tag k="addr:city" v="San Jose"/><tag k="addr:housenumber" v="3314"/><tag k="addr:street" v="Skyward Place"/><tag k="addr:postcode" v="95136"/></node>
<node visible="true" id="-567" lat="37.274760272" lon="-121.85761535900001"/>
<node visible="true" id="-568" lat="37.274812297000004" lon="-121.857617644"/>
<node visible="true" id="-569" lat="37.274811262" lon="-121.85765478"/>
<node visible="true" id="-570" lat="37.274894008000004" lon="-121.85765838"/>
<node visible="true" id="-571" lat="37.274899068" lon="-121.85747778000001"/>
<node visible="true" id="-572" lat="37.274850639" lon="-121.857475663"/>
<node visible="true" id="-573" lat="37.274850863000005" lon="-121.857468311"/>
<node visible="true" id="-574" lat="37.274764493" lon="-121.85746450900001"/>
<node visible="true" id="-576" lat="37.275933485" lon="-121.86050388700001"/>
<node visible="true" id="-577" lat="37.276051977" lon="-121.86060586"/>
<node visible="true" id="-578" lat="37.27652191" lon="-121.85975073300001"/>
<node visible="true" id="-579" lat="37.276403418" lon="-121.85964875900001"/>
<way visible="true" id="-1"><nd ref="-2"/><nd ref="-3"/><nd ref="-4"/><nd ref="-5"/><nd ref="-2"/><tag k="building" v="yes"/><tag k="height" v="2.66"/><tag k="ele" v="52.40"/></way>
<way visible="true" id="-6"><nd ref="-7"/><nd ref="-8"/><nd ref="-9"/><nd ref="-10"/><nd ref="-11"/><nd ref="-12"/><nd ref="-7"/><tag k="building" v="yes"/><tag k="height" v="4.99"/><tag k="ele" v="52.17"/></way>
<way visible="true" id="-13"><nd ref="-14"/><nd ref="-15"/><nd ref="-16"/><nd ref="-17"/><nd ref="-18"/><nd ref="-19"/><nd ref="-20"/><nd ref="-21"/><nd ref="-22"/><nd ref="-23"/><nd ref="-24"/><nd ref="-25"/><nd ref="-26"/><nd ref="-27"/><nd ref="-14"/><tag k="building" v="yes"/><tag k="height" v="3.66"/><tag k="ele" v="51.74"/></way>
<way visible="true" id="-28"><nd ref="-29"/><nd ref="-30"/><nd ref="-31"/><nd ref="-32"/><nd ref="-33"/><nd ref="-34"/><nd ref="-35"/><nd ref="-36"/><nd ref="-37"/><nd ref="-38"/><nd ref="-39"/><nd ref="-40"/><nd ref="-41"/><nd ref="-42"/><nd ref="-43"/><nd ref="-44"/><nd ref="-45"/><nd ref="-46"/><nd ref="-47"/><nd ref="-48"/><nd ref="-49"/><nd ref="-50"/><nd ref="-51"/><nd ref="-52"/><nd ref="-53"/><nd ref="-54"/><nd ref="-55"/><nd ref="-56"/><nd ref="-57"/><nd ref="-58"/><nd ref="-59"/><nd ref="-60"/><nd ref="-61"/><nd ref="-29"/><tag k="building" v="yes"/><tag k="height" v="8.41"/><tag k="ele" v="61.45"/></way>
<way visible="true" id="-62"><nd ref="-63"/><nd ref="-64"/><nd ref="-65"/><nd ref="-66"/><nd ref="-67"/><nd ref="-68"/><nd ref="-69"/><nd ref="-70"/><nd ref="-63"/><tag k="building" v="yes"/><tag k="height" v="4.85"/><tag k="ele" v="52.39"/></way>
<way visible="true" id="-566"><nd ref="-567"/><nd ref="-568"/><nd ref="-569"/><nd ref="-570"/><nd ref="-571"/><nd ref="-572"/><nd ref="-573"/><nd ref="-574"/><nd ref="-567"/><tag k="building" v="yes"/><tag k="height" v="4.50"/><tag k="ele" v="55.39"/><tag k="addr:city" v="San Jose"/><tag k="addr:housenumber" v="605"/><tag k="addr:street" v="West Capitol Expressway"/><tag k="addr:postcode" v="95136"/></way>
<way visible="true" id="-575"><nd ref="-576"/><nd ref="-577"/><nd ref="-578"/><nd ref="-579"/><nd ref="-576"/><tag k="building" v="yes"/><tag k="height" v="4.90"/><tag k="ele" v="52.39"/><tag k="addr:city" v="San Jose"/><tag k="addr:housenumber" v="3800"/><tag k="addr:street" v="Narvaez Avenue"/><tag k="addr:postcode" v="95136"/></way>
</osm>