<?xml version="1.0"?>
<osm version="0.6" generator="uvmogr2osm" upload="false">
<node visible="true" id="-2" lat="37.275246935000006" lon="-121.83179969400001"/>
<node visible="true" id="-3" lat="37.27541628" lon="-121.831989899"/>
<node visible="true" id="-4" lat="37.275442264000006" lon="-121.831953686"/>
<node visible="true" id="-5" lat="37.275430141" lon="-121.831940032"/>
<node visible="true" id="-6" lat="37.275537048000004" lon="-121.83178523400001"/>
<node visible="true" id="-7" lat="37.275368833" lon="-121.831611616"/>
<node visible="true" id="-9" lat="37.276510906000006" lon="-121.83295154300001"/>
<node visible="true" id="-10" lat="37.276578149" lon="-121.83302612700001"/>
<node visible="true" id="-11" lat="37.276579546" lon="-121.833024124"/>
<node visible="true" id="-12" lat="37.276585242" lon="-121.83303044700001"/>
<node visible="true" id="-13" lat="37.276598084" lon="-121.83301228600001"/>
<node visible="true" id="-14" lat="37.276582189" lon="-121.83299464400001"/>
<node visible="true" id="-15" lat="37.276597487000004" lon="-121.83297305600001"/>
<node visible="true" id="-16" lat="37.2765549" lon="-121.832925861"/>
<node visible="true" id="-17" lat="37.276574217000004" lon="-121.83289860400001"/>
<node visible="true" id="-18" lat="37.276558756" lon="-121.832881451"/>
<node visible="true" id="-19" lat="37.276539131" lon="-121.832909149"/>
<node visible="true" id="-20" lat="37.276540135000005" lon="-121.832910267"/>
<node visible="true" id="-22" lat="37.275799456" lon="-121.83245555600001"/>
<node visible="true" id="-23" lat="37.275925366" lon="-121.832583568"/>
<node visible="true" id="-24" lat="37.276020451" lon="-121.832437048"/>
<node visible="true" id="-25" lat="37.276041196" lon="-121.832458145"/>
<node visible="true" id="-26" lat="37.276076338" lon="-121.83240401600001"/>
<node visible="true" id="-27" lat="37.276056652" lon="-121.83238397000001"/>
<node visible="true" id="-28" lat="37.276550046000004" lon="-121.831623852"/>
<node visible="true" id="-29" lat="37.276528649" lon="-121.83160209100001"/>
<node visible="true" id="-30" lat="37.27654629" lon="-121.83157494100001"/>
<node visible="true" id="-31" lat="37.276510718000004" lon="-121.83153876700001"/>
<node visible="true" id="-32" lat="37.276530848" lon="-121.831507743"/>
<node visible="true" id="-33" lat="37.276475671" lon="-121.831451662"/>
<node visible="true" id="-34" lat="37.276436867" lon="-121.83151146600001"/>
<node visible="true" id="-35" lat="37.276429156" lon="-121.831503595"/>
<node visible="true" id="-36" lat="37.276330018" lon="-121.831656334"/>
<node visible="true" id="-37" lat="37.276322307" lon="-121.83164849600001"/>
<node visible="true" id="-38" lat="37.276249283000006" lon="-121.83176096800001"/>
<node visible="true" id="-39" lat="37.276256506" lon="-121.831768315"/>
<node visible="true" id="-40" lat="37.275978720000005" lon="-121.83219628500001"/>
<node visible="true" id="-41" lat="37.275971877" lon="-121.83218935800001"/>
<node visible="true" id="-42" lat="37.275940145" lon="-121.832238218"/>
<node visible="true" id="-43" lat="37.275942426" lon="-121.83224056300001"/>
<node visible="true" id="-44" lat="37.275834229000004" lon="-121.832407265"/>
<node visible="true" id="-45" lat="37.275832166" lon="-121.83240520000001"/>
<node visible="true" id="-47" lat="37.275598075000005" lon="-121.826362293"/>
<node visible="true" id="-48" lat="37.27563739" lon="-121.826569977"/>
<node visible="true" id="-49" lat="37.2756671" lon="-121.82656119"/>
<node visible="true" id="-50" lat="37.275690219000005" lon="-121.826683208"/>
<node visible="true" id="-51" lat="37.275750023" lon="-121.82666550100001"/>
<node visible="true" id="-52" lat="37.275758836" lon="-121.82671206100001"/>
<node visible="true" id="-53" lat="37.275707435" lon="-121.82672730300001"/>
<node visible="true" id="-54" lat="37.275784175000005" lon="-121.827132605"/>
<node visible="true" id="-55" lat="37.275834335" lon="-121.82711771800001"/>
<node visible="true" id="-56" lat="37.275846568000006" lon="-121.82718221200001"/>
<node visible="true" id="-57" lat="37.276056080000004" lon="-121.82712010600001"/>
<node visible="true" id="-58" lat="37.276042941" lon="-121.827050614"/>
<node visible="true" id="-59" lat="37.276080781000005" lon="-121.827039393"/>
<node visible="true" id="-60" lat="37.276011843" lon="-121.826675268"/>
<node visible="true" id="-61" lat="37.276051227" lon="-121.82666355900001"/>
<node visible="true" id="-62" lat="37.276016602000006" lon="-121.826480704"/>
<node visible="true" id="-63" lat="37.27600883" lon="-121.82648304000001"/>
<node visible="true" id="-64" lat="37.275965341" lon="-121.826253385"/>
<node visible="true" id="-66" lat="37.275843536000004" lon="-121.82929720700001"/>
<node visible="true" id="-67" lat="37.27585387" lon="-121.82932079700001"/>
<node visible="true" id="-68" lat="37.275900711000006" lon="-121.82928866700001"/>
<node visible="true" id="-69" lat="37.275890348000004" lon="-121.82926507500001"/>
<node visible="true" id="-71" lat="37.275579951000005" lon="-121.83159451200001"/>
<node visible="true" id="-72" lat="37.275596811" lon="-121.83180021800001"/>
<node visible="true" id="-73" lat="37.275921677" lon="-121.83175853700001"/>
<node visible="true" id="-74" lat="37.275988411" lon="-121.83183682200001"/>
<node visible="true" id="-75" lat="37.276025307000005" lon="-121.83178320500001"/>
<node visible="true" id="-76" lat="37.276025866000005" lon="-121.831767885"/>
<node visible="true" id="-77" lat="37.276195879" lon="-121.83150555900001"/>
<node visible="true" id="-78" lat="37.276067364" lon="-121.83137458200001"/>
<node visible="true" id="-79" lat="37.275955596" lon="-121.831546309"/>
<node visible="true" id="-80" lat="37.277877002000004" lon="-121.82889608500001"><tag k="addr:city" v="San Jose"/><tag k="addr:housenumber" v="258"/><tag k="addr:street" v="Senter Road"/><tag k="addr:unit" v="A"/><tag k="addr:postcode" v="95111"/></node>
<node visible="true" id="-81" lat="37.276923524000004" lon="-121.83328271900001"><tag k="addr:city" v="San Jose"/><tag k="addr:housenumber" v="4210"/><tag k="addr:street" v="Monterey Road"/><tag k="addr:unit" v="66"/><tag k="addr:postcode" v="95111"/></node>
<node visible="true" id="-82" lat="37.275875531000004" lon="-121.831884457"><tag k="addr:city" v="San Jose"/><tag k="addr:housenumber" v="4234"/><tag k="addr:street" v="Monterey Road"/><tag k="addr:postcode" v="95111"/></node>
<node visible="true" id="-83" lat="37.276558767000004" lon="-121.832492271"><tag k="addr:city" v="San Jose"/><tag k="addr:housenumber" v="4210"/><tag k="addr:street" v="Monterey Road"/><tag k="addr:unit" v="8"/><tag k="addr:postcode" v="95111"/></node>
<node visible="true" id="-84" lat="37.275997885" lon="-121.83156839"><tag k="addr:city" v="San Jose"/><tag k="addr:housenumber" v="4236;4238"/><tag k="addr:street" v="Monterey Road"/><tag k="addr:unit" v="A-D;F"/><tag k="addr:postcode" v="95111"/></node>
<node visible="true" id="-85" lat="37.276194038" lon="-121.832070039"><tag k="addr:city" v="San Jose"/><tag k="addr:housenumber" v="4234"/><tag k="addr:street" v="Monterey Road"/><tag k="addr:unit" v="A-F"/><tag k="addr:postcode" v="95111"/></node>
<node visible="true" id="-86" lat="37.276064885000004" lon="-121.831542576"><tag k="addr:city" v="San Jose"/><tag k="addr:housenumber" v="4236;4238"/><tag k="addr:street" v="Monterey Road"/><tag k="addr:postcode" v="95111"/></node>
<node visible="true" id="-87" lat="37.274730078000005" lon="-121.82187122"><tag k="addr:city" v="San Jose"/><tag k="addr:housenumber" v="358"/><tag k="addr:street" v="Gordola Court"/><tag k="addr:postcode" v="95111"/></node>
<node visible="true" id="-88" lat="37.274897671000005" lon="-121.828898378"><tag k="addr:city" v="San Jose"/><tag k="addr:housenumber" v="4320"/><tag k="addr:street" v="Monterey Road"/><tag k="addr:unit" v="37"/><tag k="addr:postcode" v="95111"/></node>
<node visible="true" id="-89" lat="37.274940225" lon="-121.82882347500001"><tag k="addr:city" v="San Jose"/><tag k="addr:housenumber" v="4320"/><tag k="addr:street" v="Monterey Road"/><tag k="addr:unit" v="40"/><tag k="addr:postcode" v="95111"/></node>
<node visible="true" id="-90" lat="37.275026961" lon="-121.829101706"><tag k="addr:city" v="San Jose"/><tag k="addr:housenumber" v="4320"/><tag k="addr:street" v="Monterey Road"/><tag k="addr:unit" v="38"/><tag k="addr:postcode" v="95111"/></node>
<node visible="true" id="-91" lat="37.275069224" lon="-121.829052461"><tag k="addr:city" v="San Jose"/><tag k="addr:housenumber" v="4320"/><tag k="addr:street" v="Monterey Road"/><tag k="addr:unit" v="39"/><tag k="addr:postcode" v="95111"/></node>
<node visible="true" id="-92" lat="37.277417057" lon="-121.833380578"><tag k="addr:city" v="San Jose"/><tag k="addr:housenumber" v="4210"/><tag k="addr:street" v="Monterey Road"/><tag k="addr:unit" v="61"/><tag k="addr:postcode" v="95111"/></node>
<node visible="true" id="-93" lat="37.277450076" lon="-121.83342966400001"><tag k="addr:city" v="San Jose"/><tag k="addr:housenumber" v="4210"/><tag k="addr:street" v="Monterey Road"/><tag k="addr:unit" v="62"/><tag k="addr:postcode" v="95111"/></node>
<node visible="true" id="-94" lat="37.277876145" lon="-121.828790853"><tag k="addr:city" v="San Jose"/><tag k="addr:housenumber" v="258"/><tag k="addr:street" v="Senter Road"/><tag k="addr:unit" v="B"/><tag k="addr:postcode" v="95111"/></node>
<node visible="true" id="-95" lat="37.276883464" lon="-121.833259044"><tag k="addr:city" v="San Jose"/><tag k="addr:housenumber" v="4210"/><tag k="addr:street" v="Monterey Road"/><tag k="addr:unit" v="67"/><tag k="addr:postcode" v="95111"/></node>
<node visible="true" id="-96" lat="37.276844866000005" lon="-121.83321681100001"><tag k="addr:city" v="San Jose"/><tag k="addr:housenumber" v="4210"/><tag k="addr:street" v="Monterey Road"/><tag k="addr:unit" v="68"/><tag k="addr:postcode" v="95111"/></node>
<node visible="true" id="-97" lat="37.276811908" lon="-121.83317902200001"><tag k="addr:city" v="San Jose"/><tag k="addr:housenumber" v="4210"/><tag k="addr:street" v="Monterey Road"/><tag k="addr:unit" v="69"/><tag k="addr:postcode" v="95111"/></node>
<node visible="true" id="-98" lat="37.276952933000004" lon="-121.83332756700001"><tag k="addr:city" v="San Jose"/><tag k="addr:housenumber" v="4210"/><tag k="addr:street" v="Monterey Road"/><tag k="addr:unit" v="70"/><tag k="addr:postcode" v="95111"/></node>
<node visible="true" id="-99" lat="37.276507024000004" lon="-121.83311047000001"><tag k="addr:city" v="San Jose"/><tag k="addr:housenumber" v="4210"/><tag k="addr:street" v="Monterey Road"/><tag k="addr:unit" v="1"/><tag k="addr:postcode" v="95111"/></node>
<node visible="true" id="-100" lat="37.276476631" lon="-121.83316214300001"><tag k="addr:city" v="San Jose"/><tag k="addr:housenumber" v="4210"/><tag k="addr:street" v="Monterey Road"/><tag k="addr:unit" v="2"/><tag k="addr:postcode" v="95111"/></node>
<node visible="true" id="-101" lat="37.276461138" lon="-121.83321408200001"><tag k="addr:city" v="San Jose"/><tag k="addr:housenumber" v="4210"/><tag k="addr:street" v="Monterey Road"/><tag k="addr:unit" v="3"/><tag k="addr:postcode" v="95111"/></node>
<node visible="true" id="-102" lat="37.276427893000005" lon="-121.83325451600001"><tag k="addr:city" v="San Jose"/><tag k="addr:housenumber" v="4210"/><tag k="addr:street" v="Monterey Road"/><tag k="addr:unit" v="4"/><tag k="addr:postcode" v="95111"/></node>
<node visible="true" id="-103" lat="37.276534351" lon="-121.83306620200001"><tag k="addr:city" v="San Jose"/><tag k="addr:housenumber" v="4210"/><tag k="addr:street" v="Monterey Road"/><tag k="addr:unit" v="5"/><tag k="addr:postcode" v="95111"/></node>
<node visible="true" id="-104" lat="37.276525522" lon="-121.832532705"><tag k="addr:city" v="San Jose"/><tag k="addr:housenumber" v="4210"/><tag k="addr:street" v="Monterey Road"/><tag k="addr:unit" v="9"/><tag k="addr:postcode" v="95111"/></node>
<node visible="true" id="-105" lat="37.277486793" lon="-121.83346068600001"><tag k="addr:city" v="San Jose"/><tag k="addr:housenumber" v="4210"/><tag k="addr:street" v="Monterey Road"/><tag k="addr:unit" v="63"/><tag k="addr:postcode" v="95111"/></node>
<node visible="true" id="-106" lat="37.277510412000005" lon="-121.83351060800001"><tag k="addr:city" v="San Jose"/><tag k="addr:housenumber" v="4210"/><tag k="addr:street" v="Monterey Road"/><tag k="addr:unit" v="64"/><tag k="addr:postcode" v="95111"/></node>
<node visible="true" id="-107" lat="37.277389073" lon="-121.833336958"><tag k="addr:city" v="San Jose"/><tag k="addr:housenumber" v="4210"/><tag k="addr:street" v="Monterey Road"/><tag k="addr:unit" v="65"/><tag k="addr:postcode" v="95111"/></node>
<node visible="true" id="-108" lat="37.276664786000005" lon="-121.833360036"><tag k="addr:city" v="San Jose"/><tag k="addr:housenumber" v="4210"/><tag k="addr:street" v="Monterey Road"/><tag k="addr:unit" v="71"/><tag k="addr:postcode" v="95111"/></node>
<node visible="true" id="-109" lat="37.276676470000005" lon="-121.83330655900001"><tag k="addr:city" v="San Jose"/><tag k="addr:housenumber" v="4210"/><tag k="addr:street" v="Monterey Road"/><tag k="addr:unit" v="72"/><tag k="addr:postcode" v="95111"/></node>
<node visible="true" id="-110" lat="37.276703011" lon="-121.833251664"><tag k="addr:city" v="San Jose"/><tag k="addr:housenumber" v="4210"/><tag k="addr:street" v="Monterey Road"/><tag k="addr:unit" v="73"/><tag k="addr:postcode" v="95111"/></node>
<node visible="true" id="-111" lat="37.276727035" lon="-121.833204491"><tag k="addr:city" v="San Jose"/><tag k="addr:housenumber" v="4210"/><tag k="addr:street" v="Monterey Road"/><tag k="addr:unit" v="74"/><tag k="addr:postcode" v="95111"/></node>
<node visible="true" id="-112" lat="37.276634593000004" lon="-121.83340406100001"><tag k="addr:city" v="San Jose"/><tag k="addr:housenumber" v="4210"/><tag k="addr:street" v="Monterey Road"/><tag k="addr:unit" v="75"/><tag k="addr:postcode" v="95111"/></node>
<node visible="true" id="-114" lat="37.276011149000006" lon="-121.83263167000001"/>
<node visible="true" id="-115" lat="37.276179580000004" lon="-121.832803061"/>
<node visible="true" id="-116" lat="37.276352914" lon="-121.83253632700001"/>
<node visible="true" id="-117" lat="37.276341592" lon="-121.83252478300001"/>
<node visible="true" id="-118" lat="37.276377464" lon="-121.832466921"/>
<node visible="true" id="-119" lat="37.276261963" lon="-121.83234851300001"/>
<node visible="true" id="-120" lat="37.276223523000006" lon="-121.83240763500001"/>
<node visible="true" id="-121" lat="37.276183337" lon="-121.832366738"/>
<node visible="true" id="-123" lat="37.277189465" lon="-121.83402974100001"/>
<node visible="true" id="-124" lat="37.277342711" lon="-121.83418852700001"/>
<node visible="true" id="-125" lat="37.277555932000006" lon="-121.83386627"/>
<node visible="true" id="-126" lat="37.277489177" lon="-121.833797125"/>
<node visible="true" id="-127" lat="37.277484482000006" lon="-121.83380419100001"/>
<node visible="true" id="-128" lat="37.277288995" lon="-121.83360168600001"/>
<node visible="true" id="-129" lat="37.277222726000005" lon="-121.83370434400001"/>
<node visible="true" id="-130" lat="37.277418451" lon="-121.83390544400001"/>
<node visible="true" id="-131" lat="37.277343615" lon="-121.834017539"/>
<node visible="true" id="-132" lat="37.277256962" lon="-121.833927759"/>
<node visible="true" id="-134" lat="37.276032421000004" lon="-121.82617778800001"/>
<node visible="true" id="-135" lat="37.276215872" lon="-121.82716247"/>
<node visible="true" id="-136" lat="37.276266882" lon="-121.827147772"/>
<node visible="true" id="-137" lat="37.276308149" lon="-121.827372163"/>
<node visible="true" id="-138" lat="37.276421135" lon="-121.82733962500001"/>
<node visible="true" id="-139" lat="37.276422013" lon="-121.82734452000001"/>
<node visible="true" id="-140" lat="37.276523563000005" lon="-121.827315251"/>
<node visible="true" id="-141" lat="37.276515025" lon="-121.82726883500001"/>
<node visible="true" id="-142" lat="37.276535335000005" lon="-121.827262974"/>
<node visible="true" id="-143" lat="37.276506166000004" lon="-121.827105306"/>
<node visible="true" id="-144" lat="37.276533203" lon="-121.827097261"/>
<node visible="true" id="-145" lat="37.276476307" lon="-121.82679277800001"/>
<node visible="true" id="-146" lat="37.276458312" lon="-121.82679795800001"/>
<node visible="true" id="-147" lat="37.276429332" lon="-121.82664053500001"/>
<node visible="true" id="-148" lat="37.276455262" lon="-121.82663308900001"/>
<node visible="true" id="-149" lat="37.27639645" lon="-121.82631341400001"/>
<node visible="true" id="-150" lat="37.276349163" lon="-121.82608929300001"/>
<node visible="true" id="-151" lat="37.276297547000006" lon="-121.826096937"/>
<node visible="true" id="-152" lat="37.276147276" lon="-121.82614022800001"/>
<node visible="true" id="-153" lat="37.276157264000005" lon="-121.826194541"/>
<node visible="true" id="-154" lat="37.276121226" lon="-121.82620424800001"/>
<node visible="true" id="-155" lat="37.276112314" lon="-121.826154422"/>
<node visible="true" id="-157" lat="37.276239613" lon="-121.8331009"/>
<node visible="true" id="-158" lat="37.276333041" lon="-121.833196369"/>
<node visible="true" id="-159" lat="37.276542343" lon="-121.83287562500001"/>
<node visible="true" id="-160" lat="37.276448885" lon="-121.832780157"/>
<node visible="true" id="-162" lat="37.27671671" lon="-121.83363764200001"/>
<node visible="true" id="-163" lat="37.276769088" lon="-121.83368848600001"/>
<node visible="true" id="-164" lat="37.276845786" lon="-121.833564737"/>
<node visible="true" id="-165" lat="37.27692699" lon="-121.833643523"/>
<node visible="true" id="-166" lat="37.276850404" lon="-121.83376710200001"/>
<node visible="true" id="-167" lat="37.276877842000005" lon="-121.833793748"/>
<node visible="true" id="-168" lat="37.276993883" lon="-121.833606528"/>
<node visible="true" id="-169" lat="37.27683289" lon="-121.83345025300001"/>
<way visible="true" id="-1"><nd ref="-2"/><nd ref="-3"/><nd ref="-4"/><nd ref="-5"/><nd ref="-6"/><nd ref="-7"/><nd ref="-2"/><tag k="building" v="yes"/><tag k="height" v="5.24"/><tag k="ele" v="58.77"/></way>
<way visible="true" id="-8"><nd ref="-9"/><nd ref="-10"/><nd ref="-11"/><nd ref="-12"/><nd ref="-13"/><nd ref="-14"/><nd ref="-15"/><nd ref="-16"/><nd ref="-17"/><nd ref="-18"/><nd ref="-19"/><nd ref="-20"/><nd ref="-9"/><tag k="building" v="yes"/><tag k="height" v="0.00"/><tag k="ele" v="55.89"/></way>
<way visible="true" id="-21"><nd ref="-22"/><nd ref="-23"/><nd ref="-24"/><nd ref="-25"/><nd ref="-26"/><nd ref="-27"/><nd ref="-28"/><nd ref="-29"/><nd ref="-30"/><nd ref="-31"/><nd ref="-32"/><nd ref="-33"/><nd ref="-34"/><nd ref="-35"/><nd ref="-36"/><nd ref="-37"/><nd ref="-38"/><nd ref="-39"/><nd ref="-40"/><nd ref="-41"/><nd ref="-42"/><nd ref="-43"/><nd ref="-44"/><nd ref="-45"/><nd ref="-22"/><tag k="building" v="yes"/><tag k="height" v="5.30"/><tag k="ele" v="61.31"/></way>
<way visible="true" id="-46"><nd ref="-47"/><nd ref="-48"/><nd ref="-49"/><nd ref="-50"/><nd ref="-51"/><nd ref="-52"/><nd ref="-53"/><nd ref="-54"/><nd ref="-55"/><nd ref="-56"/><nd ref="-57"/><nd ref="-58"/><nd ref="-59"/><nd ref="-60"/><nd ref="-61"/><nd ref="-62"/><nd ref="-63"/><nd ref="-64"/><nd ref="-47"/><tag k="building" v="yes"/><tag k="height" v="15.36"/><tag k="ele" v="113.69"/></way>
<way visible="true" id="-65"><nd ref="-66"/><nd ref="-67"/><nd ref="-68"/><nd ref="-69"/><nd ref="-66"/><tag k="building" v="yes"/><tag k="height" v="2.43"/><tag k="ele" v="77.89"/></way>
<way visible="true" id="-70"><nd ref="-71"/><nd ref="-72"/><nd ref="-73"/><nd ref="-74"/><nd ref="-75"/><nd ref="-76"/><nd ref="-77"/><nd ref="-78"/><nd ref="-79"/><nd ref="-71"/><tag k="building" v="yes"/><tag k="height" v="5.28"/><tag k="ele" v="59.98"/></way>
<way visible="true" id="-113"><nd ref="-114"/><nd ref="-115"/><nd ref="-116"/><nd ref="-117"/><nd ref="-118"/><nd ref="-119"/><nd ref="-120"/><nd ref="-121"/><nd ref="-114"/><tag k="building" v="yes"/><tag k="height" v="5.74"/><tag k="ele" v="59.33"/><tag k="addr:city" v="San Jose"/><tag k="addr:housenumber" v="4230"/><tag k="addr:street" v="Monterey Road"/><tag k="addr:postcode" v="95111"/></way>
<way visible="true" id="-122"><nd ref="-123"/><nd ref="-124"/><nd ref="-125"/><nd ref="-126"/><nd ref="-127"/><nd ref="-128"/><nd ref="-129"/><nd ref="-130"/><nd ref="-131"/><nd ref="-132"/><nd ref="-123"/><tag k="building" v="yes"/><tag k="height" v="6.78"/><tag k="ele" v="60.59"/><tag k="addr:city" v="San Jose"/><tag k="addr:housenumber" v="4170"/><tag k="addr:street" v="Monterey Road"/><tag k="addr:postcode" v="95111"/></way>
<way visible="true" id="-133"><nd ref="-134"/><nd ref="-135"/><nd ref="-136"/><nd ref="-137"/><nd ref="-138"/><nd ref="-139"/><nd ref="-140"/><nd ref="-141"/><nd ref="-142"/><nd ref="-143"/><nd ref="-144"/><nd ref="-145"/><nd ref="-146"/><nd ref="-147"/><nd ref="-148"/><nd ref="-149"/><nd ref="-150"/><nd ref="-151"/><nd ref="-152"/><nd ref="-153"/><nd ref="-154"/><nd ref="-155"/><nd ref="-134"/><tag k="building" v="yes"/><tag k="height" v="14.76"/><tag k="ele" v="113.58"/><tag k="addr:city" v="San Jose"/><tag k="addr:housenumber" v="100"/><tag k="addr:street" v="Skyway Drive"/><tag k="addr:unit" v="110;120;130"/><tag k="addr:postcode" v="95111"/></way>
<way visible="true" id="-156"><nd ref="-157"/><nd ref="-158"/><nd ref="-159"/><nd ref="-160"/><nd ref="-157"/><tag k="building" v="yes"/><tag k="height" v="5.73"/><tag k="ele" v="59.66"/><tag k="addr:city" v="San Jose"/><tag k="addr:housenumber" v="4224"/><tag k="addr:street" v="Monterey Road"/><tag k="addr:postcode" v="95111"/></way>
<way visible="true" id="-161"><nd ref="-162"/><nd ref="-163"/><nd ref="-164"/><nd ref="-165"/><nd ref="-166"/><nd ref="-167"/><nd ref="-168"/><nd ref="-169"/><nd ref="-162"/><tag k="building" v="yes"/><tag k="height" v="3.20"/><tag k="ele" v="56.05"/><tag k="addr:city" v="San Jose"/><tag k="addr:housenumber" v="4180"/><tag k="addr:street" v="Monterey Road"/><tag k="addr:postcode" v="95111"/></way>
</osm>