<?xml version="1.0"?>
<osm version="0.6" generator="uvmogr2osm" upload="false">
<node visible="true" id="-2" lat="37.314584904" lon="-121.89000062800001"/>
<node visible="true" id="-3" lat="37.314654195" lon="-121.89005931400001"/>
<node visible="true" id="-4" lat="37.314657115" lon="-121.890053901"/>
<node visible="true" id="-5" lat="37.314664159" lon="-121.890059878"/>
<node visible="true" id="-6" lat="37.314689183000006" lon="-121.890013538"/>
<node visible="true" id="-7" lat="37.315025456" lon="-121.88994997900001"/>
<node visible="true" id="-8" lat="37.315080245000004" lon="-121.89040447000001"/>
<node visible="true" id="-9" lat="37.315168697000004" lon="-121.89038775200001"/>
<node visible="true" id="-10" lat="37.315100728000004" lon="-121.88982410000001"/>
<node visible="true" id="-11" lat="37.314632478" lon="-121.88991261500001"/>
<node visible="true" id="-12" lat="37.317690319" lon="-121.892924706"><tag k="addr:city" v="San Jose"/><tag k="addr:housenumber" v="882"/><tag k="addr:street" v="Delmas Avenue"/><tag k="addr:unit" v="B"/><tag k="addr:postcode" v="95125"/></node>
<node visible="true" id="-13" lat="37.317667434" lon="-121.89292428"><tag k="addr:city" v="San Jose"/><tag k="addr:housenumber" v="882"/><tag k="addr:street" v="Delmas Avenue"/><tag k="addr:unit" v="A"/><tag k="addr:postcode" v="95125"/></node>
<node visible="true" id="-14" lat="37.317638450000004" lon="-121.89260824300001"><tag k="addr:city" v="San Jose"/><tag k="addr:housenumber" v="398"/><tag k="addr:street" v="Fuller Avenue"/><tag k="addr:postcode" v="95125"/></node>
<node visible="true" id="-15" lat="37.318038835" lon="-121.896182205"><tag k="addr:city" v="San Jose"/><tag k="addr:housenumber" v="533"/><tag k="addr:street" v="Fuller Avenue"/><tag k="addr:postcode" v="95125"/></node>
<node visible="true" id="-16" lat="37.318074406" lon="-121.89620521200001"><tag k="addr:city" v="San Jose"/><tag k="addr:housenumber" v="535"/><tag k="addr:street" v="Fuller Avenue"/><tag k="addr:postcode" v="95125"/></node>
<node visible="true" id="-17" lat="37.318108887" lon="-121.89632434900001"><tag k="addr:city" v="San Jose"/><tag k="addr:housenumber" v="537"/><tag k="addr:street" v="Fuller Avenue"/><tag k="addr:postcode" v="95125"/></node>
<node visible="true" id="-18" lat="37.318064572000004" lon="-121.896310115"><tag k="addr:city" v="San Jose"/><tag k="addr:housenumber" v="539"/><tag k="addr:street" v="Fuller Avenue"/><tag k="addr:postcode" v="95125"/></node>
<node visible="true" id="-19" lat="37.315253898" lon="-121.890423834"><tag k="addr:city" v="San Jose"/><tag k="addr:housenumber" v="312"/><tag k="addr:street" v="Minnesota Avenue"/><tag k="addr:postcode" v="95125"/></node>
<node visible="true" id="-20" lat="37.315307982" lon="-121.89050774100001"><tag k="addr:city" v="San Jose"/><tag k="addr:housenumber" v="314"/><tag k="addr:street" v="Minnesota Avenue"/><tag k="addr:postcode" v="95125"/></node>
<node visible="true" id="-21" lat="37.314961308" lon="-121.889900283"><tag k="addr:city" v="San Jose"/><tag k="addr:housenumber" v="459"/><tag k="addr:street" v="Willow Street"/><tag k="addr:unit" v="1;4;6;8-11;17;20-22;26"/><tag k="addr:postcode" v="95125"/></node>
<node visible="true" id="-22" lat="37.317817146" lon="-121.89731707600001"><tag k="addr:city" v="San Jose"/><tag k="addr:housenumber" v="584"/><tag k="addr:street" v="Fuller Avenue"/><tag k="addr:postcode" v="95125"/></node>
<node visible="true" id="-23" lat="37.315259101" lon="-121.89000852800001"><tag k="addr:city" v="San Jose"/><tag k="addr:housenumber" v="990"/><tag k="addr:street" v="Mills Court"/><tag k="addr:postcode" v="95125"/></node>
<node visible="true" id="-24" lat="37.315295055" lon="-121.889954277"><tag k="addr:city" v="San Jose"/><tag k="addr:housenumber" v="992"/><tag k="addr:street" v="Mills Court"/><tag k="addr:postcode" v="95125"/></node>
<node visible="true" id="-25" lat="37.314731336" lon="-121.889942457"><tag k="addr:city" v="San Jose"/><tag k="addr:housenumber" v="459"/><tag k="addr:street" v="Willow Street"/><tag k="addr:unit" v="2;3;5;7;12-16;18;19;23-25;27"/><tag k="addr:postcode" v="95125"/></node>
<node visible="true" id="-27" lat="37.342283949000006" lon="-121.855527811"/>
<node visible="true" id="-28" lat="37.342140281" lon="-121.85542684800001"/>
<node visible="true" id="-29" lat="37.341581684000005" lon="-121.85631145200001"/>
<node visible="true" id="-30" lat="37.341714918" lon="-121.85643593"/>
<way visible="true" id="-1"><nd ref="-2"/><nd ref="-3"/><nd ref="-4"/><nd ref="-5"/><nd ref="-6"/><nd ref="-7"/><nd ref="-8"/><nd ref="-9"/><nd ref="-10"/><nd ref="-11"/><nd ref="-2"/><tag k="building" v="yes"/><tag k="height" v="6.16"/><tag k="ele" v="39.86"/></way>
<way visible="true" id="-26"><nd ref="-27"/><nd ref="-28"/><nd ref="-29"/><nd ref="-30"/><nd ref="-27"/><tag k="landuse" v="residential"/><tag k="name" v="San Jose Estates Mobile Home P"/></way>
</osm>