<?xml version="1.0"?>
<osm version="0.6" generator="uvmogr2osm" upload="false">
<node visible="true" id="-2" lat="37.312984478000004" lon="-121.77483385200001"/>
<node visible="true" id="-3" lat="37.313004826000004" lon="-121.774857033"/>
<node visible="true" id="-4" lat="37.313019270000005" lon="-121.77483716200001"/>
<node visible="true" id="-5" lat="37.31299895" lon="-121.77481398100001"/>
<node visible="true" id="-7" lat="37.312899147" lon="-121.774898526"/>
<node visible="true" id="-8" lat="37.312983866" lon="-121.77498601200001"/>
<node visible="true" id="-9" lat="37.312997969" lon="-121.774964588"/>
<node visible="true" id="-10" lat="37.312913251000005" lon="-121.774877102"/>
<node visible="true" id="-12" lat="37.312884988" lon="-121.77492755"/>
<node visible="true" id="-13" lat="37.312968012" lon="-121.77501425000001"/>
<node visible="true" id="-14" lat="37.312982309" lon="-121.77499276"/>
<node visible="true" id="-15" lat="37.312899285" lon="-121.77490609300001"/>
<node visible="true" id="-17" lat="37.313290215" lon="-121.774803714"/>
<node visible="true" id="-18" lat="37.313309280000006" lon="-121.77482109600001"/>
<node visible="true" id="-19" lat="37.313324730000005" lon="-121.77479457000001"/>
<node visible="true" id="-20" lat="37.313305665" lon="-121.774777188"/>
<node visible="true" id="-22" lat="37.312900223" lon="-121.774984001"/>
<node visible="true" id="-23" lat="37.312949879" lon="-121.775037428"/>
<node visible="true" id="-24" lat="37.312964001000005" lon="-121.77501682900001"/>
<node visible="true" id="-25" lat="37.312914372" lon="-121.77496340200001"/>
<node visible="true" id="-28" lat="37.315227354" lon="-121.776634279"/>
<node visible="true" id="-29" lat="37.315490744" lon="-121.77669173800001"/>
<node visible="true" id="-30" lat="37.315480642000004" lon="-121.776764267"/>
<node visible="true" id="-31" lat="37.315426879" lon="-121.77675254900001"/>
<node visible="true" id="-32" lat="37.315415734000005" lon="-121.77683266000001"/>
<node visible="true" id="-33" lat="37.31529648" lon="-121.776806652"/>
<node visible="true" id="-34" lat="37.31524418" lon="-121.77718232900001"/>
<node visible="true" id="-35" lat="37.315603421000006" lon="-121.77726075500001"/>
<node visible="true" id="-36" lat="37.315726403" lon="-121.77637755200001"/>
<node visible="true" id="-37" lat="37.315276762" lon="-121.77627942800001"/>
<node visible="true" id="-39" lat="37.315435691000005" lon="-121.77682368100001"/>
<node visible="true" id="-40" lat="37.315440851000005" lon="-121.77680127800001"/>
<node visible="true" id="-41" lat="37.315457266" lon="-121.776807199"/>
<node visible="true" id="-42" lat="37.315452133" lon="-121.776829602"/>
<node visible="true" id="-43" lat="37.314595739000005" lon="-121.7738695"><tag k="addr:city" v="San Jose"/><tag k="addr:housenumber" v="4095"/><tag k="addr:street" v="Evergreen Village Square"/><tag k="addr:unit" v="110;120;200"/><tag k="addr:postcode" v="95135"/></node>
<node visible="true" id="-44" lat="37.314673621000004" lon="-121.77471999900001"><tag k="addr:city" v="San Jose"/><tag k="addr:housenumber" v="3055"/><tag k="addr:street" v="Ruby Avenue"/><tag k="addr:postcode" v="95135"/></node>
<node visible="true" id="-45" lat="37.314726154" lon="-121.774754321"><tag k="addr:city" v="San Jose"/><tag k="addr:housenumber" v="3051"/><tag k="addr:street" v="Ruby Avenue"/><tag k="addr:postcode" v="95135"/></node>
<node visible="true" id="-46" lat="37.314568829" lon="-121.77465755"><tag k="addr:city" v="San Jose"/><tag k="addr:housenumber" v="3063"/><tag k="addr:street" v="Ruby Avenue"/><tag k="addr:postcode" v="95135"/></node>
<node visible="true" id="-47" lat="37.314619788" lon="-121.77468614300001"><tag k="addr:city" v="San Jose"/><tag k="addr:housenumber" v="3059"/><tag k="addr:street" v="Ruby Avenue"/><tag k="addr:postcode" v="95135"/></node>
<node visible="true" id="-48" lat="37.311673376" lon="-121.78569224"><tag k="addr:city" v="San Jose"/><tag k="addr:housenumber" v="2932"/><tag k="addr:street" v="Silverland Court"/><tag k="addr:postcode" v="95135"/></node>
<node visible="true" id="-49" lat="37.313077464" lon="-121.775167396"><tag k="addr:city" v="San Jose"/><tag k="addr:housenumber" v="3250"/><tag k="addr:street" v="Classico Avenue"/><tag k="addr:postcode" v="95135"/></node>
<node visible="true" id="-50" lat="37.313287737" lon="-121.77401338300001"><tag k="addr:city" v="San Jose"/><tag k="addr:housenumber" v="4035"/><tag k="addr:street" v="Evergreen Village Square"/><tag k="addr:unit" v="10"/><tag k="addr:postcode" v="95135"/></node>
<node visible="true" id="-51" lat="37.313223208000004" lon="-121.773895862"><tag k="addr:city" v="San Jose"/><tag k="addr:housenumber" v="4035"/><tag k="addr:street" v="Evergreen Village Square"/><tag k="addr:unit" v="20"/><tag k="addr:postcode" v="95135"/></node>
<node visible="true" id="-52" lat="37.312765600000006" lon="-121.773313633"><tag k="addr:city" v="San Jose"/><tag k="addr:housenumber" v="3249"/><tag k="addr:street" v="Ruby Avenue"/><tag k="addr:postcode" v="95135"/></node>
<node visible="true" id="-53" lat="37.315520076000006" lon="-121.77703590300001"><tag k="addr:city" v="San Jose"/><tag k="addr:housenumber" v="3008"/><tag k="addr:street" v="Aborn Road"/><tag k="addr:postcode" v="95135"/></node>
<node visible="true" id="-54" lat="37.313064297000004" lon="-121.773774943"><tag k="addr:city" v="San Jose"/><tag k="addr:housenumber" v="4035"/><tag k="addr:street" v="Evergreen Village Square"/><tag k="addr:unit" v="50"/><tag k="addr:postcode" v="95135"/></node>
<node visible="true" id="-55" lat="37.311617584000004" lon="-121.785858497"><tag k="addr:city" v="San Jose"/><tag k="addr:housenumber" v="3520"/><tag k="addr:street" v="San Felipe Road"/><tag k="addr:postcode" v="95135"/></node>
<node visible="true" id="-56" lat="37.313165071" lon="-121.77384830300001"><tag k="addr:city" v="San Jose"/><tag k="addr:housenumber" v="4035"/><tag k="addr:street" v="Evergreen Village Square"/><tag k="addr:unit" v="30"/><tag k="addr:postcode" v="95135"/></node>
<node visible="true" id="-57" lat="37.313106856000005" lon="-121.77380790800001"><tag k="addr:city" v="San Jose"/><tag k="addr:housenumber" v="4035"/><tag k="addr:street" v="Evergreen Village Square"/><tag k="addr:unit" v="40"/><tag k="addr:postcode" v="95135"/></node>
<node visible="true" id="-58" lat="37.31301045" lon="-121.773727457"><tag k="addr:city" v="San Jose"/><tag k="addr:housenumber" v="4035"/><tag k="addr:street" v="Evergreen Village Square"/><tag k="addr:unit" v="60"/><tag k="addr:postcode" v="95135"/></node>
<node visible="true" id="-60" lat="37.313215778" lon="-121.774733013"/>
<node visible="true" id="-61" lat="37.313230181" lon="-121.77474729000001"/>
<node visible="true" id="-62" lat="37.313241332000004" lon="-121.774729632"/>
<node visible="true" id="-63" lat="37.313271523000004" lon="-121.774759516"/>
<node visible="true" id="-64" lat="37.31323804" lon="-121.77481252300001"/>
<node visible="true" id="-65" lat="37.313254535000006" lon="-121.77482886300001"/>
<node visible="true" id="-66" lat="37.313297745" lon="-121.77476041000001"/>
<node visible="true" id="-67" lat="37.313277146000004" lon="-121.77474000900001"/>
<node visible="true" id="-68" lat="37.313280584000005" lon="-121.7747346"/>
<node visible="true" id="-69" lat="37.313230012000005" lon="-121.774684561"/>
<node visible="true" id="-70" lat="37.313216735000005" lon="-121.774705588"/>
<node visible="true" id="-71" lat="37.313226817" lon="-121.77471556100001"/>
<node visible="true" id="-73" lat="37.315033589" lon="-121.774440236"/>
<node visible="true" id="-74" lat="37.315066186" lon="-121.77446355800001"/>
<node visible="true" id="-75" lat="37.315066018" lon="-121.774463865"/>
<node visible="true" id="-76" lat="37.315188259" lon="-121.77455123600001"/>
<node visible="true" id="-77" lat="37.31519535" lon="-121.77453567500001"/>
<node visible="true" id="-78" lat="37.315279024000006" lon="-121.77459546200001"/>
<node visible="true" id="-79" lat="37.315282879" lon="-121.774586998"/>
<node visible="true" id="-80" lat="37.315383533" lon="-121.774658974"/>
<node visible="true" id="-81" lat="37.315461168" lon="-121.774488726"/>
<node visible="true" id="-82" lat="37.315426335000005" lon="-121.774463819"/>
<node visible="true" id="-83" lat="37.315430078000006" lon="-121.774455594"/>
<node visible="true" id="-84" lat="37.315406066" lon="-121.774438403"/>
<node visible="true" id="-85" lat="37.315402324000004" lon="-121.77444659300001"/>
<node visible="true" id="-86" lat="37.315268827000004" lon="-121.77435118800001"/>
<node visible="true" id="-87" lat="37.315255517000004" lon="-121.77438036500001"/>
<node visible="true" id="-88" lat="37.315149930000004" lon="-121.77430486700001"/>
<node visible="true" id="-89" lat="37.315168137" lon="-121.774264907"/>
<node visible="true" id="-90" lat="37.315133358000004" lon="-121.774240035"/>
<node visible="true" id="-91" lat="37.315132515" lon="-121.77424187800001"/>
<node visible="true" id="-92" lat="37.315111119" lon="-121.774226588"/>
<node visible="true" id="-93" lat="37.315046513000006" lon="-121.77436827300001"/>
<node visible="true" id="-94" lat="37.315061504" lon="-121.774378982"/>
<way visible="true" id="-1"><nd ref="-2"/><nd ref="-3"/><nd ref="-4"/><nd ref="-5"/><nd ref="-2"/><tag k="building" v="yes"/><tag k="height" v="2.63"/><tag k="ele" v="92.53"/></way>
<way visible="true" id="-6"><nd ref="-7"/><nd ref="-8"/><nd ref="-9"/><nd ref="-10"/><nd ref="-7"/><tag k="building" v="yes"/><tag k="height" v="3.82"/><tag k="ele" v="93.20"/></way>
<way visible="true" id="-11"><nd ref="-12"/><nd ref="-13"/><nd ref="-14"/><nd ref="-15"/><nd ref="-12"/><tag k="building" v="yes"/><tag k="height" v="4.01"/><tag k="ele" v="93.79"/></way>
<way visible="true" id="-16"><nd ref="-17"/><nd ref="-18"/><nd ref="-19"/><nd ref="-20"/><nd ref="-17"/><tag k="building" v="yes"/><tag k="height" v="2.56"/><tag k="ele" v="92.94"/></way>
<way visible="true" id="-21"><nd ref="-22"/><nd ref="-23"/><nd ref="-24"/><nd ref="-25"/><nd ref="-22"/><tag k="building" v="yes"/><tag k="height" v="4.04"/><tag k="ele" v="93.20"/></way>
<way visible="true" id="-27"><nd ref="-28"/><nd ref="-29"/><nd ref="-30"/><nd ref="-31"/><nd ref="-32"/><nd ref="-33"/><nd ref="-34"/><nd ref="-35"/><nd ref="-36"/><nd ref="-37"/><nd ref="-28"/></way>
<way visible="true" id="-38"><nd ref="-39"/><nd ref="-40"/><nd ref="-41"/><nd ref="-42"/><nd ref="-39"/></way>
<way visible="true" id="-59"><nd ref="-60"/><nd ref="-61"/><nd ref="-62"/><nd ref="-63"/><nd ref="-64"/><nd ref="-65"/><nd ref="-66"/><nd ref="-67"/><nd ref="-68"/><nd ref="-69"/><nd ref="-70"/><nd ref="-71"/><nd ref="-60"/><tag k="building" v="yes"/><tag k="height" v="3.85"/><tag k="ele" v="94.06"/><tag k="addr:city" v="San Jose"/><tag k="addr:housenumber" v="4001"/><tag k="addr:street" v="Evergreen Village Square"/><tag k="addr:postcode" v="95135"/></way>
<way visible="true" id="-72"><nd ref="-73"/><nd ref="-74"/><nd ref="-75"/><nd ref="-76"/><nd ref="-77"/><nd ref="-78"/><nd ref="-79"/><nd ref="-80"/><nd ref="-81"/><nd ref="-82"/><nd ref="-83"/><nd ref="-84"/><nd ref="-85"/><nd ref="-86"/><nd ref="-87"/><nd ref="-88"/><nd ref="-89"/><nd ref="-90"/><nd ref="-91"/><nd ref="-92"/><nd ref="-93"/><nd ref="-94"/><nd ref="-73"/><tag k="building" v="yes"/><tag k="height" v="5.51"/><tag k="ele" v="102.73"/><tag k="addr:city" v="San Jose"/><tag k="addr:housenumber" v="3100"/><tag k="addr:street" v="Ruby Avenue"/><tag k="addr:postcode" v="95135"/></way>
<relation visible="true" id="-26"><member type="way" ref="-27" role="outer"/><member type="way" ref="-38" role="inner"/><tag k="type" v="multipolygon"/><tag k="building" v="yes"/><tag k="height" v="6.39"/><tag k="ele" v="91.07"/></relation>
</osm>