<?xml version="1.0"?>
<osm version="0.6" generator="uvmogr2osm" upload="false">
<node visible="true" id="-1" lat="37.29043848" lon="-121.85336025100001"><tag k="addr:city" v="San Jose"/><tag k="addr:housenumber" v="88"/><tag k="addr:street" v="Montecito Vista Drive"/><tag k="addr:unit" v="307"/><tag k="addr:postcode" v="95111"/></node>
<node visible="true" id="-2" lat="37.290380151" lon="-121.853455886"><tag k="addr:city" v="San Jose"/><tag k="addr:housenumber" v="88"/><tag k="addr:street" v="Montecito Vista Drive"/><tag k="addr:unit" v="308"/><tag k="addr:postcode" v="95111"/></node>
<node visible="true" id="-3" lat="37.291229606" lon="-121.853146613"><tag k="addr:city" v="San Jose"/><tag k="addr:housenumber" v="85"/><tag k="addr:street" v="Montecito Vista Drive"/><tag k="addr:unit" v="7"/><tag k="addr:postcode" v="95111"/></node>
<node visible="true" id="-4" lat="37.291079656" lon="-121.85333012000001"><tag k="addr:city" v="San Jose"/><tag k="addr:housenumber" v="85"/><tag k="addr:street" v="Montecito Vista Drive"/><tag k="addr:unit" v="3"/><tag k="addr:postcode" v="95111"/></node>
<node visible="true" id="-5" lat="37.291041999" lon="-121.85337002600001"><tag k="addr:city" v="San Jose"/><tag k="addr:housenumber" v="85"/><tag k="addr:street" v="Montecito Vista Drive"/><tag k="addr:unit" v="2"/><tag k="addr:postcode" v="95111"/></node>
<node visible="true" id="-6" lat="37.290688554" lon="-121.855799239"><tag k="addr:city" v="San Jose"/><tag k="addr:housenumber" v="2736"/><tag k="addr:street" v="Ferrara Circle"/><tag k="addr:postcode" v="95111"/></node>
<node visible="true" id="-7" lat="37.290621036000005" lon="-121.85554273100001"><tag k="addr:city" v="San Jose"/><tag k="addr:housenumber" v="2756"/><tag k="addr:street" v="Ferrara Circle"/><tag k="addr:postcode" v="95111"/></node>
<node visible="true" id="-8" lat="37.290732670000004" lon="-121.85529756300001"><tag k="addr:city" v="San Jose"/><tag k="addr:housenumber" v="2767"/><tag k="addr:street" v="Ferrara Circle"/><tag k="addr:postcode" v="95111"/></node>
<node visible="true" id="-9" lat="37.290909851" lon="-121.85531904700001"><tag k="addr:city" v="San Jose"/><tag k="addr:housenumber" v="2785"/><tag k="addr:street" v="Ferrara Circle"/><tag k="addr:postcode" v="95111"/></node>
<node visible="true" id="-10" lat="37.290882103" lon="-121.85559093600001"><tag k="addr:city" v="San Jose"/><tag k="addr:housenumber" v="2786"/><tag k="addr:street" v="Ferrara Circle"/><tag k="addr:postcode" v="95111"/></node>
<node visible="true" id="-11" lat="37.291016338000006" lon="-121.855342311"><tag k="addr:city" v="San Jose"/><tag k="addr:housenumber" v="2797"/><tag k="addr:street" v="Ferrara Circle"/><tag k="addr:postcode" v="95111"/></node>
<node visible="true" id="-12" lat="37.29022646" lon="-121.848552318"><tag k="addr:city" v="San Jose"/><tag k="addr:housenumber" v="2921"/><tag k="addr:street" v="Monterey Road"/><tag k="addr:postcode" v="95111"/></node>
<node visible="true" id="-13" lat="37.288771924" lon="-121.84948641400001"><tag k="addr:city" v="San Jose"/><tag k="addr:housenumber" v="2943"/><tag k="addr:street" v="Daylight Way"/><tag k="addr:postcode" v="95111"/></node>
<node visible="true" id="-14" lat="37.289243474" lon="-121.84869359800001"><tag k="addr:city" v="San Jose"/><tag k="addr:housenumber" v="2950"/><tag k="addr:street" v="Daylight Way"/><tag k="addr:postcode" v="95111"/></node>
<node visible="true" id="-15" lat="37.288514128" lon="-121.84700202900001"><tag k="addr:city" v="San Jose"/><tag k="addr:housenumber" v="3019"/><tag k="addr:street" v="Monterey Road"/><tag k="addr:postcode" v="95111"/></node>
<node visible="true" id="-16" lat="37.287198605" lon="-121.84533034600001"><tag k="addr:city" v="San Jose"/><tag k="addr:housenumber" v="3105"/><tag k="addr:street" v="Monterey Road"/><tag k="addr:postcode" v="95111"/></node>
<node visible="true" id="-17" lat="37.286435988" lon="-121.844675042"><tag k="addr:city" v="San Jose"/><tag k="addr:housenumber" v="3111"/><tag k="addr:street" v="Monterey Road"/><tag k="addr:postcode" v="95111"/></node>
<node visible="true" id="-18" lat="37.293180638" lon="-121.85259151300001"><tag k="addr:city" v="San Jose"/><tag k="addr:housenumber" v="33"/><tag k="addr:street" v="Esfahan Drive"/><tag k="addr:postcode" v="95111"/></node>
<node visible="true" id="-19" lat="37.292861992" lon="-121.85314815800001"><tag k="addr:city" v="San Jose"/><tag k="addr:housenumber" v="69"/><tag k="addr:street" v="Esfahan Drive"/><tag k="addr:postcode" v="95111"/></node>
<node visible="true" id="-20" lat="37.29041448" lon="-121.84914955600001"><tag k="addr:city" v="San Jose"/><tag k="addr:housenumber" v="70"/><tag k="addr:street" v="Pullman Way"/><tag k="addr:postcode" v="95111"/></node>
<node visible="true" id="-21" lat="37.290850684000006" lon="-121.852673265"><tag k="addr:city" v="San Jose"/><tag k="addr:housenumber" v="88"/><tag k="addr:street" v="Montecito Vista Drive"/><tag k="addr:unit" v="441"/><tag k="addr:postcode" v="95111"/></node>
<node visible="true" id="-22" lat="37.290073752000005" lon="-121.84954330100001"><tag k="addr:city" v="San Jose"/><tag k="addr:housenumber" v="92"/><tag k="addr:street" v="Pullman Way"/><tag k="addr:postcode" v="95111"/></node>
<node visible="true" id="-23" lat="37.29280944" lon="-121.853387056"><tag k="addr:city" v="San Jose"/><tag k="addr:housenumber" v="97"/><tag k="addr:street" v="Esfahan Drive"/><tag k="addr:postcode" v="95111"/></node>
<node visible="true" id="-24" lat="37.293529029000005" lon="-121.85247908500001"><tag k="addr:city" v="San Jose"/><tag k="addr:housenumber" v="21"/><tag k="addr:street" v="Esfahan Drive"/><tag k="addr:postcode" v="95111"/></node>
<node visible="true" id="-25" lat="37.293265758000004" lon="-121.85250130700001"><tag k="addr:city" v="San Jose"/><tag k="addr:housenumber" v="25"/><tag k="addr:street" v="Esfahan Drive"/><tag k="addr:postcode" v="95111"/></node>
<node visible="true" id="-26" lat="37.29229453" lon="-121.853075172"><tag k="addr:city" v="San Jose"/><tag k="addr:housenumber" v="20"/><tag k="addr:street" v="Esfahan Drive"/><tag k="addr:unit" v="3"/><tag k="addr:postcode" v="95111"/></node>
<node visible="true" id="-27" lat="37.291699406" lon="-121.850279434"><tag k="addr:city" v="San Jose"/><tag k="addr:housenumber" v="2845"/><tag k="addr:street" v="Monterey Road"/><tag k="addr:postcode" v="95111"/></node>
<node visible="true" id="-28" lat="37.291074004" lon="-121.849420624"><tag k="addr:city" v="San Jose"/><tag k="addr:housenumber" v="2895"/><tag k="addr:street" v="Monterey Road"/><tag k="addr:postcode" v="95111"/></node>
<node visible="true" id="-29" lat="37.291047584000005" lon="-121.84941015800001"><tag k="addr:city" v="San Jose"/><tag k="addr:housenumber" v="2897"/><tag k="addr:street" v="Monterey Road"/><tag k="addr:postcode" v="95111"/></node>
<node visible="true" id="-30" lat="37.290129597" lon="-121.84866117400001"><tag k="addr:city" v="San Jose"/><tag k="addr:housenumber" v="2931"/><tag k="addr:street" v="Monterey Road"/><tag k="addr:postcode" v="95111"/></node>
<node visible="true" id="-31" lat="37.289037296000004" lon="-121.847787417"><tag k="addr:city" v="San Jose"/><tag k="addr:housenumber" v="2990"/><tag k="addr:street" v="Daylight Way"/><tag k="addr:postcode" v="95111"/></node>
<node visible="true" id="-32" lat="37.28892682" lon="-121.84778771"><tag k="addr:city" v="San Jose"/><tag k="addr:housenumber" v="2992"/><tag k="addr:street" v="Daylight Way"/><tag k="addr:postcode" v="95111"/></node>
<node visible="true" id="-33" lat="37.288967501" lon="-121.847733535"><tag k="addr:city" v="San Jose"/><tag k="addr:housenumber" v="2994"/><tag k="addr:street" v="Daylight Way"/><tag k="addr:postcode" v="95111"/></node>
<node visible="true" id="-34" lat="37.291811957" lon="-121.85431139"><tag k="addr:city" v="San Jose"/><tag k="addr:housenumber" v="177"/><tag k="addr:street" v="Esfahan Drive"/><tag k="addr:postcode" v="95111"/></node>
<node visible="true" id="-35" lat="37.291764516" lon="-121.85436907600001"><tag k="addr:city" v="San Jose"/><tag k="addr:housenumber" v="181"/><tag k="addr:street" v="Esfahan Drive"/><tag k="addr:postcode" v="95111"/></node>
<node visible="true" id="-36" lat="37.291724615" lon="-121.85442689800001"><tag k="addr:city" v="San Jose"/><tag k="addr:housenumber" v="185"/><tag k="addr:street" v="Esfahan Drive"/><tag k="addr:postcode" v="95111"/></node>
<node visible="true" id="-37" lat="37.291678792" lon="-121.854475171"><tag k="addr:city" v="San Jose"/><tag k="addr:housenumber" v="189"/><tag k="addr:street" v="Esfahan Drive"/><tag k="addr:postcode" v="95111"/></node>
<node visible="true" id="-38" lat="37.291632836000005" lon="-121.85453477200001"><tag k="addr:city" v="San Jose"/><tag k="addr:housenumber" v="193"/><tag k="addr:street" v="Esfahan Drive"/><tag k="addr:postcode" v="95111"/></node>
<node visible="true" id="-39" lat="37.292359729000005" lon="-121.85298864600001"><tag k="addr:city" v="San Jose"/><tag k="addr:housenumber" v="20"/><tag k="addr:street" v="Esfahan Drive"/><tag k="addr:unit" v="1"/><tag k="addr:postcode" v="95111"/></node>
<node visible="true" id="-40" lat="37.292331085" lon="-121.85303523"><tag k="addr:city" v="San Jose"/><tag k="addr:housenumber" v="20"/><tag k="addr:street" v="Esfahan Drive"/><tag k="addr:unit" v="2"/><tag k="addr:postcode" v="95111"/></node>
<node visible="true" id="-41" lat="37.292252647000005" lon="-121.85312544800001"><tag k="addr:city" v="San Jose"/><tag k="addr:housenumber" v="20"/><tag k="addr:street" v="Esfahan Drive"/><tag k="addr:unit" v="4"/><tag k="addr:postcode" v="95111"/></node>
<node visible="true" id="-42" lat="37.292211897" lon="-121.85317656400001"><tag k="addr:city" v="San Jose"/><tag k="addr:housenumber" v="20"/><tag k="addr:street" v="Esfahan Drive"/><tag k="addr:unit" v="5"/><tag k="addr:postcode" v="95111"/></node>
<node visible="true" id="-43" lat="37.292172874" lon="-121.853228251"><tag k="addr:city" v="San Jose"/><tag k="addr:housenumber" v="20"/><tag k="addr:street" v="Esfahan Drive"/><tag k="addr:unit" v="6"/><tag k="addr:postcode" v="95111"/></node>
<node visible="true" id="-44" lat="37.292141066" lon="-121.853272516"><tag k="addr:city" v="San Jose"/><tag k="addr:housenumber" v="20"/><tag k="addr:street" v="Esfahan Drive"/><tag k="addr:unit" v="7"/><tag k="addr:postcode" v="95111"/></node>
<node visible="true" id="-45" lat="37.292105407" lon="-121.853310206"><tag k="addr:city" v="San Jose"/><tag k="addr:housenumber" v="20"/><tag k="addr:street" v="Esfahan Drive"/><tag k="addr:unit" v="8"/><tag k="addr:postcode" v="95111"/></node>
<node visible="true" id="-46" lat="37.291478552" lon="-121.854698169"><tag k="addr:city" v="San Jose"/><tag k="addr:housenumber" v="201"/><tag k="addr:street" v="Esfahan Drive"/><tag k="addr:postcode" v="95111"/></node>
<node visible="true" id="-47" lat="37.291518736" lon="-121.85474611100001"><tag k="addr:city" v="San Jose"/><tag k="addr:housenumber" v="205"/><tag k="addr:street" v="Esfahan Drive"/><tag k="addr:postcode" v="95111"/></node>
<node visible="true" id="-48" lat="37.291551487" lon="-121.85478447400001"><tag k="addr:city" v="San Jose"/><tag k="addr:housenumber" v="209"/><tag k="addr:street" v="Esfahan Drive"/><tag k="addr:postcode" v="95111"/></node>
<node visible="true" id="-49" lat="37.291590250000006" lon="-121.85482483700001"><tag k="addr:city" v="San Jose"/><tag k="addr:housenumber" v="213"/><tag k="addr:street" v="Esfahan Drive"/><tag k="addr:postcode" v="95111"/></node>
<node visible="true" id="-50" lat="37.291628993" lon="-121.85486708600001"><tag k="addr:city" v="San Jose"/><tag k="addr:housenumber" v="217"/><tag k="addr:street" v="Esfahan Drive"/><tag k="addr:postcode" v="95111"/></node>
<node visible="true" id="-51" lat="37.292459503" lon="-121.85350725600001"><tag k="addr:city" v="San Jose"/><tag k="addr:housenumber" v="109"/><tag k="addr:street" v="Esfahan Drive"/><tag k="addr:postcode" v="95111"/></node>
<node visible="true" id="-52" lat="37.290795962000004" lon="-121.855809918"><tag k="addr:city" v="San Jose"/><tag k="addr:housenumber" v="2724"/><tag k="addr:street" v="Ferrara Circle"/><tag k="addr:postcode" v="95111"/></node>
<node visible="true" id="-53" lat="37.290736895" lon="-121.855806955"><tag k="addr:city" v="San Jose"/><tag k="addr:housenumber" v="2730"/><tag k="addr:street" v="Ferrara Circle"/><tag k="addr:postcode" v="95111"/></node>
<node visible="true" id="-54" lat="37.290630703000005" lon="-121.855782868"><tag k="addr:city" v="San Jose"/><tag k="addr:housenumber" v="2742"/><tag k="addr:street" v="Ferrara Circle"/><tag k="addr:postcode" v="95111"/></node>
<node visible="true" id="-55" lat="37.290563185" lon="-121.855540191"><tag k="addr:city" v="San Jose"/><tag k="addr:housenumber" v="2750"/><tag k="addr:street" v="Ferrara Circle"/><tag k="addr:postcode" v="95111"/></node>
<node visible="true" id="-56" lat="37.290675023000006" lon="-121.85528442"><tag k="addr:city" v="San Jose"/><tag k="addr:housenumber" v="2761"/><tag k="addr:street" v="Ferrara Circle"/><tag k="addr:postcode" v="95111"/></node>
<node visible="true" id="-57" lat="37.290667074000005" lon="-121.85555384800001"><tag k="addr:city" v="San Jose"/><tag k="addr:housenumber" v="2762"/><tag k="addr:street" v="Ferrara Circle"/><tag k="addr:postcode" v="95111"/></node>
<node visible="true" id="-58" lat="37.290711499000004" lon="-121.85556089800001"><tag k="addr:city" v="San Jose"/><tag k="addr:housenumber" v="2768"/><tag k="addr:street" v="Ferrara Circle"/><tag k="addr:postcode" v="95111"/></node>
<node visible="true" id="-59" lat="37.290781047" lon="-121.85530520100001"><tag k="addr:city" v="San Jose"/><tag k="addr:housenumber" v="2773"/><tag k="addr:street" v="Ferrara Circle"/><tag k="addr:postcode" v="95111"/></node>
<node visible="true" id="-60" lat="37.290758232" lon="-121.85556449500001"><tag k="addr:city" v="San Jose"/><tag k="addr:housenumber" v="2774"/><tag k="addr:street" v="Ferrara Circle"/><tag k="addr:postcode" v="95111"/></node>
<node visible="true" id="-61" lat="37.290840152" lon="-121.85530805900001"><tag k="addr:city" v="San Jose"/><tag k="addr:housenumber" v="2779"/><tag k="addr:street" v="Ferrara Circle"/><tag k="addr:postcode" v="95111"/></node>
<node visible="true" id="-62" lat="37.290816194" lon="-121.855580157"><tag k="addr:city" v="San Jose"/><tag k="addr:housenumber" v="2780"/><tag k="addr:street" v="Ferrara Circle"/><tag k="addr:postcode" v="95111"/></node>
<node visible="true" id="-63" lat="37.290967881" lon="-121.85533466700001"><tag k="addr:city" v="San Jose"/><tag k="addr:housenumber" v="2791"/><tag k="addr:street" v="Ferrara Circle"/><tag k="addr:postcode" v="95111"/></node>
<node visible="true" id="-64" lat="37.290941227000005" lon="-121.85559405000001"><tag k="addr:city" v="San Jose"/><tag k="addr:housenumber" v="2792"/><tag k="addr:street" v="Ferrara Circle"/><tag k="addr:postcode" v="95111"/></node>
<node visible="true" id="-65" lat="37.290993441000005" lon="-121.85560181700001"><tag k="addr:city" v="San Jose"/><tag k="addr:housenumber" v="2798"/><tag k="addr:street" v="Ferrara Circle"/><tag k="addr:postcode" v="95111"/></node>
<node visible="true" id="-66" lat="37.290440782000005" lon="-121.851767659"><tag k="addr:city" v="San Jose"/><tag k="addr:housenumber" v="2829"/><tag k="addr:street" v="Monterey Road"/><tag k="addr:postcode" v="95111"/></node>
<node visible="true" id="-67" lat="37.293222121" lon="-121.85254639200001"><tag k="addr:city" v="San Jose"/><tag k="addr:housenumber" v="29"/><tag k="addr:street" v="Esfahan Drive"/><tag k="addr:postcode" v="95111"/></node>
<node visible="true" id="-68" lat="37.290443322" lon="-121.84870733100001"><tag k="addr:city" v="San Jose"/><tag k="addr:housenumber" v="2915"/><tag k="addr:street" v="Monterey Road"/><tag k="addr:postcode" v="95111"/></node>
<node visible="true" id="-69" lat="37.293582848" lon="-121.852138533"><tag k="addr:city" v="San Jose"/><tag k="addr:housenumber" v="3"/><tag k="addr:street" v="Esfahan Drive"/><tag k="addr:unit" v="1"/><tag k="addr:postcode" v="95111"/></node>
<node visible="true" id="-70" lat="37.2936137" lon="-121.85209954700001"><tag k="addr:city" v="San Jose"/><tag k="addr:housenumber" v="3"/><tag k="addr:street" v="Esfahan Drive"/><tag k="addr:unit" v="2"/><tag k="addr:postcode" v="95111"/></node>
<node visible="true" id="-71" lat="37.293649353" lon="-121.852057665"><tag k="addr:city" v="San Jose"/><tag k="addr:housenumber" v="3"/><tag k="addr:street" v="Esfahan Drive"/><tag k="addr:unit" v="3"/><tag k="addr:postcode" v="95111"/></node>
<node visible="true" id="-72" lat="37.293689272" lon="-121.85200765"><tag k="addr:city" v="San Jose"/><tag k="addr:housenumber" v="3"/><tag k="addr:street" v="Esfahan Drive"/><tag k="addr:unit" v="4"/><tag k="addr:postcode" v="95111"/></node>
<node visible="true" id="-73" lat="37.288595787000006" lon="-121.84692028200001"><tag k="addr:city" v="San Jose"/><tag k="addr:housenumber" v="3015"/><tag k="addr:street" v="Monterey Road"/><tag k="addr:postcode" v="95111"/></node>
<node visible="true" id="-74" lat="37.288515688000004" lon="-121.847073678"><tag k="addr:city" v="San Jose"/><tag k="addr:housenumber" v="3021"/><tag k="addr:street" v="Monterey Road"/><tag k="addr:postcode" v="95111"/></node>
<node visible="true" id="-75" lat="37.287013775000005" lon="-121.84521981600001"><tag k="addr:city" v="San Jose"/><tag k="addr:housenumber" v="3101"/><tag k="addr:street" v="Monterey Road"/><tag k="addr:postcode" v="95111"/></node>
<node visible="true" id="-76" lat="37.286318811" lon="-121.84433751"><tag k="addr:city" v="San Jose"/><tag k="addr:housenumber" v="3107"/><tag k="addr:street" v="Monterey Road"/><tag k="addr:postcode" v="95111"/></node>
<node visible="true" id="-77" lat="37.292412258" lon="-121.85354795"><tag k="addr:city" v="San Jose"/><tag k="addr:housenumber" v="113"/><tag k="addr:street" v="Esfahan Drive"/><tag k="addr:postcode" v="95111"/></node>
<node visible="true" id="-78" lat="37.293139063000005" lon="-121.852644729"><tag k="addr:city" v="San Jose"/><tag k="addr:housenumber" v="37"/><tag k="addr:street" v="Esfahan Drive"/><tag k="addr:postcode" v="95111"/></node>
<node visible="true" id="-79" lat="37.293101922000005" lon="-121.85268723200001"><tag k="addr:city" v="San Jose"/><tag k="addr:housenumber" v="41"/><tag k="addr:street" v="Esfahan Drive"/><tag k="addr:postcode" v="95111"/></node>
<node visible="true" id="-80" lat="37.292379989000004" lon="-121.853598356"><tag k="addr:city" v="San Jose"/><tag k="addr:housenumber" v="117"/><tag k="addr:street" v="Esfahan Drive"/><tag k="addr:postcode" v="95111"/></node>
<node visible="true" id="-81" lat="37.293062595" lon="-121.85273239300001"><tag k="addr:city" v="San Jose"/><tag k="addr:housenumber" v="45"/><tag k="addr:street" v="Esfahan Drive"/><tag k="addr:postcode" v="95111"/></node>
<node visible="true" id="-82" lat="37.293020956" lon="-121.852791006"><tag k="addr:city" v="San Jose"/><tag k="addr:housenumber" v="49"/><tag k="addr:street" v="Esfahan Drive"/><tag k="addr:postcode" v="95111"/></node>
<node visible="true" id="-83" lat="37.293384518" lon="-121.85229837700001"><tag k="addr:city" v="San Jose"/><tag k="addr:housenumber" v="5"/><tag k="addr:street" v="Esfahan Drive"/><tag k="addr:postcode" v="95111"/></node>
<node visible="true" id="-84" lat="37.293219948" lon="-121.85308891000001"><tag k="addr:city" v="San Jose"/><tag k="addr:housenumber" v="506"/><tag k="addr:street" v="Chateau La Salle Drive"/><tag k="addr:postcode" v="95111"/></node>
<node visible="true" id="-85" lat="37.292986033000005" lon="-121.85282815000001"><tag k="addr:city" v="San Jose"/><tag k="addr:housenumber" v="53"/><tag k="addr:street" v="Esfahan Drive"/><tag k="addr:postcode" v="95111"/></node>
<node visible="true" id="-86" lat="37.293920303" lon="-121.85222851500001"><tag k="addr:city" v="San Jose"/><tag k="addr:housenumber" v="530"/><tag k="addr:street" v="Chateau La Salle Drive"/><tag k="addr:postcode" v="95111"/></node>
<node visible="true" id="-87" lat="37.292346212000005" lon="-121.85364873600001"><tag k="addr:city" v="San Jose"/><tag k="addr:housenumber" v="121"/><tag k="addr:street" v="Esfahan Drive"/><tag k="addr:postcode" v="95111"/></node>
<node visible="true" id="-88" lat="37.292537552" lon="-121.85341235300001"><tag k="addr:city" v="San Jose"/><tag k="addr:housenumber" v="101"/><tag k="addr:street" v="Esfahan Drive"/><tag k="addr:postcode" v="95111"/></node>
<node visible="true" id="-89" lat="37.292948706000004" lon="-121.852886839"><tag k="addr:city" v="San Jose"/><tag k="addr:housenumber" v="57"/><tag k="addr:street" v="Esfahan Drive"/><tag k="addr:postcode" v="95111"/></node>
<node visible="true" id="-90" lat="37.292785119" lon="-121.853051179"><tag k="addr:city" v="San Jose"/><tag k="addr:housenumber" v="61"/><tag k="addr:street" v="Esfahan Drive"/><tag k="addr:postcode" v="95111"/></node>
<node visible="true" id="-91" lat="37.291544329000004" lon="-121.85280342300001"><tag k="addr:city" v="San Jose"/><tag k="addr:housenumber" v="61"/><tag k="addr:street" v="Montecito Vista Drive"/><tag k="addr:unit" v="1"/><tag k="addr:postcode" v="95111"/></node>
<node visible="true" id="-92" lat="37.291572921000004" lon="-121.85275679200001"><tag k="addr:city" v="San Jose"/><tag k="addr:housenumber" v="61"/><tag k="addr:street" v="Montecito Vista Drive"/><tag k="addr:unit" v="2"/><tag k="addr:postcode" v="95111"/></node>
<node visible="true" id="-93" lat="37.291609432" lon="-121.85271678500001"><tag k="addr:city" v="San Jose"/><tag k="addr:housenumber" v="61"/><tag k="addr:street" v="Montecito Vista Drive"/><tag k="addr:unit" v="3"/><tag k="addr:postcode" v="95111"/></node>
<node visible="true" id="-94" lat="37.29165126" lon="-121.85266643800001"><tag k="addr:city" v="San Jose"/><tag k="addr:housenumber" v="61"/><tag k="addr:street" v="Montecito Vista Drive"/><tag k="addr:unit" v="4"/><tag k="addr:postcode" v="95111"/></node>
<node visible="true" id="-95" lat="37.291691952" lon="-121.852615251"><tag k="addr:city" v="San Jose"/><tag k="addr:housenumber" v="61"/><tag k="addr:street" v="Montecito Vista Drive"/><tag k="addr:unit" v="5"/><tag k="addr:postcode" v="95111"/></node>
<node visible="true" id="-96" lat="37.291730916" lon="-121.852563497"><tag k="addr:city" v="San Jose"/><tag k="addr:housenumber" v="61"/><tag k="addr:street" v="Montecito Vista Drive"/><tag k="addr:unit" v="6"/><tag k="addr:postcode" v="95111"/></node>
<node visible="true" id="-97" lat="37.291762675" lon="-121.85251917500001"><tag k="addr:city" v="San Jose"/><tag k="addr:housenumber" v="61"/><tag k="addr:street" v="Montecito Vista Drive"/><tag k="addr:unit" v="7"/><tag k="addr:postcode" v="95111"/></node>
<node visible="true" id="-98" lat="37.291798292" lon="-121.85248142300001"><tag k="addr:city" v="San Jose"/><tag k="addr:housenumber" v="61"/><tag k="addr:street" v="Montecito Vista Drive"/><tag k="addr:unit" v="8"/><tag k="addr:postcode" v="95111"/></node>
<node visible="true" id="-99" lat="37.29282795" lon="-121.85309088400001"><tag k="addr:city" v="San Jose"/><tag k="addr:housenumber" v="65"/><tag k="addr:street" v="Esfahan Drive"/><tag k="addr:postcode" v="95111"/></node>
<node visible="true" id="-100" lat="37.292303427" lon="-121.853695177"><tag k="addr:city" v="San Jose"/><tag k="addr:housenumber" v="125"/><tag k="addr:street" v="Esfahan Drive"/><tag k="addr:postcode" v="95111"/></node>
<node visible="true" id="-101" lat="37.292894745000005" lon="-121.853186522"><tag k="addr:city" v="San Jose"/><tag k="addr:housenumber" v="73"/><tag k="addr:street" v="Esfahan Drive"/><tag k="addr:postcode" v="95111"/></node>
<node visible="true" id="-102" lat="37.291308991" lon="-121.853099181"><tag k="addr:city" v="San Jose"/><tag k="addr:housenumber" v="73"/><tag k="addr:street" v="Montecito Vista Drive"/><tag k="addr:unit" v="1"/><tag k="addr:postcode" v="95111"/></node>
<node visible="true" id="-103" lat="37.291337714" lon="-121.85305267800001"><tag k="addr:city" v="San Jose"/><tag k="addr:housenumber" v="73"/><tag k="addr:street" v="Montecito Vista Drive"/><tag k="addr:unit" v="2"/><tag k="addr:postcode" v="95111"/></node>
<node visible="true" id="-104" lat="37.291375452000004" lon="-121.85301399000001"><tag k="addr:city" v="San Jose"/><tag k="addr:housenumber" v="73"/><tag k="addr:street" v="Montecito Vista Drive"/><tag k="addr:unit" v="3"/><tag k="addr:postcode" v="95111"/></node>
<node visible="true" id="-105" lat="37.291414874000004" lon="-121.852961984"><tag k="addr:city" v="San Jose"/><tag k="addr:housenumber" v="73"/><tag k="addr:street" v="Montecito Vista Drive"/><tag k="addr:unit" v="4"/><tag k="addr:postcode" v="95111"/></node>
<node visible="true" id="-106" lat="37.291446734000004" lon="-121.85291776800001"><tag k="addr:city" v="San Jose"/><tag k="addr:housenumber" v="73"/><tag k="addr:street" v="Montecito Vista Drive"/><tag k="addr:unit" v="5"/><tag k="addr:postcode" v="95111"/></node>
<node visible="true" id="-107" lat="37.291482450000004" lon="-121.85288016400001"><tag k="addr:city" v="San Jose"/><tag k="addr:housenumber" v="73"/><tag k="addr:street" v="Montecito Vista Drive"/><tag k="addr:unit" v="6"/><tag k="addr:postcode" v="95111"/></node>
<node visible="true" id="-108" lat="37.292930425" lon="-121.85323249400001"><tag k="addr:city" v="San Jose"/><tag k="addr:housenumber" v="77"/><tag k="addr:street" v="Esfahan Drive"/><tag k="addr:postcode" v="95111"/></node>
<node visible="true" id="-109" lat="37.290312511" lon="-121.84908516700001"><tag k="addr:city" v="San Jose"/><tag k="addr:housenumber" v="80"/><tag k="addr:street" v="Pullman Way"/><tag k="addr:postcode" v="95111"/></node>
<node visible="true" id="-110" lat="37.292665227" lon="-121.853201255"><tag k="addr:city" v="San Jose"/><tag k="addr:housenumber" v="81"/><tag k="addr:street" v="Esfahan Drive"/><tag k="addr:postcode" v="95111"/></node>
<node visible="true" id="-111" lat="37.292044293000004" lon="-121.853385754"><tag k="addr:city" v="San Jose"/><tag k="addr:housenumber" v="82"/><tag k="addr:street" v="Esfahan Drive"/><tag k="addr:unit" v="1"/><tag k="addr:postcode" v="95111"/></node>
<node visible="true" id="-112" lat="37.292014527" lon="-121.85343283700001"><tag k="addr:city" v="San Jose"/><tag k="addr:housenumber" v="82"/><tag k="addr:street" v="Esfahan Drive"/><tag k="addr:unit" v="2"/><tag k="addr:postcode" v="95111"/></node>
<node visible="true" id="-113" lat="37.291979271" lon="-121.853473151"><tag k="addr:city" v="San Jose"/><tag k="addr:housenumber" v="82"/><tag k="addr:street" v="Esfahan Drive"/><tag k="addr:unit" v="3"/><tag k="addr:postcode" v="95111"/></node>
<node visible="true" id="-114" lat="37.291937811000004" lon="-121.853523081"><tag k="addr:city" v="San Jose"/><tag k="addr:housenumber" v="82"/><tag k="addr:street" v="Esfahan Drive"/><tag k="addr:unit" v="4"/><tag k="addr:postcode" v="95111"/></node>
<node visible="true" id="-115" lat="37.291897959" lon="-121.85357632200001"><tag k="addr:city" v="San Jose"/><tag k="addr:housenumber" v="82"/><tag k="addr:street" v="Esfahan Drive"/><tag k="addr:unit" v="5"/><tag k="addr:postcode" v="95111"/></node>
<node visible="true" id="-116" lat="37.29186717" lon="-121.853621398"><tag k="addr:city" v="San Jose"/><tag k="addr:housenumber" v="82"/><tag k="addr:street" v="Esfahan Drive"/><tag k="addr:unit" v="6"/><tag k="addr:postcode" v="95111"/></node>
<node visible="true" id="-117" lat="37.291830109" lon="-121.853659292"><tag k="addr:city" v="San Jose"/><tag k="addr:housenumber" v="82"/><tag k="addr:street" v="Esfahan Drive"/><tag k="addr:unit" v="7"/><tag k="addr:postcode" v="95111"/></node>
<node visible="true" id="-118" lat="37.292702372" lon="-121.853251029"><tag k="addr:city" v="San Jose"/><tag k="addr:housenumber" v="85"/><tag k="addr:street" v="Esfahan Drive"/><tag k="addr:postcode" v="95111"/></node>
<node visible="true" id="-119" lat="37.291046970000004" lon="-121.852482656"><tag k="addr:city" v="San Jose"/><tag k="addr:housenumber" v="88"/><tag k="addr:street" v="Montecito Vista Drive"/><tag k="addr:postcode" v="95111"/></node>
<node visible="true" id="-120" lat="37.290342146" lon="-121.853072018"><tag k="addr:city" v="San Jose"/><tag k="addr:housenumber" v="88"/><tag k="addr:street" v="Montecito Vista Drive"/><tag k="addr:unit" v="201"/><tag k="addr:postcode" v="95111"/></node>
<node visible="true" id="-121" lat="37.290276208" lon="-121.85316572400001"><tag k="addr:city" v="San Jose"/><tag k="addr:housenumber" v="88"/><tag k="addr:street" v="Montecito Vista Drive"/><tag k="addr:unit" v="202"/><tag k="addr:postcode" v="95111"/></node>
<node visible="true" id="-122" lat="37.290367444000005" lon="-121.853152453"><tag k="addr:city" v="San Jose"/><tag k="addr:housenumber" v="88"/><tag k="addr:street" v="Montecito Vista Drive"/><tag k="addr:unit" v="203"/><tag k="addr:postcode" v="95111"/></node>
<node visible="true" id="-123" lat="37.290307505" lon="-121.853263577"><tag k="addr:city" v="San Jose"/><tag k="addr:housenumber" v="88"/><tag k="addr:street" v="Montecito Vista Drive"/><tag k="addr:unit" v="204"/><tag k="addr:postcode" v="95111"/></node>
<node visible="true" id="-124" lat="37.290399688" lon="-121.853250922"><tag k="addr:city" v="San Jose"/><tag k="addr:housenumber" v="88"/><tag k="addr:street" v="Montecito Vista Drive"/><tag k="addr:unit" v="205"/><tag k="addr:postcode" v="95111"/></node>
<node visible="true" id="-125" lat="37.290345884000004" lon="-121.853367528"><tag k="addr:city" v="San Jose"/><tag k="addr:housenumber" v="88"/><tag k="addr:street" v="Montecito Vista Drive"/><tag k="addr:unit" v="206"/><tag k="addr:postcode" v="95111"/></node>
<node visible="true" id="-126" lat="37.290437873" lon="-121.85337158"><tag k="addr:city" v="San Jose"/><tag k="addr:housenumber" v="88"/><tag k="addr:street" v="Montecito Vista Drive"/><tag k="addr:unit" v="207"/><tag k="addr:postcode" v="95111"/></node>
<node visible="true" id="-127" lat="37.290379543" lon="-121.85346721500001"><tag k="addr:city" v="San Jose"/><tag k="addr:housenumber" v="88"/><tag k="addr:street" v="Montecito Vista Drive"/><tag k="addr:unit" v="208"/><tag k="addr:postcode" v="95111"/></node>
<node visible="true" id="-128" lat="37.290437843" lon="-121.85358048"><tag k="addr:city" v="San Jose"/><tag k="addr:housenumber" v="88"/><tag k="addr:street" v="Montecito Vista Drive"/><tag k="addr:unit" v="210"/><tag k="addr:postcode" v="95111"/></node>
<node visible="true" id="-129" lat="37.290489153" lon="-121.85351456100001"><tag k="addr:city" v="San Jose"/><tag k="addr:housenumber" v="88"/><tag k="addr:street" v="Montecito Vista Drive"/><tag k="addr:unit" v="212"/><tag k="addr:postcode" v="95111"/></node>
<node visible="true" id="-130" lat="37.290514812000005" lon="-121.85335745500001"><tag k="addr:city" v="San Jose"/><tag k="addr:housenumber" v="88"/><tag k="addr:street" v="Montecito Vista Drive"/><tag k="addr:unit" v="213"/><tag k="addr:postcode" v="95111"/></node>
<node visible="true" id="-131" lat="37.290545244" lon="-121.85344753400001"><tag k="addr:city" v="San Jose"/><tag k="addr:housenumber" v="88"/><tag k="addr:street" v="Montecito Vista Drive"/><tag k="addr:unit" v="214"/><tag k="addr:postcode" v="95111"/></node>
<node visible="true" id="-132" lat="37.290603788000006" lon="-121.853374583"><tag k="addr:city" v="San Jose"/><tag k="addr:housenumber" v="88"/><tag k="addr:street" v="Montecito Vista Drive"/><tag k="addr:unit" v="216"/><tag k="addr:postcode" v="95111"/></node>
<node visible="true" id="-133" lat="37.290745579" lon="-121.853195705"><tag k="addr:city" v="San Jose"/><tag k="addr:housenumber" v="88"/><tag k="addr:street" v="Montecito Vista Drive"/><tag k="addr:unit" v="220"/><tag k="addr:postcode" v="95111"/></node>
<node visible="true" id="-134" lat="37.290694431000006" lon="-121.853123752"><tag k="addr:city" v="San Jose"/><tag k="addr:housenumber" v="88"/><tag k="addr:street" v="Montecito Vista Drive"/><tag k="addr:unit" v="221"/><tag k="addr:postcode" v="95111"/></node>
<node visible="true" id="-135" lat="37.290799784" lon="-121.853126852"><tag k="addr:city" v="San Jose"/><tag k="addr:housenumber" v="88"/><tag k="addr:street" v="Montecito Vista Drive"/><tag k="addr:unit" v="222"/><tag k="addr:postcode" v="95111"/></node>
<node visible="true" id="-136" lat="37.290693758" lon="-121.85301690200001"><tag k="addr:city" v="San Jose"/><tag k="addr:housenumber" v="88"/><tag k="addr:street" v="Montecito Vista Drive"/><tag k="addr:unit" v="223"/><tag k="addr:postcode" v="95111"/></node>
<node visible="true" id="-137" lat="37.29074502" lon="-121.852955159"><tag k="addr:city" v="San Jose"/><tag k="addr:housenumber" v="88"/><tag k="addr:street" v="Montecito Vista Drive"/><tag k="addr:unit" v="224"/><tag k="addr:postcode" v="95111"/></node>
<node visible="true" id="-138" lat="37.290623173" lon="-121.852935051"><tag k="addr:city" v="San Jose"/><tag k="addr:housenumber" v="88"/><tag k="addr:street" v="Montecito Vista Drive"/><tag k="addr:unit" v="225"/><tag k="addr:postcode" v="95111"/></node>
<node visible="true" id="-139" lat="37.29067404" lon="-121.85286613900001"><tag k="addr:city" v="San Jose"/><tag k="addr:housenumber" v="88"/><tag k="addr:street" v="Montecito Vista Drive"/><tag k="addr:unit" v="226"/><tag k="addr:postcode" v="95111"/></node>
<node visible="true" id="-140" lat="37.29057007" lon="-121.852867242"><tag k="addr:city" v="San Jose"/><tag k="addr:housenumber" v="88"/><tag k="addr:street" v="Montecito Vista Drive"/><tag k="addr:unit" v="227"/><tag k="addr:postcode" v="95111"/></node>
<node visible="true" id="-141" lat="37.290622299" lon="-121.85280432200001"><tag k="addr:city" v="San Jose"/><tag k="addr:housenumber" v="88"/><tag k="addr:street" v="Montecito Vista Drive"/><tag k="addr:unit" v="228"/><tag k="addr:postcode" v="95111"/></node>
<node visible="true" id="-142" lat="37.29086704" lon="-121.85304271800001"><tag k="addr:city" v="San Jose"/><tag k="addr:housenumber" v="88"/><tag k="addr:street" v="Montecito Vista Drive"/><tag k="addr:unit" v="230"/><tag k="addr:postcode" v="95111"/></node>
<node visible="true" id="-143" lat="37.290820288" lon="-121.85296189300001"><tag k="addr:city" v="San Jose"/><tag k="addr:housenumber" v="88"/><tag k="addr:street" v="Montecito Vista Drive"/><tag k="addr:unit" v="231"/><tag k="addr:postcode" v="95111"/></node>
<node visible="true" id="-144" lat="37.290926572000004" lon="-121.85296680100001"><tag k="addr:city" v="San Jose"/><tag k="addr:housenumber" v="88"/><tag k="addr:street" v="Montecito Vista Drive"/><tag k="addr:unit" v="232"/><tag k="addr:postcode" v="95111"/></node>
<node visible="true" id="-145" lat="37.290907498" lon="-121.852842905"><tag k="addr:city" v="San Jose"/><tag k="addr:housenumber" v="88"/><tag k="addr:street" v="Montecito Vista Drive"/><tag k="addr:unit" v="233"/><tag k="addr:postcode" v="95111"/></node>
<node visible="true" id="-146" lat="37.290991929" lon="-121.85288203500001"><tag k="addr:city" v="San Jose"/><tag k="addr:housenumber" v="88"/><tag k="addr:street" v="Montecito Vista Drive"/><tag k="addr:unit" v="234"/><tag k="addr:postcode" v="95111"/></node>
<node visible="true" id="-147" lat="37.291046182" lon="-121.852809006"><tag k="addr:city" v="San Jose"/><tag k="addr:housenumber" v="88"/><tag k="addr:street" v="Montecito Vista Drive"/><tag k="addr:unit" v="236"/><tag k="addr:postcode" v="95111"/></node>
<node visible="true" id="-148" lat="37.290997017" lon="-121.852730526"><tag k="addr:city" v="San Jose"/><tag k="addr:housenumber" v="88"/><tag k="addr:street" v="Montecito Vista Drive"/><tag k="addr:unit" v="238"/><tag k="addr:postcode" v="95111"/></node>
<node visible="true" id="-149" lat="37.290915000000005" lon="-121.852771418"><tag k="addr:city" v="San Jose"/><tag k="addr:housenumber" v="88"/><tag k="addr:street" v="Montecito Vista Drive"/><tag k="addr:unit" v="239"/><tag k="addr:postcode" v="95111"/></node>
<node visible="true" id="-150" lat="37.290933535" lon="-121.85265298"><tag k="addr:city" v="San Jose"/><tag k="addr:housenumber" v="88"/><tag k="addr:street" v="Montecito Vista Drive"/><tag k="addr:unit" v="240"/><tag k="addr:postcode" v="95111"/></node>
<node visible="true" id="-151" lat="37.290849482000006" lon="-121.85269473000001"><tag k="addr:city" v="San Jose"/><tag k="addr:housenumber" v="88"/><tag k="addr:street" v="Montecito Vista Drive"/><tag k="addr:unit" v="241"/><tag k="addr:postcode" v="95111"/></node>
<node visible="true" id="-152" lat="37.290879942000004" lon="-121.85258635400001"><tag k="addr:city" v="San Jose"/><tag k="addr:housenumber" v="88"/><tag k="addr:street" v="Montecito Vista Drive"/><tag k="addr:unit" v="242"/><tag k="addr:postcode" v="95111"/></node>
<node visible="true" id="-153" lat="37.29079129" lon="-121.852623546"><tag k="addr:city" v="San Jose"/><tag k="addr:housenumber" v="88"/><tag k="addr:street" v="Montecito Vista Drive"/><tag k="addr:unit" v="243"/><tag k="addr:postcode" v="95111"/></node>
<node visible="true" id="-154" lat="37.290342754" lon="-121.853060689"><tag k="addr:city" v="San Jose"/><tag k="addr:housenumber" v="88"/><tag k="addr:street" v="Montecito Vista Drive"/><tag k="addr:unit" v="301"/><tag k="addr:postcode" v="95111"/></node>
<node visible="true" id="-155" lat="37.290276816" lon="-121.853154395"><tag k="addr:city" v="San Jose"/><tag k="addr:housenumber" v="88"/><tag k="addr:street" v="Montecito Vista Drive"/><tag k="addr:unit" v="302"/><tag k="addr:postcode" v="95111"/></node>
<node visible="true" id="-156" lat="37.290368052000005" lon="-121.853141124"><tag k="addr:city" v="San Jose"/><tag k="addr:housenumber" v="88"/><tag k="addr:street" v="Montecito Vista Drive"/><tag k="addr:unit" v="303"/><tag k="addr:postcode" v="95111"/></node>
<node visible="true" id="-157" lat="37.290308113" lon="-121.853252248"><tag k="addr:city" v="San Jose"/><tag k="addr:housenumber" v="88"/><tag k="addr:street" v="Montecito Vista Drive"/><tag k="addr:unit" v="304"/><tag k="addr:postcode" v="95111"/></node>
<node visible="true" id="-158" lat="37.290400295000005" lon="-121.85323959300001"><tag k="addr:city" v="San Jose"/><tag k="addr:housenumber" v="88"/><tag k="addr:street" v="Montecito Vista Drive"/><tag k="addr:unit" v="305"/><tag k="addr:postcode" v="95111"/></node>
<node visible="true" id="-159" lat="37.290346492000005" lon="-121.85335619800001"><tag k="addr:city" v="San Jose"/><tag k="addr:housenumber" v="88"/><tag k="addr:street" v="Montecito Vista Drive"/><tag k="addr:unit" v="306"/><tag k="addr:postcode" v="95111"/></node>
<node visible="true" id="-160" lat="37.290438451" lon="-121.853569151"><tag k="addr:city" v="San Jose"/><tag k="addr:housenumber" v="88"/><tag k="addr:street" v="Montecito Vista Drive"/><tag k="addr:unit" v="310"/><tag k="addr:postcode" v="95111"/></node>
<node visible="true" id="-161" lat="37.290489761" lon="-121.853503231"><tag k="addr:city" v="San Jose"/><tag k="addr:housenumber" v="88"/><tag k="addr:street" v="Montecito Vista Drive"/><tag k="addr:unit" v="312"/><tag k="addr:postcode" v="95111"/></node>
<node visible="true" id="-162" lat="37.290515420000006" lon="-121.853346126"><tag k="addr:city" v="San Jose"/><tag k="addr:housenumber" v="88"/><tag k="addr:street" v="Montecito Vista Drive"/><tag k="addr:unit" v="313"/><tag k="addr:postcode" v="95111"/></node>
<node visible="true" id="-163" lat="37.290545851000005" lon="-121.85343620500001"><tag k="addr:city" v="San Jose"/><tag k="addr:housenumber" v="88"/><tag k="addr:street" v="Montecito Vista Drive"/><tag k="addr:unit" v="314"/><tag k="addr:postcode" v="95111"/></node>
<node visible="true" id="-164" lat="37.290604396" lon="-121.853363254"><tag k="addr:city" v="San Jose"/><tag k="addr:housenumber" v="88"/><tag k="addr:street" v="Montecito Vista Drive"/><tag k="addr:unit" v="316"/><tag k="addr:postcode" v="95111"/></node>
<node visible="true" id="-165" lat="37.290571629000006" lon="-121.853268954"><tag k="addr:city" v="San Jose"/><tag k="addr:housenumber" v="88"/><tag k="addr:street" v="Montecito Vista Drive"/><tag k="addr:unit" v="317"/><tag k="addr:postcode" v="95111"/></node>
<node visible="true" id="-166" lat="37.290625364" lon="-121.85319949900001"><tag k="addr:city" v="San Jose"/><tag k="addr:housenumber" v="88"/><tag k="addr:street" v="Montecito Vista Drive"/><tag k="addr:unit" v="319"/><tag k="addr:postcode" v="95111"/></node>
<node visible="true" id="-167" lat="37.290746186" lon="-121.85318437500001"><tag k="addr:city" v="San Jose"/><tag k="addr:housenumber" v="88"/><tag k="addr:street" v="Montecito Vista Drive"/><tag k="addr:unit" v="320"/><tag k="addr:postcode" v="95111"/></node>
<node visible="true" id="-168" lat="37.290695039" lon="-121.85311242300001"><tag k="addr:city" v="San Jose"/><tag k="addr:housenumber" v="88"/><tag k="addr:street" v="Montecito Vista Drive"/><tag k="addr:unit" v="321"/><tag k="addr:postcode" v="95111"/></node>
<node visible="true" id="-169" lat="37.290800391000005" lon="-121.85311552300001"><tag k="addr:city" v="San Jose"/><tag k="addr:housenumber" v="88"/><tag k="addr:street" v="Montecito Vista Drive"/><tag k="addr:unit" v="322"/><tag k="addr:postcode" v="95111"/></node>
<node visible="true" id="-170" lat="37.290694366000004" lon="-121.85300557400001"><tag k="addr:city" v="San Jose"/><tag k="addr:housenumber" v="88"/><tag k="addr:street" v="Montecito Vista Drive"/><tag k="addr:unit" v="323"/><tag k="addr:postcode" v="95111"/></node>
<node visible="true" id="-171" lat="37.290745627" lon="-121.852943831"><tag k="addr:city" v="San Jose"/><tag k="addr:housenumber" v="88"/><tag k="addr:street" v="Montecito Vista Drive"/><tag k="addr:unit" v="324"/><tag k="addr:postcode" v="95111"/></node>
<node visible="true" id="-172" lat="37.290623781" lon="-121.85292372100001"><tag k="addr:city" v="San Jose"/><tag k="addr:housenumber" v="88"/><tag k="addr:street" v="Montecito Vista Drive"/><tag k="addr:unit" v="325"/><tag k="addr:postcode" v="95111"/></node>
<node visible="true" id="-173" lat="37.290674648" lon="-121.85285480900001"><tag k="addr:city" v="San Jose"/><tag k="addr:housenumber" v="88"/><tag k="addr:street" v="Montecito Vista Drive"/><tag k="addr:unit" v="326"/><tag k="addr:postcode" v="95111"/></node>
<node visible="true" id="-174" lat="37.290570678" lon="-121.85285591200001"><tag k="addr:city" v="San Jose"/><tag k="addr:housenumber" v="88"/><tag k="addr:street" v="Montecito Vista Drive"/><tag k="addr:unit" v="327"/><tag k="addr:postcode" v="95111"/></node>
<node visible="true" id="-175" lat="37.290622906" lon="-121.85279299400001"><tag k="addr:city" v="San Jose"/><tag k="addr:housenumber" v="88"/><tag k="addr:street" v="Montecito Vista Drive"/><tag k="addr:unit" v="328"/><tag k="addr:postcode" v="95111"/></node>
<node visible="true" id="-176" lat="37.290867648" lon="-121.85303138900001"><tag k="addr:city" v="San Jose"/><tag k="addr:housenumber" v="88"/><tag k="addr:street" v="Montecito Vista Drive"/><tag k="addr:unit" v="330"/><tag k="addr:postcode" v="95111"/></node>
<node visible="true" id="-177" lat="37.290820895" lon="-121.85295056400001"><tag k="addr:city" v="San Jose"/><tag k="addr:housenumber" v="88"/><tag k="addr:street" v="Montecito Vista Drive"/><tag k="addr:unit" v="331"/><tag k="addr:postcode" v="95111"/></node>
<node visible="true" id="-178" lat="37.290927179" lon="-121.852955472"><tag k="addr:city" v="San Jose"/><tag k="addr:housenumber" v="88"/><tag k="addr:street" v="Montecito Vista Drive"/><tag k="addr:unit" v="332"/><tag k="addr:postcode" v="95111"/></node>
<node visible="true" id="-179" lat="37.290906891" lon="-121.852854234"><tag k="addr:city" v="San Jose"/><tag k="addr:housenumber" v="88"/><tag k="addr:street" v="Montecito Vista Drive"/><tag k="addr:unit" v="333"/><tag k="addr:postcode" v="95111"/></node>
<node visible="true" id="-180" lat="37.290992537" lon="-121.85287070700001"><tag k="addr:city" v="San Jose"/><tag k="addr:housenumber" v="88"/><tag k="addr:street" v="Montecito Vista Drive"/><tag k="addr:unit" v="334"/><tag k="addr:postcode" v="95111"/></node>
<node visible="true" id="-181" lat="37.291046789" lon="-121.85279767700001"><tag k="addr:city" v="San Jose"/><tag k="addr:housenumber" v="88"/><tag k="addr:street" v="Montecito Vista Drive"/><tag k="addr:unit" v="336"/><tag k="addr:postcode" v="95111"/></node>
<node visible="true" id="-182" lat="37.290997625" lon="-121.852719195"><tag k="addr:city" v="San Jose"/><tag k="addr:housenumber" v="88"/><tag k="addr:street" v="Montecito Vista Drive"/><tag k="addr:unit" v="338"/><tag k="addr:postcode" v="95111"/></node>
<node visible="true" id="-183" lat="37.290915608" lon="-121.85276008900001"><tag k="addr:city" v="San Jose"/><tag k="addr:housenumber" v="88"/><tag k="addr:street" v="Montecito Vista Drive"/><tag k="addr:unit" v="339"/><tag k="addr:postcode" v="95111"/></node>
<node visible="true" id="-184" lat="37.290934143" lon="-121.852641649"><tag k="addr:city" v="San Jose"/><tag k="addr:housenumber" v="88"/><tag k="addr:street" v="Montecito Vista Drive"/><tag k="addr:unit" v="340"/><tag k="addr:postcode" v="95111"/></node>
<node visible="true" id="-185" lat="37.29085009" lon="-121.85268340200001"><tag k="addr:city" v="San Jose"/><tag k="addr:housenumber" v="88"/><tag k="addr:street" v="Montecito Vista Drive"/><tag k="addr:unit" v="341"/><tag k="addr:postcode" v="95111"/></node>
<node visible="true" id="-186" lat="37.290880549" lon="-121.85257502500001"><tag k="addr:city" v="San Jose"/><tag k="addr:housenumber" v="88"/><tag k="addr:street" v="Montecito Vista Drive"/><tag k="addr:unit" v="342"/><tag k="addr:postcode" v="95111"/></node>
<node visible="true" id="-187" lat="37.290791899000006" lon="-121.852612217"><tag k="addr:city" v="San Jose"/><tag k="addr:housenumber" v="88"/><tag k="addr:street" v="Montecito Vista Drive"/><tag k="addr:unit" v="343"/><tag k="addr:postcode" v="95111"/></node>
<node visible="true" id="-188" lat="37.290343347000004" lon="-121.853050553"><tag k="addr:city" v="San Jose"/><tag k="addr:housenumber" v="88"/><tag k="addr:street" v="Montecito Vista Drive"/><tag k="addr:unit" v="401"/><tag k="addr:postcode" v="95111"/></node>
<node visible="true" id="-189" lat="37.290277409000005" lon="-121.853144259"><tag k="addr:city" v="San Jose"/><tag k="addr:housenumber" v="88"/><tag k="addr:street" v="Montecito Vista Drive"/><tag k="addr:unit" v="402"/><tag k="addr:postcode" v="95111"/></node>
<node visible="true" id="-190" lat="37.290368646000005" lon="-121.85313099000001"><tag k="addr:city" v="San Jose"/><tag k="addr:housenumber" v="88"/><tag k="addr:street" v="Montecito Vista Drive"/><tag k="addr:unit" v="403"/><tag k="addr:postcode" v="95111"/></node>
<node visible="true" id="-191" lat="37.290308707" lon="-121.853242112"><tag k="addr:city" v="San Jose"/><tag k="addr:housenumber" v="88"/><tag k="addr:street" v="Montecito Vista Drive"/><tag k="addr:unit" v="404"/><tag k="addr:postcode" v="95111"/></node>
<node visible="true" id="-192" lat="37.290400889000004" lon="-121.85322945700001"><tag k="addr:city" v="San Jose"/><tag k="addr:housenumber" v="88"/><tag k="addr:street" v="Montecito Vista Drive"/><tag k="addr:unit" v="405"/><tag k="addr:postcode" v="95111"/></node>
<node visible="true" id="-193" lat="37.290347086000004" lon="-121.853346063"><tag k="addr:city" v="San Jose"/><tag k="addr:housenumber" v="88"/><tag k="addr:street" v="Montecito Vista Drive"/><tag k="addr:unit" v="406"/><tag k="addr:postcode" v="95111"/></node>
<node visible="true" id="-194" lat="37.290439074000005" lon="-121.853350116"><tag k="addr:city" v="San Jose"/><tag k="addr:housenumber" v="88"/><tag k="addr:street" v="Montecito Vista Drive"/><tag k="addr:unit" v="407"/><tag k="addr:postcode" v="95111"/></node>
<node visible="true" id="-195" lat="37.290380745" lon="-121.85344575"><tag k="addr:city" v="San Jose"/><tag k="addr:housenumber" v="88"/><tag k="addr:street" v="Montecito Vista Drive"/><tag k="addr:unit" v="408"/><tag k="addr:postcode" v="95111"/></node>
<node visible="true" id="-196" lat="37.290439045" lon="-121.853559015"><tag k="addr:city" v="San Jose"/><tag k="addr:housenumber" v="88"/><tag k="addr:street" v="Montecito Vista Drive"/><tag k="addr:unit" v="410"/><tag k="addr:postcode" v="95111"/></node>
<node visible="true" id="-197" lat="37.290490355" lon="-121.853493095"><tag k="addr:city" v="San Jose"/><tag k="addr:housenumber" v="88"/><tag k="addr:street" v="Montecito Vista Drive"/><tag k="addr:unit" v="412"/><tag k="addr:postcode" v="95111"/></node>
<node visible="true" id="-198" lat="37.290516013" lon="-121.85333599"><tag k="addr:city" v="San Jose"/><tag k="addr:housenumber" v="88"/><tag k="addr:street" v="Montecito Vista Drive"/><tag k="addr:unit" v="413"/><tag k="addr:postcode" v="95111"/></node>
<node visible="true" id="-199" lat="37.290546446" lon="-121.85342606900001"><tag k="addr:city" v="San Jose"/><tag k="addr:housenumber" v="88"/><tag k="addr:street" v="Montecito Vista Drive"/><tag k="addr:unit" v="414"/><tag k="addr:postcode" v="95111"/></node>
<node visible="true" id="-200" lat="37.290604990000006" lon="-121.853353118"><tag k="addr:city" v="San Jose"/><tag k="addr:housenumber" v="88"/><tag k="addr:street" v="Montecito Vista Drive"/><tag k="addr:unit" v="416"/><tag k="addr:postcode" v="95111"/></node>
<node visible="true" id="-201" lat="37.290572222" lon="-121.85325881800001"><tag k="addr:city" v="San Jose"/><tag k="addr:housenumber" v="88"/><tag k="addr:street" v="Montecito Vista Drive"/><tag k="addr:unit" v="417"/><tag k="addr:postcode" v="95111"/></node>
<node visible="true" id="-202" lat="37.290625958" lon="-121.853189361"><tag k="addr:city" v="San Jose"/><tag k="addr:housenumber" v="88"/><tag k="addr:street" v="Montecito Vista Drive"/><tag k="addr:unit" v="419"/><tag k="addr:postcode" v="95111"/></node>
<node visible="true" id="-203" lat="37.29074678" lon="-121.85317423900001"><tag k="addr:city" v="San Jose"/><tag k="addr:housenumber" v="88"/><tag k="addr:street" v="Montecito Vista Drive"/><tag k="addr:unit" v="420"/><tag k="addr:postcode" v="95111"/></node>
<node visible="true" id="-204" lat="37.290695633000006" lon="-121.853102288"><tag k="addr:city" v="San Jose"/><tag k="addr:housenumber" v="88"/><tag k="addr:street" v="Montecito Vista Drive"/><tag k="addr:unit" v="421"/><tag k="addr:postcode" v="95111"/></node>
<node visible="true" id="-205" lat="37.290800985000004" lon="-121.85310538700001"><tag k="addr:city" v="San Jose"/><tag k="addr:housenumber" v="88"/><tag k="addr:street" v="Montecito Vista Drive"/><tag k="addr:unit" v="422"/><tag k="addr:postcode" v="95111"/></node>
<node visible="true" id="-206" lat="37.290694959" lon="-121.85299543800001"><tag k="addr:city" v="San Jose"/><tag k="addr:housenumber" v="88"/><tag k="addr:street" v="Montecito Vista Drive"/><tag k="addr:unit" v="423"/><tag k="addr:postcode" v="95111"/></node>
<node visible="true" id="-207" lat="37.290746221" lon="-121.852933695"><tag k="addr:city" v="San Jose"/><tag k="addr:housenumber" v="88"/><tag k="addr:street" v="Montecito Vista Drive"/><tag k="addr:unit" v="424"/><tag k="addr:postcode" v="95111"/></node>
<node visible="true" id="-208" lat="37.290624375" lon="-121.85291358500001"><tag k="addr:city" v="San Jose"/><tag k="addr:housenumber" v="88"/><tag k="addr:street" v="Montecito Vista Drive"/><tag k="addr:unit" v="425"/><tag k="addr:postcode" v="95111"/></node>
<node visible="true" id="-209" lat="37.290675242" lon="-121.852844673"><tag k="addr:city" v="San Jose"/><tag k="addr:housenumber" v="88"/><tag k="addr:street" v="Montecito Vista Drive"/><tag k="addr:unit" v="426"/><tag k="addr:postcode" v="95111"/></node>
<node visible="true" id="-210" lat="37.290571272" lon="-121.85284577600001"><tag k="addr:city" v="San Jose"/><tag k="addr:housenumber" v="88"/><tag k="addr:street" v="Montecito Vista Drive"/><tag k="addr:unit" v="427"/><tag k="addr:postcode" v="95111"/></node>
<node visible="true" id="-211" lat="37.2906235" lon="-121.85278285800001"><tag k="addr:city" v="San Jose"/><tag k="addr:housenumber" v="88"/><tag k="addr:street" v="Montecito Vista Drive"/><tag k="addr:unit" v="428"/><tag k="addr:postcode" v="95111"/></node>
<node visible="true" id="-212" lat="37.290868242" lon="-121.85302125400001"><tag k="addr:city" v="San Jose"/><tag k="addr:housenumber" v="88"/><tag k="addr:street" v="Montecito Vista Drive"/><tag k="addr:unit" v="430"/><tag k="addr:postcode" v="95111"/></node>
<node visible="true" id="-213" lat="37.290821489" lon="-121.85294042800001"><tag k="addr:city" v="San Jose"/><tag k="addr:housenumber" v="88"/><tag k="addr:street" v="Montecito Vista Drive"/><tag k="addr:unit" v="431"/><tag k="addr:postcode" v="95111"/></node>
<node visible="true" id="-214" lat="37.290927774000004" lon="-121.852945336"><tag k="addr:city" v="San Jose"/><tag k="addr:housenumber" v="88"/><tag k="addr:street" v="Montecito Vista Drive"/><tag k="addr:unit" v="432"/><tag k="addr:postcode" v="95111"/></node>
<node visible="true" id="-215" lat="37.290908092" lon="-121.852832769"><tag k="addr:city" v="San Jose"/><tag k="addr:housenumber" v="88"/><tag k="addr:street" v="Montecito Vista Drive"/><tag k="addr:unit" v="433"/><tag k="addr:postcode" v="95111"/></node>
<node visible="true" id="-216" lat="37.290993131" lon="-121.85286057100001"><tag k="addr:city" v="San Jose"/><tag k="addr:housenumber" v="88"/><tag k="addr:street" v="Montecito Vista Drive"/><tag k="addr:unit" v="434"/><tag k="addr:postcode" v="95111"/></node>
<node visible="true" id="-217" lat="37.291047383000006" lon="-121.85278754100001"><tag k="addr:city" v="San Jose"/><tag k="addr:housenumber" v="88"/><tag k="addr:street" v="Montecito Vista Drive"/><tag k="addr:unit" v="436"/><tag k="addr:postcode" v="95111"/></node>
<node visible="true" id="-218" lat="37.290998219" lon="-121.852709059"><tag k="addr:city" v="San Jose"/><tag k="addr:housenumber" v="88"/><tag k="addr:street" v="Montecito Vista Drive"/><tag k="addr:unit" v="438"/><tag k="addr:postcode" v="95111"/></node>
<node visible="true" id="-219" lat="37.290916201" lon="-121.852749954"><tag k="addr:city" v="San Jose"/><tag k="addr:housenumber" v="88"/><tag k="addr:street" v="Montecito Vista Drive"/><tag k="addr:unit" v="439"/><tag k="addr:postcode" v="95111"/></node>
<node visible="true" id="-220" lat="37.290934737" lon="-121.852631513"><tag k="addr:city" v="San Jose"/><tag k="addr:housenumber" v="88"/><tag k="addr:street" v="Montecito Vista Drive"/><tag k="addr:unit" v="440"/><tag k="addr:postcode" v="95111"/></node>
<node visible="true" id="-221" lat="37.290881143" lon="-121.852564889"><tag k="addr:city" v="San Jose"/><tag k="addr:housenumber" v="88"/><tag k="addr:street" v="Montecito Vista Drive"/><tag k="addr:unit" v="442"/><tag k="addr:postcode" v="95111"/></node>
<node visible="true" id="-222" lat="37.290792493000005" lon="-121.852602081"><tag k="addr:city" v="San Jose"/><tag k="addr:housenumber" v="88"/><tag k="addr:street" v="Montecito Vista Drive"/><tag k="addr:unit" v="443"/><tag k="addr:postcode" v="95111"/></node>
<node visible="true" id="-223" lat="37.292738076" lon="-121.85329511200001"><tag k="addr:city" v="San Jose"/><tag k="addr:housenumber" v="89"/><tag k="addr:street" v="Esfahan Drive"/><tag k="addr:postcode" v="95111"/></node>
<node visible="true" id="-224" lat="37.293420629" lon="-121.85234490200001"><tag k="addr:city" v="San Jose"/><tag k="addr:housenumber" v="9"/><tag k="addr:street" v="Esfahan Drive"/><tag k="addr:postcode" v="95111"/></node>
<node visible="true" id="-225" lat="37.290024872000004" lon="-121.84946632600001"><tag k="addr:city" v="San Jose"/><tag k="addr:housenumber" v="90"/><tag k="addr:street" v="Pullman Way"/><tag k="addr:postcode" v="95111"/></node>
<node visible="true" id="-226" lat="37.29277227" lon="-121.853339168"><tag k="addr:city" v="San Jose"/><tag k="addr:housenumber" v="93"/><tag k="addr:street" v="Esfahan Drive"/><tag k="addr:postcode" v="95111"/></node>
<node visible="true" id="-227" lat="37.290131548000005" lon="-121.849493612"><tag k="addr:city" v="San Jose"/><tag k="addr:housenumber" v="98"/><tag k="addr:street" v="Pullman Way"/><tag k="addr:postcode" v="95111"/></node>
<node visible="true" id="-228" lat="37.290579091000005" lon="-121.85528362100001"><tag k="addr:city" v="San Jose"/><tag k="addr:housenumber" v="2759"/><tag k="addr:street" v="Ferrara Circle"/><tag k="addr:postcode" v="95111"/></node>
<node visible="true" id="-229" lat="37.290521692000006" lon="-121.855298695"><tag k="addr:city" v="San Jose"/><tag k="addr:housenumber" v="2757"/><tag k="addr:street" v="Ferrara Circle"/><tag k="addr:postcode" v="95111"/></node>
<node visible="true" id="-230" lat="37.290468564" lon="-121.85531563800001"><tag k="addr:city" v="San Jose"/><tag k="addr:housenumber" v="2753"/><tag k="addr:street" v="Ferrara Circle"/><tag k="addr:postcode" v="95111"/></node>
<node visible="true" id="-231" lat="37.290422483" lon="-121.855341662"><tag k="addr:city" v="San Jose"/><tag k="addr:housenumber" v="2749"/><tag k="addr:street" v="Ferrara Circle"/><tag k="addr:postcode" v="95111"/></node>
<node visible="true" id="-232" lat="37.292266676000004" lon="-121.853741725"><tag k="addr:city" v="San Jose"/><tag k="addr:housenumber" v="129"/><tag k="addr:street" v="Esfahan Drive"/><tag k="addr:postcode" v="95111"/></node>
<node visible="true" id="-233" lat="37.293461115" lon="-121.852386111"><tag k="addr:city" v="San Jose"/><tag k="addr:housenumber" v="13"/><tag k="addr:street" v="Esfahan Drive"/><tag k="addr:postcode" v="95111"/></node>
<node visible="true" id="-234" lat="37.2937403" lon="-121.85189387700001"><tag k="addr:city" v="San Jose"/><tag k="addr:housenumber" v="1"/><tag k="addr:street" v="Esfahan Drive"/><tag k="addr:postcode" v="95111"/></node>
<node visible="true" id="-235" lat="37.291761351000005" lon="-121.85374753200001"><tag k="addr:city" v="San Jose"/><tag k="addr:housenumber" v="156"/><tag k="addr:street" v="Esfahan Drive"/><tag k="addr:unit" v="1"/><tag k="addr:postcode" v="95111"/></node>
<node visible="true" id="-236" lat="37.291723743000006" lon="-121.853791118"><tag k="addr:city" v="San Jose"/><tag k="addr:housenumber" v="156"/><tag k="addr:street" v="Esfahan Drive"/><tag k="addr:unit" v="2"/><tag k="addr:postcode" v="95111"/></node>
<node visible="true" id="-237" lat="37.291686133" lon="-121.85383470500001"><tag k="addr:city" v="San Jose"/><tag k="addr:housenumber" v="156"/><tag k="addr:street" v="Esfahan Drive"/><tag k="addr:unit" v="3"/><tag k="addr:postcode" v="95111"/></node>
<node visible="true" id="-238" lat="37.291668486" lon="-121.853879805"><tag k="addr:city" v="San Jose"/><tag k="addr:housenumber" v="156"/><tag k="addr:street" v="Esfahan Drive"/><tag k="addr:unit" v="4"/><tag k="addr:postcode" v="95111"/></node>
<node visible="true" id="-239" lat="37.291633277" lon="-121.853921603"><tag k="addr:city" v="San Jose"/><tag k="addr:housenumber" v="156"/><tag k="addr:street" v="Esfahan Drive"/><tag k="addr:unit" v="5"/><tag k="addr:postcode" v="95111"/></node>
<node visible="true" id="-240" lat="37.291598069" lon="-121.853963401"><tag k="addr:city" v="San Jose"/><tag k="addr:housenumber" v="156"/><tag k="addr:street" v="Esfahan Drive"/><tag k="addr:unit" v="6"/><tag k="addr:postcode" v="95111"/></node>
<node visible="true" id="-241" lat="37.291562861" lon="-121.85400519900001"><tag k="addr:city" v="San Jose"/><tag k="addr:housenumber" v="156"/><tag k="addr:street" v="Esfahan Drive"/><tag k="addr:unit" v="7"/><tag k="addr:postcode" v="95111"/></node>
<node visible="true" id="-242" lat="37.291500978" lon="-121.854087007"><tag k="addr:city" v="San Jose"/><tag k="addr:housenumber" v="198"/><tag k="addr:street" v="Esfahan Drive"/><tag k="addr:unit" v="1"/><tag k="addr:postcode" v="95111"/></node>
<node visible="true" id="-243" lat="37.291464245" lon="-121.854133371"><tag k="addr:city" v="San Jose"/><tag k="addr:housenumber" v="198"/><tag k="addr:street" v="Esfahan Drive"/><tag k="addr:unit" v="2"/><tag k="addr:postcode" v="95111"/></node>
<node visible="true" id="-244" lat="37.291427512000006" lon="-121.854179735"><tag k="addr:city" v="San Jose"/><tag k="addr:housenumber" v="198"/><tag k="addr:street" v="Esfahan Drive"/><tag k="addr:unit" v="3"/><tag k="addr:postcode" v="95111"/></node>
<node visible="true" id="-245" lat="37.291390779000004" lon="-121.854226099"><tag k="addr:city" v="San Jose"/><tag k="addr:housenumber" v="198"/><tag k="addr:street" v="Esfahan Drive"/><tag k="addr:unit" v="4"/><tag k="addr:postcode" v="95111"/></node>
<node visible="true" id="-246" lat="37.291354045000006" lon="-121.854272464"><tag k="addr:city" v="San Jose"/><tag k="addr:housenumber" v="198"/><tag k="addr:street" v="Esfahan Drive"/><tag k="addr:unit" v="5"/><tag k="addr:postcode" v="95111"/></node>
<node visible="true" id="-247" lat="37.291317312000004" lon="-121.854318828"><tag k="addr:city" v="San Jose"/><tag k="addr:housenumber" v="198"/><tag k="addr:street" v="Esfahan Drive"/><tag k="addr:unit" v="6"/><tag k="addr:postcode" v="95111"/></node>
<node visible="true" id="-248" lat="37.291280580000006" lon="-121.85436519100001"><tag k="addr:city" v="San Jose"/><tag k="addr:housenumber" v="198"/><tag k="addr:street" v="Esfahan Drive"/><tag k="addr:unit" v="7"/><tag k="addr:postcode" v="95111"/></node>
<node visible="true" id="-249" lat="37.291243846" lon="-121.85441155500001"><tag k="addr:city" v="San Jose"/><tag k="addr:housenumber" v="198"/><tag k="addr:street" v="Esfahan Drive"/><tag k="addr:unit" v="8"/><tag k="addr:postcode" v="95111"/></node>
<node visible="true" id="-250" lat="37.291199577" lon="-121.853186656"><tag k="addr:city" v="San Jose"/><tag k="addr:housenumber" v="85"/><tag k="addr:street" v="Montecito Vista Drive"/><tag k="addr:unit" v="6"/><tag k="addr:postcode" v="95111"/></node>
<node visible="true" id="-251" lat="37.291161865" lon="-121.85323133600001"><tag k="addr:city" v="San Jose"/><tag k="addr:housenumber" v="85"/><tag k="addr:street" v="Montecito Vista Drive"/><tag k="addr:unit" v="5"/><tag k="addr:postcode" v="95111"/></node>
<node visible="true" id="-252" lat="37.291121237000006" lon="-121.853280737"><tag k="addr:city" v="San Jose"/><tag k="addr:housenumber" v="85"/><tag k="addr:street" v="Montecito Vista Drive"/><tag k="addr:unit" v="4"/><tag k="addr:postcode" v="95111"/></node>
<node visible="true" id="-253" lat="37.291012896000005" lon="-121.853412473"><tag k="addr:city" v="San Jose"/><tag k="addr:housenumber" v="85"/><tag k="addr:street" v="Montecito Vista Drive"/><tag k="addr:unit" v="1"/><tag k="addr:postcode" v="95111"/></node>
<node visible="true" id="-254" lat="37.290948016" lon="-121.853497247"><tag k="addr:city" v="San Jose"/><tag k="addr:housenumber" v="97"/><tag k="addr:street" v="Montecito Vista Drive"/><tag k="addr:unit" v="8"/><tag k="addr:postcode" v="95111"/></node>
<node visible="true" id="-255" lat="37.290917974" lon="-121.85353848400001"><tag k="addr:city" v="San Jose"/><tag k="addr:housenumber" v="97"/><tag k="addr:street" v="Montecito Vista Drive"/><tag k="addr:unit" v="7"/><tag k="addr:postcode" v="95111"/></node>
<node visible="true" id="-256" lat="37.290880220000005" lon="-121.853586742"><tag k="addr:city" v="San Jose"/><tag k="addr:housenumber" v="97"/><tag k="addr:street" v="Montecito Vista Drive"/><tag k="addr:unit" v="6"/><tag k="addr:postcode" v="95111"/></node>
<node visible="true" id="-257" lat="37.290844415" lon="-121.85363145500001"><tag k="addr:city" v="San Jose"/><tag k="addr:housenumber" v="97"/><tag k="addr:street" v="Montecito Vista Drive"/><tag k="addr:unit" v="5"/><tag k="addr:postcode" v="95111"/></node>
<node visible="true" id="-258" lat="37.290802806" lon="-121.853683226"><tag k="addr:city" v="San Jose"/><tag k="addr:housenumber" v="97"/><tag k="addr:street" v="Montecito Vista Drive"/><tag k="addr:unit" v="4"/><tag k="addr:postcode" v="95111"/></node>
<node visible="true" id="-259" lat="37.290764058" lon="-121.85373504900001"><tag k="addr:city" v="San Jose"/><tag k="addr:housenumber" v="97"/><tag k="addr:street" v="Montecito Vista Drive"/><tag k="addr:unit" v="3"/><tag k="addr:postcode" v="95111"/></node>
<node visible="true" id="-260" lat="37.290731126000004" lon="-121.85377862000001"><tag k="addr:city" v="San Jose"/><tag k="addr:housenumber" v="97"/><tag k="addr:street" v="Montecito Vista Drive"/><tag k="addr:unit" v="2"/><tag k="addr:postcode" v="95111"/></node>
<node visible="true" id="-261" lat="37.29069727" lon="-121.853819787"><tag k="addr:city" v="San Jose"/><tag k="addr:housenumber" v="97"/><tag k="addr:street" v="Montecito Vista Drive"/><tag k="addr:unit" v="1"/><tag k="addr:postcode" v="95111"/></node>
<node visible="true" id="-262" lat="37.289172544" lon="-121.84877911800001"><tag k="addr:city" v="San Jose"/><tag k="addr:housenumber" v="2948"/><tag k="addr:street" v="Daylight Way"/><tag k="addr:postcode" v="95111"/></node>
<node visible="true" id="-263" lat="37.288937725000004" lon="-121.84867412400001"><tag k="addr:city" v="San Jose"/><tag k="addr:housenumber" v="2952"/><tag k="addr:street" v="Daylight Way"/><tag k="addr:postcode" v="95111"/></node>
<node visible="true" id="-264" lat="37.289198391" lon="-121.848464875"><tag k="addr:city" v="San Jose"/><tag k="addr:housenumber" v="2958"/><tag k="addr:street" v="Daylight Way"/><tag k="addr:postcode" v="95111"/></node>
<node visible="true" id="-265" lat="37.291284555000004" lon="-121.851410856"><tag k="addr:city" v="San Jose"/><tag k="addr:housenumber" v="96"/><tag k="addr:street" v="Montecito Vista Drive"/><tag k="addr:postcode" v="95111"/></node>
<node visible="true" id="-266" lat="37.292936612000005" lon="-121.85116992500001"><tag k="addr:city" v="San Jose"/><tag k="addr:housenumber" v="2815"/><tag k="addr:street" v="Monterey Road"/><tag k="addr:unit" v="402"/><tag k="addr:postcode" v="95111"/></node>
<node visible="true" id="-267" lat="37.293210442" lon="-121.851473935"><tag k="addr:city" v="San Jose"/><tag k="addr:housenumber" v="2775"/><tag k="addr:street" v="Monterey Road"/><tag k="addr:postcode" v="95111"/></node>
<node visible="true" id="-268" lat="37.292783987" lon="-121.851045049"><tag k="addr:city" v="San Jose"/><tag k="addr:housenumber" v="2815"/><tag k="addr:street" v="Monterey Road"/><tag k="addr:postcode" v="95111"/></node>
<node visible="true" id="-269" lat="37.291523610000006" lon="-121.850699437"><tag k="addr:city" v="San Jose"/><tag k="addr:housenumber" v="2851"/><tag k="addr:street" v="Monterey Road"/><tag k="addr:postcode" v="95111"/></node>
<node visible="true" id="-270" lat="37.291594586" lon="-121.85007296600001"><tag k="addr:city" v="San Jose"/><tag k="addr:housenumber" v="2859"/><tag k="addr:street" v="Monterey Road"/><tag k="addr:postcode" v="95111"/></node>
<node visible="true" id="-271" lat="37.285930864" lon="-121.843846165"><tag k="addr:city" v="San Jose"/><tag k="addr:housenumber" v="3131"/><tag k="addr:street" v="Monterey Road"/><tag k="addr:postcode" v="95111"/></node>
<node visible="true" id="-272" lat="37.292228351000006" lon="-121.85379391100001"><tag k="addr:city" v="San Jose"/><tag k="addr:housenumber" v="133"/><tag k="addr:street" v="Esfahan Drive"/><tag k="addr:postcode" v="95111"/></node>
<node visible="true" id="-273" lat="37.292068033" lon="-121.85395720100001"><tag k="addr:city" v="San Jose"/><tag k="addr:housenumber" v="137"/><tag k="addr:street" v="Esfahan Drive"/><tag k="addr:postcode" v="95111"/></node>
<node visible="true" id="-274" lat="37.292103605" lon="-121.854012615"><tag k="addr:city" v="San Jose"/><tag k="addr:housenumber" v="141"/><tag k="addr:street" v="Esfahan Drive"/><tag k="addr:postcode" v="95111"/></node>
<node visible="true" id="-275" lat="37.292134782000005" lon="-121.854056615"><tag k="addr:city" v="San Jose"/><tag k="addr:housenumber" v="145"/><tag k="addr:street" v="Esfahan Drive"/><tag k="addr:postcode" v="95111"/></node>
<node visible="true" id="-276" lat="37.292172125" lon="-121.85408939700001"><tag k="addr:city" v="San Jose"/><tag k="addr:housenumber" v="149"/><tag k="addr:street" v="Esfahan Drive"/><tag k="addr:postcode" v="95111"/></node>
<node visible="true" id="-277" lat="37.292213949" lon="-121.85412603700001"><tag k="addr:city" v="San Jose"/><tag k="addr:housenumber" v="153"/><tag k="addr:street" v="Esfahan Drive"/><tag k="addr:postcode" v="95111"/></node>
<node visible="true" id="-278" lat="37.291944007000005" lon="-121.85411359400001"><tag k="addr:city" v="San Jose"/><tag k="addr:housenumber" v="157"/><tag k="addr:street" v="Esfahan Drive"/><tag k="addr:postcode" v="95111"/></node>
<node visible="true" id="-279" lat="37.291976627000004" lon="-121.85416328800001"><tag k="addr:city" v="San Jose"/><tag k="addr:housenumber" v="161"/><tag k="addr:street" v="Esfahan Drive"/><tag k="addr:postcode" v="95111"/></node>
<node visible="true" id="-280" lat="37.292493302000004" lon="-121.85345498800001"><tag k="addr:city" v="San Jose"/><tag k="addr:housenumber" v="105"/><tag k="addr:street" v="Esfahan Drive"/><tag k="addr:postcode" v="95111"/></node>
<node visible="true" id="-281" lat="37.292009357000005" lon="-121.85420354000001"><tag k="addr:city" v="San Jose"/><tag k="addr:housenumber" v="165"/><tag k="addr:street" v="Esfahan Drive"/><tag k="addr:postcode" v="95111"/></node>
<node visible="true" id="-282" lat="37.292046547000005" lon="-121.85424953900001"><tag k="addr:city" v="San Jose"/><tag k="addr:housenumber" v="169"/><tag k="addr:street" v="Esfahan Drive"/><tag k="addr:postcode" v="95111"/></node>
<node visible="true" id="-283" lat="37.293492979" lon="-121.852427164"><tag k="addr:city" v="San Jose"/><tag k="addr:housenumber" v="17"/><tag k="addr:street" v="Esfahan Drive"/><tag k="addr:postcode" v="95111"/></node>
<node visible="true" id="-284" lat="37.292085158" lon="-121.854303118"><tag k="addr:city" v="San Jose"/><tag k="addr:housenumber" v="173"/><tag k="addr:street" v="Esfahan Drive"/><tag k="addr:postcode" v="95111"/></node>
<node visible="true" id="-285" lat="37.291610268" lon="-121.85200213200001"><tag k="addr:city" v="San Jose"/><tag k="addr:housenumber" v="80"/><tag k="addr:street" v="Montecito Vista Drive"/><tag k="addr:unit" v="103-109;113-115"/><tag k="addr:postcode" v="95111"/></node>
<node visible="true" id="-286" lat="37.291819548" lon="-121.851683695"><tag k="addr:city" v="San Jose"/><tag k="addr:housenumber" v="80"/><tag k="addr:street" v="Montecito Vista Drive"/><tag k="addr:unit" v="116-119;121;123;125-128;Ofc"/><tag k="addr:postcode" v="95111"/></node>
<node visible="true" id="-287" lat="37.291437773000006" lon="-121.85201726300001"><tag k="addr:city" v="San Jose"/><tag k="addr:housenumber" v="80"/><tag k="addr:street" v="Montecito Vista Drive"/><tag k="addr:unit" v="201-209;211-219;221;223;225-228;301-309;311-319;321;323;325-328;401-409;411-419;421;423;425-428"/><tag k="addr:postcode" v="95111"/></node>
<node visible="true" id="-288" lat="37.29296206" lon="-121.851237533"><tag k="addr:city" v="San Jose"/><tag k="addr:housenumber" v="2815"/><tag k="addr:street" v="Monterey Road"/><tag k="addr:unit" v="409"/><tag k="addr:postcode" v="95111"/></node>
<node visible="true" id="-289" lat="37.292938238000005" lon="-121.85123561"><tag k="addr:city" v="San Jose"/><tag k="addr:housenumber" v="2815"/><tag k="addr:street" v="Monterey Road"/><tag k="addr:unit" v="404"/><tag k="addr:postcode" v="95111"/></node>
<node visible="true" id="-290" lat="37.292961681" lon="-121.85127035400001"><tag k="addr:city" v="San Jose"/><tag k="addr:housenumber" v="2815"/><tag k="addr:street" v="Monterey Road"/><tag k="addr:unit" v="410"/><tag k="addr:postcode" v="95111"/></node>
<node visible="true" id="-291" lat="37.29293786" lon="-121.85126843100001"><tag k="addr:city" v="San Jose"/><tag k="addr:housenumber" v="2815"/><tag k="addr:street" v="Monterey Road"/><tag k="addr:unit" v="405"/><tag k="addr:postcode" v="95111"/></node>
<node visible="true" id="-292" lat="37.292961427" lon="-121.85118902600001"><tag k="addr:city" v="San Jose"/><tag k="addr:housenumber" v="2815"/><tag k="addr:street" v="Monterey Road"/><tag k="addr:unit" v="407;408"/><tag k="addr:postcode" v="95111"/></node>
<node visible="true" id="-293" lat="37.2929386" lon="-121.85120428100001"><tag k="addr:city" v="San Jose"/><tag k="addr:housenumber" v="2815"/><tag k="addr:street" v="Monterey Road"/><tag k="addr:unit" v="403"/><tag k="addr:postcode" v="95111"/></node>
<node visible="true" id="-294" lat="37.292962056" lon="-121.851134572"><tag k="addr:city" v="San Jose"/><tag k="addr:housenumber" v="2815"/><tag k="addr:street" v="Monterey Road"/><tag k="addr:unit" v="406"/><tag k="addr:postcode" v="95111"/></node>
<node visible="true" id="-295" lat="37.292935833" lon="-121.851134098"><tag k="addr:city" v="San Jose"/><tag k="addr:housenumber" v="2815"/><tag k="addr:street" v="Monterey Road"/><tag k="addr:unit" v="401"/><tag k="addr:postcode" v="95111"/></node>
</osm>