<?xml version="1.0"?>
<osm version="0.6" generator="uvmogr2osm" upload="false">
<node visible="true" id="-2" lat="37.335546032" lon="-121.846505089"/>
<node visible="true" id="-3" lat="37.335625142000005" lon="-121.84658126500001"/>
<node visible="true" id="-4" lat="37.335787331" lon="-121.84655560200001"/>
<node visible="true" id="-5" lat="37.335908883" lon="-121.84653574200001"/>
<node visible="true" id="-6" lat="37.335969965000004" lon="-121.84643591300001"/>
<node visible="true" id="-7" lat="37.335969258000006" lon="-121.846435247"/>
<node visible="true" id="-8" lat="37.335730297000005" lon="-121.84620507300001"/>
<node visible="true" id="-10" lat="37.334697812" lon="-121.845359032"/>
<node visible="true" id="-11" lat="37.335609577" lon="-121.846243455"/>
<node visible="true" id="-12" lat="37.335669525" lon="-121.84614653000001"/>
<node visible="true" id="-13" lat="37.335658551" lon="-121.846135875"/>
<node visible="true" id="-14" lat="37.334757759000006" lon="-121.845262109"/>
<node visible="true" id="-16" lat="37.334746082" lon="-121.846178604"/>
<node visible="true" id="-17" lat="37.335007562" lon="-121.84643068000001"/>
<node visible="true" id="-18" lat="37.335058449" lon="-121.84634786800001"/>
<node visible="true" id="-19" lat="37.335015688000006" lon="-121.846306611"/>
<node visible="true" id="-20" lat="37.334796969" lon="-121.846095793"/>
<node visible="true" id="-22" lat="37.334441985000005" lon="-121.845884792"/>
<node visible="true" id="-23" lat="37.334704269" lon="-121.846136227"/>
<node visible="true" id="-24" lat="37.334755301" lon="-121.84605273100001"/>
<node visible="true" id="-25" lat="37.334752774" lon="-121.84605031100001"/>
<node visible="true" id="-26" lat="37.334492989000005" lon="-121.845801295"/>
<node visible="true" id="-28" lat="37.326285641000005" lon="-121.83564989300001"/>
<node visible="true" id="-29" lat="37.32659821" lon="-121.835959293"/>
<node visible="true" id="-30" lat="37.326678464000004" lon="-121.835832158"/>
<node visible="true" id="-31" lat="37.326365894000006" lon="-121.835522757"/>
<node visible="true" id="-33" lat="37.326108357" lon="-121.835460302"/>
<node visible="true" id="-34" lat="37.326237785000004" lon="-121.835587848"/>
<node visible="true" id="-35" lat="37.326307386" lon="-121.83547710100001"/>
<node visible="true" id="-36" lat="37.326177958" lon="-121.83534955500001"/>
<node visible="true" id="-38" lat="37.326028201" lon="-121.83566795700001"/>
<node visible="true" id="-39" lat="37.326130876" lon="-121.83577146600001"/>
<node visible="true" id="-40" lat="37.326212753" lon="-121.83564408400001"/>
<node visible="true" id="-41" lat="37.326110078" lon="-121.835540612"/>
<node visible="true" id="-43" lat="37.325534958000006" lon="-121.83654323"/>
<node visible="true" id="-44" lat="37.325636315000004" lon="-121.83664413400001"/>
<node visible="true" id="-45" lat="37.325759048" lon="-121.836450794"/>
<node visible="true" id="-46" lat="37.32565769" lon="-121.83634992300001"/>
<node visible="true" id="-49" lat="37.326198208" lon="-121.835300731"/>
<node visible="true" id="-50" lat="37.326533474" lon="-121.83563354700001"/>
<node visible="true" id="-51" lat="37.326909667" lon="-121.83503115900001"/>
<node visible="true" id="-52" lat="37.327222683" lon="-121.83533768000001"/>
<node visible="true" id="-53" lat="37.327394636" lon="-121.835062284"/>
<node visible="true" id="-54" lat="37.327283941000005" lon="-121.83495392"/>
<node visible="true" id="-55" lat="37.327126173" lon="-121.83520655900001"/>
<node visible="true" id="-56" lat="37.327080536000004" lon="-121.835161854"/>
<node visible="true" id="-57" lat="37.327238556000005" lon="-121.834908842"/>
<node visible="true" id="-58" lat="37.327121313" lon="-121.83479403400001"/>
<node visible="true" id="-59" lat="37.327115746000004" lon="-121.83480294600001"/>
<node visible="true" id="-60" lat="37.327080948" lon="-121.83476889100001"/>
<node visible="true" id="-61" lat="37.326978773" lon="-121.834932475"/>
<node visible="true" id="-62" lat="37.326958536" lon="-121.834912645"/>
<node visible="true" id="-63" lat="37.32691047" lon="-121.834989625"/>
<node visible="true" id="-64" lat="37.326631817" lon="-121.83471674100001"/>
<node visible="true" id="-65" lat="37.326551743" lon="-121.834844982"/>
<node visible="true" id="-66" lat="37.326827754" lon="-121.83512077600001"/>
<node visible="true" id="-67" lat="37.326802065" lon="-121.835162451"/>
<node visible="true" id="-68" lat="37.326486792000004" lon="-121.83484657300001"/>
<node visible="true" id="-69" lat="37.326355404000005" lon="-121.83505249000001"/>
<node visible="true" id="-70" lat="37.326669685" lon="-121.83537100000001"/>
<node visible="true" id="-71" lat="37.326645062000004" lon="-121.835410561"/>
<node visible="true" id="-72" lat="37.326326661" lon="-121.83509448800001"/>
<node visible="true" id="-74" lat="37.32681377" lon="-121.835070446"/>
<node visible="true" id="-75" lat="37.32686753" lon="-121.834987963"/>
<node visible="true" id="-76" lat="37.326893948000006" lon="-121.83501495300001"/>
<node visible="true" id="-77" lat="37.326840188000006" lon="-121.835097437"/>
<node visible="true" id="-79" lat="37.335050624000004" lon="-121.846471875"/>
<node visible="true" id="-80" lat="37.335311779" lon="-121.846725874"/>
<node visible="true" id="-81" lat="37.335361958" lon="-121.846645011"/>
<node visible="true" id="-82" lat="37.33525455" lon="-121.846540566"/>
<node visible="true" id="-83" lat="37.335100802" lon="-121.84639101200001"/>
<node visible="true" id="-85" lat="37.334494924000005" lon="-121.84568781300001"/>
<node visible="true" id="-86" lat="37.335116857" lon="-121.84629185300001"/>
<node visible="true" id="-87" lat="37.335116828000004" lon="-121.846291886"/>
<node visible="true" id="-88" lat="37.335405913" lon="-121.84657266900001"/>
<node visible="true" id="-89" lat="37.335465357000004" lon="-121.84647670000001"/>
<node visible="true" id="-90" lat="37.334554340000004" lon="-121.84559184400001"/>
<node visible="true" id="-92" lat="37.327488277" lon="-121.835348823"/>
<node visible="true" id="-93" lat="37.327592951" lon="-121.83545051"/>
<node visible="true" id="-94" lat="37.327634055000004" lon="-121.83538417300001"/>
<node visible="true" id="-95" lat="37.327529383000005" lon="-121.835282452"/>
<node visible="true" id="-97" lat="37.327458296" lon="-121.83543200800001"/>
<node visible="true" id="-98" lat="37.327561422" lon="-121.835532119"/>
<node visible="true" id="-99" lat="37.327601997" lon="-121.83546656300001"/>
<node visible="true" id="-100" lat="37.32749887" lon="-121.83536648600001"/>
<node visible="true" id="-101" lat="37.325769013000006" lon="-121.83708984900001"><tag k="addr:city" v="San Jose"/><tag k="addr:housenumber" v="1853"/><tag k="addr:street" v="Midfield Avenue"/><tag k="addr:unit" v="3-6"/><tag k="addr:postcode" v="95122"/></node>
<node visible="true" id="-102" lat="37.327744493000004" lon="-121.835087408"><tag k="addr:city" v="San Jose"/><tag k="addr:housenumber" v="1927"/><tag k="addr:street" v="Panama Avenue"/><tag k="addr:postcode" v="95122"/></node>
<node visible="true" id="-103" lat="37.327436746000004" lon="-121.839201579"><tag k="addr:city" v="San Jose"/><tag k="addr:housenumber" v="1810"/><tag k="addr:street" v="Midfield Avenue"/><tag k="addr:unit" v="1"/><tag k="addr:postcode" v="95122"/></node>
<node visible="true" id="-104" lat="37.325646431" lon="-121.83690637100001"><tag k="addr:city" v="San Jose"/><tag k="addr:housenumber" v="1855"/><tag k="addr:street" v="Midfield Avenue"/><tag k="addr:unit" v="1-4"/><tag k="addr:postcode" v="95122"/></node>
<node visible="true" id="-105" lat="37.326313133" lon="-121.837278244"><tag k="addr:city" v="San Jose"/><tag k="addr:housenumber" v="1945"/><tag k="addr:street" v="Terilyn Avenue"/><tag k="addr:postcode" v="95122"/></node>
<node visible="true" id="-106" lat="37.327719083000005" lon="-121.835057395"><tag k="addr:city" v="San Jose"/><tag k="addr:housenumber" v="1927"/><tag k="addr:street" v="Panama Avenue"/><tag k="addr:unit" v="B"/><tag k="addr:postcode" v="95122"/></node>
<node visible="true" id="-107" lat="37.325279623" lon="-121.83666415900001"><tag k="addr:city" v="San Jose"/><tag k="addr:housenumber" v="1859"/><tag k="addr:street" v="Midfield Avenue"/><tag k="addr:unit" v="3;4"/><tag k="addr:postcode" v="95122"/></node>
<node visible="true" id="-108" lat="37.32581304" lon="-121.837109744"><tag k="addr:city" v="San Jose"/><tag k="addr:housenumber" v="1853"/><tag k="addr:street" v="Midfield Avenue"/><tag k="addr:unit" v="1;2"/><tag k="addr:postcode" v="95122"/></node>
<node visible="true" id="-109" lat="37.325321224" lon="-121.836629075"><tag k="addr:city" v="San Jose"/><tag k="addr:housenumber" v="1859"/><tag k="addr:street" v="Midfield Avenue"/><tag k="addr:unit" v="1;2"/><tag k="addr:postcode" v="95122"/></node>
<node visible="true" id="-110" lat="37.32741007" lon="-121.83913230900001"><tag k="addr:city" v="San Jose"/><tag k="addr:housenumber" v="1810"/><tag k="addr:street" v="Midfield Avenue"/><tag k="addr:unit" v="2"/><tag k="addr:postcode" v="95122"/></node>
<node visible="true" id="-111" lat="37.325606742000005" lon="-121.836907572"><tag k="addr:city" v="San Jose"/><tag k="addr:housenumber" v="1855"/><tag k="addr:street" v="Midfield Avenue"/><tag k="addr:unit" v="5-8"/><tag k="addr:postcode" v="95122"/></node>
<node visible="true" id="-112" lat="37.325914232" lon="-121.83723581400001"><tag k="addr:city" v="San Jose"/><tag k="addr:housenumber" v="1851"/><tag k="addr:street" v="Midfield Avenue"/><tag k="addr:unit" v="1;2"/><tag k="addr:postcode" v="95122"/></node>
<node visible="true" id="-113" lat="37.325866959" lon="-121.837233057"><tag k="addr:city" v="San Jose"/><tag k="addr:housenumber" v="1851"/><tag k="addr:street" v="Midfield Avenue"/><tag k="addr:unit" v="3;4"/><tag k="addr:postcode" v="95122"/></node>
<node visible="true" id="-114" lat="37.32549427" lon="-121.83677696900001"><tag k="addr:city" v="San Jose"/><tag k="addr:housenumber" v="1857"/><tag k="addr:street" v="Midfield Avenue"/><tag k="addr:unit" v="1-4"/><tag k="addr:postcode" v="95122"/></node>
<node visible="true" id="-115" lat="37.325449851" lon="-121.836791461"><tag k="addr:city" v="San Jose"/><tag k="addr:housenumber" v="1857"/><tag k="addr:street" v="Midfield Avenue"/><tag k="addr:unit" v="5-8"/><tag k="addr:postcode" v="95122"/></node>
<node visible="true" id="-117" lat="37.334596725000004" lon="-121.84552226000001"/>
<node visible="true" id="-118" lat="37.334721412" lon="-121.845643217"/>
<node visible="true" id="-119" lat="37.335508325" lon="-121.84640654200001"/>
<node visible="true" id="-120" lat="37.33556833" lon="-121.846309516"/>
<node visible="true" id="-121" lat="37.334656729" lon="-121.845425234"/>
<node visible="true" id="-123" lat="37.325944708" lon="-121.835804596"/>
<node visible="true" id="-124" lat="37.326049260000005" lon="-121.83590483500001"/>
<node visible="true" id="-125" lat="37.32612805" lon="-121.83577602400001"/>
<node visible="true" id="-126" lat="37.326023498000005" lon="-121.83567575000001"/>
<way visible="true" id="-1"><nd ref="-2"/><nd ref="-3"/><nd ref="-4"/><nd ref="-5"/><nd ref="-6"/><nd ref="-7"/><nd ref="-8"/><nd ref="-2"/><tag k="building" v="yes"/><tag k="height" v="3.09"/><tag k="ele" v="36.05"/></way>
<way visible="true" id="-9"><nd ref="-10"/><nd ref="-11"/><nd ref="-12"/><nd ref="-13"/><nd ref="-14"/><nd ref="-10"/><tag k="building" v="yes"/><tag k="height" v="2.73"/><tag k="ele" v="36.40"/></way>
<way visible="true" id="-15"><nd ref="-16"/><nd ref="-17"/><nd ref="-18"/><nd ref="-19"/><nd ref="-20"/><nd ref="-16"/><tag k="building" v="yes"/><tag k="height" v="2.81"/><tag k="ele" v="36.15"/></way>
<way visible="true" id="-21"><nd ref="-22"/><nd ref="-23"/><nd ref="-24"/><nd ref="-25"/><nd ref="-26"/><nd ref="-22"/><tag k="building" v="yes"/><tag k="height" v="2.86"/><tag k="ele" v="36.34"/></way>
<way visible="true" id="-27"><nd ref="-28"/><nd ref="-29"/><nd ref="-30"/><nd ref="-31"/><nd ref="-28"/><tag k="building" v="yes"/><tag k="height" v="3.22"/><tag k="ele" v="39.46"/></way>
<way visible="true" id="-32"><nd ref="-33"/><nd ref="-34"/><nd ref="-35"/><nd ref="-36"/><nd ref="-33"/><tag k="building" v="yes"/><tag k="height" v="3.61"/><tag k="ele" v="39.46"/></way>
<way visible="true" id="-37"><nd ref="-38"/><nd ref="-39"/><nd ref="-40"/><nd ref="-41"/><nd ref="-38"/><tag k="building" v="yes"/><tag k="height" v="3.39"/><tag k="ele" v="39.46"/></way>
<way visible="true" id="-42"><nd ref="-43"/><nd ref="-44"/><nd ref="-45"/><nd ref="-46"/><nd ref="-43"/><tag k="building" v="yes"/><tag k="height" v="3.91"/><tag k="ele" v="40.36"/></way>
<way visible="true" id="-48"><nd ref="-49"/><nd ref="-50"/><nd ref="-51"/><nd ref="-52"/><nd ref="-53"/><nd ref="-54"/><nd ref="-55"/><nd ref="-56"/><nd ref="-57"/><nd ref="-58"/><nd ref="-59"/><nd ref="-60"/><nd ref="-61"/><nd ref="-62"/><nd ref="-63"/><nd ref="-64"/><nd ref="-65"/><nd ref="-66"/><nd ref="-67"/><nd ref="-68"/><nd ref="-69"/><nd ref="-70"/><nd ref="-71"/><nd ref="-72"/><nd ref="-49"/></way>
<way visible="true" id="-73"><nd ref="-74"/><nd ref="-75"/><nd ref="-76"/><nd ref="-77"/><nd ref="-74"/></way>
<way visible="true" id="-78"><nd ref="-79"/><nd ref="-80"/><nd ref="-81"/><nd ref="-82"/><nd ref="-83"/><nd ref="-79"/><tag k="building" v="yes"/><tag k="height" v="2.88"/><tag k="ele" v="36.09"/></way>
<way visible="true" id="-84"><nd ref="-85"/><nd ref="-86"/><nd ref="-87"/><nd ref="-88"/><nd ref="-89"/><nd ref="-90"/><nd ref="-85"/><tag k="building" v="yes"/><tag k="height" v="2.83"/><tag k="ele" v="36.40"/></way>
<way visible="true" id="-91"><nd ref="-92"/><nd ref="-93"/><nd ref="-94"/><nd ref="-95"/><nd ref="-92"/><tag k="building" v="yes"/><tag k="height" v="3.69"/><tag k="ele" v="39.86"/></way>
<way visible="true" id="-96"><nd ref="-97"/><nd ref="-98"/><nd ref="-99"/><nd ref="-100"/><nd ref="-97"/><tag k="building" v="yes"/><tag k="height" v="3.67"/><tag k="ele" v="39.79"/></way>
<way visible="true" id="-116"><nd ref="-117"/><nd ref="-118"/><nd ref="-119"/><nd ref="-120"/><nd ref="-121"/><nd ref="-117"/><tag k="building" v="yes"/><tag k="height" v="2.78"/><tag k="ele" v="36.34"/><tag k="addr:city" v="San Jose"/><tag k="addr:housenumber" v="1500"/><tag k="addr:street" v="Story Road"/><tag k="addr:postcode" v="95122"/></way>
<way visible="true" id="-122"><nd ref="-123"/><nd ref="-124"/><nd ref="-125"/><nd ref="-126"/><nd ref="-123"/><tag k="building" v="yes"/><tag k="height" v="3.70"/><tag k="ele" v="39.46"/><tag k="addr:city" v="San Jose"/><tag k="addr:housenumber" v="1601"/><tag k="addr:street" v="Cunningham Avenue"/><tag k="addr:postcode" v="95122"/></way>
<relation visible="true" id="-47"><member type="way" ref="-48" role="outer"/><member type="way" ref="-73" role="inner"/><tag k="type" v="multipolygon"/><tag k="building" v="yes"/><tag k="height" v="3.93"/><tag k="ele" v="41.33"/></relation>
</osm>