<?xml version="1.0"?>
<osm version="0.6" generator="uvmogr2osm" upload="false">
<node visible="true" id="-2" lat="37.308780557000006" lon="-121.83786659100001"/>
<node visible="true" id="-3" lat="37.308853536" lon="-121.83794138300001"/>
<node visible="true" id="-4" lat="37.308866424" lon="-121.83792166900001"/>
<node visible="true" id="-5" lat="37.308793473" lon="-121.83784684300001"/>
<node visible="true" id="-7" lat="37.300953125" lon="-121.82786068200001"/>
<node visible="true" id="-8" lat="37.300983709" lon="-121.827963791"/>
<node visible="true" id="-9" lat="37.30103355" lon="-121.827940643"/>
<node visible="true" id="-10" lat="37.301040297" lon="-121.827963353"/>
<node visible="true" id="-11" lat="37.300989736000005" lon="-121.827986867"/>
<node visible="true" id="-12" lat="37.30102077" lon="-121.828091497"/>
<node visible="true" id="-13" lat="37.301257303" lon="-121.82798158000001"/>
<node visible="true" id="-14" lat="37.301242937000005" lon="-121.827933153"/>
<node visible="true" id="-15" lat="37.30133834" lon="-121.82788884300001"/>
<node visible="true" id="-16" lat="37.301339525" lon="-121.82784485200001"/>
<node visible="true" id="-17" lat="37.301291537000004" lon="-121.82784991300001"/>
<node visible="true" id="-18" lat="37.301288147" lon="-121.82783634"/>
<node visible="true" id="-19" lat="37.301253913000004" lon="-121.82772092500001"/>
<node visible="true" id="-21" lat="37.308417759" lon="-121.836777283"/>
<node visible="true" id="-22" lat="37.308569726" lon="-121.836932164"/>
<node visible="true" id="-23" lat="37.308667357000004" lon="-121.83678198800001"/>
<node visible="true" id="-24" lat="37.308515389" lon="-121.83662710600001"/>
<node visible="true" id="-26" lat="37.309304354000005" lon="-121.83779770000001"/>
<node visible="true" id="-27" lat="37.309347238" lon="-121.837840352"/>
<node visible="true" id="-28" lat="37.309359574000005" lon="-121.837820902"/>
<node visible="true" id="-29" lat="37.309412969" lon="-121.83787399"/>
<node visible="true" id="-30" lat="37.309453694000005" lon="-121.83780982900001"/>
<node visible="true" id="-31" lat="37.309442369" lon="-121.83779858800001"/>
<node visible="true" id="-32" lat="37.309445892" lon="-121.837793046"/>
<node visible="true" id="-33" lat="37.30945749" lon="-121.837804567"/>
<node visible="true" id="-34" lat="37.309497796" lon="-121.837741019"/>
<node visible="true" id="-35" lat="37.309486389" lon="-121.83772967300001"/>
<node visible="true" id="-36" lat="37.309489746000004" lon="-121.83772436800001"/>
<node visible="true" id="-37" lat="37.309501778000005" lon="-121.837736344"/>
<node visible="true" id="-38" lat="37.309542643" lon="-121.83767194500001"/>
<node visible="true" id="-39" lat="37.309527162" lon="-121.83765657200001"/>
<node visible="true" id="-40" lat="37.309530126000006" lon="-121.83765191500001"/>
<node visible="true" id="-41" lat="37.309546260000005" lon="-121.83766791800001"/>
<node visible="true" id="-42" lat="37.309587042000004" lon="-121.83760365600001"/>
<node visible="true" id="-43" lat="37.309485031" lon="-121.83750220900001"/>
<node visible="true" id="-44" lat="37.309445676" lon="-121.837564262"/>
<node visible="true" id="-45" lat="37.309454556000006" lon="-121.83757312200001"/>
<node visible="true" id="-46" lat="37.309450557000005" lon="-121.83757941200001"/>
<node visible="true" id="-47" lat="37.30944154" lon="-121.837570447"/>
<node visible="true" id="-48" lat="37.309400983" lon="-121.83763436900001"/>
<node visible="true" id="-49" lat="37.309408696000006" lon="-121.837642004"/>
<node visible="true" id="-50" lat="37.309405367000004" lon="-121.837647274"/>
<node visible="true" id="-51" lat="37.309397355" lon="-121.83763929000001"/>
<node visible="true" id="-52" lat="37.30935649" lon="-121.83770372400001"/>
<node visible="true" id="-53" lat="37.309364258" lon="-121.837711428"/>
<node visible="true" id="-54" lat="37.309360985000005" lon="-121.837716563"/>
<node visible="true" id="-55" lat="37.309352620000006" lon="-121.83770822800001"/>
<node visible="true" id="-56" lat="37.309311252" lon="-121.83777340900001"/>
<node visible="true" id="-57" lat="37.309316466000006" lon="-121.837778591"/>
<node visible="true" id="-59" lat="37.301718883" lon="-121.823144947"/>
<node visible="true" id="-60" lat="37.301936792" lon="-121.823360507"/>
<node visible="true" id="-61" lat="37.301981346000005" lon="-121.82333602300001"/>
<node visible="true" id="-62" lat="37.301886692000004" lon="-121.823044284"/>
<node visible="true" id="-64" lat="37.310152893" lon="-121.840228807"/>
<node visible="true" id="-65" lat="37.310269856000005" lon="-121.84034359300001"/>
<node visible="true" id="-66" lat="37.310346993" lon="-121.84022038900001"/>
<node visible="true" id="-67" lat="37.310230031" lon="-121.84010560300001"/>
<node visible="true" id="-69" lat="37.309841456" lon="-121.83996311400001"/>
<node visible="true" id="-70" lat="37.310059159000005" lon="-121.84018211200001"/>
<node visible="true" id="-71" lat="37.310173008" lon="-121.840004718"/>
<node visible="true" id="-72" lat="37.309955305" lon="-121.83978568500001"/>
<node visible="true" id="-73" lat="37.301156477" lon="-121.82294692400001"><tag k="addr:city" v="San Jose"/><tag k="addr:housenumber" v="1045;1047;1049"/><tag k="addr:street" v="East Capitol Expressway"/><tag k="addr:postcode" v="95121"/></node>
<node visible="true" id="-74" lat="37.301345196" lon="-121.822856185"><tag k="addr:city" v="San Jose"/><tag k="addr:housenumber" v="1051;1053;1057;1059"/><tag k="addr:street" v="East Capitol Expressway"/><tag k="addr:postcode" v="95121"/></node>
<node visible="true" id="-75" lat="37.300989167000004" lon="-121.82333132900001"><tag k="addr:city" v="San Jose"/><tag k="addr:housenumber" v="1035"/><tag k="addr:street" v="East Capitol Expressway"/><tag k="addr:postcode" v="95121"/></node>
<node visible="true" id="-76" lat="37.299982113000006" lon="-121.82239124700001"><tag k="addr:city" v="San Jose"/><tag k="addr:housenumber" v="1033"/><tag k="addr:street" v="East Capitol Expressway"/><tag k="addr:postcode" v="95121"/></node>
<node visible="true" id="-77" lat="37.300142985" lon="-121.824509211"><tag k="addr:city" v="San Jose"/><tag k="addr:housenumber" v="1019"/><tag k="addr:street" v="East Capitol Expressway"/><tag k="addr:postcode" v="95121"/></node>
<node visible="true" id="-78" lat="37.300273088000004" lon="-121.82437129700001"><tag k="addr:city" v="San Jose"/><tag k="addr:housenumber" v="1025"/><tag k="addr:street" v="East Capitol Expressway"/><tag k="addr:postcode" v="95121"/></node>
<node visible="true" id="-79" lat="37.300208652" lon="-121.82430579400001"><tag k="addr:city" v="San Jose"/><tag k="addr:housenumber" v="1027"/><tag k="addr:street" v="East Capitol Expressway"/><tag k="addr:postcode" v="95121"/></node>
<node visible="true" id="-80" lat="37.299914698" lon="-121.822475584"><tag k="addr:city" v="San Jose"/><tag k="addr:housenumber" v="1029"/><tag k="addr:street" v="East Capitol Expressway"/><tag k="addr:postcode" v="95121"/></node>
<node visible="true" id="-81" lat="37.300619475000005" lon="-121.82386429700001"><tag k="addr:city" v="San Jose"/><tag k="addr:housenumber" v="1031"/><tag k="addr:street" v="East Capitol Expressway"/><tag k="addr:postcode" v="95121"/></node>
<node visible="true" id="-82" lat="37.299832665000004" lon="-121.824177589"><tag k="addr:city" v="San Jose"/><tag k="addr:housenumber" v="1007;1009;1011;1015"/><tag k="addr:street" v="East Capitol Expressway"/><tag k="addr:postcode" v="95121"/></node>
<node visible="true" id="-83" lat="37.301069680000005" lon="-121.824701567"><tag k="addr:city" v="San Jose"/><tag k="addr:housenumber" v="3038"/><tag k="addr:street" v="Abelia Court"/><tag k="addr:postcode" v="95121"/></node>
<node visible="true" id="-84" lat="37.299880628000004" lon="-121.82426752600001"><tag k="addr:city" v="San Jose"/><tag k="addr:housenumber" v="1013"/><tag k="addr:street" v="East Capitol Expressway"/><tag k="addr:postcode" v="95121"/></node>
<node visible="true" id="-85" lat="37.300280741" lon="-121.822914169"><tag k="addr:city" v="San Jose"/><tag k="addr:housenumber" v="3111"/><tag k="addr:street" v="McLaughlin Avenue"/><tag k="addr:postcode" v="95121"/></node>
<node visible="true" id="-86" lat="37.301535823" lon="-121.822857463"><tag k="addr:city" v="San Jose"/><tag k="addr:housenumber" v="1055"/><tag k="addr:street" v="East Capitol Expressway"/><tag k="addr:postcode" v="95121"/></node>
<node visible="true" id="-87" lat="37.310041031000004" lon="-121.83996390200001"><tag k="addr:city" v="San Jose"/><tag k="addr:housenumber" v="2525"/><tag k="addr:street" v="Kenoga Drive"/><tag k="addr:postcode" v="95121"/></node>
<node visible="true" id="-88" lat="37.310906037" lon="-121.841113268"><tag k="addr:city" v="San Jose"/><tag k="addr:housenumber" v="880"/><tag k="addr:street" v="Tully Road"/><tag k="addr:postcode" v="95121"/></node>
<node visible="true" id="-90" lat="37.301072860000005" lon="-121.82243597300001"/>
<node visible="true" id="-91" lat="37.301199743000005" lon="-121.82256643500001"/>
<node visible="true" id="-92" lat="37.301279339000004" lon="-121.82244516200001"/>
<node visible="true" id="-93" lat="37.301152456000004" lon="-121.82231466500001"/>
<node visible="true" id="-95" lat="37.309191997" lon="-121.837964979"/>
<node visible="true" id="-96" lat="37.309291868" lon="-121.83806841600001"/>
<node visible="true" id="-97" lat="37.309374099" lon="-121.83794403"/>
<node visible="true" id="-98" lat="37.309274199" lon="-121.837840592"/>
<node visible="true" id="-101" lat="37.308387350000004" lon="-121.837347839"/>
<node visible="true" id="-102" lat="37.308813142000005" lon="-121.83777924700001"/>
<node visible="true" id="-103" lat="37.308917048000005" lon="-121.837618523"/>
<node visible="true" id="-104" lat="37.309037174000004" lon="-121.837740237"/>
<node visible="true" id="-105" lat="37.309161211" lon="-121.83754834000001"/>
<node visible="true" id="-106" lat="37.309041193000006" lon="-121.83742673"/>
<node visible="true" id="-107" lat="37.309144399000004" lon="-121.837267025"/>
<node visible="true" id="-108" lat="37.308718793000004" lon="-121.83683582900001"/>
<node visible="true" id="-109" lat="37.308599036000004" lon="-121.83702106300001"/>
<node visible="true" id="-110" lat="37.308564769" lon="-121.836986338"/>
<node visible="true" id="-111" lat="37.308473084" lon="-121.83712816100001"/>
<node visible="true" id="-112" lat="37.308507081" lon="-121.837162606"/>
<node visible="true" id="-114" lat="37.308764975" lon="-121.83737897700001"/>
<node visible="true" id="-115" lat="37.308821375" lon="-121.83729157500001"/>
<node visible="true" id="-116" lat="37.308854286" lon="-121.837324866"/>
<node visible="true" id="-117" lat="37.308797886" lon="-121.837412267"/>
<node visible="true" id="-119" lat="37.30860914" lon="-121.837396889"/>
<node visible="true" id="-120" lat="37.308650781000004" lon="-121.83733192000001"/>
<node visible="true" id="-121" lat="37.308771544" lon="-121.837453163"/>
<node visible="true" id="-122" lat="37.308729903" lon="-121.837518168"/>
<node visible="true" id="-124" lat="37.308761306" lon="-121.83716141100001"/>
<node visible="true" id="-125" lat="37.308804136" lon="-121.837095707"/>
<node visible="true" id="-126" lat="37.308923464" lon="-121.83721764600001"/>
<node visible="true" id="-127" lat="37.308880634000005" lon="-121.83728335200001"/>
<node visible="true" id="-129" lat="37.300588738" lon="-121.82179410100001"/>
<node visible="true" id="-130" lat="37.300653198" lon="-121.82186043200001"/>
<node visible="true" id="-131" lat="37.300711663" lon="-121.82177144900001"/>
<node visible="true" id="-132" lat="37.300647204" lon="-121.821705119"/>
<way visible="true" id="-1"><nd ref="-2"/><nd ref="-3"/><nd ref="-4"/><nd ref="-5"/><nd ref="-2"/><tag k="building" v="yes"/><tag k="height" v="2.52"/><tag k="ele" v="44.21"/></way>
<way visible="true" id="-6"><nd ref="-7"/><nd ref="-8"/><nd ref="-9"/><nd ref="-10"/><nd ref="-11"/><nd ref="-12"/><nd ref="-13"/><nd ref="-14"/><nd ref="-15"/><nd ref="-16"/><nd ref="-17"/><nd ref="-18"/><nd ref="-19"/><nd ref="-7"/><tag k="building" v="yes"/><tag k="height" v="6.46"/><tag k="ele" v="51.01"/></way>
<way visible="true" id="-20"><nd ref="-21"/><nd ref="-22"/><nd ref="-23"/><nd ref="-24"/><nd ref="-21"/><tag k="building" v="yes"/><tag k="height" v="3.74"/><tag k="ele" v="46.52"/></way>
<way visible="true" id="-25"><nd ref="-26"/><nd ref="-27"/><nd ref="-28"/><nd ref="-29"/><nd ref="-30"/><nd ref="-31"/><nd ref="-32"/><nd ref="-33"/><nd ref="-34"/><nd ref="-35"/><nd ref="-36"/><nd ref="-37"/><nd ref="-38"/><nd ref="-39"/><nd ref="-40"/><nd ref="-41"/><nd ref="-42"/><nd ref="-43"/><nd ref="-44"/><nd ref="-45"/><nd ref="-46"/><nd ref="-47"/><nd ref="-48"/><nd ref="-49"/><nd ref="-50"/><nd ref="-51"/><nd ref="-52"/><nd ref="-53"/><nd ref="-54"/><nd ref="-55"/><nd ref="-56"/><nd ref="-57"/><nd ref="-26"/><tag k="building" v="yes"/><tag k="height" v="3.46"/><tag k="ele" v="45.17"/></way>
<way visible="true" id="-58"><nd ref="-59"/><nd ref="-60"/><nd ref="-61"/><nd ref="-62"/><nd ref="-59"/><tag k="building" v="yes"/><tag k="height" v="4.35"/><tag k="ele" v="52.88"/></way>
<way visible="true" id="-63"><nd ref="-64"/><nd ref="-65"/><nd ref="-66"/><nd ref="-67"/><nd ref="-64"/><tag k="building" v="yes"/><tag k="height" v="7.70"/><tag k="ele" v="49.79"/></way>
<way visible="true" id="-68"><nd ref="-69"/><nd ref="-70"/><nd ref="-71"/><nd ref="-72"/><nd ref="-69"/><tag k="building" v="yes"/><tag k="height" v="6.89"/><tag k="ele" v="48.61"/></way>
<way visible="true" id="-89"><nd ref="-90"/><nd ref="-91"/><nd ref="-92"/><nd ref="-93"/><nd ref="-90"/><tag k="building" v="yes"/><tag k="height" v="4.30"/><tag k="ele" v="52.77"/><tag k="addr:city" v="San Jose"/><tag k="addr:housenumber" v="1069"/><tag k="addr:street" v="East Capitol Expressway"/><tag k="addr:postcode" v="95121"/></way>
<way visible="true" id="-94"><nd ref="-95"/><nd ref="-96"/><nd ref="-97"/><nd ref="-98"/><nd ref="-95"/><tag k="building" v="yes"/><tag k="height" v="3.66"/><tag k="ele" v="45.46"/><tag k="addr:city" v="San Jose"/><tag k="addr:housenumber" v="2545"/><tag k="addr:street" v="Sherlock Drive"/><tag k="addr:postcode" v="95121"/></way>
<way visible="true" id="-100"><nd ref="-101"/><nd ref="-102"/><nd ref="-103"/><nd ref="-104"/><nd ref="-105"/><nd ref="-106"/><nd ref="-107"/><nd ref="-108"/><nd ref="-109"/><nd ref="-110"/><nd ref="-111"/><nd ref="-112"/><nd ref="-101"/></way>
<way visible="true" id="-113"><nd ref="-114"/><nd ref="-115"/><nd ref="-116"/><nd ref="-117"/><nd ref="-114"/></way>
<way visible="true" id="-118"><nd ref="-119"/><nd ref="-120"/><nd ref="-121"/><nd ref="-122"/><nd ref="-119"/></way>
<way visible="true" id="-123"><nd ref="-124"/><nd ref="-125"/><nd ref="-126"/><nd ref="-127"/><nd ref="-124"/></way>
<way visible="true" id="-128"><nd ref="-129"/><nd ref="-130"/><nd ref="-131"/><nd ref="-132"/><nd ref="-129"/><tag k="building" v="yes"/><tag k="height" v="0.27"/><tag k="ele" v="53.37"/><tag k="addr:city" v="San Jose"/><tag k="addr:housenumber" v="1091"/><tag k="addr:street" v="East Capitol Expressway"/><tag k="addr:postcode" v="95121"/></way>
<relation visible="true" id="-99"><member type="way" ref="-100" role="outer"/><member type="way" ref="-113" role="inner"/><member type="way" ref="-118" role="inner"/><member type="way" ref="-123" role="inner"/><tag k="type" v="multipolygon"/><tag k="building" v="yes"/><tag k="height" v="5.10"/><tag k="ele" v="49.29"/><tag k="addr:city" v="San Jose"/><tag k="addr:housenumber" v="2605"/><tag k="addr:street" v="Gassmann Drive"/><tag k="addr:postcode" v="95121"/></relation>
</osm>