<?xml version="1.0"?>
<osm version="0.6" generator="uvmogr2osm" upload="false">
<node visible="true" id="-2" lat="37.264002949" lon="-121.865009344"/>
<node visible="true" id="-3" lat="37.264120798" lon="-121.86506239200001"/>
<node visible="true" id="-4" lat="37.264182895000005" lon="-121.86484632700001"/>
<node visible="true" id="-5" lat="37.264404359000004" lon="-121.864946012"/>
<node visible="true" id="-6" lat="37.264450737000004" lon="-121.864784681"/>
<node visible="true" id="-7" lat="37.264204517" lon="-121.86467389100001"/>
<node visible="true" id="-8" lat="37.264157823000005" lon="-121.86483635100001"/>
<node visible="true" id="-9" lat="37.264110115" lon="-121.864814894"/>
<node visible="true" id="-10" lat="37.264025952000004" lon="-121.864937525"/>
<node visible="true" id="-11" lat="37.264023877" lon="-121.86493659400001"/>
<node visible="true" id="-12" lat="37.264331416000005" lon="-121.86483861"><tag k="addr:city" v="San Jose"/><tag k="addr:housenumber" v="4652;4656;4658;4660"/><tag k="addr:street" v="Pearl Avenue"/><tag k="addr:postcode" v="95136"/></node>
<node visible="true" id="-13" lat="37.264979644" lon="-121.861087694"><tag k="addr:city" v="San Jose"/><tag k="addr:housenumber" v="4576"/><tag k="addr:street" v="Cimarron River Court"/><tag k="addr:postcode" v="95136"/></node>
<node visible="true" id="-14" lat="37.265135146000006" lon="-121.86158788700001"><tag k="addr:city" v="San Jose"/><tag k="addr:housenumber" v="4590"/><tag k="addr:street" v="Cimarron River Court"/><tag k="addr:postcode" v="95136"/></node>
<node visible="true" id="-15" lat="37.263781973" lon="-121.860338119"><tag k="addr:city" v="San Jose"/><tag k="addr:housenumber" v="4705"/><tag k="addr:street" v="Holston River Court"/><tag k="addr:postcode" v="95136"/></node>
<node visible="true" id="-16" lat="37.263767884" lon="-121.860264696"><tag k="addr:city" v="San Jose"/><tag k="addr:housenumber" v="4707"/><tag k="addr:street" v="Holston River Court"/><tag k="addr:postcode" v="95136"/></node>
<node visible="true" id="-17" lat="37.26344421" lon="-121.86015780700001"><tag k="addr:city" v="San Jose"/><tag k="addr:housenumber" v="4712"/><tag k="addr:street" v="Holston River Court"/><tag k="addr:postcode" v="95136"/></node>
<node visible="true" id="-18" lat="37.263460837000004" lon="-121.860074256"><tag k="addr:city" v="San Jose"/><tag k="addr:housenumber" v="4714"/><tag k="addr:street" v="Holston River Court"/><tag k="addr:postcode" v="95136"/></node>
<node visible="true" id="-19" lat="37.263664439" lon="-121.86181715100001"><tag k="addr:city" v="San Jose"/><tag k="addr:housenumber" v="4717"/><tag k="addr:street" v="Durango River Court"/><tag k="addr:postcode" v="95136"/></node>
<node visible="true" id="-20" lat="37.263501025000004" lon="-121.86236084400001"><tag k="addr:city" v="San Jose"/><tag k="addr:housenumber" v="4718"/><tag k="addr:street" v="Canyon River Court"/><tag k="addr:postcode" v="95136"/></node>
<node visible="true" id="-21" lat="37.263537963000005" lon="-121.86183017600001"><tag k="addr:city" v="San Jose"/><tag k="addr:housenumber" v="4721"/><tag k="addr:street" v="Durango River Court"/><tag k="addr:postcode" v="95136"/></node>
<node visible="true" id="-22" lat="37.263238697000006" lon="-121.86188968"><tag k="addr:city" v="San Jose"/><tag k="addr:housenumber" v="4731"/><tag k="addr:street" v="Durango River Court"/><tag k="addr:postcode" v="95136"/></node>
<node visible="true" id="-23" lat="37.263565373000006" lon="-121.861530482"><tag k="addr:city" v="San Jose"/><tag k="addr:housenumber" v="4733"/><tag k="addr:street" v="Durango River Court"/><tag k="addr:postcode" v="95136"/></node>
<node visible="true" id="-24" lat="37.263246465" lon="-121.861455636"><tag k="addr:city" v="San Jose"/><tag k="addr:housenumber" v="4738"/><tag k="addr:street" v="Durango River Court"/><tag k="addr:postcode" v="95136"/></node>
<node visible="true" id="-25" lat="37.263225648" lon="-121.86137728000001"><tag k="addr:city" v="San Jose"/><tag k="addr:housenumber" v="4740"/><tag k="addr:street" v="Durango River Court"/><tag k="addr:postcode" v="95136"/></node>
<node visible="true" id="-26" lat="37.263255300000004" lon="-121.86240805700001"><tag k="addr:city" v="San Jose"/><tag k="addr:housenumber" v="4744"/><tag k="addr:street" v="Canyon River Court"/><tag k="addr:postcode" v="95136"/></node>
<node visible="true" id="-27" lat="37.263223617" lon="-121.861221287"><tag k="addr:city" v="San Jose"/><tag k="addr:housenumber" v="4744"/><tag k="addr:street" v="Durango River Court"/><tag k="addr:postcode" v="95136"/></node>
<node visible="true" id="-28" lat="37.263805505" lon="-121.86477346900001"><tag k="addr:city" v="San Jose"/><tag k="addr:housenumber" v="4655"/><tag k="addr:street" v="Columbia River Court"/><tag k="addr:postcode" v="95136"/></node>
<node visible="true" id="-29" lat="37.263020772000004" lon="-121.86146417500001"><tag k="addr:city" v="San Jose"/><tag k="addr:housenumber" v="4759"/><tag k="addr:street" v="Kings River Court"/><tag k="addr:postcode" v="95136"/></node>
<node visible="true" id="-30" lat="37.264527702" lon="-121.86397551300001"><tag k="addr:city" v="San Jose"/><tag k="addr:housenumber" v="4621"/><tag k="addr:street" v="Columbia River Court"/><tag k="addr:postcode" v="95136"/></node>
<node visible="true" id="-31" lat="37.265340335000005" lon="-121.86102758300001"><tag k="addr:city" v="San Jose"/><tag k="addr:housenumber" v="4546"/><tag k="addr:street" v="Cimarron River Court"/><tag k="addr:postcode" v="95136"/></node>
<node visible="true" id="-32" lat="37.262941964" lon="-121.86342344200001"><tag k="addr:city" v="San Jose"/><tag k="addr:housenumber" v="4746"/><tag k="addr:street" v="Clear River Court"/><tag k="addr:postcode" v="95136"/></node>
<node visible="true" id="-33" lat="37.262889218000005" lon="-121.86340529700001"><tag k="addr:city" v="San Jose"/><tag k="addr:housenumber" v="4748"/><tag k="addr:street" v="Clear River Court"/><tag k="addr:postcode" v="95136"/></node>
<node visible="true" id="-34" lat="37.262893236000004" lon="-121.86268749300001"><tag k="addr:city" v="San Jose"/><tag k="addr:housenumber" v="4756"/><tag k="addr:street" v="Clear River Court"/><tag k="addr:postcode" v="95136"/></node>
<node visible="true" id="-35" lat="37.262913725000004" lon="-121.863074556"><tag k="addr:city" v="San Jose"/><tag k="addr:housenumber" v="4757"/><tag k="addr:street" v="Clear River Court"/><tag k="addr:postcode" v="95136"/></node>
<node visible="true" id="-36" lat="37.26391091" lon="-121.86482903800001"><tag k="addr:city" v="San Jose"/><tag k="addr:housenumber" v="4651"/><tag k="addr:street" v="Columbia River Court"/><tag k="addr:postcode" v="95136"/></node>
<node visible="true" id="-37" lat="37.263858400000004" lon="-121.86479766500001"><tag k="addr:city" v="San Jose"/><tag k="addr:housenumber" v="4653"/><tag k="addr:street" v="Columbia River Court"/><tag k="addr:postcode" v="95136"/></node>
<node visible="true" id="-38" lat="37.262835736" lon="-121.86147716600001"><tag k="addr:city" v="San Jose"/><tag k="addr:housenumber" v="4753"/><tag k="addr:street" v="Kings River Court"/><tag k="addr:postcode" v="95136"/></node>
<node visible="true" id="-39" lat="37.264266305" lon="-121.86494065100001"><tag k="addr:city" v="San Jose"/><tag k="addr:housenumber" v="4650"/><tag k="addr:street" v="Pearl Avenue"/><tag k="addr:postcode" v="95136"/></node>
<node visible="true" id="-40" lat="37.262900033" lon="-121.86146582600001"><tag k="addr:city" v="San Jose"/><tag k="addr:housenumber" v="4755"/><tag k="addr:street" v="Kings River Court"/><tag k="addr:postcode" v="95136"/></node>
<node visible="true" id="-41" lat="37.265418725" lon="-121.861391655"><tag k="addr:city" v="San Jose"/><tag k="addr:housenumber" v="4547"/><tag k="addr:street" v="Cimarron River Court"/><tag k="addr:postcode" v="95136"/></node>
<node visible="true" id="-42" lat="37.265284169000005" lon="-121.86104598000001"><tag k="addr:city" v="San Jose"/><tag k="addr:housenumber" v="4548"/><tag k="addr:street" v="Cimarron River Court"/><tag k="addr:postcode" v="95136"/></node>
<node visible="true" id="-43" lat="37.26522331" lon="-121.86106645500001"><tag k="addr:city" v="San Jose"/><tag k="addr:housenumber" v="4550"/><tag k="addr:street" v="Cimarron River Court"/><tag k="addr:postcode" v="95136"/></node>
<node visible="true" id="-44" lat="37.265017792" lon="-121.861229878"><tag k="addr:city" v="San Jose"/><tag k="addr:housenumber" v="4580"/><tag k="addr:street" v="Cimarron River Court"/><tag k="addr:postcode" v="95136"/></node>
<node visible="true" id="-45" lat="37.264730581" lon="-121.86368997800001"><tag k="addr:city" v="San Jose"/><tag k="addr:housenumber" v="4606"/><tag k="addr:street" v="Black River Court"/><tag k="addr:postcode" v="95136"/></node>
<node visible="true" id="-46" lat="37.264920196000006" lon="-121.863373476"><tag k="addr:city" v="San Jose"/><tag k="addr:housenumber" v="4607"/><tag k="addr:street" v="Black River Court"/><tag k="addr:postcode" v="95136"/></node>
<node visible="true" id="-47" lat="37.264675023" lon="-121.86245065000001"><tag k="addr:city" v="San Jose"/><tag k="addr:housenumber" v="4631"/><tag k="addr:street" v="Smoke River Court"/><tag k="addr:postcode" v="95136"/></node>
<node visible="true" id="-48" lat="37.264027420000005" lon="-121.86043310500001"><tag k="addr:city" v="San Jose"/><tag k="addr:housenumber" v="4633"/><tag k="addr:street" v="Adobe River Court"/><tag k="addr:postcode" v="95136"/></node>
<node visible="true" id="-49" lat="37.264625882000004" lon="-121.862495533"><tag k="addr:city" v="San Jose"/><tag k="addr:housenumber" v="4633"/><tag k="addr:street" v="Smoke River Court"/><tag k="addr:postcode" v="95136"/></node>
<node visible="true" id="-50" lat="37.264569663" lon="-121.86252798100001"><tag k="addr:city" v="San Jose"/><tag k="addr:housenumber" v="4635"/><tag k="addr:street" v="Smoke River Court"/><tag k="addr:postcode" v="95136"/></node>
<node visible="true" id="-51" lat="37.264440216000004" lon="-121.86218731500001"><tag k="addr:city" v="San Jose"/><tag k="addr:housenumber" v="4636"/><tag k="addr:street" v="Smoke River Court"/><tag k="addr:postcode" v="95136"/></node>
<node visible="true" id="-52" lat="37.264223047" lon="-121.86114190500001"><tag k="addr:city" v="San Jose"/><tag k="addr:housenumber" v="4645"/><tag k="addr:street" v="Pinto River Court"/><tag k="addr:postcode" v="95136"/></node>
<node visible="true" id="-53" lat="37.264204881000005" lon="-121.861218316"><tag k="addr:city" v="San Jose"/><tag k="addr:housenumber" v="4647"/><tag k="addr:street" v="Pinto River Court"/><tag k="addr:postcode" v="95136"/></node>
<node visible="true" id="-54" lat="37.264162490000004" lon="-121.861507258"><tag k="addr:city" v="San Jose"/><tag k="addr:housenumber" v="4649"/><tag k="addr:street" v="Pinto River Court"/><tag k="addr:postcode" v="95136"/></node>
<node visible="true" id="-55" lat="37.264098599" lon="-121.861490802"><tag k="addr:city" v="San Jose"/><tag k="addr:housenumber" v="4651"/><tag k="addr:street" v="Pinto River Court"/><tag k="addr:postcode" v="95136"/></node>
<node visible="true" id="-56" lat="37.26386471" lon="-121.86146489400001"><tag k="addr:city" v="San Jose"/><tag k="addr:housenumber" v="4661"/><tag k="addr:street" v="Pinto River Court"/><tag k="addr:postcode" v="95136"/></node>
<node visible="true" id="-57" lat="37.26359514" lon="-121.861819326"><tag k="addr:city" v="San Jose"/><tag k="addr:housenumber" v="4719"/><tag k="addr:street" v="Durango River Court"/><tag k="addr:postcode" v="95136"/></node>
<node visible="true" id="-58" lat="37.263248524000005" lon="-121.86129971800001"><tag k="addr:city" v="San Jose"/><tag k="addr:housenumber" v="4742"/><tag k="addr:street" v="Durango River Court"/><tag k="addr:postcode" v="95136"/></node>
<node visible="true" id="-59" lat="37.262955038" lon="-121.861464491"><tag k="addr:city" v="San Jose"/><tag k="addr:housenumber" v="4757"/><tag k="addr:street" v="Kings River Court"/><tag k="addr:postcode" v="95136"/></node>
<node visible="true" id="-60" lat="37.26283535" lon="-121.862690803"><tag k="addr:city" v="San Jose"/><tag k="addr:housenumber" v="4758"/><tag k="addr:street" v="Clear River Court"/><tag k="addr:postcode" v="95136"/></node>
<node visible="true" id="-61" lat="37.262918343" lon="-121.861903608"><tag k="addr:city" v="San Jose"/><tag k="addr:housenumber" v="4765"/><tag k="addr:street" v="Kings River Court"/><tag k="addr:postcode" v="95136"/></node>
<node visible="true" id="-62" lat="37.262921276" lon="-121.86205762300001"><tag k="addr:city" v="San Jose"/><tag k="addr:housenumber" v="4769"/><tag k="addr:street" v="Kings River Court"/><tag k="addr:postcode" v="95136"/></node>
<node visible="true" id="-63" lat="37.264463341" lon="-121.86137756800001"><tag k="addr:city" v="San Jose"/><tag k="addr:housenumber" v="4622"/><tag k="addr:street" v="Noyo River Court"/><tag k="addr:postcode" v="95136"/></node>
<node visible="true" id="-64" lat="37.264483044" lon="-121.863923252"><tag k="addr:city" v="San Jose"/><tag k="addr:housenumber" v="4623"/><tag k="addr:street" v="Columbia River Court"/><tag k="addr:postcode" v="95136"/></node>
<node visible="true" id="-65" lat="37.264341378000005" lon="-121.86157890300001"><tag k="addr:city" v="San Jose"/><tag k="addr:housenumber" v="4624"/><tag k="addr:street" v="Noyo River Court"/><tag k="addr:postcode" v="95136"/></node>
<node visible="true" id="-66" lat="37.264118751000005" lon="-121.860028755"><tag k="addr:city" v="San Jose"/><tag k="addr:housenumber" v="4634"/><tag k="addr:street" v="Adobe River Court"/><tag k="addr:postcode" v="95136"/></node>
<node visible="true" id="-67" lat="37.263901159" lon="-121.86110120000001"><tag k="addr:city" v="San Jose"/><tag k="addr:housenumber" v="4646"/><tag k="addr:street" v="Pinto River Court"/><tag k="addr:postcode" v="95136"/></node>
<node visible="true" id="-68" lat="37.263784902000005" lon="-121.860126198"><tag k="addr:city" v="San Jose"/><tag k="addr:housenumber" v="4709"/><tag k="addr:street" v="Holston River Court"/><tag k="addr:postcode" v="95136"/></node>
<node visible="true" id="-69" lat="37.263227772" lon="-121.861523031"><tag k="addr:city" v="San Jose"/><tag k="addr:housenumber" v="4736"/><tag k="addr:street" v="Durango River Court"/><tag k="addr:postcode" v="95136"/></node>
<node visible="true" id="-70" lat="37.263013720000004" lon="-121.86108330200001"><tag k="addr:city" v="San Jose"/><tag k="addr:housenumber" v="4752"/><tag k="addr:street" v="Kings River Court"/><tag k="addr:postcode" v="95136"/></node>
<node visible="true" id="-71" lat="37.262954929" lon="-121.86108412200001"><tag k="addr:city" v="San Jose"/><tag k="addr:housenumber" v="4754"/><tag k="addr:street" v="Kings River Court"/><tag k="addr:postcode" v="95136"/></node>
<node visible="true" id="-72" lat="37.262827268" lon="-121.86109279700001"><tag k="addr:city" v="San Jose"/><tag k="addr:housenumber" v="4758"/><tag k="addr:street" v="Kings River Court"/><tag k="addr:postcode" v="95136"/></node>
<node visible="true" id="-73" lat="37.262859239" lon="-121.86308078"><tag k="addr:city" v="San Jose"/><tag k="addr:housenumber" v="4759"/><tag k="addr:street" v="Clear River Court"/><tag k="addr:postcode" v="95136"/></node>
<node visible="true" id="-74" lat="37.262898376" lon="-121.86213721000001"><tag k="addr:city" v="San Jose"/><tag k="addr:housenumber" v="4771"/><tag k="addr:street" v="Kings River Court"/><tag k="addr:postcode" v="95136"/></node>
<node visible="true" id="-75" lat="37.262291339" lon="-121.86253377300001"><tag k="addr:city" v="San Jose"/><tag k="addr:housenumber" v="4848"/><tag k="addr:street" v="Pearl Avenue"/><tag k="addr:postcode" v="95136"/></node>
<node visible="true" id="-76" lat="37.265360029" lon="-121.86140797700001"><tag k="addr:city" v="San Jose"/><tag k="addr:housenumber" v="4549"/><tag k="addr:street" v="Cimarron River Court"/><tag k="addr:postcode" v="95136"/></node>
<node visible="true" id="-77" lat="37.265342663000006" lon="-121.861843131"><tag k="addr:city" v="San Jose"/><tag k="addr:housenumber" v="4558"/><tag k="addr:street" v="Capitol Reef Court"/><tag k="addr:postcode" v="95136"/></node>
<node visible="true" id="-78" lat="37.264997179000005" lon="-121.86115760700001"><tag k="addr:city" v="San Jose"/><tag k="addr:housenumber" v="4578"/><tag k="addr:street" v="Cimarron River Court"/><tag k="addr:postcode" v="95136"/></node>
<node visible="true" id="-79" lat="37.265111123000004" lon="-121.861518371"><tag k="addr:city" v="San Jose"/><tag k="addr:housenumber" v="4588"/><tag k="addr:street" v="Cimarron River Court"/><tag k="addr:postcode" v="95136"/></node>
<node visible="true" id="-80" lat="37.264695189" lon="-121.863620428"><tag k="addr:city" v="San Jose"/><tag k="addr:housenumber" v="4608"/><tag k="addr:street" v="Black River Court"/><tag k="addr:postcode" v="95136"/></node>
<node visible="true" id="-81" lat="37.264046548" lon="-121.86000428000001"><tag k="addr:city" v="San Jose"/><tag k="addr:housenumber" v="4636"/><tag k="addr:street" v="Adobe River Court"/><tag k="addr:postcode" v="95136"/></node>
<node visible="true" id="-82" lat="37.263795741" lon="-121.861448174"><tag k="addr:city" v="San Jose"/><tag k="addr:housenumber" v="4663"/><tag k="addr:street" v="Pinto River Court"/><tag k="addr:postcode" v="95136"/></node>
<node visible="true" id="-83" lat="37.263266130000005" lon="-121.860338053"><tag k="addr:city" v="San Jose"/><tag k="addr:housenumber" v="4721"/><tag k="addr:street" v="Little River Court"/><tag k="addr:postcode" v="95136"/></node>
<node visible="true" id="-84" lat="37.263356948" lon="-121.86186114300001"><tag k="addr:city" v="San Jose"/><tag k="addr:housenumber" v="4727"/><tag k="addr:street" v="Durango River Court"/><tag k="addr:postcode" v="95136"/></node>
<node visible="true" id="-85" lat="37.263247175000004" lon="-121.861604798"><tag k="addr:city" v="San Jose"/><tag k="addr:housenumber" v="4734"/><tag k="addr:street" v="Durango River Court"/><tag k="addr:postcode" v="95136"/></node>
<node visible="true" id="-86" lat="37.263223114000006" lon="-121.86233660600001"><tag k="addr:city" v="San Jose"/><tag k="addr:housenumber" v="4746"/><tag k="addr:street" v="Canyon River Court"/><tag k="addr:postcode" v="95136"/></node>
<node visible="true" id="-87" lat="37.263200023" lon="-121.861148001"><tag k="addr:city" v="San Jose"/><tag k="addr:housenumber" v="4746"/><tag k="addr:street" v="Durango River Court"/><tag k="addr:postcode" v="95136"/></node>
<node visible="true" id="-88" lat="37.263191444" lon="-121.86226575"><tag k="addr:city" v="San Jose"/><tag k="addr:housenumber" v="4748"/><tag k="addr:street" v="Canyon River Court"/><tag k="addr:postcode" v="95136"/></node>
<node visible="true" id="-89" lat="37.262909813" lon="-121.86229457600001"><tag k="addr:city" v="San Jose"/><tag k="addr:housenumber" v="4775"/><tag k="addr:street" v="Kings River Court"/><tag k="addr:postcode" v="95136"/></node>
<node visible="true" id="-90" lat="37.261991553" lon="-121.86310237500001"><tag k="addr:city" v="San Jose"/><tag k="addr:housenumber" v="4850"/><tag k="addr:street" v="Pearl Avenue"/><tag k="addr:postcode" v="95136"/></node>
<node visible="true" id="-91" lat="37.264653617" lon="-121.862068956"><tag k="addr:city" v="San Jose"/><tag k="addr:housenumber" v="4623"/><tag k="addr:street" v="Noyo River Court"/><tag k="addr:postcode" v="95136"/></node>
<node visible="true" id="-92" lat="37.264090649" lon="-121.86045212600001"><tag k="addr:city" v="San Jose"/><tag k="addr:housenumber" v="4631"/><tag k="addr:street" v="Adobe River Court"/><tag k="addr:postcode" v="95136"/></node>
<node visible="true" id="-93" lat="37.264438145" lon="-121.863891709"><tag k="addr:city" v="San Jose"/><tag k="addr:housenumber" v="4631"/><tag k="addr:street" v="Columbia River Court"/><tag k="addr:postcode" v="95136"/></node>
<node visible="true" id="-94" lat="37.263883076" lon="-121.86101694800001"><tag k="addr:city" v="San Jose"/><tag k="addr:housenumber" v="4644"/><tag k="addr:street" v="Pinto River Court"/><tag k="addr:postcode" v="95136"/></node>
<node visible="true" id="-95" lat="37.263880202" lon="-121.86117666800001"><tag k="addr:city" v="San Jose"/><tag k="addr:housenumber" v="4648"/><tag k="addr:street" v="Pinto River Court"/><tag k="addr:postcode" v="95136"/></node>
<node visible="true" id="-96" lat="37.263926411" lon="-121.86146667000001"><tag k="addr:city" v="San Jose"/><tag k="addr:housenumber" v="4659"/><tag k="addr:street" v="Pinto River Court"/><tag k="addr:postcode" v="95136"/></node>
<node visible="true" id="-97" lat="37.263301186" lon="-121.86187549"><tag k="addr:city" v="San Jose"/><tag k="addr:housenumber" v="4729"/><tag k="addr:street" v="Durango River Court"/><tag k="addr:postcode" v="95136"/></node>
<node visible="true" id="-98" lat="37.26355144" lon="-121.86145548100001"><tag k="addr:city" v="San Jose"/><tag k="addr:housenumber" v="4735"/><tag k="addr:street" v="Durango River Court"/><tag k="addr:postcode" v="95136"/></node>
<node visible="true" id="-99" lat="37.263284454" lon="-121.862473162"><tag k="addr:city" v="San Jose"/><tag k="addr:housenumber" v="4742"/><tag k="addr:street" v="Canyon River Court"/><tag k="addr:postcode" v="95136"/></node>
<node visible="true" id="-100" lat="37.262888568" lon="-121.861088757"><tag k="addr:city" v="San Jose"/><tag k="addr:housenumber" v="4756"/><tag k="addr:street" v="Kings River Court"/><tag k="addr:postcode" v="95136"/></node>
<node visible="true" id="-101" lat="37.262918914000004" lon="-121.861745912"><tag k="addr:city" v="San Jose"/><tag k="addr:housenumber" v="4761"/><tag k="addr:street" v="Kings River Court"/><tag k="addr:postcode" v="95136"/></node>
<node visible="true" id="-102" lat="37.262896511" lon="-121.861834719"><tag k="addr:city" v="San Jose"/><tag k="addr:housenumber" v="4763"/><tag k="addr:street" v="Kings River Court"/><tag k="addr:postcode" v="95136"/></node>
<node visible="true" id="-103" lat="37.262898657" lon="-121.86198081500001"><tag k="addr:city" v="San Jose"/><tag k="addr:housenumber" v="4767"/><tag k="addr:street" v="Kings River Court"/><tag k="addr:postcode" v="95136"/></node>
<node visible="true" id="-104" lat="37.262929439000004" lon="-121.86221300400001"><tag k="addr:city" v="San Jose"/><tag k="addr:housenumber" v="4773"/><tag k="addr:street" v="Kings River Court"/><tag k="addr:postcode" v="95136"/></node>
<node visible="true" id="-105" lat="37.262928789" lon="-121.862375099"><tag k="addr:city" v="San Jose"/><tag k="addr:housenumber" v="4777"/><tag k="addr:street" v="Kings River Court"/><tag k="addr:postcode" v="95136"/></node>
<node visible="true" id="-107" lat="37.264482839" lon="-121.86509161400001"/>
<node visible="true" id="-108" lat="37.264650634" lon="-121.865169803"/>
<node visible="true" id="-109" lat="37.264729135" lon="-121.864906059"/>
<node visible="true" id="-110" lat="37.264561368" lon="-121.864827871"/>
<node visible="true" id="-112" lat="37.264777556000006" lon="-121.865191537"/>
<node visible="true" id="-113" lat="37.264910668" lon="-121.865252494"/>
<node visible="true" id="-114" lat="37.26495507" lon="-121.865100612"/>
<node visible="true" id="-115" lat="37.264821956000006" lon="-121.86503968800001"/>
<node visible="true" id="-117" lat="37.265239135" lon="-121.86533420100001"/>
<node visible="true" id="-118" lat="37.265444439" lon="-121.86535688500001"/>
<node visible="true" id="-119" lat="37.265452237000005" lon="-121.86524646800001"/>
<node visible="true" id="-120" lat="37.265246933" lon="-121.86522378400001"/>
<way visible="true" id="-1"><nd ref="-2"/><nd ref="-3"/><nd ref="-4"/><nd ref="-5"/><nd ref="-6"/><nd ref="-7"/><nd ref="-8"/><nd ref="-9"/><nd ref="-10"/><nd ref="-11"/><nd ref="-2"/><tag k="building" v="yes"/><tag k="height" v="3.60"/><tag k="ele" v="58.19"/></way>
<way visible="true" id="-106"><nd ref="-107"/><nd ref="-108"/><nd ref="-109"/><nd ref="-110"/><nd ref="-107"/><tag k="building" v="yes"/><tag k="height" v="4.72"/><tag k="ele" v="57.71"/><tag k="addr:city" v="San Jose"/><tag k="addr:housenumber" v="4640"/><tag k="addr:street" v="Pearl Avenue"/><tag k="addr:postcode" v="95136"/></way>
<way visible="true" id="-111"><nd ref="-112"/><nd ref="-113"/><nd ref="-114"/><nd ref="-115"/><nd ref="-112"/><tag k="building" v="yes"/><tag k="height" v="3.88"/><tag k="ele" v="56.95"/><tag k="addr:city" v="San Jose"/><tag k="addr:housenumber" v="4630"/><tag k="addr:street" v="Pearl Avenue"/><tag k="addr:postcode" v="95136"/></way>
<way visible="true" id="-116"><nd ref="-117"/><nd ref="-118"/><nd ref="-119"/><nd ref="-120"/><nd ref="-117"/><tag k="building" v="yes"/><tag k="height" v="4.85"/><tag k="ele" v="57.48"/><tag k="addr:city" v="San Jose"/><tag k="addr:housenumber" v="4610"/><tag k="addr:street" v="Pearl Avenue"/><tag k="addr:postcode" v="95136"/></way>
</osm>