<?xml version="1.0"?>
<osm version="0.6" generator="uvmogr2osm" upload="false">
<node visible="true" id="-1" lat="37.376921222" lon="-121.85569977200001"><tag k="addr:city" v="San Jose"/><tag k="addr:housenumber" v="2399"/><tag k="addr:street" v="Mossdale Way"/><tag k="addr:postcode" v="95133"/></node>
<node visible="true" id="-2" lat="37.376897072000006" lon="-121.85568844500001"><tag k="addr:city" v="San Jose"/><tag k="addr:housenumber" v="756"/><tag k="addr:street" v="Lava Way"/><tag k="addr:postcode" v="95133"/></node>
<node visible="true" id="-3" lat="37.381232939" lon="-121.86417707400001"><tag k="addr:city" v="San Jose"/><tag k="addr:housenumber" v="1090"/><tag k="addr:street" v="Genco Terrace"/><tag k="addr:postcode" v="95133"/></node>
<node visible="true" id="-4" lat="37.376358158" lon="-121.859853947"><tag k="addr:city" v="San Jose"/><tag k="addr:housenumber" v="2318"/><tag k="addr:street" v="Meadowmont Drive"/><tag k="addr:postcode" v="95133"/></node>
<node visible="true" id="-5" lat="37.376429276" lon="-121.85974461900001"><tag k="addr:city" v="San Jose"/><tag k="addr:housenumber" v="2322"/><tag k="addr:street" v="Meadowmont Drive"/><tag k="addr:postcode" v="95133"/></node>
<node visible="true" id="-6" lat="37.376462569000005" lon="-121.85968767800001"><tag k="addr:city" v="San Jose"/><tag k="addr:housenumber" v="2324"/><tag k="addr:street" v="Meadowmont Drive"/><tag k="addr:postcode" v="95133"/></node>
<node visible="true" id="-7" lat="37.376387544" lon="-121.85979982500001"><tag k="addr:city" v="San Jose"/><tag k="addr:housenumber" v="2320"/><tag k="addr:street" v="Meadowmont Drive"/><tag k="addr:postcode" v="95133"/></node>
<node visible="true" id="-8" lat="37.376234564" lon="-121.85997398500001"><tag k="addr:city" v="San Jose"/><tag k="addr:housenumber" v="2312"/><tag k="addr:street" v="Meadowmont Drive"/><tag k="addr:postcode" v="95133"/></node>
<node visible="true" id="-9" lat="37.37628678" lon="-121.859933667"><tag k="addr:city" v="San Jose"/><tag k="addr:housenumber" v="2314"/><tag k="addr:street" v="Meadowmont Drive"/><tag k="addr:postcode" v="95133"/></node>
<node visible="true" id="-10" lat="37.376322512" lon="-121.859896011"><tag k="addr:city" v="San Jose"/><tag k="addr:housenumber" v="2316"/><tag k="addr:street" v="Meadowmont Drive"/><tag k="addr:postcode" v="95133"/></node>
<node visible="true" id="-11" lat="37.376493001" lon="-121.859635607"><tag k="addr:city" v="San Jose"/><tag k="addr:housenumber" v="2326"/><tag k="addr:street" v="Meadowmont Drive"/><tag k="addr:postcode" v="95133"/></node>
<node visible="true" id="-12" lat="37.376107134" lon="-121.859498446"><tag k="addr:city" v="San Jose"/><tag k="addr:housenumber" v="2325"/><tag k="addr:street" v="Granite Lane"/><tag k="addr:postcode" v="95133"/></node>
<node visible="true" id="-13" lat="37.378838522" lon="-121.859447793"><tag k="addr:city" v="San Jose"/><tag k="addr:housenumber" v="2398"/><tag k="addr:street" v="Mossdale Way"/><tag k="addr:postcode" v="95133"/></node>
<node visible="true" id="-14" lat="37.377542538" lon="-121.860365121"><tag k="addr:city" v="San Jose"/><tag k="addr:housenumber" v="2352"/><tag k="addr:street" v="Sapwood Way"/><tag k="addr:postcode" v="95133"/></node>
<node visible="true" id="-15" lat="37.37830263" lon="-121.860018593"><tag k="addr:city" v="San Jose"/><tag k="addr:housenumber" v="2362"/><tag k="addr:street" v="Mossdale Way"/><tag k="addr:postcode" v="95133"/></node>
<node visible="true" id="-16" lat="37.37682881" lon="-121.86055299"><tag k="addr:city" v="San Jose"/><tag k="addr:housenumber" v="2322"/><tag k="addr:street" v="Toiyabe Way"/><tag k="addr:postcode" v="95133"/></node>
<node visible="true" id="-17" lat="37.378784012000004" lon="-121.859482185"><tag k="addr:city" v="San Jose"/><tag k="addr:housenumber" v="2394"/><tag k="addr:street" v="Mossdale Way"/><tag k="addr:postcode" v="95133"/></node>
<node visible="true" id="-18" lat="37.378352376" lon="-121.85999003600001"><tag k="addr:city" v="San Jose"/><tag k="addr:housenumber" v="2366"/><tag k="addr:street" v="Mossdale Way"/><tag k="addr:postcode" v="95133"/></node>
<node visible="true" id="-19" lat="37.377822013" lon="-121.86026867400001"><tag k="addr:city" v="San Jose"/><tag k="addr:housenumber" v="899"/><tag k="addr:street" v="Beaver Creek Way"/><tag k="addr:postcode" v="95133"/></node>
<node visible="true" id="-20" lat="37.381417991" lon="-121.864379748"><tag k="addr:city" v="San Jose"/><tag k="addr:housenumber" v="2082"/><tag k="addr:street" v="Vincenzo Walkway"/><tag k="addr:postcode" v="95133"/></node>
<node visible="true" id="-21" lat="37.381486668" lon="-121.864502013"><tag k="addr:city" v="San Jose"/><tag k="addr:housenumber" v="2083"/><tag k="addr:street" v="Vincenzo Walkway"/><tag k="addr:postcode" v="95133"/></node>
<node visible="true" id="-22" lat="37.38148743" lon="-121.86427255500001"><tag k="addr:city" v="San Jose"/><tag k="addr:housenumber" v="2090"/><tag k="addr:street" v="Vincenzo Walkway"/><tag k="addr:postcode" v="95133"/></node>
<node visible="true" id="-23" lat="37.376238652000005" lon="-121.859341759"><tag k="addr:city" v="San Jose"/><tag k="addr:housenumber" v="2337"/><tag k="addr:street" v="Granite Lane"/><tag k="addr:postcode" v="95133"/></node>
<node visible="true" id="-24" lat="37.381224995000004" lon="-121.864559427"><tag k="addr:city" v="San Jose"/><tag k="addr:housenumber" v="2078"/><tag k="addr:street" v="Vincenzo Walkway"/><tag k="addr:postcode" v="95133"/></node>
<node visible="true" id="-25" lat="37.38145075" lon="-121.864310129"><tag k="addr:city" v="San Jose"/><tag k="addr:housenumber" v="2086"/><tag k="addr:street" v="Vincenzo Walkway"/><tag k="addr:postcode" v="95133"/></node>
<node visible="true" id="-26" lat="37.381296842000005" lon="-121.864684643"><tag k="addr:city" v="San Jose"/><tag k="addr:housenumber" v="2079"/><tag k="addr:street" v="Vincenzo Walkway"/><tag k="addr:postcode" v="95133"/></node>
<node visible="true" id="-27" lat="37.376202692" lon="-121.859389633"><tag k="addr:city" v="San Jose"/><tag k="addr:housenumber" v="2333"/><tag k="addr:street" v="Granite Lane"/><tag k="addr:postcode" v="95133"/></node>
<node visible="true" id="-28" lat="37.381363136000004" lon="-121.86429896700001"><tag k="addr:city" v="San Jose"/><tag k="addr:housenumber" v="1094"/><tag k="addr:street" v="Genco Terrace"/><tag k="addr:postcode" v="95133"/></node>
<node visible="true" id="-29" lat="37.38152392" lon="-121.86457918500001"><tag k="addr:city" v="San Jose"/><tag k="addr:housenumber" v="1100"/><tag k="addr:street" v="Genco Terrace"/><tag k="addr:postcode" v="95133"/></node>
<node visible="true" id="-30" lat="37.376053325" lon="-121.85976376200001"><tag k="addr:city" v="San Jose"/><tag k="addr:housenumber" v="818"/><tag k="addr:street" v="Heartwood Way"/><tag k="addr:postcode" v="95133"/></node>
<node visible="true" id="-31" lat="37.376102375" lon="-121.859807058"><tag k="addr:city" v="San Jose"/><tag k="addr:housenumber" v="822"/><tag k="addr:street" v="Heartwood Way"/><tag k="addr:postcode" v="95133"/></node>
<node visible="true" id="-32" lat="37.382130321000005" lon="-121.86119413200001"><tag k="addr:city" v="San Jose"/><tag k="addr:housenumber" v="2223"/><tag k="addr:street" v="Dahlia Court"/><tag k="addr:postcode" v="95133"/></node>
<node visible="true" id="-33" lat="37.381128079" lon="-121.86462784700001"><tag k="addr:city" v="San Jose"/><tag k="addr:housenumber" v="2070"/><tag k="addr:street" v="Vincenzo Walkway"/><tag k="addr:postcode" v="95133"/></node>
<node visible="true" id="-34" lat="37.381159956000005" lon="-121.86458971900001"><tag k="addr:city" v="San Jose"/><tag k="addr:housenumber" v="2074"/><tag k="addr:street" v="Vincenzo Walkway"/><tag k="addr:postcode" v="95133"/></node>
<node visible="true" id="-35" lat="37.381248206" lon="-121.86472981700001"><tag k="addr:city" v="San Jose"/><tag k="addr:housenumber" v="2075"/><tag k="addr:street" v="Vincenzo Walkway"/><tag k="addr:postcode" v="95133"/></node>
<node visible="true" id="-36" lat="37.381538145" lon="-121.86446321400001"><tag k="addr:city" v="San Jose"/><tag k="addr:housenumber" v="2087"/><tag k="addr:street" v="Vincenzo Walkway"/><tag k="addr:postcode" v="95133"/></node>
<node visible="true" id="-37" lat="37.381570963" lon="-121.86442945200001"><tag k="addr:city" v="San Jose"/><tag k="addr:housenumber" v="2091"/><tag k="addr:street" v="Vincenzo Walkway"/><tag k="addr:postcode" v="95133"/></node>
<node visible="true" id="-38" lat="37.376154908000004" lon="-121.85944331700001"><tag k="addr:city" v="San Jose"/><tag k="addr:housenumber" v="2329"/><tag k="addr:street" v="Granite Lane"/><tag k="addr:postcode" v="95133"/></node>
<node visible="true" id="-39" lat="37.376328388000005" lon="-121.85917587600001"><tag k="addr:city" v="San Jose"/><tag k="addr:housenumber" v="2340"/><tag k="addr:street" v="Bear Valley Lane"/><tag k="addr:postcode" v="95133"/></node>
<node visible="true" id="-40" lat="37.376002951000004" lon="-121.85972804800001"><tag k="addr:city" v="San Jose"/><tag k="addr:housenumber" v="814"/><tag k="addr:street" v="Heartwood Way"/><tag k="addr:postcode" v="95133"/></node>
</osm>