<?xml version="1.0"?>
<osm version="0.6" generator="uvmogr2osm" upload="false">
<node visible="true" id="-2" lat="37.35955844" lon="-121.890783873"/>
<node visible="true" id="-3" lat="37.359633968000004" lon="-121.89080083300001"/>
<node visible="true" id="-4" lat="37.35965125" lon="-121.89067999400001"/>
<node visible="true" id="-5" lat="37.359575722" lon="-121.89066306800001"/>
<node visible="true" id="-7" lat="37.359610543" lon="-121.890564165"/>
<node visible="true" id="-8" lat="37.359690222000005" lon="-121.890624836"/>
<node visible="true" id="-9" lat="37.359724910000004" lon="-121.89055332100001"/>
<node visible="true" id="-10" lat="37.359645232000005" lon="-121.890492686"/>
<node visible="true" id="-12" lat="37.359664127" lon="-121.890752187"/>
<node visible="true" id="-13" lat="37.359700302" lon="-121.89075681800001"/>
<node visible="true" id="-14" lat="37.359677244000004" lon="-121.89080184400001"/>
<node visible="true" id="-15" lat="37.359772394000004" lon="-121.890815625"/>
<node visible="true" id="-16" lat="37.359795729000005" lon="-121.89077043"/>
<node visible="true" id="-17" lat="37.359819283" lon="-121.89077382900001"/>
<node visible="true" id="-18" lat="37.359812139" lon="-121.890824968"/>
<node visible="true" id="-19" lat="37.359860959" lon="-121.89083568500001"/>
<node visible="true" id="-20" lat="37.359868252000005" lon="-121.89078128000001"/>
<node visible="true" id="-21" lat="37.359934581000005" lon="-121.89079091"/>
<node visible="true" id="-22" lat="37.359983651" lon="-121.8906857"/>
<node visible="true" id="-23" lat="37.359873321" lon="-121.890604053"/>
<node visible="true" id="-24" lat="37.359829760000004" lon="-121.89069642800001"/>
<node visible="true" id="-25" lat="37.359726482" lon="-121.89061997"/>
<node visible="true" id="-26" lat="37.360726555" lon="-121.890825917"><tag k="addr:city" v="San Jose"/><tag k="addr:housenumber" v="600"/><tag k="addr:street" v="Boardwalk Way"/><tag k="addr:postcode" v="95112"/></node>
<node visible="true" id="-27" lat="37.360499026" lon="-121.89078974"><tag k="addr:city" v="San Jose"/><tag k="addr:housenumber" v="603"/><tag k="addr:street" v="Berryessa Road"/><tag k="addr:postcode" v="95112"/></node>
<node visible="true" id="-28" lat="37.36069616" lon="-121.89082221900001"><tag k="addr:city" v="San Jose"/><tag k="addr:housenumber" v="604"/><tag k="addr:street" v="Boardwalk Way"/><tag k="addr:postcode" v="95112"/></node>
<node visible="true" id="-29" lat="37.360542926" lon="-121.890827598"><tag k="addr:city" v="San Jose"/><tag k="addr:housenumber" v="607"/><tag k="addr:street" v="Berryessa Road"/><tag k="addr:postcode" v="95112"/></node>
<node visible="true" id="-30" lat="37.361961387" lon="-121.89103085500001"><tag k="addr:city" v="San Jose"/><tag k="addr:housenumber" v="959"/><tag k="addr:street" v="Pavilion Loop"/><tag k="addr:postcode" v="95112"/></node>
<node visible="true" id="-31" lat="37.361969781" lon="-121.89096648900001"><tag k="addr:city" v="San Jose"/><tag k="addr:housenumber" v="963"/><tag k="addr:street" v="Pavilion Loop"/><tag k="addr:postcode" v="95112"/></node>
<node visible="true" id="-32" lat="37.361932579000005" lon="-121.89095704300001"><tag k="addr:city" v="San Jose"/><tag k="addr:housenumber" v="965"/><tag k="addr:street" v="Pavilion Loop"/><tag k="addr:postcode" v="95112"/></node>
<node visible="true" id="-33" lat="37.362201308" lon="-121.89106639"><tag k="addr:city" v="San Jose"/><tag k="addr:housenumber" v="967"/><tag k="addr:street" v="Pavilion Loop"/><tag k="addr:postcode" v="95112"/></node>
<node visible="true" id="-34" lat="37.362207909000006" lon="-121.890992431"><tag k="addr:city" v="San Jose"/><tag k="addr:housenumber" v="971"/><tag k="addr:street" v="Pavilion Loop"/><tag k="addr:postcode" v="95112"/></node>
<node visible="true" id="-35" lat="37.35977622" lon="-121.890671839"><tag k="addr:city" v="San Jose"/><tag k="addr:housenumber" v="910"/><tag k="addr:street" v="Oakland Road"/><tag k="addr:unit" v="E"/><tag k="addr:postcode" v="95112"/></node>
<node visible="true" id="-36" lat="37.361085817" lon="-121.890890767"><tag k="addr:city" v="San Jose"/><tag k="addr:housenumber" v="605"/><tag k="addr:street" v="Boardwalk Way"/><tag k="addr:postcode" v="95112"/></node>
<node visible="true" id="-37" lat="37.360703601000004" lon="-121.89074879100001"><tag k="addr:city" v="San Jose"/><tag k="addr:housenumber" v="612"/><tag k="addr:street" v="Boardwalk Way"/><tag k="addr:postcode" v="95112"/></node>
<node visible="true" id="-38" lat="37.361138586" lon="-121.89074983900001"><tag k="addr:city" v="San Jose"/><tag k="addr:housenumber" v="617"/><tag k="addr:street" v="Boardwalk Way"/><tag k="addr:postcode" v="95112"/></node>
<node visible="true" id="-39" lat="37.359611777000005" lon="-121.890686282"><tag k="addr:city" v="San Jose"/><tag k="addr:housenumber" v="631"/><tag k="addr:street" v="East Hedding Street"/><tag k="addr:postcode" v="95112"/></node>
<node visible="true" id="-40" lat="37.361510799" lon="-121.89008515500001"><tag k="addr:city" v="San Jose"/><tag k="addr:housenumber" v="652"/><tag k="addr:street" v="Luna Park Drive"/><tag k="addr:postcode" v="95112"/></node>
<node visible="true" id="-41" lat="37.362251265000005" lon="-121.88914847800001"><tag k="addr:city" v="San Jose"/><tag k="addr:housenumber" v="795"/><tag k="addr:street" v="Modern Ice Drive"/><tag k="addr:postcode" v="95112"/></node>
<node visible="true" id="-42" lat="37.361908017000005" lon="-121.891027471"><tag k="addr:city" v="San Jose"/><tag k="addr:housenumber" v="961"/><tag k="addr:street" v="Pavilion Loop"/><tag k="addr:postcode" v="95112"/></node>
<node visible="true" id="-43" lat="37.36214794" lon="-121.891063005"><tag k="addr:city" v="San Jose"/><tag k="addr:housenumber" v="969"/><tag k="addr:street" v="Pavilion Loop"/><tag k="addr:postcode" v="95112"/></node>
<node visible="true" id="-44" lat="37.361125358" lon="-121.890900146"><tag k="addr:city" v="San Jose"/><tag k="addr:housenumber" v="601"/><tag k="addr:street" v="Boardwalk Way"/><tag k="addr:postcode" v="95112"/></node>
<node visible="true" id="-45" lat="37.359749047" lon="-121.89067124500001"><tag k="addr:city" v="San Jose"/><tag k="addr:housenumber" v="910"/><tag k="addr:street" v="Oakland Road"/><tag k="addr:unit" v="F"/><tag k="addr:postcode" v="95112"/></node>
<node visible="true" id="-46" lat="37.360791409" lon="-121.890477762"><tag k="addr:city" v="San Jose"/><tag k="addr:housenumber" v="640"/><tag k="addr:street" v="Boardwalk Way"/><tag k="addr:postcode" v="95112"/></node>
<node visible="true" id="-47" lat="37.360733530000005" lon="-121.89075294800001"><tag k="addr:city" v="San Jose"/><tag k="addr:housenumber" v="608"/><tag k="addr:street" v="Boardwalk Way"/><tag k="addr:postcode" v="95112"/></node>
<node visible="true" id="-48" lat="37.361133922" lon="-121.89082144400001"><tag k="addr:city" v="San Jose"/><tag k="addr:housenumber" v="609"/><tag k="addr:street" v="Boardwalk Way"/><tag k="addr:postcode" v="95112"/></node>
<node visible="true" id="-49" lat="37.360507184" lon="-121.89072507"><tag k="addr:city" v="San Jose"/><tag k="addr:housenumber" v="611"/><tag k="addr:street" v="Berryessa Road"/><tag k="addr:postcode" v="95112"/></node>
<node visible="true" id="-50" lat="37.361084452" lon="-121.89081096500001"><tag k="addr:city" v="San Jose"/><tag k="addr:housenumber" v="613"/><tag k="addr:street" v="Boardwalk Way"/><tag k="addr:postcode" v="95112"/></node>
<node visible="true" id="-51" lat="37.360559" lon="-121.89071883300001"><tag k="addr:city" v="San Jose"/><tag k="addr:housenumber" v="615"/><tag k="addr:street" v="Berryessa Road"/><tag k="addr:postcode" v="95112"/></node>
<node visible="true" id="-52" lat="37.361160434000006" lon="-121.89051605600001"><tag k="addr:city" v="San Jose"/><tag k="addr:housenumber" v="641"/><tag k="addr:street" v="Boardwalk Way"/><tag k="addr:postcode" v="95112"/></node>
<node visible="true" id="-53" lat="37.360736564" lon="-121.89042787000001"><tag k="addr:city" v="San Jose"/><tag k="addr:housenumber" v="644"/><tag k="addr:street" v="Boardwalk Way"/><tag k="addr:postcode" v="95112"/></node>
<node visible="true" id="-54" lat="37.361109001" lon="-121.89051031800001"><tag k="addr:city" v="San Jose"/><tag k="addr:housenumber" v="645"/><tag k="addr:street" v="Boardwalk Way"/><tag k="addr:postcode" v="95112"/></node>
<node visible="true" id="-55" lat="37.361502167000005" lon="-121.890213298"><tag k="addr:city" v="San Jose"/><tag k="addr:housenumber" v="646"/><tag k="addr:street" v="Luna Park Drive"/><tag k="addr:postcode" v="95112"/></node>
<node visible="true" id="-56" lat="37.361292205000005" lon="-121.890921945"><tag k="addr:city" v="San Jose"/><tag k="addr:housenumber" v="647"/><tag k="addr:street" v="Modern Ice Drive"/><tag k="addr:postcode" v="95112"/></node>
<node visible="true" id="-57" lat="37.361505518" lon="-121.890170592"><tag k="addr:city" v="San Jose"/><tag k="addr:housenumber" v="648"/><tag k="addr:street" v="Luna Park Drive"/><tag k="addr:postcode" v="95112"/></node>
<node visible="true" id="-58" lat="37.361258654000004" lon="-121.890919353"><tag k="addr:city" v="San Jose"/><tag k="addr:housenumber" v="649"/><tag k="addr:street" v="Modern Ice Drive"/><tag k="addr:postcode" v="95112"/></node>
<node visible="true" id="-59" lat="37.36150594" lon="-121.89013496000001"><tag k="addr:city" v="San Jose"/><tag k="addr:housenumber" v="650"/><tag k="addr:street" v="Luna Park Drive"/><tag k="addr:postcode" v="95112"/></node>
<node visible="true" id="-60" lat="37.361301516000005" lon="-121.890843681"><tag k="addr:city" v="San Jose"/><tag k="addr:housenumber" v="651"/><tag k="addr:street" v="Modern Ice Drive"/><tag k="addr:postcode" v="95112"/></node>
<node visible="true" id="-61" lat="37.361269069" lon="-121.890845467"><tag k="addr:city" v="San Jose"/><tag k="addr:housenumber" v="653"/><tag k="addr:street" v="Modern Ice Drive"/><tag k="addr:postcode" v="95112"/></node>
<node visible="true" id="-62" lat="37.361515678" lon="-121.89003356900001"><tag k="addr:city" v="San Jose"/><tag k="addr:housenumber" v="654"/><tag k="addr:street" v="Luna Park Drive"/><tag k="addr:postcode" v="95112"/></node>
<node visible="true" id="-63" lat="37.361521978" lon="-121.88998200900001"><tag k="addr:city" v="San Jose"/><tag k="addr:housenumber" v="656"/><tag k="addr:street" v="Luna Park Drive"/><tag k="addr:postcode" v="95112"/></node>
<node visible="true" id="-64" lat="37.361525457" lon="-121.88992861300001"><tag k="addr:city" v="San Jose"/><tag k="addr:housenumber" v="658"/><tag k="addr:street" v="Luna Park Drive"/><tag k="addr:postcode" v="95112"/></node>
<node visible="true" id="-65" lat="37.361523224" lon="-121.88987689400001"><tag k="addr:city" v="San Jose"/><tag k="addr:housenumber" v="660"/><tag k="addr:street" v="Luna Park Drive"/><tag k="addr:postcode" v="95112"/></node>
<node visible="true" id="-66" lat="37.361526533" lon="-121.88983775400001"><tag k="addr:city" v="San Jose"/><tag k="addr:housenumber" v="662"/><tag k="addr:street" v="Luna Park Drive"/><tag k="addr:postcode" v="95112"/></node>
<node visible="true" id="-67" lat="37.361531328000005" lon="-121.88979329300001"><tag k="addr:city" v="San Jose"/><tag k="addr:housenumber" v="664"/><tag k="addr:street" v="Luna Park Drive"/><tag k="addr:postcode" v="95112"/></node>
<node visible="true" id="-68" lat="37.361345108" lon="-121.89054578000001"><tag k="addr:city" v="San Jose"/><tag k="addr:housenumber" v="667"/><tag k="addr:street" v="Modern Ice Drive"/><tag k="addr:postcode" v="95112"/></node>
<node visible="true" id="-69" lat="37.361297515000004" lon="-121.890537726"><tag k="addr:city" v="San Jose"/><tag k="addr:housenumber" v="669"/><tag k="addr:street" v="Modern Ice Drive"/><tag k="addr:postcode" v="95112"/></node>
<node visible="true" id="-70" lat="37.360515189000004" lon="-121.88992455900001"><tag k="addr:city" v="San Jose"/><tag k="addr:housenumber" v="674"/><tag k="addr:street" v="Berryessa Road"/><tag k="addr:postcode" v="95112"/></node>
<node visible="true" id="-71" lat="37.362285607000004" lon="-121.88997531000001"><tag k="addr:city" v="San Jose"/><tag k="addr:housenumber" v="743"/><tag k="addr:street" v="Modern Ice Drive"/><tag k="addr:postcode" v="95112"/></node>
<node visible="true" id="-72" lat="37.362250201" lon="-121.88997031000001"><tag k="addr:city" v="San Jose"/><tag k="addr:housenumber" v="745"/><tag k="addr:street" v="Modern Ice Drive"/><tag k="addr:postcode" v="95112"/></node>
<node visible="true" id="-73" lat="37.362218348" lon="-121.88995363000001"><tag k="addr:city" v="San Jose"/><tag k="addr:housenumber" v="747"/><tag k="addr:street" v="Modern Ice Drive"/><tag k="addr:postcode" v="95112"/></node>
<node visible="true" id="-74" lat="37.361554581" lon="-121.889631565"><tag k="addr:city" v="San Jose"/><tag k="addr:housenumber" v="764"/><tag k="addr:street" v="Luna Park Drive"/><tag k="addr:postcode" v="95112"/></node>
<node visible="true" id="-75" lat="37.361556488000005" lon="-121.889590615"><tag k="addr:city" v="San Jose"/><tag k="addr:housenumber" v="766"/><tag k="addr:street" v="Luna Park Drive"/><tag k="addr:postcode" v="95112"/></node>
<node visible="true" id="-76" lat="37.361558332" lon="-121.88955501000001"><tag k="addr:city" v="San Jose"/><tag k="addr:housenumber" v="768"/><tag k="addr:street" v="Luna Park Drive"/><tag k="addr:postcode" v="95112"/></node>
<node visible="true" id="-77" lat="37.361564612" lon="-121.889505231"><tag k="addr:city" v="San Jose"/><tag k="addr:housenumber" v="770"/><tag k="addr:street" v="Luna Park Drive"/><tag k="addr:postcode" v="95112"/></node>
<node visible="true" id="-78" lat="37.362239169000006" lon="-121.889681511"><tag k="addr:city" v="San Jose"/><tag k="addr:housenumber" v="771"/><tag k="addr:street" v="Modern Ice Drive"/><tag k="addr:postcode" v="95112"/></node>
<node visible="true" id="-79" lat="37.361569553" lon="-121.889448301"><tag k="addr:city" v="San Jose"/><tag k="addr:housenumber" v="772"/><tag k="addr:street" v="Luna Park Drive"/><tag k="addr:postcode" v="95112"/></node>
<node visible="true" id="-80" lat="37.362263515" lon="-121.88945473700001"><tag k="addr:city" v="San Jose"/><tag k="addr:housenumber" v="773"/><tag k="addr:street" v="Modern Ice Drive"/><tag k="addr:postcode" v="95112"/></node>
<node visible="true" id="-81" lat="37.36157439" lon="-121.88940027700001"><tag k="addr:city" v="San Jose"/><tag k="addr:housenumber" v="774"/><tag k="addr:street" v="Luna Park Drive"/><tag k="addr:postcode" v="95112"/></node>
<node visible="true" id="-82" lat="37.36158642" lon="-121.889345258"><tag k="addr:city" v="San Jose"/><tag k="addr:housenumber" v="776"/><tag k="addr:street" v="Luna Park Drive"/><tag k="addr:postcode" v="95112"/></node>
<node visible="true" id="-83" lat="37.361577015" lon="-121.889298753"><tag k="addr:city" v="San Jose"/><tag k="addr:housenumber" v="778"/><tag k="addr:street" v="Luna Park Drive"/><tag k="addr:postcode" v="95112"/></node>
<node visible="true" id="-84" lat="37.36158461" lon="-121.88925790900001"><tag k="addr:city" v="San Jose"/><tag k="addr:housenumber" v="780"/><tag k="addr:street" v="Luna Park Drive"/><tag k="addr:postcode" v="95112"/></node>
<node visible="true" id="-85" lat="37.361586476" lon="-121.889220522"><tag k="addr:city" v="San Jose"/><tag k="addr:housenumber" v="782"/><tag k="addr:street" v="Luna Park Drive"/><tag k="addr:postcode" v="95112"/></node>
<node visible="true" id="-86" lat="37.362283684000005" lon="-121.889154168"><tag k="addr:city" v="San Jose"/><tag k="addr:housenumber" v="797"/><tag k="addr:street" v="Modern Ice Drive"/><tag k="addr:postcode" v="95112"/></node>
<node visible="true" id="-87" lat="37.359695628000004" lon="-121.89045518900001"><tag k="addr:city" v="San Jose"/><tag k="addr:housenumber" v="904"/><tag k="addr:street" v="Oakland Road"/><tag k="addr:postcode" v="95112"/></node>
<node visible="true" id="-88" lat="37.359776126" lon="-121.89056536700001"><tag k="addr:city" v="San Jose"/><tag k="addr:housenumber" v="908"/><tag k="addr:street" v="Oakland Road"/><tag k="addr:postcode" v="95112"/></node>
<node visible="true" id="-89" lat="37.359774151" lon="-121.89074375800001"><tag k="addr:city" v="San Jose"/><tag k="addr:housenumber" v="910"/><tag k="addr:street" v="Oakland Road"/><tag k="addr:unit" v="A"/><tag k="addr:postcode" v="95112"/></node>
<node visible="true" id="-90" lat="37.359748164" lon="-121.89070940100001"><tag k="addr:city" v="San Jose"/><tag k="addr:housenumber" v="910"/><tag k="addr:street" v="Oakland Road"/><tag k="addr:unit" v="B"/><tag k="addr:postcode" v="95112"/></node>
<node visible="true" id="-91" lat="37.359718844" lon="-121.890708767"><tag k="addr:city" v="San Jose"/><tag k="addr:housenumber" v="910"/><tag k="addr:street" v="Oakland Road"/><tag k="addr:unit" v="C"/><tag k="addr:postcode" v="95112"/></node>
<node visible="true" id="-92" lat="37.359774990000005" lon="-121.89070927300001"><tag k="addr:city" v="San Jose"/><tag k="addr:housenumber" v="910"/><tag k="addr:street" v="Oakland Road"/><tag k="addr:unit" v="D"/><tag k="addr:postcode" v="95112"/></node>
<node visible="true" id="-93" lat="37.359887225" lon="-121.89069299100001"><tag k="addr:city" v="San Jose"/><tag k="addr:housenumber" v="920"/><tag k="addr:street" v="Oakland Road"/><tag k="addr:postcode" v="95112"/></node>
<node visible="true" id="-94" lat="37.362160289" lon="-121.89098676500001"><tag k="addr:city" v="San Jose"/><tag k="addr:housenumber" v="973"/><tag k="addr:street" v="Pavilion Loop"/><tag k="addr:postcode" v="95112"/></node>
<way visible="true" id="-1"><nd ref="-2"/><nd ref="-3"/><nd ref="-4"/><nd ref="-5"/><nd ref="-2"/><tag k="building" v="yes"/><tag k="height" v="2.94"/><tag k="ele" v="25.20"/></way>
<way visible="true" id="-6"><nd ref="-7"/><nd ref="-8"/><nd ref="-9"/><nd ref="-10"/><nd ref="-7"/><tag k="building" v="yes"/><tag k="height" v="3.14"/><tag k="ele" v="24.96"/></way>
<way visible="true" id="-11"><nd ref="-12"/><nd ref="-13"/><nd ref="-14"/><nd ref="-15"/><nd ref="-16"/><nd ref="-17"/><nd ref="-18"/><nd ref="-19"/><nd ref="-20"/><nd ref="-21"/><nd ref="-22"/><nd ref="-23"/><nd ref="-24"/><nd ref="-25"/><nd ref="-12"/><tag k="building" v="yes"/><tag k="height" v="6.64"/><tag k="ele" v="28.54"/></way>
</osm>