<?xml version="1.0"?>
<osm version="0.6" generator="uvmogr2osm" upload="false">
<node visible="true" id="-2" lat="37.367693575000004" lon="-121.81427586100001"/>
<node visible="true" id="-3" lat="37.367723865" lon="-121.81469786500001"/>
<node visible="true" id="-4" lat="37.367725597" lon="-121.814697655"/>
<node visible="true" id="-5" lat="37.367731299" lon="-121.81477708000001"/>
<node visible="true" id="-6" lat="37.367940013" lon="-121.81475356600001"/>
<node visible="true" id="-7" lat="37.367883953" lon="-121.81501805100001"/>
<node visible="true" id="-8" lat="37.367905298000004" lon="-121.81502513900001"/>
<node visible="true" id="-9" lat="37.367904486" lon="-121.815028944"/>
<node visible="true" id="-10" lat="37.368006531" lon="-121.81506288400001"/>
<node visible="true" id="-11" lat="37.368068653" lon="-121.81476980400001"/>
<node visible="true" id="-12" lat="37.368000294000005" lon="-121.814747056"/>
<node visible="true" id="-13" lat="37.368151860000005" lon="-121.81472990200001"/>
<node visible="true" id="-14" lat="37.368070378000006" lon="-121.81512048100001"/>
<node visible="true" id="-15" lat="37.368093120000005" lon="-121.81512793700001"/>
<node visible="true" id="-16" lat="37.368092019" lon="-121.81513308000001"/>
<node visible="true" id="-17" lat="37.36819355" lon="-121.81516632300001"/>
<node visible="true" id="-18" lat="37.368281388" lon="-121.814745224"/>
<node visible="true" id="-19" lat="37.368212561" lon="-121.81472267500001"/>
<node visible="true" id="-20" lat="37.368276007000006" lon="-121.814713158"/>
<node visible="true" id="-21" lat="37.368460404000004" lon="-121.81477370500001"/>
<node visible="true" id="-22" lat="37.368457849" lon="-121.81478598100001"/>
<node visible="true" id="-23" lat="37.368433301" lon="-121.81477790800001"/>
<node visible="true" id="-24" lat="37.368341876" lon="-121.81521512"/>
<node visible="true" id="-25" lat="37.368338756" lon="-121.8152141"/>
<node visible="true" id="-26" lat="37.368327727" lon="-121.815266801"/>
<node visible="true" id="-27" lat="37.368319818" lon="-121.81526418400001"/>
<node visible="true" id="-28" lat="37.368302694" lon="-121.81534609900001"/>
<node visible="true" id="-29" lat="37.368428115" lon="-121.81538729900001"/>
<node visible="true" id="-30" lat="37.368445674" lon="-121.81530336200001"/>
<node visible="true" id="-31" lat="37.368449833" lon="-121.81530474300001"/>
<node visible="true" id="-32" lat="37.368516181000004" lon="-121.81498761"/>
<node visible="true" id="-33" lat="37.368496122" lon="-121.81498099400001"/>
<node visible="true" id="-34" lat="37.368531967" lon="-121.81480955100001"/>
<node visible="true" id="-35" lat="37.368521348" lon="-121.81480606100001"/>
<node visible="true" id="-36" lat="37.368532986000005" lon="-121.81475048"/>
<node visible="true" id="-37" lat="37.368548503" lon="-121.814755571"/>
<node visible="true" id="-38" lat="37.368549578" lon="-121.814750325"/>
<node visible="true" id="-39" lat="37.368595308" lon="-121.814765343"/>
<node visible="true" id="-40" lat="37.368634750000005" lon="-121.81457675700001"/>
<node visible="true" id="-41" lat="37.368574243000005" lon="-121.814556901"/>
<node visible="true" id="-42" lat="37.36856513" lon="-121.81460041300001"/>
<node visible="true" id="-43" lat="37.368351835000006" lon="-121.81453037600001"/>
<node visible="true" id="-44" lat="37.368321737" lon="-121.814674318"/>
<node visible="true" id="-45" lat="37.368275322" lon="-121.814659081"/>
<node visible="true" id="-46" lat="37.368276281" lon="-121.814654418"/>
<node visible="true" id="-47" lat="37.368280770000005" lon="-121.81465590900001"/>
<node visible="true" id="-48" lat="37.368246750000004" lon="-121.814181973"/>
<node visible="true" id="-49" lat="37.368225573000004" lon="-121.814184353"/>
<node visible="true" id="-50" lat="37.368218612" lon="-121.814087423"/>
<node visible="true" id="-51" lat="37.368102194" lon="-121.81410055100001"/>
<node visible="true" id="-52" lat="37.368109489000005" lon="-121.814202167"/>
<node visible="true" id="-53" lat="37.368118784" lon="-121.814201092"/>
<node visible="true" id="-54" lat="37.368153015000004" lon="-121.814678197"/>
<node visible="true" id="-55" lat="37.368056126" lon="-121.814689122"/>
<node visible="true" id="-56" lat="37.368055534" lon="-121.814680679"/>
<node visible="true" id="-57" lat="37.368066177" lon="-121.81467949"/>
<node visible="true" id="-58" lat="37.368032155" lon="-121.81420579700001"/>
<node visible="true" id="-59" lat="37.367927647" lon="-121.81421755100001"/>
<node visible="true" id="-60" lat="37.367928098" lon="-121.814223892"/>
<node visible="true" id="-61" lat="37.367905435000004" lon="-121.814226453"/>
<node visible="true" id="-62" lat="37.367939455000005" lon="-121.814700489"/>
<node visible="true" id="-63" lat="37.367853757" lon="-121.814710132"/>
<node visible="true" id="-64" lat="37.367821188" lon="-121.814256321"/>
<node visible="true" id="-65" lat="37.367717477" lon="-121.81426802200001"/>
<node visible="true" id="-66" lat="37.367717833" lon="-121.81427312100001"/>
<node visible="true" id="-68" lat="37.367708633" lon="-121.81498337200001"/>
<node visible="true" id="-69" lat="37.367771262000005" lon="-121.81500505500001"/>
<node visible="true" id="-70" lat="37.367805902" lon="-121.814847978"/>
<node visible="true" id="-71" lat="37.367743273" lon="-121.81482629700001"/>
<node visible="true" id="-73" lat="37.367115048" lon="-121.81395564600001"/>
<node visible="true" id="-74" lat="37.367126559" lon="-121.81411718000001"/>
<node visible="true" id="-75" lat="37.367653853" lon="-121.814058145"/>
<node visible="true" id="-76" lat="37.367642343" lon="-121.813896575"/>
<node visible="true" id="-78" lat="37.367784955000005" lon="-121.81498912100001"/>
<node visible="true" id="-79" lat="37.367847642" lon="-121.815010564"/>
<node visible="true" id="-80" lat="37.367881032" lon="-121.814857148"/>
<node visible="true" id="-81" lat="37.367818344" lon="-121.814835739"/>
<node visible="true" id="-83" lat="37.367704075" lon="-121.81400317500001"/>
<node visible="true" id="-84" lat="37.367757848000004" lon="-121.814094596"/>
<node visible="true" id="-85" lat="37.367795539" lon="-121.814089202"/>
<node visible="true" id="-86" lat="37.367816861" lon="-121.81413025500001"/>
<node visible="true" id="-87" lat="37.367907811" lon="-121.814119879"/>
<node visible="true" id="-88" lat="37.367924716000005" lon="-121.814077159"/>
<node visible="true" id="-89" lat="37.367901694000004" lon="-121.814035801"/>
<node visible="true" id="-90" lat="37.367810799000004" lon="-121.814046109"/>
<node visible="true" id="-91" lat="37.367758300000006" lon="-121.81395378100001"/>
<node visible="true" id="-92" lat="37.367719895" lon="-121.813959162"/>
<node visible="true" id="-93" lat="37.371119087000004" lon="-121.81073052600001"><tag k="addr:city" v="San Jose"/><tag k="addr:housenumber" v="411"/><tag k="addr:street" v="Fleming Avenue"/><tag k="addr:postcode" v="95127"/></node>
<node visible="true" id="-94" lat="37.369296392" lon="-121.81288503500001"><tag k="addr:city" v="San Jose"/><tag k="addr:housenumber" v="400"/><tag k="addr:street" v="Mahoney Drive"/><tag k="addr:postcode" v="95127"/></node>
<node visible="true" id="-95" lat="37.369126040000005" lon="-121.80809003700001"><tag k="addr:city" v="San Jose"/><tag k="addr:housenumber" v="751"/><tag k="addr:street" v="Fleming Avenue"/><tag k="addr:postcode" v="95127"/></node>
<node visible="true" id="-96" lat="37.369137757000004" lon="-121.812797552"><tag k="addr:city" v="San Jose"/><tag k="addr:housenumber" v="402"/><tag k="addr:street" v="Mahoney Drive"/><tag k="addr:postcode" v="95127"/></node>
<node visible="true" id="-97" lat="37.369329143" lon="-121.81238353"><tag k="addr:city" v="San Jose"/><tag k="addr:housenumber" v="14620"/><tag k="addr:street" v="Palomino Drive"/><tag k="addr:postcode" v="95127"/></node>
<node visible="true" id="-98" lat="37.369356449" lon="-121.811929284"><tag k="addr:city" v="San Jose"/><tag k="addr:housenumber" v="14630"/><tag k="addr:street" v="Palomino Drive"/><tag k="addr:postcode" v="95127"/></node>
<node visible="true" id="-99" lat="37.369653637" lon="-121.812862542"><tag k="addr:city" v="San Jose"/><tag k="addr:housenumber" v="14620"/><tag k="addr:street" v="Reeves Court"/><tag k="addr:postcode" v="95127"/></node>
<node visible="true" id="-100" lat="37.369554014" lon="-121.812489556"><tag k="addr:city" v="San Jose"/><tag k="addr:housenumber" v="14621"/><tag k="addr:street" v="Palomino Drive"/><tag k="addr:postcode" v="95127"/></node>
<node visible="true" id="-101" lat="37.370309944" lon="-121.811171094"><tag k="addr:city" v="San Jose"/><tag k="addr:housenumber" v="14681"/><tag k="addr:street" v="Palomino Drive"/><tag k="addr:postcode" v="95127"/></node>
<node visible="true" id="-102" lat="37.370521074" lon="-121.811513519"><tag k="addr:city" v="San Jose"/><tag k="addr:housenumber" v="14690"/><tag k="addr:street" v="East Hills Drive"/><tag k="addr:postcode" v="95127"/></node>
<node visible="true" id="-103" lat="37.36769262" lon="-121.816349626"><tag k="addr:city" v="San Jose"/><tag k="addr:housenumber" v="3636"/><tag k="addr:street" v="East Hills Drive"/><tag k="addr:postcode" v="95127"/></node>
<node visible="true" id="-104" lat="37.366037316" lon="-121.81613263000001"><tag k="addr:city" v="San Jose"/><tag k="addr:housenumber" v="364"/><tag k="addr:street" v="Meadow Lane"/><tag k="addr:postcode" v="95127"/></node>
<node visible="true" id="-105" lat="37.36461706" lon="-121.815547507"><tag k="addr:city" v="San Jose"/><tag k="addr:housenumber" v="10311"/><tag k="addr:street" v="Meadow Lane"/><tag k="addr:postcode" v="95127"/></node>
<node visible="true" id="-106" lat="37.367628038" lon="-121.814795648"><tag k="addr:city" v="San Jose"/><tag k="addr:housenumber" v="3720"/><tag k="addr:street" v="East Hills Drive"/><tag k="addr:postcode" v="95127"/></node>
<node visible="true" id="-107" lat="37.366937242" lon="-121.806772588"><tag k="addr:city" v="San Jose"/><tag k="addr:housenumber" v="970"/><tag k="addr:street" v="Hobie Lane"/><tag k="addr:unit" v="2"/><tag k="addr:postcode" v="95127"/></node>
<node visible="true" id="-108" lat="37.371291482000004" lon="-121.811255364"><tag k="addr:city" v="San Jose"/><tag k="addr:housenumber" v="401"/><tag k="addr:street" v="Fleming Avenue"/><tag k="addr:postcode" v="95127"/></node>
<node visible="true" id="-109" lat="37.369862736" lon="-121.813248537"><tag k="addr:city" v="San Jose"/><tag k="addr:housenumber" v="14610"/><tag k="addr:street" v="Reeves Court"/><tag k="addr:postcode" v="95127"/></node>
<node visible="true" id="-110" lat="37.369765307" lon="-121.81215455300001"><tag k="addr:city" v="San Jose"/><tag k="addr:housenumber" v="14633"/><tag k="addr:street" v="Palomino Drive"/><tag k="addr:postcode" v="95127"/></node>
<node visible="true" id="-111" lat="37.369475267000006" lon="-121.81157868300001"><tag k="addr:city" v="San Jose"/><tag k="addr:housenumber" v="14644"/><tag k="addr:street" v="Palomino Drive"/><tag k="addr:postcode" v="95127"/></node>
<node visible="true" id="-112" lat="37.370829998000005" lon="-121.811064207"><tag k="addr:city" v="San Jose"/><tag k="addr:housenumber" v="14720"/><tag k="addr:street" v="East Hills Drive"/><tag k="addr:postcode" v="95127"/></node>
<node visible="true" id="-113" lat="37.370610879000004" lon="-121.812175119"><tag k="addr:city" v="San Jose"/><tag k="addr:housenumber" v="10451"/><tag k="addr:street" v="East Hills Court"/><tag k="addr:postcode" v="95127"/></node>
<node visible="true" id="-114" lat="37.370945676000005" lon="-121.810328431"><tag k="addr:city" v="San Jose"/><tag k="addr:housenumber" v="455"/><tag k="addr:street" v="Fleming Avenue"/><tag k="addr:postcode" v="95127"/></node>
<node visible="true" id="-115" lat="37.369796564000005" lon="-121.812674806"><tag k="addr:city" v="San Jose"/><tag k="addr:housenumber" v="14626"/><tag k="addr:street" v="Reeves Court"/><tag k="addr:postcode" v="95127"/></node>
<node visible="true" id="-116" lat="37.369681294" lon="-121.81104869400001"><tag k="addr:city" v="San Jose"/><tag k="addr:housenumber" v="14668"/><tag k="addr:street" v="Palomino Drive"/><tag k="addr:postcode" v="95127"/></node>
<node visible="true" id="-117" lat="37.370418902000004" lon="-121.811701974"><tag k="addr:city" v="San Jose"/><tag k="addr:housenumber" v="14680"/><tag k="addr:street" v="East Hills Drive"/><tag k="addr:postcode" v="95127"/></node>
<node visible="true" id="-118" lat="37.370445689" lon="-121.810964643"><tag k="addr:city" v="San Jose"/><tag k="addr:housenumber" v="14693"/><tag k="addr:street" v="Palomino Drive"/><tag k="addr:postcode" v="95127"/></node>
<node visible="true" id="-119" lat="37.370110505" lon="-121.810114243"><tag k="addr:city" v="San Jose"/><tag k="addr:housenumber" v="14716"/><tag k="addr:street" v="Palomino Drive"/><tag k="addr:postcode" v="95127"/></node>
<node visible="true" id="-120" lat="37.371110422" lon="-121.81153990300001"><tag k="addr:city" v="San Jose"/><tag k="addr:housenumber" v="14723"/><tag k="addr:street" v="East Hills Drive"/><tag k="addr:postcode" v="95127"/></node>
<node visible="true" id="-121" lat="37.370205777" lon="-121.809879272"><tag k="addr:city" v="San Jose"/><tag k="addr:housenumber" v="14728"/><tag k="addr:street" v="Palomino Drive"/><tag k="addr:postcode" v="95127"/></node>
<node visible="true" id="-122" lat="37.369996834000005" lon="-121.812659741"><tag k="addr:city" v="San Jose"/><tag k="addr:housenumber" v="14630"/><tag k="addr:street" v="Reeves Court"/><tag k="addr:postcode" v="95127"/></node>
<node visible="true" id="-123" lat="37.369992793" lon="-121.812358055"><tag k="addr:city" v="San Jose"/><tag k="addr:housenumber" v="14640"/><tag k="addr:street" v="East Hills Drive"/><tag k="addr:postcode" v="95127"/></node>
<node visible="true" id="-124" lat="37.369942921" lon="-121.81184676400001"><tag k="addr:city" v="San Jose"/><tag k="addr:housenumber" v="14645"/><tag k="addr:street" v="Palomino Drive"/><tag k="addr:postcode" v="95127"/></node>
<node visible="true" id="-125" lat="37.370188952" lon="-121.811387061"><tag k="addr:city" v="San Jose"/><tag k="addr:housenumber" v="14669"/><tag k="addr:street" v="Palomino Drive"/><tag k="addr:postcode" v="95127"/></node>
<node visible="true" id="-126" lat="37.370629883" lon="-121.81139480200001"><tag k="addr:city" v="San Jose"/><tag k="addr:housenumber" v="14700"/><tag k="addr:street" v="East Hills Drive"/><tag k="addr:postcode" v="95127"/></node>
<node visible="true" id="-127" lat="37.370935703" lon="-121.81169445900001"><tag k="addr:city" v="San Jose"/><tag k="addr:housenumber" v="14705"/><tag k="addr:street" v="East Hills Drive"/><tag k="addr:postcode" v="95127"/></node>
<node visible="true" id="-128" lat="37.370724638000006" lon="-121.811206216"><tag k="addr:city" v="San Jose"/><tag k="addr:housenumber" v="14710"/><tag k="addr:street" v="East Hills Drive"/><tag k="addr:postcode" v="95127"/></node>
<node visible="true" id="-129" lat="37.370640177000006" lon="-121.810471542"><tag k="addr:city" v="San Jose"/><tag k="addr:housenumber" v="14717"/><tag k="addr:street" v="Palomino Drive"/><tag k="addr:postcode" v="95127"/></node>
<node visible="true" id="-130" lat="37.370109587" lon="-121.81218844200001"><tag k="addr:city" v="San Jose"/><tag k="addr:housenumber" v="14650"/><tag k="addr:street" v="East Hills Drive"/><tag k="addr:postcode" v="95127"/></node>
<node visible="true" id="-131" lat="37.370074880000004" lon="-121.811644896"><tag k="addr:city" v="San Jose"/><tag k="addr:housenumber" v="14657"/><tag k="addr:street" v="Palomino Drive"/><tag k="addr:postcode" v="95127"/></node>
<node visible="true" id="-132" lat="37.370222675" lon="-121.81201873"><tag k="addr:city" v="San Jose"/><tag k="addr:housenumber" v="14660"/><tag k="addr:street" v="East Hills Drive"/><tag k="addr:postcode" v="95127"/></node>
<node visible="true" id="-133" lat="37.37032456" lon="-121.811853466"><tag k="addr:city" v="San Jose"/><tag k="addr:housenumber" v="14670"/><tag k="addr:street" v="East Hills Drive"/><tag k="addr:postcode" v="95127"/></node>
<node visible="true" id="-134" lat="37.370570595000004" lon="-121.810730194"><tag k="addr:city" v="San Jose"/><tag k="addr:housenumber" v="14705"/><tag k="addr:street" v="Palomino Drive"/><tag k="addr:postcode" v="95127"/></node>
<node visible="true" id="-135" lat="37.370795518" lon="-121.81016800200001"><tag k="addr:city" v="San Jose"/><tag k="addr:housenumber" v="14729"/><tag k="addr:street" v="Palomino Drive"/><tag k="addr:postcode" v="95127"/></node>
<node visible="true" id="-136" lat="37.370950678" lon="-121.810876074"><tag k="addr:city" v="San Jose"/><tag k="addr:housenumber" v="14730"/><tag k="addr:street" v="East Hills Drive"/><tag k="addr:postcode" v="95127"/></node>
<node visible="true" id="-138" lat="37.368435658" lon="-121.80724931700001"/>
<node visible="true" id="-139" lat="37.368479337000004" lon="-121.807334948"/>
<node visible="true" id="-140" lat="37.368490201" lon="-121.80732622500001"/>
<node visible="true" id="-141" lat="37.368517216" lon="-121.80737914500001"/>
<node visible="true" id="-142" lat="37.368640353" lon="-121.80728053600001"/>
<node visible="true" id="-143" lat="37.368606431" lon="-121.80721403800001"/>
<node visible="true" id="-144" lat="37.36859116" lon="-121.807226263"/>
<node visible="true" id="-145" lat="37.368554388" lon="-121.807154209"/>
<node visible="true" id="-146" lat="37.368531578" lon="-121.807172463"/>
<node visible="true" id="-148" lat="37.366871921000005" lon="-121.80669176900001"/>
<node visible="true" id="-149" lat="37.366903836000006" lon="-121.806753549"/>
<node visible="true" id="-150" lat="37.366894385" lon="-121.80676119700001"/>
<node visible="true" id="-151" lat="37.366936247000005" lon="-121.806842251"/>
<node visible="true" id="-152" lat="37.367034175" lon="-121.806762816"/>
<node visible="true" id="-153" lat="37.367007665" lon="-121.80671148900001"/>
<node visible="true" id="-154" lat="37.367005253" lon="-121.806713442"/>
<node visible="true" id="-155" lat="37.366958012000005" lon="-121.80662197000001"/>
<node visible="true" id="-157" lat="37.367209033" lon="-121.80556455300001"/>
<node visible="true" id="-158" lat="37.367235918000006" lon="-121.805639048"/>
<node visible="true" id="-159" lat="37.367253194" lon="-121.80562926600001"/>
<node visible="true" id="-160" lat="37.367263772" lon="-121.80565859900001"/>
<node visible="true" id="-161" lat="37.367246799" lon="-121.80566821400001"/>
<node visible="true" id="-162" lat="37.367266197" lon="-121.80572196400001"/>
<node visible="true" id="-163" lat="37.367288532" lon="-121.805709311"/>
<node visible="true" id="-164" lat="37.367302308" lon="-121.80574744100001"/>
<node visible="true" id="-165" lat="37.367318755" lon="-121.805738093"/>
<node visible="true" id="-166" lat="37.3673037" lon="-121.805696431"/>
<node visible="true" id="-167" lat="37.367407025000006" lon="-121.80563787400001"/>
<node visible="true" id="-168" lat="37.367374064" lon="-121.80554658300001"/>
<node visible="true" id="-169" lat="37.367329257" lon="-121.805571989"/>
<node visible="true" id="-170" lat="37.367307673" lon="-121.80551224700001"/>
<node visible="true" id="-171" lat="37.367237657000004" lon="-121.805551941"/>
<node visible="true" id="-172" lat="37.367236591" lon="-121.80554892800001"/>
<node visible="true" id="-174" lat="37.36703681" lon="-121.807046364"/>
<node visible="true" id="-175" lat="37.367077498" lon="-121.80712202900001"/>
<node visible="true" id="-176" lat="37.367082100000005" lon="-121.807118152"/>
<node visible="true" id="-177" lat="37.367118616" lon="-121.807186071"/>
<node visible="true" id="-178" lat="37.367205017" lon="-121.80711318"/>
<node visible="true" id="-179" lat="37.367184996" lon="-121.80707593800001"/>
<node visible="true" id="-180" lat="37.367215885" lon="-121.80704991100001"/>
<node visible="true" id="-181" lat="37.367221687000004" lon="-121.80702729800001"/>
<node visible="true" id="-182" lat="37.367200936" lon="-121.806986534"/>
<node visible="true" id="-183" lat="37.367181961" lon="-121.806981109"/>
<node visible="true" id="-184" lat="37.367157395" lon="-121.80700180900001"/>
<node visible="true" id="-185" lat="37.367136244" lon="-121.806962482"/>
<node visible="true" id="-187" lat="37.367147858" lon="-121.807204306"/>
<node visible="true" id="-188" lat="37.367177235" lon="-121.80728431600001"/>
<node visible="true" id="-189" lat="37.36716286" lon="-121.80729259900001"/>
<node visible="true" id="-190" lat="37.367189649000004" lon="-121.80736564700001"/>
<node visible="true" id="-191" lat="37.367284832" lon="-121.80731080500001"/>
<node visible="true" id="-192" lat="37.367261612" lon="-121.807247559"/>
<node visible="true" id="-193" lat="37.367304711" lon="-121.807222744"/>
<node visible="true" id="-194" lat="37.367271762" lon="-121.807132932"/>
<node visible="true" id="-196" lat="37.368214650000006" lon="-121.806941741"/>
<node visible="true" id="-197" lat="37.368243753" lon="-121.806997108"/>
<node visible="true" id="-198" lat="37.368265044000005" lon="-121.80697955100001"/>
<node visible="true" id="-199" lat="37.368273032000005" lon="-121.80699473000001"/>
<node visible="true" id="-200" lat="37.368284177" lon="-121.80698553"/>
<node visible="true" id="-201" lat="37.368290731" lon="-121.80699882500001"/>
<node visible="true" id="-202" lat="37.368298929000005" lon="-121.80700010500001"/>
<node visible="true" id="-203" lat="37.36831531" lon="-121.80703122700001"/>
<node visible="true" id="-204" lat="37.368419019" lon="-121.80694562800001"/>
<node visible="true" id="-205" lat="37.368401618" lon="-121.80691249200001"/>
<node visible="true" id="-206" lat="37.368423157" lon="-121.806894732"/>
<node visible="true" id="-207" lat="37.368409628" lon="-121.80686899400001"/>
<node visible="true" id="-208" lat="37.368413786000005" lon="-121.80686559200001"/>
<node visible="true" id="-209" lat="37.368379170000004" lon="-121.806799736"/>
<node visible="true" id="-210" lat="37.368253698000004" lon="-121.806903296"/>
<node visible="true" id="-211" lat="37.368255984" lon="-121.80690767200001"/>
<node visible="true" id="-213" lat="37.367080759000004" lon="-121.806410442"/>
<node visible="true" id="-214" lat="37.367121399000006" lon="-121.80649784100001"/>
<node visible="true" id="-215" lat="37.367123226000004" lon="-121.80649649700001"/>
<node visible="true" id="-216" lat="37.36714938" lon="-121.80655274"/>
<node visible="true" id="-217" lat="37.367189423" lon="-121.80652353500001"/>
<node visible="true" id="-218" lat="37.367189719" lon="-121.806524158"/>
<node visible="true" id="-219" lat="37.367253438000006" lon="-121.80647767800001"/>
<node visible="true" id="-220" lat="37.367254887" lon="-121.806480801"/>
<node visible="true" id="-221" lat="37.367282525" lon="-121.80646060100001"/>
<node visible="true" id="-222" lat="37.367248914" lon="-121.806388295"/>
<node visible="true" id="-223" lat="37.367235981" lon="-121.806397739"/>
<node visible="true" id="-224" lat="37.367200975" lon="-121.806322448"/>
<node visible="true" id="-225" lat="37.367119642000006" lon="-121.806381801"/>
<node visible="true" id="-226" lat="37.367115994" lon="-121.80637399400001"/>
<node visible="true" id="-227" lat="37.36710104" lon="-121.806384918"/>
<node visible="true" id="-228" lat="37.367104769" lon="-121.80639293200001"/>
<node visible="true" id="-230" lat="37.367867678" lon="-121.806984091"/>
<node visible="true" id="-231" lat="37.367896948" lon="-121.807046618"/>
<node visible="true" id="-232" lat="37.367889969000004" lon="-121.80705176200001"/>
<node visible="true" id="-233" lat="37.367928333" lon="-121.80713368500001"/>
<node visible="true" id="-234" lat="37.368023934" lon="-121.807063432"/>
<node visible="true" id="-235" lat="37.368001988" lon="-121.807016554"/>
<node visible="true" id="-236" lat="37.368020848" lon="-121.807002705"/>
<node visible="true" id="-237" lat="37.368002336" lon="-121.80696318400001"/>
<node visible="true" id="-238" lat="37.368045678" lon="-121.80693131800001"/>
<node visible="true" id="-239" lat="37.368018473" lon="-121.806873232"/>
<node visible="true" id="-241" lat="37.367372709" lon="-121.805947036"/>
<node visible="true" id="-242" lat="37.367406029" lon="-121.80602085100001"/>
<node visible="true" id="-243" lat="37.367421643" lon="-121.80600976800001"/>
<node visible="true" id="-244" lat="37.367433786" lon="-121.80603661600001"/>
<node visible="true" id="-245" lat="37.367417452000005" lon="-121.806048203"/>
<node visible="true" id="-246" lat="37.367440693" lon="-121.806099646"/>
<node visible="true" id="-247" lat="37.367464835" lon="-121.80608251700001"/>
<node visible="true" id="-248" lat="37.367468454000004" lon="-121.806090564"/>
<node visible="true" id="-249" lat="37.367496445" lon="-121.806070714"/>
<node visible="true" id="-250" lat="37.367491297" lon="-121.806059372"/>
<node visible="true" id="-251" lat="37.367573137" lon="-121.806001335"/>
<node visible="true" id="-252" lat="37.367533383" lon="-121.80591333100001"/>
<node visible="true" id="-253" lat="37.367491384000004" lon="-121.805943088"/>
<node visible="true" id="-254" lat="37.367466320000005" lon="-121.805887588"/>
<node visible="true" id="-255" lat="37.36739669" lon="-121.805936958"/>
<node visible="true" id="-256" lat="37.367394304" lon="-121.805931685"/>
<node visible="true" id="-258" lat="37.366530837" lon="-121.80595416700001"/>
<node visible="true" id="-259" lat="37.366562248" lon="-121.80603906500001"/>
<node visible="true" id="-260" lat="37.366619862" lon="-121.80600562500001"/>
<node visible="true" id="-261" lat="37.366601304" lon="-121.80595547"/>
<node visible="true" id="-262" lat="37.366619606" lon="-121.805944846"/>
<node visible="true" id="-263" lat="37.366664642" lon="-121.80606659700001"/>
<node visible="true" id="-264" lat="37.366734697000005" lon="-121.806025906"/>
<node visible="true" id="-265" lat="37.366676782" lon="-121.805869344"/>
<node visible="true" id="-266" lat="37.366608303" lon="-121.80590913200001"/>
<node visible="true" id="-267" lat="37.366613928" lon="-121.80592437400001"/>
<node visible="true" id="-268" lat="37.366596538" lon="-121.80593446300001"/>
<node visible="true" id="-269" lat="37.366590992" lon="-121.80591942900001"/>
<node visible="true" id="-270" lat="37.366579049" lon="-121.80592637900001"/>
<node visible="true" id="-271" lat="37.366573983" lon="-121.80591266200001"/>
<node visible="true" id="-272" lat="37.366538403" lon="-121.805933307"/>
<node visible="true" id="-273" lat="37.366543417" lon="-121.805946852"/>
<node visible="true" id="-275" lat="37.36693633" lon="-121.80601649200001"/>
<node visible="true" id="-276" lat="37.367002354" lon="-121.80616019000001"/>
<node visible="true" id="-277" lat="37.367021377" lon="-121.80614644600001"/>
<node visible="true" id="-278" lat="37.367106856" lon="-121.80608479200001"/>
<node visible="true" id="-279" lat="37.367075775" lon="-121.80601714100001"/>
<node visible="true" id="-280" lat="37.367071123" lon="-121.806020501"/>
<node visible="true" id="-281" lat="37.367055622" lon="-121.805986712"/>
<node visible="true" id="-282" lat="37.367043716000005" lon="-121.80599531200001"/>
<node visible="true" id="-283" lat="37.367024300000004" lon="-121.805953023"/>
<node visible="true" id="-285" lat="37.36728997" lon="-121.80576756500001"/>
<node visible="true" id="-286" lat="37.367320311" lon="-121.805840055"/>
<node visible="true" id="-287" lat="37.367335170000004" lon="-121.80583030000001"/>
<node visible="true" id="-288" lat="37.367367116000004" lon="-121.80590660400001"/>
<node visible="true" id="-289" lat="37.367487672" lon="-121.80582742600001"/>
<node visible="true" id="-290" lat="37.367452997" lon="-121.805744605"/>
<node visible="true" id="-291" lat="37.367401449" lon="-121.805778461"/>
<node visible="true" id="-292" lat="37.367373810000004" lon="-121.805712489"/>
<node visible="true" id="-294" lat="37.366762884" lon="-121.80652584500001"/>
<node visible="true" id="-295" lat="37.366803928" lon="-121.80660650600001"/>
<node visible="true" id="-296" lat="37.366860049" lon="-121.806561649"/>
<node visible="true" id="-297" lat="37.366843357" lon="-121.80652890500001"/>
<node visible="true" id="-298" lat="37.366860651" lon="-121.80651509900001"/>
<node visible="true" id="-299" lat="37.366871241000005" lon="-121.806535932"/>
<node visible="true" id="-300" lat="37.366861901" lon="-121.80654337400001"/>
<node visible="true" id="-301" lat="37.366886549" lon="-121.80659177800001"/>
<node visible="true" id="-302" lat="37.366893505" lon="-121.806586256"/>
<node visible="true" id="-303" lat="37.366909175" lon="-121.806617055"/>
<node visible="true" id="-304" lat="37.366975772" lon="-121.806563846"/>
<node visible="true" id="-305" lat="37.366970262" lon="-121.80655308200001"/>
<node visible="true" id="-306" lat="37.366960478" lon="-121.80653381"/>
<node visible="true" id="-307" lat="37.366958843" lon="-121.806535124"/>
<node visible="true" id="-308" lat="37.366929626" lon="-121.806477727"/>
<node visible="true" id="-309" lat="37.366931261000005" lon="-121.80647641300001"/>
<node visible="true" id="-310" lat="37.366901103000004" lon="-121.80641721100001"/>
<node visible="true" id="-311" lat="37.366840935" lon="-121.80646526700001"/>
<node visible="true" id="-312" lat="37.366836527000004" lon="-121.806456585"/>
<node visible="true" id="-313" lat="37.366818014" lon="-121.806471371"/>
<node visible="true" id="-314" lat="37.366821777000006" lon="-121.80647880000001"/>
<node visible="true" id="-316" lat="37.368152045" lon="-121.806740355"/>
<node visible="true" id="-317" lat="37.368190941" lon="-121.806814062"/>
<node visible="true" id="-318" lat="37.368194379" lon="-121.806811198"/>
<node visible="true" id="-319" lat="37.368203310000006" lon="-121.80682811300001"/>
<node visible="true" id="-320" lat="37.368205139000004" lon="-121.80682659700001"/>
<node visible="true" id="-321" lat="37.368222651" lon="-121.80685976900001"/>
<node visible="true" id="-322" lat="37.368296645" lon="-121.80679843"/>
<node visible="true" id="-323" lat="37.368307943000005" lon="-121.80681979200001"/>
<node visible="true" id="-324" lat="37.368323386" lon="-121.80680695000001"/>
<node visible="true" id="-325" lat="37.368311819000006" lon="-121.806784999"/>
<node visible="true" id="-326" lat="37.368329423000006" lon="-121.806770439"/>
<node visible="true" id="-327" lat="37.368299754" lon="-121.80671423800001"/>
<node visible="true" id="-328" lat="37.368324067" lon="-121.806694117"/>
<node visible="true" id="-329" lat="37.368289528000005" lon="-121.806628677"/>
<node visible="true" id="-330" lat="37.368258561000005" lon="-121.80665432400001"/>
<node visible="true" id="-331" lat="37.368249738" lon="-121.806637581"/>
<node visible="true" id="-332" lat="37.368194125" lon="-121.806683688"/>
<node visible="true" id="-333" lat="37.368202141000005" lon="-121.80669883300001"/>
<node visible="true" id="-335" lat="37.367041768" lon="-121.818066513"/>
<node visible="true" id="-336" lat="37.367103705000005" lon="-121.818132648"/>
<node visible="true" id="-337" lat="37.367144034" lon="-121.818073376"/>
<node visible="true" id="-338" lat="37.367157253" lon="-121.818087512"/>
<node visible="true" id="-339" lat="37.367180071" lon="-121.81805398300001"/>
<node visible="true" id="-340" lat="37.367185227" lon="-121.818059511"/>
<node visible="true" id="-341" lat="37.367235639" lon="-121.81798541200001"/>
<node visible="true" id="-342" lat="37.367216911" lon="-121.81796543300001"/>
<node visible="true" id="-343" lat="37.367241628" lon="-121.81792911400001"/>
<node visible="true" id="-344" lat="37.367179961000005" lon="-121.81786329200001"/>
<node visible="true" id="-346" lat="37.367488964" lon="-121.80631809"/>
<node visible="true" id="-347" lat="37.367500743" lon="-121.806343143"/>
<node visible="true" id="-348" lat="37.367540817000005" lon="-121.80631362800001"/>
<node visible="true" id="-349" lat="37.36756797" lon="-121.80637143700001"/>
<node visible="true" id="-350" lat="37.367583589000006" lon="-121.80635994100001"/>
<node visible="true" id="-351" lat="37.367596737" lon="-121.806387943"/>
<node visible="true" id="-352" lat="37.367578236" lon="-121.806401593"/>
<node visible="true" id="-353" lat="37.367601122" lon="-121.80645037900001"/>
<node visible="true" id="-354" lat="37.367607824000004" lon="-121.806445471"/>
<node visible="true" id="-355" lat="37.367738405000004" lon="-121.806349263"/>
<node visible="true" id="-356" lat="37.367696979" lon="-121.806260987"/>
<node visible="true" id="-357" lat="37.367655410000005" lon="-121.80629161300001"/>
<node visible="true" id="-358" lat="37.36762992" lon="-121.806237343"/>
<node visible="true" id="-359" lat="37.367572979" lon="-121.80627929600001"/>
<node visible="true" id="-360" lat="37.367571209000005" lon="-121.806275548"/>
<node visible="true" id="-361" lat="37.367536646000005" lon="-121.80630102800001"/>
<node visible="true" id="-362" lat="37.36753034" lon="-121.80628760100001"/>
<node visible="true" id="-364" lat="37.367942954" lon="-121.80716739200001"/>
<node visible="true" id="-365" lat="37.367972777000006" lon="-121.807232131"/>
<node visible="true" id="-366" lat="37.367977789" lon="-121.807228502"/>
<node visible="true" id="-367" lat="37.367993558" lon="-121.80726274400001"/>
<node visible="true" id="-368" lat="37.368002253" lon="-121.80725646200001"/>
<node visible="true" id="-369" lat="37.368023144000006" lon="-121.807301772"/>
<node visible="true" id="-370" lat="37.368112198000006" lon="-121.80723728900001"/>
<node visible="true" id="-371" lat="37.368045688" lon="-121.80709303100001"/>
<node visible="true" id="-373" lat="37.366840252" lon="-121.80579920900001"/>
<node visible="true" id="-374" lat="37.366862114" lon="-121.80586105500001"/>
<node visible="true" id="-375" lat="37.366842519" lon="-121.80587193100001"/>
<node visible="true" id="-376" lat="37.366874526000004" lon="-121.80596251700001"/>
<node visible="true" id="-377" lat="37.36700307" lon="-121.80589122200001"/>
<node visible="true" id="-378" lat="37.36697559" lon="-121.80581344900001"/>
<node visible="true" id="-379" lat="37.366986341" lon="-121.80580747600001"/>
<node visible="true" id="-380" lat="37.366958595" lon="-121.80572894100001"/>
<node visible="true" id="-381" lat="37.366929851" lon="-121.805744888"/>
<node visible="true" id="-382" lat="37.366931208000004" lon="-121.80574880100001"/>
<node visible="true" id="-384" lat="37.366986965" lon="-121.80622000700001"/>
<node visible="true" id="-385" lat="37.367022455000004" lon="-121.806293792"/>
<node visible="true" id="-386" lat="37.367057911" lon="-121.80626705300001"/>
<node visible="true" id="-387" lat="37.367094072" lon="-121.80634226000001"/>
<node visible="true" id="-388" lat="37.367175233000005" lon="-121.80628097700001"/>
<node visible="true" id="-389" lat="37.367142509000004" lon="-121.806212919"/>
<node visible="true" id="-390" lat="37.367162204" lon="-121.80619805200001"/>
<node visible="true" id="-391" lat="37.367124862000004" lon="-121.80612038100001"/>
<node visible="true" id="-392" lat="37.367116996" lon="-121.80612633400001"/>
<node visible="true" id="-393" lat="37.367109318000004" lon="-121.806110336"/>
<node visible="true" id="-394" lat="37.367096548" lon="-121.80611998900001"/>
<node visible="true" id="-395" lat="37.367104440000006" lon="-121.80613643900001"/>
<node visible="true" id="-396" lat="37.367091283" lon="-121.806146361"/>
<node visible="true" id="-397" lat="37.367091308" lon="-121.80614646500001"/>
<node visible="true" id="-398" lat="37.367028374" lon="-121.806193957"/>
<node visible="true" id="-399" lat="37.367026549" lon="-121.80619013900001"/>
<node visible="true" id="-401" lat="37.366950301" lon="-121.80686782500001"/>
<node visible="true" id="-402" lat="37.366985374" lon="-121.80693950300001"/>
<node visible="true" id="-403" lat="37.367000972" lon="-121.80692752600001"/>
<node visible="true" id="-404" lat="37.367037683" lon="-121.80700253600001"/>
<node visible="true" id="-405" lat="37.367153461" lon="-121.80691360600001"/>
<node visible="true" id="-406" lat="37.367111082" lon="-121.806827002"/>
<node visible="true" id="-407" lat="37.36706972" lon="-121.806858765"/>
<node visible="true" id="-408" lat="37.367062738" lon="-121.806844498"/>
<node visible="true" id="-409" lat="37.367093102000005" lon="-121.806821181"/>
<node visible="true" id="-410" lat="37.367077471" lon="-121.80678928200001"/>
<node visible="true" id="-411" lat="37.367045583" lon="-121.80681377600001"/>
<node visible="true" id="-412" lat="37.367041045" lon="-121.806804509"/>
<node visible="true" id="-413" lat="37.366982892" lon="-121.806849193"/>
<node visible="true" id="-414" lat="37.366980609" lon="-121.806844541"/>
<node visible="true" id="-416" lat="37.367940013" lon="-121.80631741"/>
<node visible="true" id="-417" lat="37.368011188000004" lon="-121.806454833"/>
<node visible="true" id="-418" lat="37.368142879000004" lon="-121.806347801"/>
<node visible="true" id="-419" lat="37.36810967" lon="-121.80628369200001"/>
<node visible="true" id="-420" lat="37.368085249" lon="-121.80630357000001"/>
<node visible="true" id="-421" lat="37.368047256000004" lon="-121.80623018700001"/>
<node visible="true" id="-423" lat="37.367780685" lon="-121.80681445600001"/>
<node visible="true" id="-424" lat="37.367811919000005" lon="-121.806885586"/>
<node visible="true" id="-425" lat="37.367827641000005" lon="-121.80687477900001"/>
<node visible="true" id="-426" lat="37.367839963" lon="-121.80690283700001"/>
<node visible="true" id="-427" lat="37.367824186" lon="-121.80691371"/>
<node visible="true" id="-428" lat="37.367847088000005" lon="-121.80696587000001"/>
<node visible="true" id="-429" lat="37.367878561000005" lon="-121.806944189"/>
<node visible="true" id="-430" lat="37.367874918000005" lon="-121.806935866"/>
<node visible="true" id="-431" lat="37.367978883" lon="-121.806864176"/>
<node visible="true" id="-432" lat="37.367940953" lon="-121.80677778600001"/>
<node visible="true" id="-433" lat="37.367917231" lon="-121.806794131"/>
<node visible="true" id="-434" lat="37.367892345" lon="-121.806737463"/>
<node visible="true" id="-436" lat="37.367192479" lon="-121.806651091"/>
<node visible="true" id="-437" lat="37.367233461000005" lon="-121.80673973600001"/>
<node visible="true" id="-438" lat="37.367344669000005" lon="-121.80665901900001"/>
<node visible="true" id="-439" lat="37.367308167000004" lon="-121.806580053"/>
<node visible="true" id="-440" lat="37.367333228" lon="-121.80656187400001"/>
<node visible="true" id="-441" lat="37.367301176000005" lon="-121.806492555"/>
<node visible="true" id="-442" lat="37.367267697" lon="-121.806516884"/>
<node visible="true" id="-443" lat="37.367269548" lon="-121.80652090900001"/>
<node visible="true" id="-444" lat="37.367209402" lon="-121.80656459500001"/>
<node visible="true" id="-445" lat="37.367235096" lon="-121.80662017600001"/>
<node visible="true" id="-447" lat="37.367383180000004" lon="-121.806942301"/>
<node visible="true" id="-448" lat="37.367407815" lon="-121.806994387"/>
<node visible="true" id="-449" lat="37.367384605000005" lon="-121.80701163600001"/>
<node visible="true" id="-450" lat="37.367403201" lon="-121.807050918"/>
<node visible="true" id="-451" lat="37.367423476" lon="-121.80703585500001"/>
<node visible="true" id="-452" lat="37.367447547000005" lon="-121.807086693"/>
<node visible="true" id="-453" lat="37.36753723" lon="-121.807020019"/>
<node visible="true" id="-454" lat="37.367507254" lon="-121.80695675800001"/>
<node visible="true" id="-455" lat="37.367515259" lon="-121.806950806"/>
<node visible="true" id="-456" lat="37.367477903" lon="-121.80687189500001"/>
<node visible="true" id="-458" lat="37.367616943" lon="-121.80647020200001"/>
<node visible="true" id="-459" lat="37.367650432000005" lon="-121.806543574"/>
<node visible="true" id="-460" lat="37.367664857" lon="-121.80653326100001"/>
<node visible="true" id="-461" lat="37.367699634000004" lon="-121.80660940800001"/>
<node visible="true" id="-462" lat="37.367819331" lon="-121.806523678"/>
<node visible="true" id="-463" lat="37.36777836" lon="-121.806433932"/>
<node visible="true" id="-464" lat="37.367767202" lon="-121.80644192700001"/>
<node visible="true" id="-465" lat="37.367743553000004" lon="-121.80639009900001"/>
<node visible="true" id="-466" lat="37.367712514000004" lon="-121.806412338"/>
<node visible="true" id="-467" lat="37.367711468" lon="-121.806410048"/>
<node visible="true" id="-468" lat="37.367650166000004" lon="-121.80645399000001"/>
<node visible="true" id="-469" lat="37.367647539000004" lon="-121.80644826500001"/>
<node visible="true" id="-471" lat="37.367714447000004" lon="-121.80663334500001"/>
<node visible="true" id="-472" lat="37.367737364" lon="-121.806684231"/>
<node visible="true" id="-473" lat="37.367759097000004" lon="-121.80666888500001"/>
<node visible="true" id="-474" lat="37.367765879000004" lon="-121.80668394000001"/>
<node visible="true" id="-475" lat="37.367729915000005" lon="-121.80670932700001"/>
<node visible="true" id="-476" lat="37.367765617" lon="-121.80678865700001"/>
<node visible="true" id="-477" lat="37.367894326000005" lon="-121.80669775000001"/>
<node visible="true" id="-478" lat="37.367828925000005" lon="-121.80655247800001"/>
<node visible="true" id="-480" lat="37.367762505" lon="-121.805970989"/>
<node visible="true" id="-481" lat="37.367789536000004" lon="-121.80602249900001"/>
<node visible="true" id="-482" lat="37.367785156000004" lon="-121.80602610400001"/>
<node visible="true" id="-483" lat="37.367830260000005" lon="-121.806112103"/>
<node visible="true" id="-484" lat="37.36793139" lon="-121.806028834"/>
<node visible="true" id="-485" lat="37.367927463" lon="-121.806021365"/>
<node visible="true" id="-486" lat="37.367942903" lon="-121.80600866200001"/>
<node visible="true" id="-487" lat="37.367907454000004" lon="-121.805941106"/>
<node visible="true" id="-488" lat="37.367918598" lon="-121.80593194000001"/>
<node visible="true" id="-489" lat="37.367882879" lon="-121.80586386300001"/>
<node visible="true" id="-490" lat="37.367854603000005" lon="-121.80588714900001"/>
<node visible="true" id="-491" lat="37.367855814" lon="-121.80588944200001"/>
<node visible="true" id="-492" lat="37.367790918000004" lon="-121.805942853"/>
<node visible="true" id="-493" lat="37.367792638000005" lon="-121.80594615300001"/>
<node visible="true" id="-495" lat="37.368062203" lon="-121.806547749"/>
<node visible="true" id="-496" lat="37.368107253000005" lon="-121.80663123500001"/>
<node visible="true" id="-497" lat="37.368189498" lon="-121.80656154"/>
<node visible="true" id="-498" lat="37.368199187" lon="-121.806579501"/>
<node visible="true" id="-499" lat="37.368246769" lon="-121.806539173"/>
<node visible="true" id="-500" lat="37.368212107000005" lon="-121.806475004"/>
<node visible="true" id="-501" lat="37.368189812000004" lon="-121.80649388600001"/>
<node visible="true" id="-502" lat="37.368176760000004" lon="-121.80646970400001"/>
<node visible="true" id="-503" lat="37.368197558000006" lon="-121.80645207100001"/>
<node visible="true" id="-504" lat="37.368160446000005" lon="-121.806383314"/>
<node visible="true" id="-505" lat="37.368086881" lon="-121.80644566000001"/>
<node visible="true" id="-506" lat="37.368087041" lon="-121.806445972"/>
<node visible="true" id="-507" lat="37.368068435000005" lon="-121.80646175300001"/>
<node visible="true" id="-508" lat="37.368098334" lon="-121.80651713200001"/>
<node visible="true" id="-510" lat="37.366678964" lon="-121.80634160700001"/>
<node visible="true" id="-511" lat="37.366757986" lon="-121.80649709400001"/>
<node visible="true" id="-512" lat="37.366848693" lon="-121.806424691"/>
<node visible="true" id="-513" lat="37.366819208" lon="-121.80636666900001"/>
<node visible="true" id="-514" lat="37.366794903" lon="-121.806386067"/>
<node visible="true" id="-515" lat="37.366791974" lon="-121.80638030200001"/>
<node visible="true" id="-516" lat="37.366857295" lon="-121.80632817300001"/>
<node visible="true" id="-517" lat="37.366810688" lon="-121.806236505"/>
<node visible="true" id="-519" lat="37.36787866" lon="-121.80611687100001"/>
<node visible="true" id="-520" lat="37.367919309" lon="-121.80619597900001"/>
<node visible="true" id="-521" lat="37.367900768000005" lon="-121.806210899"/>
<node visible="true" id="-522" lat="37.367931846000005" lon="-121.806271393"/>
<node visible="true" id="-523" lat="37.367940272000006" lon="-121.806264623"/>
<node visible="true" id="-524" lat="37.367950164" lon="-121.80628389600001"/>
<node visible="true" id="-525" lat="37.368004599" lon="-121.80624004100001"/>
<node visible="true" id="-526" lat="37.367995593" lon="-121.806222503"/>
<node visible="true" id="-527" lat="37.36805025" lon="-121.806178411"/>
<node visible="true" id="-528" lat="37.368016323" lon="-121.80611232700001"/>
<node visible="true" id="-529" lat="37.368009503" lon="-121.80611785200001"/>
<node visible="true" id="-530" lat="37.367989932" lon="-121.806079792"/>
<node visible="true" id="-531" lat="37.367982254000005" lon="-121.806085991"/>
<node visible="true" id="-532" lat="37.36796314" lon="-121.80604876400001"/>
<node visible="true" id="-534" lat="37.367389175" lon="-121.805230479"/>
<node visible="true" id="-535" lat="37.367412605000005" lon="-121.80529455400001"/>
<node visible="true" id="-536" lat="37.367437347" lon="-121.805280326"/>
<node visible="true" id="-537" lat="37.367469628" lon="-121.80536857700001"/>
<node visible="true" id="-538" lat="37.367608926" lon="-121.80528859"/>
<node visible="true" id="-539" lat="37.367549269" lon="-121.80512556000001"/>
<node visible="true" id="-540" lat="37.367482287" lon="-121.805164"/>
<node visible="true" id="-541" lat="37.367484446" lon="-121.80516992300001"/>
<node visible="true" id="-542" lat="37.36741072" lon="-121.805212237"/>
<node visible="true" id="-543" lat="37.367412506" lon="-121.805217087"/>
<node visible="true" id="-545" lat="37.367287177" lon="-121.80675791700001"/>
<node visible="true" id="-546" lat="37.367354925" lon="-121.806902127"/>
<node visible="true" id="-547" lat="37.367441969000005" lon="-121.806837954"/>
<node visible="true" id="-548" lat="37.367420721" lon="-121.80679270600001"/>
<node visible="true" id="-549" lat="37.36743177" lon="-121.80678457100001"/>
<node visible="true" id="-550" lat="37.367415752" lon="-121.806750496"/>
<node visible="true" id="-551" lat="37.367419546" lon="-121.80674770600001"/>
<node visible="true" id="-552" lat="37.36738802" lon="-121.80668059700001"/>
<node visible="true" id="-553" lat="37.367358275" lon="-121.80670254900001"/>
<node visible="true" id="-554" lat="37.367359295" lon="-121.806704701"/>
<node visible="true" id="-556" lat="37.367467917" lon="-121.80611405900001"/>
<node visible="true" id="-557" lat="37.367492189000004" lon="-121.806166622"/>
<node visible="true" id="-558" lat="37.367480117" lon="-121.806175358"/>
<node visible="true" id="-559" lat="37.367500259" lon="-121.80621900400001"/>
<node visible="true" id="-560" lat="37.367497434" lon="-121.80622105200001"/>
<node visible="true" id="-561" lat="37.367520955" lon="-121.806271984"/>
<node visible="true" id="-562" lat="37.367651546000005" lon="-121.806177324"/>
<node visible="true" id="-563" lat="37.367584147" lon="-121.80603129500001"/>
<node visible="true" id="-564" lat="37.367510462000006" lon="-121.806084725"/>
<node visible="true" id="-565" lat="37.367504319000005" lon="-121.806071473"/>
<node visible="true" id="-566" lat="37.367475770000006" lon="-121.80609213800001"/>
<node visible="true" id="-567" lat="37.367481403" lon="-121.80610431500001"/>
<node visible="true" id="-569" lat="37.367489466" lon="-121.80543207400001"/>
<node visible="true" id="-570" lat="37.367521625" lon="-121.805506558"/>
<node visible="true" id="-571" lat="37.367493008000004" lon="-121.80552594800001"/>
<node visible="true" id="-572" lat="37.367525113" lon="-121.80560032800001"/>
<node visible="true" id="-573" lat="37.367553730000004" lon="-121.805580937"/>
<node visible="true" id="-574" lat="37.367555712000005" lon="-121.80558554800001"/>
<node visible="true" id="-575" lat="37.367621471" lon="-121.805540961"/>
<node visible="true" id="-576" lat="37.367613598000005" lon="-121.805522722"/>
<node visible="true" id="-577" lat="37.367629097000005" lon="-121.805512187"/>
<node visible="true" id="-578" lat="37.367636326" lon="-121.80552893500001"/>
<node visible="true" id="-579" lat="37.367697658000004" lon="-121.805487369"/>
<node visible="true" id="-580" lat="37.367662499000005" lon="-121.805405949"/>
<node visible="true" id="-581" lat="37.367600975" lon="-121.80544765100001"/>
<node visible="true" id="-582" lat="37.367620415000005" lon="-121.80549266000001"/>
<node visible="true" id="-583" lat="37.367604391" lon="-121.80550353100001"/>
<node visible="true" id="-584" lat="37.367555469" lon="-121.80539027900001"/>
<node visible="true" id="-585" lat="37.367549712" lon="-121.80539417000001"/>
<node visible="true" id="-586" lat="37.367535547" lon="-121.805361367"/>
<node visible="true" id="-587" lat="37.367517558" lon="-121.805373579"/>
<node visible="true" id="-588" lat="37.367530732000006" lon="-121.80540409400001"/>
<node visible="true" id="-590" lat="37.366558516000005" lon="-121.80700010500001"/>
<node visible="true" id="-591" lat="37.366592104000006" lon="-121.80709405700001"/>
<node visible="true" id="-592" lat="37.366708221" lon="-121.807028879"/>
<node visible="true" id="-593" lat="37.366703746" lon="-121.807016343"/>
<node visible="true" id="-594" lat="37.366648608000006" lon="-121.80686213400001"/>
<node visible="true" id="-595" lat="37.366575637000004" lon="-121.806903117"/>
<node visible="true" id="-596" lat="37.366601662" lon="-121.80697587600001"/>
<node visible="true" id="-598" lat="37.366460684" lon="-121.805759502"/>
<node visible="true" id="-599" lat="37.366498362" lon="-121.80586120000001"/>
<node visible="true" id="-600" lat="37.366489655" lon="-121.805866244"/>
<node visible="true" id="-601" lat="37.366506053" lon="-121.805910546"/>
<node visible="true" id="-602" lat="37.366512798" lon="-121.805906637"/>
<node visible="true" id="-603" lat="37.366518318000004" lon="-121.80592153200001"/>
<node visible="true" id="-604" lat="37.366583453000004" lon="-121.80588368000001"/>
<node visible="true" id="-605" lat="37.366560414000006" lon="-121.80582147000001"/>
<node visible="true" id="-606" lat="37.36657103" lon="-121.80581528900001"/>
<node visible="true" id="-607" lat="37.366569405" lon="-121.80581089"/>
<node visible="true" id="-608" lat="37.366630751" lon="-121.805775209"/>
<node visible="true" id="-609" lat="37.366595819000004" lon="-121.805680889"/>
<node visible="true" id="-611" lat="37.367431253" lon="-121.80715616500001"/>
<node visible="true" id="-612" lat="37.367471538000004" lon="-121.807243318"/>
<node visible="true" id="-613" lat="37.367513601" lon="-121.80721280600001"/>
<node visible="true" id="-614" lat="37.367540474" lon="-121.807270955"/>
<node visible="true" id="-615" lat="37.367632438" lon="-121.807204252"/>
<node visible="true" id="-616" lat="37.367600254" lon="-121.80713458500001"/>
<node visible="true" id="-617" lat="37.367588346000005" lon="-121.807143221"/>
<node visible="true" id="-618" lat="37.367553399" lon="-121.807067552"/>
<node visible="true" id="-620" lat="37.368384069" lon="-121.80705758600001"/>
<node visible="true" id="-621" lat="37.368458447" lon="-121.80719592700001"/>
<node visible="true" id="-622" lat="37.36855519" lon="-121.807114302"/>
<node visible="true" id="-623" lat="37.368523088" lon="-121.807054547"/>
<node visible="true" id="-624" lat="37.368518235" lon="-121.80705866100001"/>
<node visible="true" id="-625" lat="37.368475988" lon="-121.806980042"/>
<node visible="true" id="-627" lat="37.36766215" lon="-121.80579255200001"/>
<node visible="true" id="-628" lat="37.367738630000005" lon="-121.80593698300001"/>
<node visible="true" id="-629" lat="37.367747169000005" lon="-121.805929906"/>
<node visible="true" id="-630" lat="37.36775325" lon="-121.80594136900001"/>
<node visible="true" id="-631" lat="37.367776343" lon="-121.80592215600001"/>
<node visible="true" id="-632" lat="37.367770021000005" lon="-121.805910241"/>
<node visible="true" id="-633" lat="37.367802569000006" lon="-121.80588321"/>
<node visible="true" id="-634" lat="37.367767166" lon="-121.805816379"/>
<node visible="true" id="-635" lat="37.367837224000006" lon="-121.80575817"/>
<node visible="true" id="-636" lat="37.367795096" lon="-121.805678591"/>
<node visible="true" id="-637" lat="37.367716139" lon="-121.805744214"/>
<node visible="true" id="-638" lat="37.367717403" lon="-121.80574661200001"/>
<node visible="true" id="-640" lat="37.367568479" lon="-121.80560081"/>
<node visible="true" id="-641" lat="37.36757515" lon="-121.80561341900001"/>
<node visible="true" id="-642" lat="37.367569162" lon="-121.805618374"/>
<node visible="true" id="-643" lat="37.367648281" lon="-121.805767669"/>
<node visible="true" id="-644" lat="37.367753134000004" lon="-121.80568047300001"/>
<node visible="true" id="-645" lat="37.367723891000004" lon="-121.80562531100001"/>
<node visible="true" id="-646" lat="37.367693532000004" lon="-121.805650591"/>
<node visible="true" id="-647" lat="37.367682019" lon="-121.805628881"/>
<node visible="true" id="-648" lat="37.367737078000005" lon="-121.805583075"/>
<node visible="true" id="-649" lat="37.367700330000005" lon="-121.80551374100001"/>
<node visible="true" id="-650" lat="37.367613969000004" lon="-121.80558560300001"/>
<node visible="true" id="-651" lat="37.367605656" lon="-121.805569868"/>
<node visible="true" id="-653" lat="37.366597291000005" lon="-121.80614553500001"/>
<node visible="true" id="-654" lat="37.366651797" lon="-121.806304928"/>
<node visible="true" id="-655" lat="37.366794506000005" lon="-121.806224521"/>
<node visible="true" id="-656" lat="37.366759899" lon="-121.806128142"/>
<node visible="true" id="-657" lat="37.366728637" lon="-121.806145767"/>
<node visible="true" id="-658" lat="37.366706126000004" lon="-121.80608308400001"/>
<way visible="true" id="-1"><nd ref="-2"/><nd ref="-3"/><nd ref="-4"/><nd ref="-5"/><nd ref="-6"/><nd ref="-7"/><nd ref="-8"/><nd ref="-9"/><nd ref="-10"/><nd ref="-11"/><nd ref="-12"/><nd ref="-13"/><nd ref="-14"/><nd ref="-15"/><nd ref="-16"/><nd ref="-17"/><nd ref="-18"/><nd ref="-19"/><nd ref="-20"/><nd ref="-21"/><nd ref="-22"/><nd ref="-23"/><nd ref="-24"/><nd ref="-25"/><nd ref="-26"/><nd ref="-27"/><nd ref="-28"/><nd ref="-29"/><nd ref="-30"/><nd ref="-31"/><nd ref="-32"/><nd ref="-33"/><nd ref="-34"/><nd ref="-35"/><nd ref="-36"/><nd ref="-37"/><nd ref="-38"/><nd ref="-39"/><nd ref="-40"/><nd ref="-41"/><nd ref="-42"/><nd ref="-43"/><nd ref="-44"/><nd ref="-45"/><nd ref="-46"/><nd ref="-47"/><nd ref="-48"/><nd ref="-49"/><nd ref="-50"/><nd ref="-51"/><nd ref="-52"/><nd ref="-53"/><nd ref="-54"/><nd ref="-55"/><nd ref="-56"/><nd ref="-57"/><nd ref="-58"/><nd ref="-59"/><nd ref="-60"/><nd ref="-61"/><nd ref="-62"/><nd ref="-63"/><nd ref="-64"/><nd ref="-65"/><nd ref="-66"/><nd ref="-2"/><tag k="building" v="yes"/><tag k="height" v="2.80"/><tag k="ele" v="56.85"/></way>
<way visible="true" id="-67"><nd ref="-68"/><nd ref="-69"/><nd ref="-70"/><nd ref="-71"/><nd ref="-68"/><tag k="building" v="yes"/><tag k="height" v="3.63"/><tag k="ele" v="53.34"/></way>
<way visible="true" id="-72"><nd ref="-73"/><nd ref="-74"/><nd ref="-75"/><nd ref="-76"/><nd ref="-73"/><tag k="building" v="yes"/><tag k="height" v="3.38"/><tag k="ele" v="53.90"/></way>
<way visible="true" id="-77"><nd ref="-78"/><nd ref="-79"/><nd ref="-80"/><nd ref="-81"/><nd ref="-78"/><tag k="building" v="yes"/><tag k="height" v="3.82"/><tag k="ele" v="53.62"/></way>
<way visible="true" id="-82"><nd ref="-83"/><nd ref="-84"/><nd ref="-85"/><nd ref="-86"/><nd ref="-87"/><nd ref="-88"/><nd ref="-89"/><nd ref="-90"/><nd ref="-91"/><nd ref="-92"/><nd ref="-83"/><tag k="building" v="yes"/><tag k="height" v="3.84"/><tag k="ele" v="53.90"/></way>
<way visible="true" id="-137"><nd ref="-138"/><nd ref="-139"/><nd ref="-140"/><nd ref="-141"/><nd ref="-142"/><nd ref="-143"/><nd ref="-144"/><nd ref="-145"/><nd ref="-146"/><nd ref="-138"/><tag k="building" v="yes"/><tag k="height" v="3.63"/><tag k="ele" v="84.48"/><tag k="addr:city" v="San Jose"/><tag k="addr:housenumber" v="787"/><tag k="addr:street" v="Fleming Avenue"/><tag k="addr:postcode" v="95127"/></way>
<way visible="true" id="-147"><nd ref="-148"/><nd ref="-149"/><nd ref="-150"/><nd ref="-151"/><nd ref="-152"/><nd ref="-153"/><nd ref="-154"/><nd ref="-155"/><nd ref="-148"/><tag k="building" v="yes"/><tag k="height" v="6.02"/><tag k="ele" v="84.88"/><tag k="addr:city" v="San Jose"/><tag k="addr:housenumber" v="970"/><tag k="addr:street" v="Hobie Lane"/><tag k="addr:postcode" v="95127"/></way>
<way visible="true" id="-156"><nd ref="-157"/><nd ref="-158"/><nd ref="-159"/><nd ref="-160"/><nd ref="-161"/><nd ref="-162"/><nd ref="-163"/><nd ref="-164"/><nd ref="-165"/><nd ref="-166"/><nd ref="-167"/><nd ref="-168"/><nd ref="-169"/><nd ref="-170"/><nd ref="-171"/><nd ref="-172"/><nd ref="-157"/><tag k="building" v="yes"/><tag k="height" v="3.70"/><tag k="ele" v="81.17"/><tag k="addr:city" v="San Jose"/><tag k="addr:housenumber" v="986"/><tag k="addr:street" v="Feller Avenue"/><tag k="addr:postcode" v="95127"/></way>
<way visible="true" id="-173"><nd ref="-174"/><nd ref="-175"/><nd ref="-176"/><nd ref="-177"/><nd ref="-178"/><nd ref="-179"/><nd ref="-180"/><nd ref="-181"/><nd ref="-182"/><nd ref="-183"/><nd ref="-184"/><nd ref="-185"/><nd ref="-174"/><tag k="building" v="yes"/><tag k="height" v="4.48"/><tag k="ele" v="82.41"/><tag k="addr:city" v="San Jose"/><tag k="addr:housenumber" v="930"/><tag k="addr:street" v="Hobie Lane"/><tag k="addr:postcode" v="95127"/></way>
<way visible="true" id="-186"><nd ref="-187"/><nd ref="-188"/><nd ref="-189"/><nd ref="-190"/><nd ref="-191"/><nd ref="-192"/><nd ref="-193"/><nd ref="-194"/><nd ref="-187"/><tag k="building" v="yes"/><tag k="height" v="4.01"/><tag k="ele" v="81.79"/><tag k="addr:city" v="San Jose"/><tag k="addr:housenumber" v="910"/><tag k="addr:street" v="Hobie Lane"/><tag k="addr:postcode" v="95127"/></way>
<way visible="true" id="-195"><nd ref="-196"/><nd ref="-197"/><nd ref="-198"/><nd ref="-199"/><nd ref="-200"/><nd ref="-201"/><nd ref="-202"/><nd ref="-203"/><nd ref="-204"/><nd ref="-205"/><nd ref="-206"/><nd ref="-207"/><nd ref="-208"/><nd ref="-209"/><nd ref="-210"/><nd ref="-211"/><nd ref="-196"/><tag k="building" v="yes"/><tag k="height" v="5.68"/><tag k="ele" v="88.28"/><tag k="addr:city" v="San Jose"/><tag k="addr:housenumber" v="801"/><tag k="addr:street" v="Fleming Avenue"/><tag k="addr:postcode" v="95127"/></way>
<way visible="true" id="-212"><nd ref="-213"/><nd ref="-214"/><nd ref="-215"/><nd ref="-216"/><nd ref="-217"/><nd ref="-218"/><nd ref="-219"/><nd ref="-220"/><nd ref="-221"/><nd ref="-222"/><nd ref="-223"/><nd ref="-224"/><nd ref="-225"/><nd ref="-226"/><nd ref="-227"/><nd ref="-228"/><nd ref="-213"/><tag k="building" v="yes"/><tag k="height" v="3.98"/><tag k="ele" v="80.85"/><tag k="addr:city" v="San Jose"/><tag k="addr:housenumber" v="953"/><tag k="addr:street" v="Feller Avenue"/><tag k="addr:postcode" v="95127"/></way>
<way visible="true" id="-229"><nd ref="-230"/><nd ref="-231"/><nd ref="-232"/><nd ref="-233"/><nd ref="-234"/><nd ref="-235"/><nd ref="-236"/><nd ref="-237"/><nd ref="-238"/><nd ref="-239"/><nd ref="-230"/><tag k="building" v="yes"/><tag k="height" v="4.00"/><tag k="ele" v="80.56"/><tag k="addr:city" v="San Jose"/><tag k="addr:housenumber" v="904"/><tag k="addr:street" v="Feller Avenue"/><tag k="addr:postcode" v="95127"/></way>
<way visible="true" id="-240"><nd ref="-241"/><nd ref="-242"/><nd ref="-243"/><nd ref="-244"/><nd ref="-245"/><nd ref="-246"/><nd ref="-247"/><nd ref="-248"/><nd ref="-249"/><nd ref="-250"/><nd ref="-251"/><nd ref="-252"/><nd ref="-253"/><nd ref="-254"/><nd ref="-255"/><nd ref="-256"/><nd ref="-241"/><tag k="building" v="yes"/><tag k="height" v="3.89"/><tag k="ele" v="81.01"/><tag k="addr:city" v="San Jose"/><tag k="addr:housenumber" v="966"/><tag k="addr:street" v="Feller Avenue"/><tag k="addr:postcode" v="95127"/></way>
<way visible="true" id="-257"><nd ref="-258"/><nd ref="-259"/><nd ref="-260"/><nd ref="-261"/><nd ref="-262"/><nd ref="-263"/><nd ref="-264"/><nd ref="-265"/><nd ref="-266"/><nd ref="-267"/><nd ref="-268"/><nd ref="-269"/><nd ref="-270"/><nd ref="-271"/><nd ref="-272"/><nd ref="-273"/><nd ref="-258"/><tag k="building" v="yes"/><tag k="height" v="3.56"/><tag k="ele" v="84.88"/><tag k="addr:city" v="San Jose"/><tag k="addr:housenumber" v="1014"/><tag k="addr:street" v="Hobie Lane"/><tag k="addr:postcode" v="95127"/></way>
<way visible="true" id="-274"><nd ref="-275"/><nd ref="-276"/><nd ref="-277"/><nd ref="-278"/><nd ref="-279"/><nd ref="-280"/><nd ref="-281"/><nd ref="-282"/><nd ref="-283"/><nd ref="-275"/><tag k="building" v="yes"/><tag k="height" v="4.27"/><tag k="ele" v="81.48"/><tag k="addr:city" v="San Jose"/><tag k="addr:housenumber" v="977"/><tag k="addr:street" v="Feller Avenue"/><tag k="addr:postcode" v="95127"/></way>
<way visible="true" id="-284"><nd ref="-285"/><nd ref="-286"/><nd ref="-287"/><nd ref="-288"/><nd ref="-289"/><nd ref="-290"/><nd ref="-291"/><nd ref="-292"/><nd ref="-285"/><tag k="building" v="yes"/><tag k="height" v="4.15"/><tag k="ele" v="81.01"/><tag k="addr:city" v="San Jose"/><tag k="addr:housenumber" v="978"/><tag k="addr:street" v="Feller Avenue"/><tag k="addr:postcode" v="95127"/></way>
<way visible="true" id="-293"><nd ref="-294"/><nd ref="-295"/><nd ref="-296"/><nd ref="-297"/><nd ref="-298"/><nd ref="-299"/><nd ref="-300"/><nd ref="-301"/><nd ref="-302"/><nd ref="-303"/><nd ref="-304"/><nd ref="-305"/><nd ref="-306"/><nd ref="-307"/><nd ref="-308"/><nd ref="-309"/><nd ref="-310"/><nd ref="-311"/><nd ref="-312"/><nd ref="-313"/><nd ref="-314"/><nd ref="-294"/><tag k="building" v="yes"/><tag k="height" v="3.76"/><tag k="ele" v="85.96"/><tag k="addr:city" v="San Jose"/><tag k="addr:housenumber" v="984"/><tag k="addr:street" v="Hobie Lane"/><tag k="addr:postcode" v="95127"/></way>
<way visible="true" id="-315"><nd ref="-316"/><nd ref="-317"/><nd ref="-318"/><nd ref="-319"/><nd ref="-320"/><nd ref="-321"/><nd ref="-322"/><nd ref="-323"/><nd ref="-324"/><nd ref="-325"/><nd ref="-326"/><nd ref="-327"/><nd ref="-328"/><nd ref="-329"/><nd ref="-330"/><nd ref="-331"/><nd ref="-332"/><nd ref="-333"/><nd ref="-316"/><tag k="building" v="yes"/><tag k="height" v="6.34"/><tag k="ele" v="88.18"/><tag k="addr:city" v="San Jose"/><tag k="addr:housenumber" v="813"/><tag k="addr:street" v="Fleming Avenue"/><tag k="addr:postcode" v="95127"/></way>
<way visible="true" id="-334"><nd ref="-335"/><nd ref="-336"/><nd ref="-337"/><nd ref="-338"/><nd ref="-339"/><nd ref="-340"/><nd ref="-341"/><nd ref="-342"/><nd ref="-343"/><nd ref="-344"/><nd ref="-335"/><tag k="building" v="yes"/><tag k="height" v="3.73"/><tag k="ele" v="52.06"/><tag k="addr:city" v="San Jose"/><tag k="addr:housenumber" v="3551"/><tag k="addr:street" v="East Hills Drive"/><tag k="addr:postcode" v="95127"/></way>
<way visible="true" id="-345"><nd ref="-346"/><nd ref="-347"/><nd ref="-348"/><nd ref="-349"/><nd ref="-350"/><nd ref="-351"/><nd ref="-352"/><nd ref="-353"/><nd ref="-354"/><nd ref="-355"/><nd ref="-356"/><nd ref="-357"/><nd ref="-358"/><nd ref="-359"/><nd ref="-360"/><nd ref="-361"/><nd ref="-362"/><nd ref="-346"/><tag k="building" v="yes"/><tag k="height" v="3.58"/><tag k="ele" v="80.86"/><tag k="addr:city" v="San Jose"/><tag k="addr:housenumber" v="948"/><tag k="addr:street" v="Feller Avenue"/><tag k="addr:postcode" v="95127"/></way>
<way visible="true" id="-363"><nd ref="-364"/><nd ref="-365"/><nd ref="-366"/><nd ref="-367"/><nd ref="-368"/><nd ref="-369"/><nd ref="-370"/><nd ref="-371"/><nd ref="-364"/><tag k="building" v="yes"/><tag k="height" v="4.64"/><tag k="ele" v="80.08"/><tag k="addr:city" v="San Jose"/><tag k="addr:housenumber" v="898"/><tag k="addr:street" v="Feller Avenue"/><tag k="addr:postcode" v="95127"/></way>
<way visible="true" id="-372"><nd ref="-373"/><nd ref="-374"/><nd ref="-375"/><nd ref="-376"/><nd ref="-377"/><nd ref="-378"/><nd ref="-379"/><nd ref="-380"/><nd ref="-381"/><nd ref="-382"/><nd ref="-373"/><tag k="building" v="yes"/><tag k="height" v="3.68"/><tag k="ele" v="81.17"/><tag k="addr:city" v="San Jose"/><tag k="addr:housenumber" v="985"/><tag k="addr:street" v="Feller Avenue"/><tag k="addr:postcode" v="95127"/></way>
<way visible="true" id="-383"><nd ref="-384"/><nd ref="-385"/><nd ref="-386"/><nd ref="-387"/><nd ref="-388"/><nd ref="-389"/><nd ref="-390"/><nd ref="-391"/><nd ref="-392"/><nd ref="-393"/><nd ref="-394"/><nd ref="-395"/><nd ref="-396"/><nd ref="-397"/><nd ref="-398"/><nd ref="-399"/><nd ref="-384"/><tag k="building" v="yes"/><tag k="height" v="4.26"/><tag k="ele" v="81.32"/><tag k="addr:city" v="San Jose"/><tag k="addr:housenumber" v="965"/><tag k="addr:street" v="Feller Avenue"/><tag k="addr:postcode" v="95127"/></way>
<way visible="true" id="-400"><nd ref="-401"/><nd ref="-402"/><nd ref="-403"/><nd ref="-404"/><nd ref="-405"/><nd ref="-406"/><nd ref="-407"/><nd ref="-408"/><nd ref="-409"/><nd ref="-410"/><nd ref="-411"/><nd ref="-412"/><nd ref="-413"/><nd ref="-414"/><nd ref="-401"/><tag k="building" v="yes"/><tag k="height" v="4.11"/><tag k="ele" v="82.72"/><tag k="addr:city" v="San Jose"/><tag k="addr:housenumber" v="950"/><tag k="addr:street" v="Hobie Lane"/><tag k="addr:postcode" v="95127"/></way>
<way visible="true" id="-415"><nd ref="-416"/><nd ref="-417"/><nd ref="-418"/><nd ref="-419"/><nd ref="-420"/><nd ref="-421"/><nd ref="-416"/><tag k="building" v="yes"/><tag k="height" v="3.86"/><tag k="ele" v="84.11"/><tag k="addr:city" v="San Jose"/><tag k="addr:housenumber" v="849"/><tag k="addr:street" v="Fleming Avenue"/><tag k="addr:postcode" v="95127"/></way>
<way visible="true" id="-422"><nd ref="-423"/><nd ref="-424"/><nd ref="-425"/><nd ref="-426"/><nd ref="-427"/><nd ref="-428"/><nd ref="-429"/><nd ref="-430"/><nd ref="-431"/><nd ref="-432"/><nd ref="-433"/><nd ref="-434"/><nd ref="-423"/><tag k="building" v="yes"/><tag k="height" v="3.83"/><tag k="ele" v="82.86"/><tag k="addr:city" v="San Jose"/><tag k="addr:housenumber" v="912"/><tag k="addr:street" v="Feller Avenue"/><tag k="addr:postcode" v="95127"/></way>
<way visible="true" id="-435"><nd ref="-436"/><nd ref="-437"/><nd ref="-438"/><nd ref="-439"/><nd ref="-440"/><nd ref="-441"/><nd ref="-442"/><nd ref="-443"/><nd ref="-444"/><nd ref="-445"/><nd ref="-436"/><tag k="building" v="yes"/><tag k="height" v="4.15"/><tag k="ele" v="80.70"/><tag k="addr:city" v="San Jose"/><tag k="addr:housenumber" v="947"/><tag k="addr:street" v="Feller Avenue"/><tag k="addr:postcode" v="95127"/></way>
<way visible="true" id="-446"><nd ref="-447"/><nd ref="-448"/><nd ref="-449"/><nd ref="-450"/><nd ref="-451"/><nd ref="-452"/><nd ref="-453"/><nd ref="-454"/><nd ref="-455"/><nd ref="-456"/><nd ref="-447"/><tag k="building" v="yes"/><tag k="height" v="4.33"/><tag k="ele" v="81.32"/><tag k="addr:city" v="San Jose"/><tag k="addr:housenumber" v="921"/><tag k="addr:street" v="Feller Avenue"/><tag k="addr:postcode" v="95127"/></way>
<way visible="true" id="-457"><nd ref="-458"/><nd ref="-459"/><nd ref="-460"/><nd ref="-461"/><nd ref="-462"/><nd ref="-463"/><nd ref="-464"/><nd ref="-465"/><nd ref="-466"/><nd ref="-467"/><nd ref="-468"/><nd ref="-469"/><nd ref="-458"/><tag k="building" v="yes"/><tag k="height" v="3.62"/><tag k="ele" v="80.86"/><tag k="addr:city" v="San Jose"/><tag k="addr:housenumber" v="936"/><tag k="addr:street" v="Feller Avenue"/><tag k="addr:postcode" v="95127"/></way>
<way visible="true" id="-470"><nd ref="-471"/><nd ref="-472"/><nd ref="-473"/><nd ref="-474"/><nd ref="-475"/><nd ref="-476"/><nd ref="-477"/><nd ref="-478"/><nd ref="-471"/><tag k="building" v="yes"/><tag k="height" v="3.76"/><tag k="ele" v="80.70"/><tag k="addr:city" v="San Jose"/><tag k="addr:housenumber" v="924"/><tag k="addr:street" v="Feller Avenue"/><tag k="addr:postcode" v="95127"/></way>
<way visible="true" id="-479"><nd ref="-480"/><nd ref="-481"/><nd ref="-482"/><nd ref="-483"/><nd ref="-484"/><nd ref="-485"/><nd ref="-486"/><nd ref="-487"/><nd ref="-488"/><nd ref="-489"/><nd ref="-490"/><nd ref="-491"/><nd ref="-492"/><nd ref="-493"/><nd ref="-480"/><tag k="building" v="yes"/><tag k="height" v="4.01"/><tag k="ele" v="83.33"/><tag k="addr:city" v="San Jose"/><tag k="addr:housenumber" v="905"/><tag k="addr:street" v="Fleming Avenue"/><tag k="addr:postcode" v="95127"/></way>
<way visible="true" id="-494"><nd ref="-495"/><nd ref="-496"/><nd ref="-497"/><nd ref="-498"/><nd ref="-499"/><nd ref="-500"/><nd ref="-501"/><nd ref="-502"/><nd ref="-503"/><nd ref="-504"/><nd ref="-505"/><nd ref="-506"/><nd ref="-507"/><nd ref="-508"/><nd ref="-495"/><tag k="building" v="yes"/><tag k="height" v="3.58"/><tag k="ele" v="85.05"/><tag k="addr:city" v="San Jose"/><tag k="addr:housenumber" v="825"/><tag k="addr:street" v="Fleming Avenue"/><tag k="addr:postcode" v="95127"/></way>
<way visible="true" id="-509"><nd ref="-510"/><nd ref="-511"/><nd ref="-512"/><nd ref="-513"/><nd ref="-514"/><nd ref="-515"/><nd ref="-516"/><nd ref="-517"/><nd ref="-510"/><tag k="building" v="yes"/><tag k="height" v="3.48"/><tag k="ele" v="83.95"/><tag k="addr:city" v="San Jose"/><tag k="addr:housenumber" v="992"/><tag k="addr:street" v="Hobie Lane"/><tag k="addr:postcode" v="95127"/></way>
<way visible="true" id="-518"><nd ref="-519"/><nd ref="-520"/><nd ref="-521"/><nd ref="-522"/><nd ref="-523"/><nd ref="-524"/><nd ref="-525"/><nd ref="-526"/><nd ref="-527"/><nd ref="-528"/><nd ref="-529"/><nd ref="-530"/><nd ref="-531"/><nd ref="-532"/><nd ref="-519"/><tag k="building" v="yes"/><tag k="height" v="4.62"/><tag k="ele" v="84.26"/><tag k="addr:city" v="San Jose"/><tag k="addr:housenumber" v="873"/><tag k="addr:street" v="Fleming Avenue"/><tag k="addr:postcode" v="95127"/></way>
<way visible="true" id="-533"><nd ref="-534"/><nd ref="-535"/><nd ref="-536"/><nd ref="-537"/><nd ref="-538"/><nd ref="-539"/><nd ref="-540"/><nd ref="-541"/><nd ref="-542"/><nd ref="-543"/><nd ref="-534"/><tag k="building" v="yes"/><tag k="height" v="2.88"/><tag k="ele" v="81.79"/><tag k="addr:city" v="San Jose"/><tag k="addr:housenumber" v="985"/><tag k="addr:street" v="Fleming Avenue"/><tag k="addr:postcode" v="95127"/></way>
<way visible="true" id="-544"><nd ref="-545"/><nd ref="-546"/><nd ref="-547"/><nd ref="-548"/><nd ref="-549"/><nd ref="-550"/><nd ref="-551"/><nd ref="-552"/><nd ref="-553"/><nd ref="-554"/><nd ref="-545"/><tag k="building" v="yes"/><tag k="height" v="4.46"/><tag k="ele" v="81.17"/><tag k="addr:city" v="San Jose"/><tag k="addr:housenumber" v="935"/><tag k="addr:street" v="Feller Avenue"/><tag k="addr:postcode" v="95127"/></way>
<way visible="true" id="-555"><nd ref="-556"/><nd ref="-557"/><nd ref="-558"/><nd ref="-559"/><nd ref="-560"/><nd ref="-561"/><nd ref="-562"/><nd ref="-563"/><nd ref="-564"/><nd ref="-565"/><nd ref="-566"/><nd ref="-567"/><nd ref="-556"/><tag k="building" v="yes"/><tag k="height" v="3.76"/><tag k="ele" v="81.32"/><tag k="addr:city" v="San Jose"/><tag k="addr:housenumber" v="954"/><tag k="addr:street" v="Feller Avenue"/><tag k="addr:postcode" v="95127"/></way>
<way visible="true" id="-568"><nd ref="-569"/><nd ref="-570"/><nd ref="-571"/><nd ref="-572"/><nd ref="-573"/><nd ref="-574"/><nd ref="-575"/><nd ref="-576"/><nd ref="-577"/><nd ref="-578"/><nd ref="-579"/><nd ref="-580"/><nd ref="-581"/><nd ref="-582"/><nd ref="-583"/><nd ref="-584"/><nd ref="-585"/><nd ref="-586"/><nd ref="-587"/><nd ref="-588"/><nd ref="-569"/><tag k="building" v="yes"/><tag k="height" v="3.37"/><tag k="ele" v="82.41"/><tag k="addr:city" v="San Jose"/><tag k="addr:housenumber" v="975"/><tag k="addr:street" v="Fleming Avenue"/><tag k="addr:postcode" v="95127"/></way>
<way visible="true" id="-589"><nd ref="-590"/><nd ref="-591"/><nd ref="-592"/><nd ref="-593"/><nd ref="-594"/><nd ref="-595"/><nd ref="-596"/><nd ref="-590"/><tag k="building" v="yes"/><tag k="height" v="4.41"/><tag k="ele" v="83.63"/><tag k="addr:city" v="San Jose"/><tag k="addr:housenumber" v="3570"/><tag k="addr:street" v="Louis Court"/><tag k="addr:postcode" v="95127"/></way>
<way visible="true" id="-597"><nd ref="-598"/><nd ref="-599"/><nd ref="-600"/><nd ref="-601"/><nd ref="-602"/><nd ref="-603"/><nd ref="-604"/><nd ref="-605"/><nd ref="-606"/><nd ref="-607"/><nd ref="-608"/><nd ref="-609"/><nd ref="-598"/><tag k="building" v="yes"/><tag k="height" v="2.87"/><tag k="ele" v="84.11"/><tag k="addr:city" v="San Jose"/><tag k="addr:housenumber" v="1028"/><tag k="addr:street" v="Hobie Lane"/><tag k="addr:postcode" v="95127"/></way>
<way visible="true" id="-610"><nd ref="-611"/><nd ref="-612"/><nd ref="-613"/><nd ref="-614"/><nd ref="-615"/><nd ref="-616"/><nd ref="-617"/><nd ref="-618"/><nd ref="-611"/><tag k="building" v="yes"/><tag k="height" v="4.10"/><tag k="ele" v="80.18"/><tag k="addr:city" v="San Jose"/><tag k="addr:housenumber" v="909"/><tag k="addr:street" v="Feller Avenue"/><tag k="addr:postcode" v="95127"/></way>
<way visible="true" id="-619"><nd ref="-620"/><nd ref="-621"/><nd ref="-622"/><nd ref="-623"/><nd ref="-624"/><nd ref="-625"/><nd ref="-620"/><tag k="building" v="yes"/><tag k="height" v="5.70"/><tag k="ele" v="87.24"/><tag k="addr:city" v="San Jose"/><tag k="addr:housenumber" v="793"/><tag k="addr:street" v="Fleming Avenue"/><tag k="addr:postcode" v="95127"/></way>
<way visible="true" id="-626"><nd ref="-627"/><nd ref="-628"/><nd ref="-629"/><nd ref="-630"/><nd ref="-631"/><nd ref="-632"/><nd ref="-633"/><nd ref="-634"/><nd ref="-635"/><nd ref="-636"/><nd ref="-637"/><nd ref="-638"/><nd ref="-627"/><tag k="building" v="yes"/><tag k="height" v="4.00"/><tag k="ele" v="83.02"/><tag k="addr:city" v="San Jose"/><tag k="addr:housenumber" v="955"/><tag k="addr:street" v="Fleming Avenue"/><tag k="addr:postcode" v="95127"/></way>
<way visible="true" id="-639"><nd ref="-640"/><nd ref="-641"/><nd ref="-642"/><nd ref="-643"/><nd ref="-644"/><nd ref="-645"/><nd ref="-646"/><nd ref="-647"/><nd ref="-648"/><nd ref="-649"/><nd ref="-650"/><nd ref="-651"/><nd ref="-640"/><tag k="building" v="yes"/><tag k="height" v="3.63"/><tag k="ele" v="82.56"/><tag k="addr:city" v="San Jose"/><tag k="addr:housenumber" v="965"/><tag k="addr:street" v="Fleming Avenue"/><tag k="addr:postcode" v="95127"/></way>
<way visible="true" id="-652"><nd ref="-653"/><nd ref="-654"/><nd ref="-655"/><nd ref="-656"/><nd ref="-657"/><nd ref="-658"/><nd ref="-653"/><tag k="building" v="yes"/><tag k="height" v="4.10"/><tag k="ele" v="84.73"/><tag k="addr:city" v="San Jose"/><tag k="addr:housenumber" v="1000"/><tag k="addr:street" v="Hobie Lane"/><tag k="addr:postcode" v="95127"/></way>
</osm>