<?xml version="1.0"?>
<osm version="0.6" generator="uvmogr2osm" upload="false">
<node visible="true" id="-2" lat="37.301336250000006" lon="-121.88738797100001"/>
<node visible="true" id="-3" lat="37.301434108" lon="-121.887453707"/>
<node visible="true" id="-4" lat="37.301512975" lon="-121.88726983900001"/>
<node visible="true" id="-5" lat="37.301415118" lon="-121.887204069"/>
<node visible="true" id="-7" lat="37.305625254" lon="-121.890759008"/>
<node visible="true" id="-8" lat="37.305935995000006" lon="-121.891069142"/>
<node visible="true" id="-9" lat="37.305860255" lon="-121.891188084"/>
<node visible="true" id="-10" lat="37.306479046" lon="-121.89180573"/>
<node visible="true" id="-11" lat="37.306495448" lon="-121.891780006"/>
<node visible="true" id="-12" lat="37.306527698000004" lon="-121.891812207"/>
<node visible="true" id="-13" lat="37.306510315000004" lon="-121.89183949500001"/>
<node visible="true" id="-14" lat="37.306605463000004" lon="-121.89193445500001"/>
<node visible="true" id="-15" lat="37.306601683000004" lon="-121.891940403"/>
<node visible="true" id="-16" lat="37.306640284000004" lon="-121.891978945"/>
<node visible="true" id="-17" lat="37.306746170000004" lon="-121.89181269900001"/>
<node visible="true" id="-18" lat="37.306677138000005" lon="-121.891743809"/>
<node visible="true" id="-19" lat="37.306693960000004" lon="-121.891717404"/>
<node visible="true" id="-20" lat="37.306566131000004" lon="-121.89158978900001"/>
<node visible="true" id="-21" lat="37.306545334" lon="-121.89162241300001"/>
<node visible="true" id="-22" lat="37.306489468" lon="-121.89156662900001"/>
<node visible="true" id="-23" lat="37.306510796000005" lon="-121.89153315600001"/>
<node visible="true" id="-24" lat="37.306216452" lon="-121.891239381"/>
<node visible="true" id="-25" lat="37.306200666" lon="-121.891264155"/>
<node visible="true" id="-26" lat="37.306138176000005" lon="-121.891201784"/>
<node visible="true" id="-27" lat="37.306145313" lon="-121.89119057"/>
<node visible="true" id="-28" lat="37.306000625" lon="-121.891046172"/>
<node visible="true" id="-29" lat="37.306241307" lon="-121.890668273"/>
<node visible="true" id="-30" lat="37.305899998" lon="-121.89032762100001"/>
<node visible="true" id="-32" lat="37.303472062000004" lon="-121.89676546400001"/>
<node visible="true" id="-33" lat="37.303480722" lon="-121.89677631900001"/>
<node visible="true" id="-34" lat="37.303481757" lon="-121.89684156700001"/>
<node visible="true" id="-35" lat="37.303472437" lon="-121.896853737"/>
<node visible="true" id="-36" lat="37.303569059000004" lon="-121.89696977000001"/>
<node visible="true" id="-37" lat="37.303578016" lon="-121.89695807400001"/>
<node visible="true" id="-38" lat="37.303630115000004" lon="-121.89695633100001"/>
<node visible="true" id="-39" lat="37.303640033" lon="-121.896967727"/>
<node visible="true" id="-40" lat="37.303681174000005" lon="-121.896915199"/>
<node visible="true" id="-41" lat="37.303672587" lon="-121.89690283200001"/>
<node visible="true" id="-42" lat="37.303670579000006" lon="-121.89684079700001"/>
<node visible="true" id="-43" lat="37.303688162" lon="-121.89681296500001"/>
<node visible="true" id="-44" lat="37.303698456" lon="-121.89681109400001"/>
<node visible="true" id="-45" lat="37.303718816" lon="-121.896833618"/>
<node visible="true" id="-46" lat="37.303759652000004" lon="-121.89678376600001"/>
<node visible="true" id="-47" lat="37.303752907" lon="-121.896775766"/>
<node visible="true" id="-48" lat="37.303751837" lon="-121.896764124"/>
<node visible="true" id="-49" lat="37.303759351000004" lon="-121.89675363900001"/>
<node visible="true" id="-50" lat="37.303639137000005" lon="-121.896609795"/>
<node visible="true" id="-51" lat="37.303633288" lon="-121.89661646"/>
<node visible="true" id="-52" lat="37.303621547000006" lon="-121.896617582"/>
<node visible="true" id="-53" lat="37.303615579" lon="-121.896611211"/>
<node visible="true" id="-54" lat="37.303575685000006" lon="-121.89666283400001"/>
<node visible="true" id="-55" lat="37.303594832" lon="-121.89668574900001"/>
<node visible="true" id="-56" lat="37.303595287" lon="-121.896695901"/>
<node visible="true" id="-57" lat="37.303598082" lon="-121.896698877"/>
<node visible="true" id="-58" lat="37.303587483" lon="-121.89671232900001"/>
<node visible="true" id="-59" lat="37.303584532" lon="-121.89670869800001"/>
<node visible="true" id="-60" lat="37.303575524" lon="-121.89672015200001"/>
<node visible="true" id="-61" lat="37.303521047000004" lon="-121.89672081900001"/>
<node visible="true" id="-62" lat="37.303513236" lon="-121.89671248900001"/>
<node visible="true" id="-65" lat="37.303746618000005" lon="-121.89646229600001"/>
<node visible="true" id="-66" lat="37.303878194" lon="-121.89662086300001"/>
<node visible="true" id="-67" lat="37.303937259" lon="-121.89654405"/>
<node visible="true" id="-68" lat="37.303928432" lon="-121.896533398"/>
<node visible="true" id="-69" lat="37.3039755" lon="-121.896472211"/>
<node visible="true" id="-70" lat="37.303958359" lon="-121.896451569"/>
<node visible="true" id="-71" lat="37.304003110000004" lon="-121.89639340100001"/>
<node visible="true" id="-72" lat="37.303859133" lon="-121.89621985000001"/>
<node visible="true" id="-73" lat="37.303788014000006" lon="-121.89631232400001"/>
<node visible="true" id="-74" lat="37.303810191000004" lon="-121.89633907800001"/>
<node visible="true" id="-75" lat="37.303751378" lon="-121.89641555200001"/>
<node visible="true" id="-76" lat="37.303767571" lon="-121.89643507500001"/>
<node visible="true" id="-78" lat="37.303828497000005" lon="-121.89641417300001"/>
<node visible="true" id="-79" lat="37.303851368000004" lon="-121.896385029"/>
<node visible="true" id="-80" lat="37.303919424" lon="-121.896468756"/>
<node visible="true" id="-81" lat="37.303896553" lon="-121.896497901"/>
<node visible="true" id="-82" lat="37.305963802" lon="-121.89309248200001"><tag k="addr:city" v="San Jose"/><tag k="addr:housenumber" v="1402"/><tag k="addr:street" v="Curtiss Avenue"/><tag k="addr:postcode" v="95125"/></node>
<node visible="true" id="-83" lat="37.303818962" lon="-121.896453453"><tag k="addr:city" v="San Jose"/><tag k="addr:housenumber" v="1080"/><tag k="addr:street" v="Minnesota Avenue"/><tag k="addr:unit" v="1-5"/><tag k="addr:postcode" v="95125"/></node>
<node visible="true" id="-84" lat="37.304000613" lon="-121.896240352"><tag k="addr:city" v="San Jose"/><tag k="addr:housenumber" v="1070"/><tag k="addr:street" v="Minnesota Avenue"/><tag k="addr:postcode" v="95125"/></node>
<node visible="true" id="-85" lat="37.303848747" lon="-121.896373646"><tag k="addr:city" v="San Jose"/><tag k="addr:housenumber" v="1080"/><tag k="addr:street" v="Minnesota Avenue"/><tag k="addr:postcode" v="95125"/></node>
<node visible="true" id="-86" lat="37.306120374" lon="-121.891684959"><tag k="addr:city" v="San Jose"/><tag k="addr:housenumber" v="850"/><tag k="addr:street" v="Minnesota Avenue"/><tag k="addr:unit" v="108"/><tag k="addr:postcode" v="95125"/></node>
<node visible="true" id="-87" lat="37.306034718" lon="-121.891621161"><tag k="addr:city" v="San Jose"/><tag k="addr:housenumber" v="850"/><tag k="addr:street" v="Minnesota Avenue"/><tag k="addr:unit" v="109"/><tag k="addr:postcode" v="95125"/></node>
<node visible="true" id="-88" lat="37.305972105" lon="-121.891562261"><tag k="addr:city" v="San Jose"/><tag k="addr:housenumber" v="850"/><tag k="addr:street" v="Minnesota Avenue"/><tag k="addr:unit" v="110"/><tag k="addr:postcode" v="95125"/></node>
<node visible="true" id="-89" lat="37.305924834" lon="-121.891511245"><tag k="addr:city" v="San Jose"/><tag k="addr:housenumber" v="850"/><tag k="addr:street" v="Minnesota Avenue"/><tag k="addr:unit" v="111"/><tag k="addr:postcode" v="95125"/></node>
<node visible="true" id="-90" lat="37.305861714" lon="-121.89145801000001"><tag k="addr:city" v="San Jose"/><tag k="addr:housenumber" v="850"/><tag k="addr:street" v="Minnesota Avenue"/><tag k="addr:unit" v="112"/><tag k="addr:postcode" v="95125"/></node>
<node visible="true" id="-91" lat="37.305799116" lon="-121.89138618000001"><tag k="addr:city" v="San Jose"/><tag k="addr:housenumber" v="850"/><tag k="addr:street" v="Minnesota Avenue"/><tag k="addr:unit" v="113"/><tag k="addr:postcode" v="95125"/></node>
<node visible="true" id="-92" lat="37.306284883000004" lon="-121.891906581"><tag k="addr:city" v="San Jose"/><tag k="addr:housenumber" v="856"/><tag k="addr:street" v="Minnesota Avenue"/><tag k="addr:unit" v="106"/><tag k="addr:postcode" v="95125"/></node>
<node visible="true" id="-93" lat="37.306414219000004" lon="-121.890866598"><tag k="addr:city" v="San Jose"/><tag k="addr:housenumber" v="1409"/><tag k="addr:street" v="Bird Avenue"/><tag k="addr:postcode" v="95125"/></node>
<node visible="true" id="-94" lat="37.303573668000006" lon="-121.89668829200001"><tag k="addr:city" v="San Jose"/><tag k="addr:housenumber" v="1092"/><tag k="addr:street" v="Minnesota Avenue"/><tag k="addr:postcode" v="95125"/></node>
<node visible="true" id="-95" lat="37.30244355" lon="-121.89552545500001"><tag k="addr:city" v="San Jose"/><tag k="addr:housenumber" v="1095"/><tag k="addr:street" v="California Avenue"/><tag k="addr:postcode" v="95125"/></node>
<node visible="true" id="-96" lat="37.306557815000005" lon="-121.89175988000001"><tag k="addr:city" v="San Jose"/><tag k="addr:housenumber" v="1411"/><tag k="addr:street" v="Bird Avenue"/><tag k="addr:postcode" v="95125"/></node>
<node visible="true" id="-97" lat="37.306317230000005" lon="-121.891838101"><tag k="addr:city" v="San Jose"/><tag k="addr:housenumber" v="856"/><tag k="addr:street" v="Minnesota Avenue"/><tag k="addr:unit" v="107"/><tag k="addr:postcode" v="95125"/></node>
<node visible="true" id="-98" lat="37.306375981" lon="-121.891541751"><tag k="addr:city" v="San Jose"/><tag k="addr:housenumber" v="1443"/><tag k="addr:street" v="Bird Avenue"/><tag k="addr:postcode" v="95125"/><tag k="shop" v="yes"/></node>
<node visible="true" id="-99" lat="37.306644218" lon="-121.891763048"><tag k="addr:city" v="San Jose"/><tag k="addr:housenumber" v="1419"/><tag k="addr:street" v="Bird Avenue"/><tag k="addr:postcode" v="95125"/></node>
<node visible="true" id="-100" lat="37.306564242" lon="-121.89169631000001"><tag k="addr:city" v="San Jose"/><tag k="addr:housenumber" v="1423"/><tag k="addr:street" v="Bird Avenue"/><tag k="addr:postcode" v="95125"/><tag k="amenity" v="restaurant"/></node>
<node visible="true" id="-101" lat="37.306501458" lon="-121.891643219"><tag k="addr:city" v="San Jose"/><tag k="addr:housenumber" v="1431"/><tag k="addr:street" v="Bird Avenue"/><tag k="addr:postcode" v="95125"/><tag k="amenity" v="restaurant"/></node>
<node visible="true" id="-102" lat="37.306300712" lon="-121.89146783700001"><tag k="addr:city" v="San Jose"/><tag k="addr:housenumber" v="1447"/><tag k="addr:street" v="Bird Avenue"/><tag k="addr:postcode" v="95125"/><tag k="amenity" v="restaurant"/></node>
<node visible="true" id="-103" lat="37.306197260000005" lon="-121.89134991300001"><tag k="addr:city" v="San Jose"/><tag k="addr:housenumber" v="1455"/><tag k="addr:street" v="Bird Avenue"/><tag k="addr:postcode" v="95125"/><tag k="amenity" v="restaurant"/></node>
<node visible="true" id="-104" lat="37.306123193000005" lon="-121.89128822600001"><tag k="addr:city" v="San Jose"/><tag k="addr:housenumber" v="1459"/><tag k="addr:street" v="Bird Avenue"/><tag k="addr:postcode" v="95125"/><tag k="shop" v="yes"/></node>
<node visible="true" id="-105" lat="37.306084801000004" lon="-121.89125691100001"><tag k="addr:city" v="San Jose"/><tag k="addr:housenumber" v="1465"/><tag k="addr:street" v="Bird Avenue"/><tag k="addr:postcode" v="95125"/></node>
<node visible="true" id="-106" lat="37.306039059" lon="-121.89120293"><tag k="addr:city" v="San Jose"/><tag k="addr:housenumber" v="1467"/><tag k="addr:street" v="Bird Avenue"/><tag k="addr:postcode" v="95125"/></node>
<node visible="true" id="-107" lat="37.306238909" lon="-121.890433751"><tag k="addr:city" v="San Jose"/><tag k="addr:housenumber" v="1471"/><tag k="addr:street" v="Bird Avenue"/><tag k="addr:postcode" v="95125"/></node>
<node visible="true" id="-108" lat="37.303530796000004" lon="-121.896876886"><tag k="addr:city" v="San Jose"/><tag k="addr:housenumber" v="1402"/><tag k="addr:street" v="Lincoln Avenue"/><tag k="addr:postcode" v="95125"/></node>
<node visible="true" id="-109" lat="37.306599336000005" lon="-121.89167393000001"><tag k="addr:city" v="San Jose"/><tag k="addr:housenumber" v="1435"/><tag k="addr:street" v="Bird Avenue"/><tag k="addr:postcode" v="95125"/></node>
<node visible="true" id="-110" lat="37.306136942" lon="-121.89136306700001"><tag k="addr:city" v="San Jose"/><tag k="addr:housenumber" v="1439"/><tag k="addr:street" v="Bird Avenue"/><tag k="addr:postcode" v="95125"/></node>
<node visible="true" id="-111" lat="37.30626297" lon="-121.891407383"><tag k="addr:city" v="San Jose"/><tag k="addr:housenumber" v="1451"/><tag k="addr:street" v="Bird Avenue"/><tag k="addr:postcode" v="95125"/></node>
<node visible="true" id="-112" lat="37.306214435" lon="-121.89131812400001"><tag k="addr:city" v="San Jose"/><tag k="addr:housenumber" v="1463"/><tag k="addr:street" v="Bird Avenue"/><tag k="addr:postcode" v="95125"/></node>
<node visible="true" id="-113" lat="37.306031211000004" lon="-121.89068429900001"><tag k="addr:city" v="San Jose"/><tag k="addr:housenumber" v="1473"/><tag k="addr:street" v="Bird Avenue"/><tag k="addr:postcode" v="95125"/></node>
<node visible="true" id="-114" lat="37.3059439" lon="-121.890698865"><tag k="addr:city" v="San Jose"/><tag k="addr:housenumber" v="1489"/><tag k="addr:street" v="Bird Avenue"/><tag k="addr:postcode" v="95125"/></node>
<node visible="true" id="-116" lat="37.301685965000004" lon="-121.88773153000001"/>
<node visible="true" id="-117" lat="37.301686033" lon="-121.88778606400001"/>
<node visible="true" id="-118" lat="37.301755776" lon="-121.88778591500001"/>
<node visible="true" id="-119" lat="37.301755707000005" lon="-121.887731414"/>
<node visible="true" id="-121" lat="37.303948219000006" lon="-121.89601169500001"/>
<node visible="true" id="-122" lat="37.304144470000004" lon="-121.89619663900001"/>
<node visible="true" id="-123" lat="37.304255163" lon="-121.89601251"/>
<node visible="true" id="-124" lat="37.304161994000005" lon="-121.89592473600001"/>
<node visible="true" id="-125" lat="37.304186429000005" lon="-121.89588410300001"/>
<node visible="true" id="-126" lat="37.304083347" lon="-121.89578696500001"/>
<way visible="true" id="-1"><nd ref="-2"/><nd ref="-3"/><nd ref="-4"/><nd ref="-5"/><nd ref="-2"/><tag k="building" v="yes"/><tag k="height" v="4.51"/><tag k="ele" v="42.23"/></way>
<way visible="true" id="-6"><nd ref="-7"/><nd ref="-8"/><nd ref="-9"/><nd ref="-10"/><nd ref="-11"/><nd ref="-12"/><nd ref="-13"/><nd ref="-14"/><nd ref="-15"/><nd ref="-16"/><nd ref="-17"/><nd ref="-18"/><nd ref="-19"/><nd ref="-20"/><nd ref="-21"/><nd ref="-22"/><nd ref="-23"/><nd ref="-24"/><nd ref="-25"/><nd ref="-26"/><nd ref="-27"/><nd ref="-28"/><nd ref="-29"/><nd ref="-30"/><nd ref="-7"/><tag k="building" v="yes"/><tag k="height" v="4.10"/><tag k="ele" v="47.05"/></way>
<way visible="true" id="-31"><nd ref="-32"/><nd ref="-33"/><nd ref="-34"/><nd ref="-35"/><nd ref="-36"/><nd ref="-37"/><nd ref="-38"/><nd ref="-39"/><nd ref="-40"/><nd ref="-41"/><nd ref="-42"/><nd ref="-43"/><nd ref="-44"/><nd ref="-45"/><nd ref="-46"/><nd ref="-47"/><nd ref="-48"/><nd ref="-49"/><nd ref="-50"/><nd ref="-51"/><nd ref="-52"/><nd ref="-53"/><nd ref="-54"/><nd ref="-55"/><nd ref="-56"/><nd ref="-57"/><nd ref="-58"/><nd ref="-59"/><nd ref="-60"/><nd ref="-61"/><nd ref="-62"/><nd ref="-32"/><tag k="building" v="yes"/><tag k="height" v="8.05"/><tag k="ele" v="47.66"/></way>
<way visible="true" id="-64"><nd ref="-65"/><nd ref="-66"/><nd ref="-67"/><nd ref="-68"/><nd ref="-69"/><nd ref="-70"/><nd ref="-71"/><nd ref="-72"/><nd ref="-73"/><nd ref="-74"/><nd ref="-75"/><nd ref="-76"/><nd ref="-65"/></way>
<way visible="true" id="-77"><nd ref="-78"/><nd ref="-79"/><nd ref="-80"/><nd ref="-81"/><nd ref="-78"/></way>
<way visible="true" id="-115"><nd ref="-116"/><nd ref="-117"/><nd ref="-118"/><nd ref="-119"/><nd ref="-116"/><tag k="building" v="yes"/><tag k="height" v="3.62"/><tag k="ele" v="40.54"/><tag k="addr:city" v="San Jose"/><tag k="addr:housenumber" v="1600"/><tag k="addr:street" v="Parkside Avenue"/><tag k="addr:postcode" v="95125"/></way>
<way visible="true" id="-120"><nd ref="-121"/><nd ref="-122"/><nd ref="-123"/><nd ref="-124"/><nd ref="-125"/><nd ref="-126"/><nd ref="-121"/><tag k="building" v="yes"/><tag k="height" v="7.44"/><tag k="ele" v="46.31"/><tag k="addr:city" v="San Jose"/><tag k="addr:housenumber" v="1060"/><tag k="addr:street" v="Minnesota Avenue"/><tag k="addr:unit" v="1-4;6;7;9;1A"/><tag k="addr:postcode" v="95125"/></way>
<relation visible="true" id="-63"><member type="way" ref="-64" role="outer"/><member type="way" ref="-77" role="inner"/><tag k="type" v="multipolygon"/><tag k="building" v="yes"/><tag k="height" v="4.26"/><tag k="ele" v="42.45"/></relation>
</osm>