<?xml version="1.0"?>
<osm version="0.6" generator="uvmogr2osm" upload="false">
<node visible="true" id="-3" lat="37.350265022" lon="-121.884859934"/>
<node visible="true" id="-4" lat="37.350404944000005" lon="-121.88496447600001"/>
<node visible="true" id="-5" lat="37.350500965" lon="-121.88476277500001"/>
<node visible="true" id="-6" lat="37.350502107000004" lon="-121.884763621"/>
<node visible="true" id="-7" lat="37.350573678" lon="-121.884613318"/>
<node visible="true" id="-8" lat="37.350485897000006" lon="-121.884547763"/>
<node visible="true" id="-9" lat="37.350484123" lon="-121.88455148000001"/>
<node visible="true" id="-10" lat="37.350463457000004" lon="-121.88453602800001"/>
<node visible="true" id="-11" lat="37.350464077000005" lon="-121.884534732"/>
<node visible="true" id="-12" lat="37.350355957000005" lon="-121.88445397100001"/>
<node visible="true" id="-13" lat="37.350285849" lon="-121.884601239"/>
<node visible="true" id="-14" lat="37.350342074000004" lon="-121.88464326"/>
<node visible="true" id="-15" lat="37.350315231" lon="-121.88469967"/>
<node visible="true" id="-16" lat="37.350334481000004" lon="-121.884714066"/>
<node visible="true" id="-18" lat="37.350332847000004" lon="-121.88488259300001"/>
<node visible="true" id="-19" lat="37.350339323" lon="-121.88486915700001"/>
<node visible="true" id="-20" lat="37.350363664" lon="-121.884887465"/>
<node visible="true" id="-21" lat="37.350357213" lon="-121.884900935"/>
<node visible="true" id="-22" lat="37.350366674" lon="-121.884692732"><tag k="addr:city" v="San Jose"/><tag k="addr:housenumber" v="497"/><tag k="addr:street" v="North 13th Street"/><tag k="addr:postcode" v="95112"/></node>
<node visible="true" id="-23" lat="37.349184817" lon="-121.886193332"><tag k="addr:city" v="San Jose"/><tag k="addr:housenumber" v="473"/><tag k="addr:street" v="North 11th Street"/><tag k="addr:unit" v="2"/><tag k="addr:postcode" v="95112"/></node>
<node visible="true" id="-24" lat="37.349127557" lon="-121.88627709100001"><tag k="addr:city" v="San Jose"/><tag k="addr:housenumber" v="473"/><tag k="addr:street" v="North 11th Street"/><tag k="addr:unit" v="3"/><tag k="addr:postcode" v="95112"/></node>
<node visible="true" id="-25" lat="37.349442449" lon="-121.886793694"><tag k="addr:city" v="San Jose"/><tag k="addr:housenumber" v="480"/><tag k="addr:street" v="East Empire Street"/><tag k="addr:postcode" v="95112"/></node>
<node visible="true" id="-26" lat="37.349466937" lon="-121.88673919400001"><tag k="addr:city" v="San Jose"/><tag k="addr:housenumber" v="482"/><tag k="addr:street" v="East Empire Street"/><tag k="addr:postcode" v="95112"/></node>
<node visible="true" id="-27" lat="37.3504191" lon="-121.884644311"><tag k="addr:city" v="San Jose"/><tag k="addr:housenumber" v="495"/><tag k="addr:street" v="North 13th Street"/><tag k="addr:postcode" v="95112"/></node>
<node visible="true" id="-28" lat="37.350246497" lon="-121.884932625"><tag k="addr:city" v="San Jose"/><tag k="addr:housenumber" v="574"/><tag k="addr:street" v="East Empire Street"/><tag k="addr:postcode" v="95112"/></node>
<node visible="true" id="-29" lat="37.350291337" lon="-121.88499649900001"><tag k="addr:city" v="San Jose"/><tag k="addr:housenumber" v="580"/><tag k="addr:street" v="East Empire Street"/><tag k="addr:postcode" v="95112"/></node>
<node visible="true" id="-30" lat="37.350130864" lon="-121.88496684100001"><tag k="addr:city" v="San Jose"/><tag k="addr:housenumber" v="564"/><tag k="addr:street" v="East Empire Street"/><tag k="addr:unit" v="2"/><tag k="addr:postcode" v="95112"/></node>
<node visible="true" id="-31" lat="37.350433501000005" lon="-121.88474737800001"><tag k="addr:city" v="San Jose"/><tag k="addr:housenumber" v="584"/><tag k="addr:street" v="East Empire Street"/><tag k="addr:postcode" v="95112"/></node>
<node visible="true" id="-33" lat="37.349486191000004" lon="-121.886571004"/>
<node visible="true" id="-34" lat="37.349602152" lon="-121.88665755500001"/>
<node visible="true" id="-35" lat="37.349686261" lon="-121.886480789"/>
<node visible="true" id="-36" lat="37.349568558" lon="-121.886392932"/>
<node visible="true" id="-37" lat="37.349545940000006" lon="-121.88644044"/>
<node visible="true" id="-38" lat="37.349512314" lon="-121.88641535400001"/>
<node visible="true" id="-39" lat="37.349489976" lon="-121.88646231700001"/>
<node visible="true" id="-40" lat="37.349495177" lon="-121.88646619800001"/>
<node visible="true" id="-41" lat="37.349488557" lon="-121.886480112"/>
<node visible="true" id="-42" lat="37.349518698000004" lon="-121.88650262200001"/>
<node visible="true" id="-44" lat="37.349135344000004" lon="-121.887172413"/>
<node visible="true" id="-45" lat="37.34928465" lon="-121.887284597"/>
<node visible="true" id="-46" lat="37.349279722000006" lon="-121.887294861"/>
<node visible="true" id="-47" lat="37.349301257" lon="-121.88731105400001"/>
<node visible="true" id="-48" lat="37.349356740000005" lon="-121.88719517300001"/>
<node visible="true" id="-49" lat="37.349185898" lon="-121.88706683100001"/>
<way visible="true" id="-2"><nd ref="-3"/><nd ref="-4"/><nd ref="-5"/><nd ref="-6"/><nd ref="-7"/><nd ref="-8"/><nd ref="-9"/><nd ref="-10"/><nd ref="-11"/><nd ref="-12"/><nd ref="-13"/><nd ref="-14"/><nd ref="-15"/><nd ref="-16"/><nd ref="-3"/></way>
<way visible="true" id="-17"><nd ref="-18"/><nd ref="-19"/><nd ref="-20"/><nd ref="-21"/><nd ref="-18"/></way>
<way visible="true" id="-32"><nd ref="-33"/><nd ref="-34"/><nd ref="-35"/><nd ref="-36"/><nd ref="-37"/><nd ref="-38"/><nd ref="-39"/><nd ref="-40"/><nd ref="-41"/><nd ref="-42"/><nd ref="-33"/><tag k="building" v="yes"/><tag k="height" v="7.99"/><tag k="ele" v="29.06"/><tag k="addr:city" v="San Jose"/><tag k="addr:housenumber" v="499"/><tag k="addr:street" v="North 11th Street"/><tag k="addr:postcode" v="95112"/></way>
<way visible="true" id="-43"><nd ref="-44"/><nd ref="-45"/><nd ref="-46"/><nd ref="-47"/><nd ref="-48"/><nd ref="-49"/><nd ref="-44"/><tag k="building" v="yes"/><tag k="height" v="4.67"/><tag k="ele" v="25.79"/><tag k="addr:city" v="San Jose"/><tag k="addr:housenumber" v="452"/><tag k="addr:street" v="East Empire Street"/><tag k="addr:postcode" v="95112"/></way>
<relation visible="true" id="-1"><member type="way" ref="-2" role="outer"/><member type="way" ref="-17" role="inner"/><tag k="type" v="multipolygon"/><tag k="building" v="yes"/><tag k="height" v="5.27"/><tag k="ele" v="30.02"/></relation>
</osm>