<?xml version="1.0"?>
<osm version="0.6" generator="uvmogr2osm" upload="false">
<node visible="true" id="-2" lat="37.289521320000006" lon="-121.886965415"/>
<node visible="true" id="-3" lat="37.28971841" lon="-121.887101602"/>
<node visible="true" id="-4" lat="37.289765603" lon="-121.88699459700001"/>
<node visible="true" id="-5" lat="37.289568514" lon="-121.886858411"/>
<node visible="true" id="-6" lat="37.287731843" lon="-121.883886262"><tag k="addr:city" v="San Jose"/><tag k="addr:housenumber" v="1004"/><tag k="addr:street" v="Cumberland Place"/><tag k="addr:postcode" v="95125"/></node>
<node visible="true" id="-7" lat="37.288350574" lon="-121.883312871"><tag k="addr:city" v="San Jose"/><tag k="addr:housenumber" v="980"/><tag k="addr:street" v="Spadafore Court"/><tag k="addr:postcode" v="95125"/></node>
<node visible="true" id="-8" lat="37.286145554" lon="-121.88422979500001"><tag k="addr:city" v="San Jose"/><tag k="addr:housenumber" v="2405"/><tag k="addr:street" v="Lincoln Village Drive"/><tag k="addr:postcode" v="95125"/></node>
<node visible="true" id="-9" lat="37.286063856000006" lon="-121.884620869"><tag k="addr:city" v="San Jose"/><tag k="addr:housenumber" v="2410"/><tag k="addr:street" v="Lincoln Village Drive"/><tag k="addr:postcode" v="95125"/></node>
<node visible="true" id="-10" lat="37.287414958" lon="-121.8839166"><tag k="addr:city" v="San Jose"/><tag k="addr:housenumber" v="2368"/><tag k="addr:street" v="Allentown Court"/><tag k="addr:postcode" v="95125"/></node>
<node visible="true" id="-11" lat="37.287463037" lon="-121.883946273"><tag k="addr:city" v="San Jose"/><tag k="addr:housenumber" v="2393"/><tag k="addr:street" v="Lincoln Village Drive"/><tag k="addr:postcode" v="95125"/></node>
<node visible="true" id="-12" lat="37.287465238" lon="-121.88382360800001"><tag k="addr:city" v="San Jose"/><tag k="addr:housenumber" v="2395"/><tag k="addr:street" v="Lincoln Village Drive"/><tag k="addr:postcode" v="95125"/></node>
<node visible="true" id="-13" lat="37.287701739" lon="-121.883990694"><tag k="addr:city" v="San Jose"/><tag k="addr:housenumber" v="1012"/><tag k="addr:street" v="Cumberland Place"/><tag k="addr:postcode" v="95125"/></node>
<node visible="true" id="-14" lat="37.288378754" lon="-121.88328035500001"><tag k="addr:city" v="San Jose"/><tag k="addr:housenumber" v="978"/><tag k="addr:street" v="Spadafore Court"/><tag k="addr:postcode" v="95125"/></node>
<way visible="true" id="-1"><nd ref="-2"/><nd ref="-3"/><nd ref="-4"/><nd ref="-5"/><nd ref="-2"/><tag k="building" v="yes"/><tag k="height" v="5.20"/><tag k="ele" v="49.12"/></way>
</osm>