<?xml version="1.0"?>
<osm version="0.6" generator="uvmogr2osm" upload="false">
<node visible="true" id="-2" lat="37.396329178" lon="-121.79953680000001"/>
<node visible="true" id="-3" lat="37.396328949" lon="-121.79963185000001"/>
<node visible="true" id="-4" lat="37.396346253000004" lon="-121.79963191"/>
<node visible="true" id="-5" lat="37.396345833000005" lon="-121.79980366100001"/>
<node visible="true" id="-6" lat="37.396450452" lon="-121.79980403600001"/>
<node visible="true" id="-7" lat="37.396451152000004" lon="-121.799510279"/>
<node visible="true" id="-8" lat="37.396375291000005" lon="-121.79950999200001"/>
<node visible="true" id="-9" lat="37.396375272" lon="-121.799519114"/>
<node visible="true" id="-10" lat="37.396360166" lon="-121.799519059"/>
<node visible="true" id="-11" lat="37.396360133" lon="-121.799536926"/>
<node visible="true" id="-12" lat="37.390988862" lon="-121.810630837"><tag k="addr:city" v="San Jose"/><tag k="addr:housenumber" v="16860"/><tag k="addr:street" v="Crothers Road"/><tag k="addr:unit" v="A"/><tag k="addr:postcode" v="95127"/></node>
<node visible="true" id="-13" lat="37.382091518" lon="-121.806562118"><tag k="addr:city" v="San Jose"/><tag k="addr:housenumber" v="10536"/><tag k="addr:street" v="Stiles Way"/><tag k="addr:postcode" v="95127"/></node>
<node visible="true" id="-14" lat="37.387153938000004" lon="-121.812788173"><tag k="addr:city" v="San Jose"/><tag k="addr:housenumber" v="10960"/><tag k="addr:street" v="Edgemont Drive"/><tag k="addr:postcode" v="95127"/></node>
<node visible="true" id="-15" lat="37.384046566" lon="-121.81479786700001"><tag k="addr:city" v="San Jose"/><tag k="addr:housenumber" v="11050"/><tag k="addr:street" v="Mount Hamilton Road"/><tag k="addr:postcode" v="95127"/></node>
<node visible="true" id="-16" lat="37.383968511" lon="-121.814353623"><tag k="addr:city" v="San Jose"/><tag k="addr:housenumber" v="11070"/><tag k="addr:street" v="Mount Hamilton Road"/><tag k="addr:postcode" v="95127"/></node>
<node visible="true" id="-17" lat="37.376724091" lon="-121.79718762300001"><tag k="addr:city" v="San Jose"/><tag k="addr:housenumber" v="10020"/><tag k="addr:street" v="Rose View Drive"/><tag k="addr:postcode" v="95127"/></node>
<node visible="true" id="-18" lat="37.378938681" lon="-121.809453"><tag k="addr:city" v="San Jose"/><tag k="addr:housenumber" v="11500"/><tag k="addr:street" v="Mount Hamilton Road"/><tag k="addr:postcode" v="95127"/></node>
<node visible="true" id="-19" lat="37.379020485000005" lon="-121.80546370100001"><tag k="addr:city" v="San Jose"/><tag k="addr:housenumber" v="4001"/><tag k="addr:street" v="Siesta Vista Drive"/><tag k="addr:postcode" v="95127"/></node>
<node visible="true" id="-20" lat="37.386496388000005" lon="-121.80722133600001"><tag k="addr:city" v="San Jose"/><tag k="addr:housenumber" v="4080"/><tag k="addr:street" v="Soelro Court"/><tag k="addr:postcode" v="95127"/></node>
<node visible="true" id="-21" lat="37.377403162" lon="-121.799257276"><tag k="addr:city" v="San Jose"/><tag k="addr:housenumber" v="10125"/><tag k="addr:street" v="Rose View Drive"/><tag k="addr:postcode" v="95127"/></node>
<node visible="true" id="-22" lat="37.378958087" lon="-121.79753306200001"><tag k="addr:city" v="San Jose"/><tag k="addr:housenumber" v="10156"/><tag k="addr:street" v="Bon Vista Court"/><tag k="addr:postcode" v="95127"/></node>
<node visible="true" id="-23" lat="37.376591438000005" lon="-121.793060288"><tag k="addr:city" v="San Jose"/><tag k="addr:housenumber" v="10231"/><tag k="addr:street" v="Crothers Road"/><tag k="addr:postcode" v="95127"/></node>
<node visible="true" id="-24" lat="37.377680138" lon="-121.795526206"><tag k="addr:city" v="San Jose"/><tag k="addr:housenumber" v="10251"/><tag k="addr:street" v="Crothers Road"/><tag k="addr:postcode" v="95127"/></node>
<node visible="true" id="-25" lat="37.384111565000005" lon="-121.815556122"><tag k="addr:city" v="San Jose"/><tag k="addr:housenumber" v="15516"/><tag k="addr:street" v="Alum Rock Avenue"/><tag k="addr:postcode" v="95127"/></node>
<node visible="true" id="-26" lat="37.385060295" lon="-121.81485994500001"><tag k="addr:city" v="San Jose"/><tag k="addr:housenumber" v="15600"/><tag k="addr:street" v="Alum Rock Avenue"/><tag k="addr:postcode" v="95127"/></node>
<node visible="true" id="-27" lat="37.38558518" lon="-121.814579691"><tag k="addr:city" v="San Jose"/><tag k="addr:housenumber" v="15630"/><tag k="addr:street" v="Alum Rock Avenue"/><tag k="addr:postcode" v="95127"/></node>
<node visible="true" id="-28" lat="37.385426501000005" lon="-121.814104142"><tag k="addr:city" v="San Jose"/><tag k="addr:housenumber" v="15640"/><tag k="addr:street" v="Alum Rock Avenue"/><tag k="addr:postcode" v="95127"/></node>
<node visible="true" id="-29" lat="37.386189018" lon="-121.813981897"><tag k="addr:city" v="San Jose"/><tag k="addr:housenumber" v="15680"/><tag k="addr:street" v="Alum Rock Avenue"/><tag k="addr:postcode" v="95127"/></node>
<node visible="true" id="-30" lat="37.387229798" lon="-121.812332123"><tag k="addr:city" v="San Jose"/><tag k="addr:housenumber" v="15709"/><tag k="addr:street" v="Highland Drive"/><tag k="addr:postcode" v="95127"/></node>
<node visible="true" id="-31" lat="37.387540481" lon="-121.81199579300001"><tag k="addr:city" v="San Jose"/><tag k="addr:housenumber" v="15715"/><tag k="addr:street" v="Alta Vista Way"/><tag k="addr:postcode" v="95127"/></node>
<node visible="true" id="-32" lat="37.388004758" lon="-121.81245272900001"><tag k="addr:city" v="San Jose"/><tag k="addr:housenumber" v="15738"/><tag k="addr:street" v="Highland Drive"/><tag k="addr:postcode" v="95127"/></node>
<node visible="true" id="-33" lat="37.382873889" lon="-121.80949848"><tag k="addr:city" v="San Jose"/><tag k="addr:housenumber" v="15731"/><tag k="addr:street" v="Simoni Drive"/><tag k="addr:postcode" v="95127"/></node>
<node visible="true" id="-34" lat="37.388117914000006" lon="-121.8127309"><tag k="addr:city" v="San Jose"/><tag k="addr:housenumber" v="15752"/><tag k="addr:street" v="Highland Drive"/><tag k="addr:postcode" v="95127"/></node>
<node visible="true" id="-35" lat="37.38346206" lon="-121.80802047300001"><tag k="addr:city" v="San Jose"/><tag k="addr:housenumber" v="15760"/><tag k="addr:street" v="Simoni Drive"/><tag k="addr:postcode" v="95127"/></node>
<node visible="true" id="-36" lat="37.38112297" lon="-121.80582909300001"><tag k="addr:city" v="San Jose"/><tag k="addr:housenumber" v="15796"/><tag k="addr:street" v="Rica Vista Way"/><tag k="addr:postcode" v="95127"/></node>
<node visible="true" id="-37" lat="37.384251524" lon="-121.80920726000001"><tag k="addr:city" v="San Jose"/><tag k="addr:housenumber" v="15811"/><tag k="addr:street" v="Simoni Drive"/><tag k="addr:postcode" v="95127"/></node>
<node visible="true" id="-38" lat="37.379633792" lon="-121.805089503"><tag k="addr:city" v="San Jose"/><tag k="addr:housenumber" v="15821"/><tag k="addr:street" v="Siesta Vista Drive"/><tag k="addr:postcode" v="95127"/></node>
<node visible="true" id="-39" lat="37.381761609" lon="-121.80525940800001"><tag k="addr:city" v="San Jose"/><tag k="addr:housenumber" v="15830"/><tag k="addr:street" v="Rica Vista Way"/><tag k="addr:postcode" v="95127"/></node>
<node visible="true" id="-40" lat="37.380058471000005" lon="-121.805562694"><tag k="addr:city" v="San Jose"/><tag k="addr:housenumber" v="15831"/><tag k="addr:street" v="Siesta Vista Drive"/><tag k="addr:postcode" v="95127"/></node>
<node visible="true" id="-41" lat="37.38043074" lon="-121.805579699"><tag k="addr:city" v="San Jose"/><tag k="addr:housenumber" v="15841"/><tag k="addr:street" v="Siesta Vista Drive"/><tag k="addr:postcode" v="95127"/></node>
<node visible="true" id="-42" lat="37.383294717000005" lon="-121.804502424"><tag k="addr:city" v="San Jose"/><tag k="addr:housenumber" v="15848"/><tag k="addr:street" v="Rica Vista Way"/><tag k="addr:postcode" v="95127"/></node>
<node visible="true" id="-43" lat="37.390397726" lon="-121.81204915400001"><tag k="addr:city" v="San Jose"/><tag k="addr:housenumber" v="15851"/><tag k="addr:street" v="Miradero Avenue"/><tag k="addr:postcode" v="95127"/></node>
<node visible="true" id="-44" lat="37.390933847" lon="-121.81301626000001"><tag k="addr:city" v="San Jose"/><tag k="addr:housenumber" v="15889"/><tag k="addr:street" v="Miradero Avenue"/><tag k="addr:postcode" v="95127"/></node>
<node visible="true" id="-45" lat="37.389321333000005" lon="-121.81638825200001"><tag k="addr:city" v="San Jose"/><tag k="addr:housenumber" v="15941"/><tag k="addr:street" v="Highland Drive"/><tag k="addr:postcode" v="95127"/></node>
<node visible="true" id="-46" lat="37.390515687000004" lon="-121.809956443"><tag k="addr:city" v="San Jose"/><tag k="addr:housenumber" v="15970"/><tag k="addr:street" v="Miradero Avenue"/><tag k="addr:postcode" v="95127"/></node>
<node visible="true" id="-47" lat="37.390635893" lon="-121.814617716"><tag k="addr:city" v="San Jose"/><tag k="addr:housenumber" v="16030"/><tag k="addr:street" v="Alta Vista Way"/><tag k="addr:postcode" v="95127"/></node>
<node visible="true" id="-48" lat="37.390082681" lon="-121.81688189600001"><tag k="addr:city" v="San Jose"/><tag k="addr:housenumber" v="16065"/><tag k="addr:street" v="Highland Drive"/><tag k="addr:postcode" v="95127"/></node>
<node visible="true" id="-49" lat="37.390318335" lon="-121.816766013"><tag k="addr:city" v="San Jose"/><tag k="addr:housenumber" v="16087"/><tag k="addr:street" v="Highland Drive"/><tag k="addr:postcode" v="95127"/></node>
<node visible="true" id="-50" lat="37.3900998" lon="-121.817255707"><tag k="addr:city" v="San Jose"/><tag k="addr:housenumber" v="16080"/><tag k="addr:street" v="Alum Rock Avenue"/><tag k="addr:postcode" v="95127"/></node>
<node visible="true" id="-51" lat="37.390691081" lon="-121.81612105900001"><tag k="addr:city" v="San Jose"/><tag k="addr:housenumber" v="16100"/><tag k="addr:street" v="Highland Drive"/><tag k="addr:postcode" v="95127"/></node>
<node visible="true" id="-52" lat="37.390378168000005" lon="-121.817127221"><tag k="addr:city" v="San Jose"/><tag k="addr:housenumber" v="16100"/><tag k="addr:street" v="Alum Rock Avenue"/><tag k="addr:postcode" v="95127"/></node>
<node visible="true" id="-53" lat="37.390937361" lon="-121.816005325"><tag k="addr:city" v="San Jose"/><tag k="addr:housenumber" v="16152"/><tag k="addr:street" v="Highland Drive"/><tag k="addr:postcode" v="95127"/></node>
<node visible="true" id="-54" lat="37.391677409" lon="-121.81735159200001"><tag k="addr:city" v="San Jose"/><tag k="addr:housenumber" v="16189"/><tag k="addr:street" v="Alum Rock Avenue"/><tag k="addr:postcode" v="95127"/></node>
<node visible="true" id="-55" lat="37.391426746" lon="-121.816705518"><tag k="addr:city" v="San Jose"/><tag k="addr:housenumber" v="16180"/><tag k="addr:street" v="Alum Rock Avenue"/><tag k="addr:postcode" v="95127"/></node>
<node visible="true" id="-56" lat="37.391322339000006" lon="-121.81491828300001"><tag k="addr:city" v="San Jose"/><tag k="addr:housenumber" v="16200"/><tag k="addr:street" v="Highland Drive"/><tag k="addr:postcode" v="95127"/></node>
<node visible="true" id="-57" lat="37.390990426" lon="-121.81507251500001"><tag k="addr:city" v="San Jose"/><tag k="addr:housenumber" v="16210"/><tag k="addr:street" v="Highland Drive"/><tag k="addr:postcode" v="95127"/></node>
<node visible="true" id="-58" lat="37.379552072" lon="-121.79808370100001"><tag k="addr:city" v="San Jose"/><tag k="addr:housenumber" v="10485"/><tag k="addr:street" v="Crothers Road"/><tag k="addr:postcode" v="95127"/></node>
<node visible="true" id="-59" lat="37.380690539" lon="-121.79835071900001"><tag k="addr:city" v="San Jose"/><tag k="addr:housenumber" v="10495"/><tag k="addr:street" v="Crothers Road"/><tag k="addr:postcode" v="95127"/></node>
<node visible="true" id="-60" lat="37.381615431" lon="-121.80658621500001"><tag k="addr:city" v="San Jose"/><tag k="addr:housenumber" v="10512"/><tag k="addr:street" v="Stiles Way"/><tag k="addr:postcode" v="95127"/></node>
<node visible="true" id="-61" lat="37.380329748" lon="-121.797764134"><tag k="addr:city" v="San Jose"/><tag k="addr:housenumber" v="10515"/><tag k="addr:street" v="Crothers Road"/><tag k="addr:postcode" v="95127"/></node>
<node visible="true" id="-62" lat="37.380399045000004" lon="-121.799230496"><tag k="addr:city" v="San Jose"/><tag k="addr:housenumber" v="10525"/><tag k="addr:street" v="Crothers Road"/><tag k="addr:postcode" v="95127"/></node>
<node visible="true" id="-63" lat="37.381900005000006" lon="-121.80688590400001"><tag k="addr:city" v="San Jose"/><tag k="addr:housenumber" v="10548"/><tag k="addr:street" v="Stiles Way"/><tag k="addr:postcode" v="95127"/></node>
<node visible="true" id="-64" lat="37.381598228" lon="-121.80731174300001"><tag k="addr:city" v="San Jose"/><tag k="addr:housenumber" v="10549"/><tag k="addr:street" v="Stiles Way"/><tag k="addr:postcode" v="95127"/></node>
<node visible="true" id="-65" lat="37.383848302000004" lon="-121.807013139"><tag k="addr:city" v="San Jose"/><tag k="addr:housenumber" v="10650"/><tag k="addr:street" v="Celeo Lane"/><tag k="addr:postcode" v="95127"/></node>
<node visible="true" id="-66" lat="37.390012783" lon="-121.808970204"><tag k="addr:city" v="San Jose"/><tag k="addr:housenumber" v="15000"/><tag k="addr:street" v="Miradero Avenue"/><tag k="addr:postcode" v="95127"/></node>
<node visible="true" id="-67" lat="37.390963803000005" lon="-121.81185995000001"><tag k="addr:city" v="San Jose"/><tag k="addr:housenumber" v="15820"/><tag k="addr:street" v="Miradero Avenue"/><tag k="addr:postcode" v="95127"/></node>
<node visible="true" id="-68" lat="37.391103889" lon="-121.80746354200001"><tag k="addr:city" v="San Jose"/><tag k="addr:housenumber" v="121"/><tag k="addr:street" v="Spyglass Hill Road"/><tag k="addr:postcode" v="95127"/></node>
<node visible="true" id="-69" lat="37.3911487" lon="-121.807511833"><tag k="addr:city" v="San Jose"/><tag k="addr:housenumber" v="119"/><tag k="addr:street" v="Spyglass Hill Road"/><tag k="addr:postcode" v="95127"/></node>
<node visible="true" id="-70" lat="37.391031227" lon="-121.80739565600001"><tag k="addr:city" v="San Jose"/><tag k="addr:housenumber" v="123"/><tag k="addr:street" v="Spyglass Hill Road"/><tag k="addr:postcode" v="95127"/></node>
<node visible="true" id="-71" lat="37.390304509" lon="-121.810807916"><tag k="addr:city" v="San Jose"/><tag k="addr:housenumber" v="15810"/><tag k="addr:street" v="Miradero Avenue"/><tag k="addr:postcode" v="95127"/></node>
<node visible="true" id="-72" lat="37.384097620000006" lon="-121.80963332"><tag k="addr:city" v="San Jose"/><tag k="addr:housenumber" v="10701"/><tag k="addr:street" v="Dormar Court"/><tag k="addr:postcode" v="95127"/></node>
<node visible="true" id="-73" lat="37.37989815" lon="-121.79725799500001"><tag k="addr:city" v="San Jose"/><tag k="addr:housenumber" v="10475"/><tag k="addr:street" v="Crothers Road"/><tag k="addr:postcode" v="95127"/></node>
<node visible="true" id="-74" lat="37.377043418" lon="-121.797890901"><tag k="addr:city" v="San Jose"/><tag k="addr:housenumber" v="10044"/><tag k="addr:street" v="Rose View Drive"/><tag k="addr:postcode" v="95127"/></node>
<node visible="true" id="-75" lat="37.377139902" lon="-121.796918601"><tag k="addr:city" v="San Jose"/><tag k="addr:housenumber" v="10036"/><tag k="addr:street" v="Bon Vista Court"/><tag k="addr:postcode" v="95127"/></node>
<node visible="true" id="-76" lat="37.377218285000005" lon="-121.79768660200001"><tag k="addr:city" v="San Jose"/><tag k="addr:housenumber" v="10047"/><tag k="addr:street" v="Bon Vista Court"/><tag k="addr:postcode" v="95127"/></node>
<node visible="true" id="-77" lat="37.377482569" lon="-121.79674598800001"><tag k="addr:city" v="San Jose"/><tag k="addr:housenumber" v="10048"/><tag k="addr:street" v="Bon Vista Court"/><tag k="addr:postcode" v="95127"/></node>
<node visible="true" id="-78" lat="37.376477503000004" lon="-121.79805522500001"><tag k="addr:city" v="San Jose"/><tag k="addr:housenumber" v="10035"/><tag k="addr:street" v="Rose View Drive"/><tag k="addr:postcode" v="95127"/></node>
<node visible="true" id="-79" lat="37.376508423000004" lon="-121.79839843200001"><tag k="addr:city" v="San Jose"/><tag k="addr:housenumber" v="10045"/><tag k="addr:street" v="Rose View Drive"/><tag k="addr:postcode" v="95127"/></node>
<node visible="true" id="-80" lat="37.378634578" lon="-121.79652212600001"><tag k="addr:city" v="San Jose"/><tag k="addr:housenumber" v="10321"/><tag k="addr:street" v="Crothers Road"/><tag k="addr:postcode" v="95127"/></node>
<node visible="true" id="-81" lat="37.381393074" lon="-121.79909537300001"><tag k="addr:city" v="San Jose"/><tag k="addr:housenumber" v="10517"/><tag k="addr:street" v="Crothers Road"/><tag k="addr:postcode" v="95127"/></node>
<node visible="true" id="-82" lat="37.377237977" lon="-121.794338909"><tag k="addr:city" v="San Jose"/><tag k="addr:housenumber" v="10241"/><tag k="addr:street" v="Crothers Road"/><tag k="addr:postcode" v="95127"/></node>
<node visible="true" id="-83" lat="37.379278129" lon="-121.796945195"><tag k="addr:city" v="San Jose"/><tag k="addr:housenumber" v="10341"/><tag k="addr:street" v="Crothers Road"/><tag k="addr:postcode" v="95127"/></node>
<node visible="true" id="-84" lat="37.379911099000005" lon="-121.798912094"><tag k="addr:city" v="San Jose"/><tag k="addr:housenumber" v="10505"/><tag k="addr:street" v="Crothers Road"/><tag k="addr:postcode" v="95127"/></node>
<node visible="true" id="-85" lat="37.378135333" lon="-121.796174261"><tag k="addr:city" v="San Jose"/><tag k="addr:housenumber" v="10301"/><tag k="addr:street" v="Crothers Road"/><tag k="addr:postcode" v="95127"/></node>
<node visible="true" id="-86" lat="37.380803489" lon="-121.80027750500001"><tag k="addr:city" v="San Jose"/><tag k="addr:housenumber" v="10535"/><tag k="addr:street" v="Crothers Road"/><tag k="addr:postcode" v="95127"/></node>
<node visible="true" id="-87" lat="37.383647241000006" lon="-121.807648864"><tag k="addr:city" v="San Jose"/><tag k="addr:housenumber" v="10669"/><tag k="addr:street" v="Celeo Lane"/><tag k="addr:postcode" v="95127"/></node>
<node visible="true" id="-88" lat="37.383156029000006" lon="-121.809176664"><tag k="addr:city" v="San Jose"/><tag k="addr:housenumber" v="10651"/><tag k="addr:street" v="Dormar Court"/><tag k="addr:postcode" v="95127"/></node>
<node visible="true" id="-89" lat="37.383816394" lon="-121.807818048"><tag k="addr:city" v="San Jose"/><tag k="addr:housenumber" v="10687"/><tag k="addr:street" v="Celeo Lane"/><tag k="addr:postcode" v="95127"/></node>
<node visible="true" id="-90" lat="37.383380851000005" lon="-121.809545438"><tag k="addr:city" v="San Jose"/><tag k="addr:housenumber" v="10671"/><tag k="addr:street" v="Dormar Court"/><tag k="addr:postcode" v="95127"/></node>
<node visible="true" id="-91" lat="37.383516503" lon="-121.80974801200001"><tag k="addr:city" v="San Jose"/><tag k="addr:housenumber" v="10687"/><tag k="addr:street" v="Dormar Court"/><tag k="addr:postcode" v="95127"/></node>
<node visible="true" id="-92" lat="37.381922334" lon="-121.800657369"><tag k="addr:city" v="San Jose"/><tag k="addr:housenumber" v="10555"/><tag k="addr:street" v="Crothers Road"/><tag k="addr:postcode" v="95127"/></node>
<node visible="true" id="-93" lat="37.389884916" lon="-121.81797255800001"><tag k="addr:city" v="San Jose"/><tag k="addr:housenumber" v="11011"/><tag k="addr:street" v="Canyon Drive"/><tag k="addr:postcode" v="95127"/></node>
<node visible="true" id="-94" lat="37.383036521" lon="-121.80037655100001"><tag k="addr:city" v="San Jose"/><tag k="addr:housenumber" v="10615"/><tag k="addr:street" v="Crothers Road"/><tag k="addr:postcode" v="95127"/></node>
<node visible="true" id="-95" lat="37.381828585" lon="-121.802911879"><tag k="addr:city" v="San Jose"/><tag k="addr:housenumber" v="10600"/><tag k="addr:street" v="Crothers Road"/><tag k="addr:postcode" v="95127"/></node>
<node visible="true" id="-96" lat="37.384171876" lon="-121.807423912"><tag k="addr:city" v="San Jose"/><tag k="addr:housenumber" v="10688"/><tag k="addr:street" v="Celeo Lane"/><tag k="addr:postcode" v="95127"/></node>
<node visible="true" id="-97" lat="37.387768900000005" lon="-121.81272242400001"><tag k="addr:city" v="San Jose"/><tag k="addr:housenumber" v="10954"/><tag k="addr:street" v="Edgemont Drive"/><tag k="addr:postcode" v="95127"/></node>
<node visible="true" id="-98" lat="37.386613296" lon="-121.812569928"><tag k="addr:city" v="San Jose"/><tag k="addr:housenumber" v="10974"/><tag k="addr:street" v="Edgemont Drive"/><tag k="addr:postcode" v="95127"/></node>
<node visible="true" id="-99" lat="37.385416733" lon="-121.80164944900001"><tag k="addr:city" v="San Jose"/><tag k="addr:housenumber" v="11011"/><tag k="addr:street" v="Crothers Road"/><tag k="addr:postcode" v="95127"/></node>
<node visible="true" id="-100" lat="37.376960064" lon="-121.79722724300001"><tag k="addr:city" v="San Jose"/><tag k="addr:housenumber" v="10028"/><tag k="addr:street" v="Bon Vista Court"/><tag k="addr:postcode" v="95127"/></node>
<node visible="true" id="-101" lat="37.381455742" lon="-121.81284036800001"><tag k="addr:city" v="San Jose"/><tag k="addr:housenumber" v="11255"/><tag k="addr:street" v="Mount Hamilton Road"/><tag k="addr:postcode" v="95127"/></node>
<node visible="true" id="-102" lat="37.377463802" lon="-121.79755360700001"><tag k="addr:city" v="San Jose"/><tag k="addr:housenumber" v="10055"/><tag k="addr:street" v="Bon Vista Court"/><tag k="addr:postcode" v="95127"/></node>
<node visible="true" id="-103" lat="37.377792218" lon="-121.79694138900001"><tag k="addr:city" v="San Jose"/><tag k="addr:housenumber" v="10060"/><tag k="addr:street" v="Bon Vista Court"/><tag k="addr:postcode" v="95127"/></node>
<node visible="true" id="-104" lat="37.384494780000004" lon="-121.81122046200001"><tag k="addr:city" v="San Jose"/><tag k="addr:housenumber" v="4005"/><tag k="addr:street" v="Soelro Court"/><tag k="addr:postcode" v="95127"/></node>
<node visible="true" id="-105" lat="37.384249326" lon="-121.81030917000001"><tag k="addr:city" v="San Jose"/><tag k="addr:housenumber" v="4010"/><tag k="addr:street" v="Soelro Court"/><tag k="addr:postcode" v="95127"/></node>
<node visible="true" id="-106" lat="37.386292273" lon="-121.80818996900001"><tag k="addr:city" v="San Jose"/><tag k="addr:housenumber" v="4060"/><tag k="addr:street" v="Soelro Court"/><tag k="addr:postcode" v="95127"/></node>
<node visible="true" id="-107" lat="37.381239386000004" lon="-121.80453987800001"><tag k="addr:city" v="San Jose"/><tag k="addr:housenumber" v="4067"/><tag k="addr:street" v="Siesta Vista Drive"/><tag k="addr:postcode" v="95127"/></node>
<node visible="true" id="-108" lat="37.386855848" lon="-121.80899012500001"><tag k="addr:city" v="San Jose"/><tag k="addr:housenumber" v="4075"/><tag k="addr:street" v="Soelro Court"/><tag k="addr:postcode" v="95127"/></node>
<node visible="true" id="-109" lat="37.387011288000004" lon="-121.808332613"><tag k="addr:city" v="San Jose"/><tag k="addr:housenumber" v="4081"/><tag k="addr:street" v="Soelro Court"/><tag k="addr:postcode" v="95127"/></node>
<node visible="true" id="-110" lat="37.37760893" lon="-121.79785980400001"><tag k="addr:city" v="San Jose"/><tag k="addr:housenumber" v="10083"/><tag k="addr:street" v="Bon Vista Court"/><tag k="addr:postcode" v="95127"/></node>
<node visible="true" id="-111" lat="37.377397883" lon="-121.79839733700001"><tag k="addr:city" v="San Jose"/><tag k="addr:housenumber" v="10094"/><tag k="addr:street" v="Rose View Drive"/><tag k="addr:postcode" v="95127"/></node>
<node visible="true" id="-112" lat="37.377139926000005" lon="-121.798995969"><tag k="addr:city" v="San Jose"/><tag k="addr:housenumber" v="10103"/><tag k="addr:street" v="Rose View Drive"/><tag k="addr:postcode" v="95127"/></node>
<node visible="true" id="-113" lat="37.378084718000004" lon="-121.798137846"><tag k="addr:city" v="San Jose"/><tag k="addr:housenumber" v="10123"/><tag k="addr:street" v="Bon Vista Court"/><tag k="addr:postcode" v="95127"/></node>
<node visible="true" id="-114" lat="37.378619802" lon="-121.797401281"><tag k="addr:city" v="San Jose"/><tag k="addr:housenumber" v="10130"/><tag k="addr:street" v="Bon Vista Court"/><tag k="addr:postcode" v="95127"/></node>
<node visible="true" id="-115" lat="37.378822865000004" lon="-121.7984737"><tag k="addr:city" v="San Jose"/><tag k="addr:housenumber" v="10176"/><tag k="addr:street" v="Vista Valle Court"/><tag k="addr:postcode" v="95127"/></node>
<node visible="true" id="-116" lat="37.379671436" lon="-121.806334195"><tag k="addr:city" v="San Jose"/><tag k="addr:housenumber" v="15690"/><tag k="addr:street" v="Rica Vista Way"/><tag k="addr:postcode" v="95127"/></node>
<node visible="true" id="-117" lat="37.386962387000004" lon="-121.813751718"><tag k="addr:city" v="San Jose"/><tag k="addr:housenumber" v="15720"/><tag k="addr:street" v="Alum Rock Avenue"/><tag k="addr:postcode" v="95127"/></node>
<node visible="true" id="-118" lat="37.388560018" lon="-121.810305037"><tag k="addr:city" v="San Jose"/><tag k="addr:housenumber" v="15740"/><tag k="addr:street" v="East Alta Vista Way"/><tag k="addr:postcode" v="95127"/></node>
<node visible="true" id="-119" lat="37.382962766000006" lon="-121.808369505"><tag k="addr:city" v="San Jose"/><tag k="addr:housenumber" v="15750"/><tag k="addr:street" v="Simoni Drive"/><tag k="addr:postcode" v="95127"/></node>
<node visible="true" id="-120" lat="37.383100101000004" lon="-121.808111065"><tag k="addr:city" v="San Jose"/><tag k="addr:housenumber" v="15756"/><tag k="addr:street" v="Simoni Drive"/><tag k="addr:postcode" v="95127"/></node>
<node visible="true" id="-121" lat="37.388659958000005" lon="-121.81127458600001"><tag k="addr:city" v="San Jose"/><tag k="addr:housenumber" v="15761"/><tag k="addr:street" v="East Alta Vista Way"/><tag k="addr:postcode" v="95127"/></node>
<node visible="true" id="-122" lat="37.388217928" lon="-121.81296608400001"><tag k="addr:city" v="San Jose"/><tag k="addr:housenumber" v="15766"/><tag k="addr:street" v="Highland Drive"/><tag k="addr:postcode" v="95127"/></node>
<node visible="true" id="-123" lat="37.388846756" lon="-121.810675617"><tag k="addr:city" v="San Jose"/><tag k="addr:housenumber" v="15770"/><tag k="addr:street" v="East Alta Vista Way"/><tag k="addr:postcode" v="95127"/></node>
<node visible="true" id="-124" lat="37.388540905" lon="-121.811997566"><tag k="addr:city" v="San Jose"/><tag k="addr:housenumber" v="15780"/><tag k="addr:street" v="Alta Vista Way"/><tag k="addr:postcode" v="95127"/></node>
<node visible="true" id="-125" lat="37.380857572000004" lon="-121.806214642"><tag k="addr:city" v="San Jose"/><tag k="addr:housenumber" v="15784"/><tag k="addr:street" v="Rica Vista Way"/><tag k="addr:postcode" v="95127"/></node>
<node visible="true" id="-126" lat="37.381085456" lon="-121.80644993300001"><tag k="addr:city" v="San Jose"/><tag k="addr:housenumber" v="15786"/><tag k="addr:street" v="Rica Vista Way"/><tag k="addr:postcode" v="95127"/></node>
<node visible="true" id="-127" lat="37.383881055" lon="-121.80918668700001"><tag k="addr:city" v="San Jose"/><tag k="addr:housenumber" v="15791"/><tag k="addr:street" v="Simoni Drive"/><tag k="addr:postcode" v="95127"/></node>
<node visible="true" id="-128" lat="37.388585004" lon="-121.81270337800001"><tag k="addr:city" v="San Jose"/><tag k="addr:housenumber" v="15793"/><tag k="addr:street" v="Alta Vista Way"/><tag k="addr:postcode" v="95127"/></node>
<node visible="true" id="-129" lat="37.389266137" lon="-121.811935124"><tag k="addr:city" v="San Jose"/><tag k="addr:housenumber" v="15795"/><tag k="addr:street" v="East Alta Vista Way"/><tag k="addr:postcode" v="95127"/></node>
<node visible="true" id="-130" lat="37.388827519" lon="-121.81223885300001"><tag k="addr:city" v="San Jose"/><tag k="addr:housenumber" v="15798"/><tag k="addr:street" v="Alta Vista Way"/><tag k="addr:postcode" v="95127"/></node>
<node visible="true" id="-131" lat="37.384108743000006" lon="-121.80863428400001"><tag k="addr:city" v="San Jose"/><tag k="addr:housenumber" v="15800"/><tag k="addr:street" v="Simoni Drive"/><tag k="addr:postcode" v="95127"/></node>
<node visible="true" id="-132" lat="37.389713441000005" lon="-121.81149567000001"><tag k="addr:city" v="San Jose"/><tag k="addr:housenumber" v="15808"/><tag k="addr:street" v="East Alta Vista Way"/><tag k="addr:postcode" v="95127"/></node>
<node visible="true" id="-133" lat="37.389193665" lon="-121.81255496700001"><tag k="addr:city" v="San Jose"/><tag k="addr:housenumber" v="15816"/><tag k="addr:street" v="Alta Vista Way"/><tag k="addr:postcode" v="95127"/></node>
<node visible="true" id="-134" lat="37.381905858" lon="-121.80461103100001"><tag k="addr:city" v="San Jose"/><tag k="addr:housenumber" v="15822"/><tag k="addr:street" v="Rica Vista Way"/><tag k="addr:postcode" v="95127"/></node>
<node visible="true" id="-135" lat="37.389371185" lon="-121.812731862"><tag k="addr:city" v="San Jose"/><tag k="addr:housenumber" v="15828"/><tag k="addr:street" v="Alta Vista Way"/><tag k="addr:postcode" v="95127"/></node>
<node visible="true" id="-136" lat="37.390219529" lon="-121.81184911400001"><tag k="addr:city" v="San Jose"/><tag k="addr:housenumber" v="15831"/><tag k="addr:street" v="Miradero Avenue"/><tag k="addr:postcode" v="95127"/></node>
<node visible="true" id="-137" lat="37.382381481" lon="-121.80546527000001"><tag k="addr:city" v="San Jose"/><tag k="addr:housenumber" v="15832"/><tag k="addr:street" v="Rica Vista Way"/><tag k="addr:postcode" v="95127"/></node>
<node visible="true" id="-138" lat="37.390034715000006" lon="-121.81223593300001"><tag k="addr:city" v="San Jose"/><tag k="addr:housenumber" v="15840"/><tag k="addr:street" v="East Alta Vista Way"/><tag k="addr:postcode" v="95127"/></node>
<node visible="true" id="-139" lat="37.389281374" lon="-121.813322517"><tag k="addr:city" v="San Jose"/><tag k="addr:housenumber" v="15841"/><tag k="addr:street" v="Alta Vista Way"/><tag k="addr:postcode" v="95127"/></node>
<node visible="true" id="-140" lat="37.390013605" lon="-121.81283868000001"><tag k="addr:city" v="San Jose"/><tag k="addr:housenumber" v="15853"/><tag k="addr:street" v="East Alta Vista Way"/><tag k="addr:postcode" v="95127"/></node>
<node visible="true" id="-141" lat="37.383082442" lon="-121.80520910400001"><tag k="addr:city" v="San Jose"/><tag k="addr:housenumber" v="15854"/><tag k="addr:street" v="Rica Vista Way"/><tag k="addr:postcode" v="95127"/></node>
<node visible="true" id="-142" lat="37.378472228" lon="-121.80359778600001"><tag k="addr:city" v="San Jose"/><tag k="addr:housenumber" v="15860"/><tag k="addr:street" v="Siesta Vista Drive"/><tag k="addr:postcode" v="95127"/></node>
<node visible="true" id="-143" lat="37.389424425" lon="-121.81353581200001"><tag k="addr:city" v="San Jose"/><tag k="addr:housenumber" v="15863"/><tag k="addr:street" v="Alta Vista Way"/><tag k="addr:postcode" v="95127"/></node>
<node visible="true" id="-144" lat="37.389644711" lon="-121.81372730000001"><tag k="addr:city" v="San Jose"/><tag k="addr:housenumber" v="15865"/><tag k="addr:street" v="Alta Vista Way"/><tag k="addr:postcode" v="95127"/></node>
<node visible="true" id="-145" lat="37.390398397000006" lon="-121.81310352700001"><tag k="addr:city" v="San Jose"/><tag k="addr:housenumber" v="15869"/><tag k="addr:street" v="East Alta Vista Way"/><tag k="addr:postcode" v="95127"/></node>
<node visible="true" id="-146" lat="37.384968414" lon="-121.808255349"><tag k="addr:city" v="San Jose"/><tag k="addr:housenumber" v="15879"/><tag k="addr:street" v="Simoni Drive"/><tag k="addr:postcode" v="95127"/></node>
<node visible="true" id="-147" lat="37.390622168" lon="-121.812588679"><tag k="addr:city" v="San Jose"/><tag k="addr:housenumber" v="15880"/><tag k="addr:street" v="East Alta Vista Way"/><tag k="addr:postcode" v="95127"/></node>
<node visible="true" id="-148" lat="37.385183505" lon="-121.807891451"><tag k="addr:city" v="San Jose"/><tag k="addr:housenumber" v="15885"/><tag k="addr:street" v="Simoni Drive"/><tag k="addr:postcode" v="95127"/></node>
<node visible="true" id="-149" lat="37.38927548" lon="-121.81503997600001"><tag k="addr:city" v="San Jose"/><tag k="addr:housenumber" v="15887"/><tag k="addr:street" v="Highland Drive"/><tag k="addr:postcode" v="95127"/></node>
<node visible="true" id="-150" lat="37.389140637000004" lon="-121.815280568"><tag k="addr:city" v="San Jose"/><tag k="addr:housenumber" v="15899"/><tag k="addr:street" v="Highland Drive"/><tag k="addr:postcode" v="95127"/></node>
<node visible="true" id="-151" lat="37.389058773" lon="-121.81667698800001"><tag k="addr:city" v="San Jose"/><tag k="addr:housenumber" v="15980"/><tag k="addr:street" v="Alum Rock Avenue"/><tag k="addr:postcode" v="95127"/></node>
<node visible="true" id="-152" lat="37.390493871000004" lon="-121.81493533300001"><tag k="addr:city" v="San Jose"/><tag k="addr:housenumber" v="15990"/><tag k="addr:street" v="Alta Vista Way"/><tag k="addr:postcode" v="95127"/></node>
<node visible="true" id="-153" lat="37.388104003" lon="-121.808533718"><tag k="addr:city" v="San Jose"/><tag k="addr:housenumber" v="15994"/><tag k="addr:street" v="Camino Vista Way"/><tag k="addr:postcode" v="95127"/></node>
<node visible="true" id="-154" lat="37.389621725000005" lon="-121.809081324"><tag k="addr:city" v="San Jose"/><tag k="addr:housenumber" v="16000"/><tag k="addr:street" v="Miradero Avenue"/><tag k="addr:postcode" v="95127"/></node>
<node visible="true" id="-155" lat="37.389440431000004" lon="-121.81716404000001"><tag k="addr:city" v="San Jose"/><tag k="addr:housenumber" v="16020"/><tag k="addr:street" v="Alum Rock Avenue"/><tag k="addr:postcode" v="95127"/></node>
<node visible="true" id="-156" lat="37.389652226" lon="-121.817274491"><tag k="addr:city" v="San Jose"/><tag k="addr:housenumber" v="16040"/><tag k="addr:street" v="Alum Rock Avenue"/><tag k="addr:postcode" v="95127"/></node>
<node visible="true" id="-157" lat="37.391317243" lon="-121.81442463900001"><tag k="addr:city" v="San Jose"/><tag k="addr:housenumber" v="16055"/><tag k="addr:street" v="Alta Vista Way"/><tag k="addr:postcode" v="95127"/></node>
<node visible="true" id="-158" lat="37.389886205" lon="-121.817305297"><tag k="addr:city" v="San Jose"/><tag k="addr:housenumber" v="16060"/><tag k="addr:street" v="Alum Rock Avenue"/><tag k="addr:postcode" v="95127"/></node>
<node visible="true" id="-159" lat="37.391487765" lon="-121.81750164500001"><tag k="addr:city" v="San Jose"/><tag k="addr:housenumber" v="16171"/><tag k="addr:street" v="Alum Rock Avenue"/><tag k="addr:postcode" v="95127"/></node>
<node visible="true" id="-160" lat="37.391557734" lon="-121.81485223400001"><tag k="addr:city" v="San Jose"/><tag k="addr:housenumber" v="16201"/><tag k="addr:street" v="Highland Drive"/><tag k="addr:postcode" v="95127"/></node>
<node visible="true" id="-161" lat="37.391094083000006" lon="-121.81555784000001"><tag k="addr:city" v="San Jose"/><tag k="addr:housenumber" v="16205"/><tag k="addr:street" v="Highland Drive"/><tag k="addr:postcode" v="95127"/></node>
<node visible="true" id="-162" lat="37.390984745000004" lon="-121.81093989600001"><tag k="addr:city" v="San Jose"/><tag k="addr:housenumber" v="16860"/><tag k="addr:street" v="Crothers Road"/><tag k="addr:postcode" v="95127"/></node>
<node visible="true" id="-163" lat="37.381812865" lon="-121.80627086300001"><tag k="addr:city" v="San Jose"/><tag k="addr:housenumber" v="10534"/><tag k="addr:street" v="Stiles Way"/><tag k="addr:postcode" v="95127"/></node>
<node visible="true" id="-164" lat="37.389069667" lon="-121.80690826300001"><tag k="addr:city" v="San Jose"/><tag k="addr:housenumber" v="17111"/><tag k="addr:street" v="Crothers Road"/><tag k="addr:postcode" v="95127"/></node>
<node visible="true" id="-165" lat="37.3831827" lon="-121.809990751"><tag k="addr:city" v="San Jose"/><tag k="addr:housenumber" v="10600"/><tag k="addr:street" v="Simoni Drive"/><tag k="addr:postcode" v="95127"/></node>
<node visible="true" id="-166" lat="37.383896829" lon="-121.80996324300001"><tag k="addr:city" v="San Jose"/><tag k="addr:housenumber" v="10700"/><tag k="addr:street" v="Dormar Court"/><tag k="addr:postcode" v="95127"/></node>
<node visible="true" id="-167" lat="37.384327966" lon="-121.807579719"><tag k="addr:city" v="San Jose"/><tag k="addr:housenumber" v="10704"/><tag k="addr:street" v="Celeo Lane"/><tag k="addr:postcode" v="95127"/></node>
<node visible="true" id="-168" lat="37.383977988000005" lon="-121.807985242"><tag k="addr:city" v="San Jose"/><tag k="addr:housenumber" v="10705"/><tag k="addr:street" v="Celeo Lane"/><tag k="addr:postcode" v="95127"/></node>
<node visible="true" id="-169" lat="37.384493209000006" lon="-121.80773255400001"><tag k="addr:city" v="San Jose"/><tag k="addr:housenumber" v="10712"/><tag k="addr:street" v="Celeo Lane"/><tag k="addr:postcode" v="95127"/></node>
<node visible="true" id="-170" lat="37.384141264" lon="-121.808168988"><tag k="addr:city" v="San Jose"/><tag k="addr:housenumber" v="10713"/><tag k="addr:street" v="Celeo Lane"/><tag k="addr:postcode" v="95127"/></node>
<node visible="true" id="-171" lat="37.387618334" lon="-121.813229452"><tag k="addr:city" v="San Jose"/><tag k="addr:housenumber" v="10955"/><tag k="addr:street" v="Edgemont Drive"/><tag k="addr:postcode" v="95127"/></node>
<node visible="true" id="-172" lat="37.387416553" lon="-121.81283970800001"><tag k="addr:city" v="San Jose"/><tag k="addr:housenumber" v="10958"/><tag k="addr:street" v="Edgemont Drive"/><tag k="addr:postcode" v="95127"/></node>
<node visible="true" id="-173" lat="37.387267696" lon="-121.81335850100001"><tag k="addr:city" v="San Jose"/><tag k="addr:housenumber" v="10981"/><tag k="addr:street" v="Edgemont Drive"/><tag k="addr:postcode" v="95127"/></node>
<node visible="true" id="-174" lat="37.387427672" lon="-121.813460867"><tag k="addr:city" v="San Jose"/><tag k="addr:housenumber" v="10983"/><tag k="addr:street" v="Edgemont Drive"/><tag k="addr:postcode" v="95127"/></node>
<node visible="true" id="-175" lat="37.388911623000006" lon="-121.81503718500001"><tag k="addr:city" v="San Jose"/><tag k="addr:housenumber" v="10989"/><tag k="addr:street" v="Brundage Way"/><tag k="addr:postcode" v="95127"/></node>
<node visible="true" id="-176" lat="37.384037882" lon="-121.81525142900001"><tag k="addr:city" v="San Jose"/><tag k="addr:housenumber" v="11020"/><tag k="addr:street" v="Mount Hamilton Road"/><tag k="addr:postcode" v="95127"/></node>
<node visible="true" id="-177" lat="37.386070769" lon="-121.802220046"><tag k="addr:city" v="San Jose"/><tag k="addr:housenumber" v="11041"/><tag k="addr:street" v="Crothers Road"/><tag k="addr:postcode" v="95127"/></node>
<node visible="true" id="-178" lat="37.382382467" lon="-121.81189612400001"><tag k="addr:city" v="San Jose"/><tag k="addr:housenumber" v="11240"/><tag k="addr:street" v="Mount Hamilton Road"/><tag k="addr:postcode" v="95127"/></node>
<node visible="true" id="-179" lat="37.381865274" lon="-121.81208504000001"><tag k="addr:city" v="San Jose"/><tag k="addr:housenumber" v="11260"/><tag k="addr:street" v="Mount Hamilton Road"/><tag k="addr:postcode" v="95127"/></node>
<node visible="true" id="-180" lat="37.38146492" lon="-121.81169122300001"><tag k="addr:city" v="San Jose"/><tag k="addr:housenumber" v="11300"/><tag k="addr:street" v="Mount Hamilton Road"/><tag k="addr:postcode" v="95127"/></node>
<node visible="true" id="-181" lat="37.38123258" lon="-121.81151373300001"><tag k="addr:city" v="San Jose"/><tag k="addr:housenumber" v="11320"/><tag k="addr:street" v="Mount Hamilton Road"/><tag k="addr:postcode" v="95127"/></node>
<node visible="true" id="-182" lat="37.380948334" lon="-121.811215308"><tag k="addr:city" v="San Jose"/><tag k="addr:housenumber" v="11340"/><tag k="addr:street" v="Mount Hamilton Road"/><tag k="addr:postcode" v="95127"/></node>
<node visible="true" id="-183" lat="37.377193229" lon="-121.798220653"><tag k="addr:city" v="San Jose"/><tag k="addr:housenumber" v="10072"/><tag k="addr:street" v="Rose View Drive"/><tag k="addr:postcode" v="95127"/></node>
<node visible="true" id="-184" lat="37.379434476" lon="-121.80563119400001"><tag k="addr:city" v="San Jose"/><tag k="addr:housenumber" v="4011"/><tag k="addr:street" v="Siesta Vista Drive"/><tag k="addr:postcode" v="95127"/></node>
<node visible="true" id="-185" lat="37.385419106" lon="-121.81047640000001"><tag k="addr:city" v="San Jose"/><tag k="addr:housenumber" v="4025"/><tag k="addr:street" v="Soelro Court"/><tag k="addr:postcode" v="95127"/></node>
<node visible="true" id="-186" lat="37.376930095000006" lon="-121.79874870600001"><tag k="addr:city" v="San Jose"/><tag k="addr:housenumber" v="10081"/><tag k="addr:street" v="Rose View Drive"/><tag k="addr:postcode" v="95127"/></node>
<node visible="true" id="-187" lat="37.378496023000004" lon="-121.79813201900001"><tag k="addr:city" v="San Jose"/><tag k="addr:housenumber" v="10141"/><tag k="addr:street" v="Bon Vista Court"/><tag k="addr:postcode" v="95127"/></node>
<node visible="true" id="-188" lat="37.377629964" lon="-121.79949489"><tag k="addr:city" v="San Jose"/><tag k="addr:housenumber" v="10145"/><tag k="addr:street" v="Rose View Drive"/><tag k="addr:postcode" v="95127"/></node>
<node visible="true" id="-189" lat="37.378090497" lon="-121.79855125200001"><tag k="addr:city" v="San Jose"/><tag k="addr:housenumber" v="10148"/><tag k="addr:street" v="Vista Valle Court"/><tag k="addr:postcode" v="95127"/></node>
<node visible="true" id="-190" lat="37.378933187" lon="-121.79797619300001"><tag k="addr:city" v="San Jose"/><tag k="addr:housenumber" v="10153"/><tag k="addr:street" v="Bon Vista Court"/><tag k="addr:postcode" v="95127"/></node>
<node visible="true" id="-191" lat="37.384275405000004" lon="-121.81541932200001"><tag k="addr:city" v="San Jose"/><tag k="addr:housenumber" v="15530"/><tag k="addr:street" v="Alum Rock Avenue"/><tag k="addr:postcode" v="95127"/></node>
<node visible="true" id="-192" lat="37.378117766" lon="-121.805905663"><tag k="addr:city" v="San Jose"/><tag k="addr:housenumber" v="15550"/><tag k="addr:street" v="Lori Anne Lane"/><tag k="addr:postcode" v="95127"/></node>
<node visible="true" id="-193" lat="37.378273174" lon="-121.80638185000001"><tag k="addr:city" v="San Jose"/><tag k="addr:housenumber" v="15551"/><tag k="addr:street" v="Lori Anne Lane"/><tag k="addr:postcode" v="95127"/></node>
<node visible="true" id="-194" lat="37.387076546" lon="-121.812180998"><tag k="addr:city" v="San Jose"/><tag k="addr:housenumber" v="15707"/><tag k="addr:street" v="Highland Drive"/><tag k="addr:postcode" v="95127"/></node>
<node visible="true" id="-195" lat="37.387383838000005" lon="-121.812415313"><tag k="addr:city" v="San Jose"/><tag k="addr:housenumber" v="15711"/><tag k="addr:street" v="Highland Drive"/><tag k="addr:postcode" v="95127"/></node>
<node visible="true" id="-196" lat="37.38834408" lon="-121.811749011"><tag k="addr:city" v="San Jose"/><tag k="addr:housenumber" v="15756"/><tag k="addr:street" v="Alta Vista Way"/><tag k="addr:postcode" v="95127"/></node>
<node visible="true" id="-197" lat="37.383725637000005" lon="-121.80827664200001"><tag k="addr:city" v="San Jose"/><tag k="addr:housenumber" v="15770"/><tag k="addr:street" v="Simoni Drive"/><tag k="addr:postcode" v="95127"/></node>
<node visible="true" id="-198" lat="37.388216706" lon="-121.81233153000001"><tag k="addr:city" v="San Jose"/><tag k="addr:housenumber" v="15771"/><tag k="addr:street" v="Alta Vista Way"/><tag k="addr:postcode" v="95127"/></node>
<node visible="true" id="-199" lat="37.388967783000005" lon="-121.81033091900001"><tag k="addr:city" v="San Jose"/><tag k="addr:housenumber" v="15780"/><tag k="addr:street" v="East Alta Vista Way"/><tag k="addr:postcode" v="95127"/></node>
<node visible="true" id="-200" lat="37.383906271" lon="-121.808475254"><tag k="addr:city" v="San Jose"/><tag k="addr:housenumber" v="15780"/><tag k="addr:street" v="Simoni Drive"/><tag k="addr:postcode" v="95127"/></node>
<node visible="true" id="-201" lat="37.381265533000004" lon="-121.80715732600001"><tag k="addr:city" v="San Jose"/><tag k="addr:housenumber" v="15781"/><tag k="addr:street" v="Rica Vista Way"/><tag k="addr:postcode" v="95127"/></node>
<node visible="true" id="-202" lat="37.389101992" lon="-121.811755817"><tag k="addr:city" v="San Jose"/><tag k="addr:housenumber" v="15789"/><tag k="addr:street" v="East Alta Vista Way"/><tag k="addr:postcode" v="95127"/></node>
<node visible="true" id="-203" lat="37.389370293" lon="-121.81109999600001"><tag k="addr:city" v="San Jose"/><tag k="addr:housenumber" v="15790"/><tag k="addr:street" v="East Alta Vista Way"/><tag k="addr:postcode" v="95127"/></node>
<node visible="true" id="-204" lat="37.381188004" lon="-121.80622455100001"><tag k="addr:city" v="San Jose"/><tag k="addr:housenumber" v="15790"/><tag k="addr:street" v="Rica Vista Way"/><tag k="addr:postcode" v="95127"/></node>
<node visible="true" id="-205" lat="37.388582046" lon="-121.813217859"><tag k="addr:city" v="San Jose"/><tag k="addr:housenumber" v="15794"/><tag k="addr:street" v="Highland Drive"/><tag k="addr:postcode" v="95127"/></node>
<node visible="true" id="-206" lat="37.388896336" lon="-121.81301839000001"><tag k="addr:city" v="San Jose"/><tag k="addr:housenumber" v="15815"/><tag k="addr:street" v="Alta Vista Way"/><tag k="addr:postcode" v="95127"/></node>
<node visible="true" id="-207" lat="37.389802225000004" lon="-121.81095917500001"><tag k="addr:city" v="San Jose"/><tag k="addr:housenumber" v="15815"/><tag k="addr:street" v="Miradero Avenue"/><tag k="addr:postcode" v="95127"/></node>
<node visible="true" id="-208" lat="37.382051876000006" lon="-121.80599293"><tag k="addr:city" v="San Jose"/><tag k="addr:housenumber" v="15821"/><tag k="addr:street" v="Rica Vista Way"/><tag k="addr:postcode" v="95127"/></node>
<node visible="true" id="-209" lat="37.382400562" lon="-121.80464163500001"><tag k="addr:city" v="San Jose"/><tag k="addr:housenumber" v="15826"/><tag k="addr:street" v="Rica Vista Way"/><tag k="addr:postcode" v="95127"/></node>
<node visible="true" id="-210" lat="37.389637058000005" lon="-121.81247260100001"><tag k="addr:city" v="San Jose"/><tag k="addr:housenumber" v="15829"/><tag k="addr:street" v="East Alta Vista Way"/><tag k="addr:postcode" v="95127"/></node>
<node visible="true" id="-211" lat="37.389107002" lon="-121.81365701400001"><tag k="addr:city" v="San Jose"/><tag k="addr:housenumber" v="15836"/><tag k="addr:street" v="Highland Drive"/><tag k="addr:postcode" v="95127"/></node>
<node visible="true" id="-212" lat="37.38261721" lon="-121.805837421"><tag k="addr:city" v="San Jose"/><tag k="addr:housenumber" v="15860"/><tag k="addr:street" v="Rica Vista Way"/><tag k="addr:postcode" v="95127"/></node>
<node visible="true" id="-213" lat="37.389598767" lon="-121.810101879"><tag k="addr:city" v="San Jose"/><tag k="addr:housenumber" v="15861"/><tag k="addr:street" v="Miradero Avenue"/><tag k="addr:postcode" v="95127"/></node>
<node visible="true" id="-214" lat="37.380694784" lon="-121.804357749"><tag k="addr:city" v="San Jose"/><tag k="addr:housenumber" v="15864"/><tag k="addr:street" v="Siesta Vista Drive"/><tag k="addr:postcode" v="95127"/></node>
<node visible="true" id="-215" lat="37.390236777000005" lon="-121.81297118"><tag k="addr:city" v="San Jose"/><tag k="addr:housenumber" v="15865"/><tag k="addr:street" v="East Alta Vista Way"/><tag k="addr:postcode" v="95127"/></node>
<node visible="true" id="-216" lat="37.380964917" lon="-121.80511159100001"><tag k="addr:city" v="San Jose"/><tag k="addr:housenumber" v="15865"/><tag k="addr:street" v="Siesta Vista Drive"/><tag k="addr:postcode" v="95127"/></node>
<node visible="true" id="-217" lat="37.390553955" lon="-121.81217489800001"><tag k="addr:city" v="San Jose"/><tag k="addr:housenumber" v="15871"/><tag k="addr:street" v="Miradero Avenue"/><tag k="addr:postcode" v="95127"/></node>
<node visible="true" id="-218" lat="37.390540649" lon="-121.81323615400001"><tag k="addr:city" v="San Jose"/><tag k="addr:housenumber" v="15873"/><tag k="addr:street" v="East Alta Vista Way"/><tag k="addr:postcode" v="95127"/></node>
<node visible="true" id="-219" lat="37.389418665" lon="-121.81465801200001"><tag k="addr:city" v="San Jose"/><tag k="addr:housenumber" v="15879"/><tag k="addr:street" v="Highland Drive"/><tag k="addr:postcode" v="95127"/></node>
<node visible="true" id="-220" lat="37.390840992" lon="-121.812751465"><tag k="addr:city" v="San Jose"/><tag k="addr:housenumber" v="15885"/><tag k="addr:street" v="Miradero Avenue"/><tag k="addr:postcode" v="95127"/></node>
<node visible="true" id="-221" lat="37.390219943000005" lon="-121.813716626"><tag k="addr:city" v="San Jose"/><tag k="addr:housenumber" v="15888"/><tag k="addr:street" v="Alta Vista Way"/><tag k="addr:postcode" v="95127"/></node>
<node visible="true" id="-222" lat="37.387286504" lon="-121.80964015"><tag k="addr:city" v="San Jose"/><tag k="addr:housenumber" v="15946"/><tag k="addr:street" v="Camino Vista Way"/><tag k="addr:postcode" v="95127"/></node>
<node visible="true" id="-223" lat="37.390393352000004" lon="-121.81440001300001"><tag k="addr:city" v="San Jose"/><tag k="addr:housenumber" v="15950"/><tag k="addr:street" v="Alta Vista Way"/><tag k="addr:postcode" v="95127"/></node>
<node visible="true" id="-224" lat="37.389510923" lon="-121.81657834800001"><tag k="addr:city" v="San Jose"/><tag k="addr:housenumber" v="15981"/><tag k="addr:street" v="Highland Drive"/><tag k="addr:postcode" v="95127"/></node>
<node visible="true" id="-225" lat="37.387590319000005" lon="-121.80662086100001"><tag k="addr:city" v="San Jose"/><tag k="addr:housenumber" v="15998"/><tag k="addr:street" v="Camino Vista Way"/><tag k="addr:postcode" v="95127"/></node>
<node visible="true" id="-226" lat="37.390428429" lon="-121.81579627900001"><tag k="addr:city" v="San Jose"/><tag k="addr:housenumber" v="16021"/><tag k="addr:street" v="Alta Vista Way"/><tag k="addr:postcode" v="95127"/></node>
<node visible="true" id="-227" lat="37.391123438" lon="-121.814607983"><tag k="addr:city" v="San Jose"/><tag k="addr:housenumber" v="16041"/><tag k="addr:street" v="Alta Vista Way"/><tag k="addr:postcode" v="95127"/></node>
<node visible="true" id="-228" lat="37.390564166000004" lon="-121.81669031000001"><tag k="addr:city" v="San Jose"/><tag k="addr:housenumber" v="16109"/><tag k="addr:street" v="Highland Drive"/><tag k="addr:postcode" v="95127"/></node>
<node visible="true" id="-229" lat="37.391204775000006" lon="-121.81590331800001"><tag k="addr:city" v="San Jose"/><tag k="addr:housenumber" v="16174"/><tag k="addr:street" v="Highland Drive"/><tag k="addr:postcode" v="95127"/></node>
<node visible="true" id="-230" lat="37.391569971" lon="-121.816281168"><tag k="addr:city" v="San Jose"/><tag k="addr:housenumber" v="16199"/><tag k="addr:street" v="Highland Drive"/><tag k="addr:postcode" v="95127"/></node>
<node visible="true" id="-231" lat="37.391693887" lon="-121.81663018900001"><tag k="addr:city" v="San Jose"/><tag k="addr:housenumber" v="16200"/><tag k="addr:street" v="Alum Rock Avenue"/><tag k="addr:postcode" v="95127"/></node>
<node visible="true" id="-232" lat="37.391401423000005" lon="-121.815466588"><tag k="addr:city" v="San Jose"/><tag k="addr:housenumber" v="16203"/><tag k="addr:street" v="Highland Drive"/><tag k="addr:postcode" v="95127"/></node>
<node visible="true" id="-233" lat="37.390663156" lon="-121.81576037900001"><tag k="addr:city" v="San Jose"/><tag k="addr:housenumber" v="16211"/><tag k="addr:street" v="Highland Drive"/><tag k="addr:postcode" v="95127"/></node>
<node visible="true" id="-234" lat="37.391868003" lon="-121.816299744"><tag k="addr:city" v="San Jose"/><tag k="addr:housenumber" v="16219"/><tag k="addr:street" v="Highland Drive"/><tag k="addr:postcode" v="95127"/></node>
<node visible="true" id="-235" lat="37.390755109000004" lon="-121.80798589300001"><tag k="addr:city" v="San Jose"/><tag k="addr:housenumber" v="17005"/><tag k="addr:street" v="Crothers Road"/><tag k="addr:postcode" v="95127"/></node>
<node visible="true" id="-236" lat="37.384895339" lon="-121.8028661"><tag k="addr:city" v="San Jose"/><tag k="addr:housenumber" v="10711"/><tag k="addr:street" v="Crothers Road"/><tag k="addr:unit" v="A"/><tag k="addr:postcode" v="95127"/></node>
<node visible="true" id="-237" lat="37.384659661" lon="-121.80788782100001"><tag k="addr:city" v="San Jose"/><tag k="addr:housenumber" v="10740"/><tag k="addr:street" v="Celeo Lane"/><tag k="addr:postcode" v="95127"/></node>
<node visible="true" id="-238" lat="37.389118713" lon="-121.814394035"><tag k="addr:city" v="San Jose"/><tag k="addr:housenumber" v="10951"/><tag k="addr:street" v="Brundage Way"/><tag k="addr:postcode" v="95127"/></node>
<node visible="true" id="-239" lat="37.387765782" lon="-121.813378756"><tag k="addr:city" v="San Jose"/><tag k="addr:housenumber" v="10951"/><tag k="addr:street" v="Edgemont Drive"/><tag k="addr:postcode" v="95127"/></node>
<node visible="true" id="-240" lat="37.389036868000005" lon="-121.814792775"><tag k="addr:city" v="San Jose"/><tag k="addr:housenumber" v="10969"/><tag k="addr:street" v="Brundage Way"/><tag k="addr:postcode" v="95127"/></node>
<node visible="true" id="-241" lat="37.387570353" lon="-121.81367053700001"><tag k="addr:city" v="San Jose"/><tag k="addr:housenumber" v="10987"/><tag k="addr:street" v="Edgemont Drive"/><tag k="addr:postcode" v="95127"/></node>
<node visible="true" id="-242" lat="37.387698015000005" lon="-121.81393102700001"><tag k="addr:city" v="San Jose"/><tag k="addr:housenumber" v="10991"/><tag k="addr:street" v="Edgemont Drive"/><tag k="addr:postcode" v="95127"/></node>
<node visible="true" id="-243" lat="37.387391909" lon="-121.814184334"><tag k="addr:city" v="San Jose"/><tag k="addr:housenumber" v="10995"/><tag k="addr:street" v="Edgemont Drive"/><tag k="addr:postcode" v="95127"/></node>
<node visible="true" id="-244" lat="37.388729613" lon="-121.81524651400001"><tag k="addr:city" v="San Jose"/><tag k="addr:housenumber" v="11007"/><tag k="addr:street" v="Brundage Way"/><tag k="addr:postcode" v="95127"/></node>
<node visible="true" id="-245" lat="37.376686474" lon="-121.798568833"><tag k="addr:city" v="San Jose"/><tag k="addr:housenumber" v="10063"/><tag k="addr:street" v="Rose View Drive"/><tag k="addr:postcode" v="95127"/></node>
<node visible="true" id="-246" lat="37.3785145" lon="-121.807895113"><tag k="addr:city" v="San Jose"/><tag k="addr:housenumber" v="11650"/><tag k="addr:street" v="Mount Hamilton Road"/><tag k="addr:postcode" v="95127"/></node>
<node visible="true" id="-247" lat="37.385009657000005" lon="-121.81089605300001"><tag k="addr:city" v="San Jose"/><tag k="addr:housenumber" v="4015"/><tag k="addr:street" v="Soelro Court"/><tag k="addr:postcode" v="95127"/></node>
<node visible="true" id="-248" lat="37.384617222" lon="-121.809795437"><tag k="addr:city" v="San Jose"/><tag k="addr:housenumber" v="4020"/><tag k="addr:street" v="Soelro Court"/><tag k="addr:postcode" v="95127"/></node>
<node visible="true" id="-249" lat="37.385357035000006" lon="-121.808426592"><tag k="addr:city" v="San Jose"/><tag k="addr:housenumber" v="4040"/><tag k="addr:street" v="Soelro Court"/><tag k="addr:postcode" v="95127"/></node>
<node visible="true" id="-250" lat="37.385688992000006" lon="-121.80920065000001"><tag k="addr:city" v="San Jose"/><tag k="addr:housenumber" v="4045"/><tag k="addr:street" v="Soelro Court"/><tag k="addr:postcode" v="95127"/></node>
<node visible="true" id="-251" lat="37.385880109000006" lon="-121.808400782"><tag k="addr:city" v="San Jose"/><tag k="addr:housenumber" v="4050"/><tag k="addr:street" v="Soelro Court"/><tag k="addr:postcode" v="95127"/></node>
<node visible="true" id="-252" lat="37.378142010000005" lon="-121.797535166"><tag k="addr:city" v="San Jose"/><tag k="addr:housenumber" v="10106"/><tag k="addr:street" v="Bon Vista Court"/><tag k="addr:postcode" v="95127"/></node>
<node visible="true" id="-253" lat="37.378560022" lon="-121.80657114700001"><tag k="addr:city" v="San Jose"/><tag k="addr:housenumber" v="15570"/><tag k="addr:street" v="Lori Anne Lane"/><tag k="addr:postcode" v="95127"/></node>
<node visible="true" id="-254" lat="37.385834927000005" lon="-121.81417649000001"><tag k="addr:city" v="San Jose"/><tag k="addr:housenumber" v="15660"/><tag k="addr:street" v="Alum Rock Avenue"/><tag k="addr:postcode" v="95127"/></node>
<node visible="true" id="-255" lat="37.387556808" lon="-121.811304581"><tag k="addr:city" v="San Jose"/><tag k="addr:housenumber" v="15700"/><tag k="addr:street" v="Alta Vista Way"/><tag k="addr:postcode" v="95127"/></node>
<node visible="true" id="-256" lat="37.388130549" lon="-121.81054005200001"><tag k="addr:city" v="San Jose"/><tag k="addr:housenumber" v="15701"/><tag k="addr:street" v="East Alta Vista Way"/><tag k="addr:postcode" v="95127"/></node>
<node visible="true" id="-257" lat="37.388046431" lon="-121.81091723700001"><tag k="addr:city" v="San Jose"/><tag k="addr:housenumber" v="15711"/><tag k="addr:street" v="East Alta Vista Way"/><tag k="addr:postcode" v="95127"/></node>
<node visible="true" id="-258" lat="37.382486485" lon="-121.80960713600001"><tag k="addr:city" v="San Jose"/><tag k="addr:housenumber" v="15720"/><tag k="addr:street" v="Simoni Drive"/><tag k="addr:postcode" v="95127"/></node>
<node visible="true" id="-259" lat="37.387980793000004" lon="-121.81209809"><tag k="addr:city" v="San Jose"/><tag k="addr:housenumber" v="15721"/><tag k="addr:street" v="Alta Vista Way"/><tag k="addr:postcode" v="95127"/></node>
<node visible="true" id="-260" lat="37.382570719" lon="-121.80890900400001"><tag k="addr:city" v="San Jose"/><tag k="addr:housenumber" v="15740"/><tag k="addr:street" v="Simoni Drive"/><tag k="addr:postcode" v="95127"/></node>
<node visible="true" id="-261" lat="37.388173796000004" lon="-121.81159799800001"><tag k="addr:city" v="San Jose"/><tag k="addr:housenumber" v="15742"/><tag k="addr:street" v="Alta Vista Way"/><tag k="addr:postcode" v="95127"/></node>
<node visible="true" id="-262" lat="37.388415540000004" lon="-121.810983441"><tag k="addr:city" v="San Jose"/><tag k="addr:housenumber" v="15745"/><tag k="addr:street" v="East Alta Vista Way"/><tag k="addr:postcode" v="95127"/></node>
<node visible="true" id="-263" lat="37.388365373" lon="-121.813052052"><tag k="addr:city" v="San Jose"/><tag k="addr:housenumber" v="15780"/><tag k="addr:street" v="Highland Drive"/><tag k="addr:postcode" v="95127"/></node>
<node visible="true" id="-264" lat="37.380985987" lon="-121.80677625400001"><tag k="addr:city" v="San Jose"/><tag k="addr:housenumber" v="15780"/><tag k="addr:street" v="Rica Vista Way"/><tag k="addr:postcode" v="95127"/></node>
<node visible="true" id="-265" lat="37.388387045" lon="-121.812580654"><tag k="addr:city" v="San Jose"/><tag k="addr:housenumber" v="15785"/><tag k="addr:street" v="Alta Vista Way"/><tag k="addr:postcode" v="95127"/></node>
<node visible="true" id="-266" lat="37.381743349000004" lon="-121.805757329"><tag k="addr:city" v="San Jose"/><tag k="addr:housenumber" v="15791"/><tag k="addr:street" v="Rica Vista Way"/><tag k="addr:postcode" v="95127"/></node>
<node visible="true" id="-267" lat="37.388109042" lon="-121.813962356"><tag k="addr:city" v="San Jose"/><tag k="addr:housenumber" v="15795"/><tag k="addr:street" v="Highland Drive"/><tag k="addr:postcode" v="95127"/></node>
<node visible="true" id="-268" lat="37.381280763" lon="-121.80551638700001"><tag k="addr:city" v="San Jose"/><tag k="addr:housenumber" v="15800"/><tag k="addr:street" v="Rica Vista Way"/><tag k="addr:postcode" v="95127"/></node>
<node visible="true" id="-269" lat="37.389019844" lon="-121.81235435200001"><tag k="addr:city" v="San Jose"/><tag k="addr:housenumber" v="15812"/><tag k="addr:street" v="Alta Vista Way"/><tag k="addr:postcode" v="95127"/></node>
<node visible="true" id="-270" lat="37.389866707" lon="-121.812018964"><tag k="addr:city" v="San Jose"/><tag k="addr:housenumber" v="15820"/><tag k="addr:street" v="East Alta Vista Way"/><tag k="addr:postcode" v="95127"/></node>
<node visible="true" id="-271" lat="37.389119115" lon="-121.81318843800001"><tag k="addr:city" v="San Jose"/><tag k="addr:housenumber" v="15825"/><tag k="addr:street" v="Alta Vista Way"/><tag k="addr:postcode" v="95127"/></node>
<node visible="true" id="-272" lat="37.389619790000005" lon="-121.81296029900001"><tag k="addr:city" v="San Jose"/><tag k="addr:housenumber" v="15840"/><tag k="addr:street" v="Alta Vista Way"/><tag k="addr:postcode" v="95127"/></node>
<node visible="true" id="-273" lat="37.382661155" lon="-121.80501342400001"><tag k="addr:city" v="San Jose"/><tag k="addr:housenumber" v="15840"/><tag k="addr:street" v="Rica Vista Way"/><tag k="addr:postcode" v="95127"/></node>
<node visible="true" id="-274" lat="37.389811928" lon="-121.812663013"><tag k="addr:city" v="San Jose"/><tag k="addr:housenumber" v="15841"/><tag k="addr:street" v="East Alta Vista Way"/><tag k="addr:postcode" v="95127"/></node>
<node visible="true" id="-275" lat="37.389276864" lon="-121.81381842200001"><tag k="addr:city" v="San Jose"/><tag k="addr:housenumber" v="15850"/><tag k="addr:street" v="Highland Drive"/><tag k="addr:postcode" v="95127"/></node>
<node visible="true" id="-276" lat="37.39024217" lon="-121.81236161300001"><tag k="addr:city" v="San Jose"/><tag k="addr:housenumber" v="15852"/><tag k="addr:street" v="East Alta Vista Way"/><tag k="addr:postcode" v="95127"/></node>
<node visible="true" id="-277" lat="37.389708426000006" lon="-121.814238109"><tag k="addr:city" v="San Jose"/><tag k="addr:housenumber" v="15864"/><tag k="addr:street" v="Highland Drive"/><tag k="addr:postcode" v="95127"/></node>
<node visible="true" id="-278" lat="37.389728516000005" lon="-121.81487672300001"><tag k="addr:city" v="San Jose"/><tag k="addr:housenumber" v="15880"/><tag k="addr:street" v="Highland Drive"/><tag k="addr:postcode" v="95127"/></node>
<node visible="true" id="-279" lat="37.389865078" lon="-121.81396068400001"><tag k="addr:city" v="San Jose"/><tag k="addr:housenumber" v="15897"/><tag k="addr:street" v="Alta Vista Way"/><tag k="addr:postcode" v="95127"/></node>
<node visible="true" id="-280" lat="37.389054012" lon="-121.815529857"><tag k="addr:city" v="San Jose"/><tag k="addr:housenumber" v="15911"/><tag k="addr:street" v="Highland Drive"/><tag k="addr:postcode" v="95127"/></node>
<node visible="true" id="-281" lat="37.388986417000005" lon="-121.81588213200001"><tag k="addr:city" v="San Jose"/><tag k="addr:housenumber" v="15917"/><tag k="addr:street" v="Highland Drive"/><tag k="addr:postcode" v="95127"/></node>
<node visible="true" id="-282" lat="37.389195471" lon="-121.81621264"><tag k="addr:city" v="San Jose"/><tag k="addr:housenumber" v="15929"/><tag k="addr:street" v="Highland Drive"/><tag k="addr:postcode" v="95127"/></node>
<node visible="true" id="-283" lat="37.389923269" lon="-121.816200886"><tag k="addr:city" v="San Jose"/><tag k="addr:housenumber" v="16020"/><tag k="addr:street" v="Highland Drive"/><tag k="addr:postcode" v="95127"/></node>
<node visible="true" id="-284" lat="37.389891596000005" lon="-121.81682517"><tag k="addr:city" v="San Jose"/><tag k="addr:housenumber" v="16043"/><tag k="addr:street" v="Highland Drive"/><tag k="addr:postcode" v="95127"/></node>
<node visible="true" id="-285" lat="37.390789136" lon="-121.81657420200001"><tag k="addr:city" v="San Jose"/><tag k="addr:housenumber" v="16131"/><tag k="addr:street" v="Highland Drive"/><tag k="addr:postcode" v="95127"/></node>
<node visible="true" id="-286" lat="37.391355807000004" lon="-121.81638411200001"><tag k="addr:city" v="San Jose"/><tag k="addr:housenumber" v="16175"/><tag k="addr:street" v="Highland Drive"/><tag k="addr:postcode" v="95127"/></node>
<node visible="true" id="-287" lat="37.390845261" lon="-121.815670228"><tag k="addr:city" v="San Jose"/><tag k="addr:housenumber" v="16207"/><tag k="addr:street" v="Highland Drive"/><tag k="addr:postcode" v="95127"/></node>
<node visible="true" id="-288" lat="37.391957179" lon="-121.81640461500001"><tag k="addr:city" v="San Jose"/><tag k="addr:housenumber" v="16220"/><tag k="addr:street" v="Alum Rock Avenue"/><tag k="addr:postcode" v="95127"/></node>
<node visible="true" id="-289" lat="37.391555628" lon="-121.80866208200001"><tag k="addr:city" v="San Jose"/><tag k="addr:housenumber" v="17000"/><tag k="addr:street" v="Crothers Road"/><tag k="addr:postcode" v="95127"/></node>
<node visible="true" id="-290" lat="37.391185285" lon="-121.808391209"><tag k="addr:city" v="San Jose"/><tag k="addr:housenumber" v="17001"/><tag k="addr:street" v="Crothers Road"/><tag k="addr:postcode" v="95127"/></node>
<node visible="true" id="-291" lat="37.390057844000005" lon="-121.80716597600001"><tag k="addr:city" v="San Jose"/><tag k="addr:housenumber" v="17009"/><tag k="addr:street" v="Crothers Road"/><tag k="addr:postcode" v="95127"/></node>
<node visible="true" id="-292" lat="37.388349419" lon="-121.804623484"><tag k="addr:city" v="San Jose"/><tag k="addr:housenumber" v="17131"/><tag k="addr:street" v="Crothers Road"/><tag k="addr:postcode" v="95127"/></node>
<node visible="true" id="-293" lat="37.382686538" lon="-121.80096854400001"><tag k="addr:city" v="San Jose"/><tag k="addr:housenumber" v="10607"/><tag k="addr:street" v="Crothers Road"/><tag k="addr:postcode" v="95127"/></node>
<node visible="true" id="-294" lat="37.383489627" lon="-121.80750421900001"><tag k="addr:city" v="San Jose"/><tag k="addr:housenumber" v="10651"/><tag k="addr:street" v="Celeo Lane"/><tag k="addr:postcode" v="95127"/></node>
<node visible="true" id="-295" lat="37.384030604" lon="-121.80720530500001"><tag k="addr:city" v="San Jose"/><tag k="addr:housenumber" v="10670"/><tag k="addr:street" v="Celeo Lane"/><tag k="addr:postcode" v="95127"/></node>
<node visible="true" id="-296" lat="37.384837074000004" lon="-121.80317708800001"><tag k="addr:city" v="San Jose"/><tag k="addr:housenumber" v="10711"/><tag k="addr:street" v="Crothers Road"/><tag k="addr:postcode" v="95127"/></node>
<node visible="true" id="-297" lat="37.381728452000004" lon="-121.81319002100001"><tag k="addr:city" v="San Jose"/><tag k="addr:housenumber" v="10955"/><tag k="addr:street" v="Prieta Court"/><tag k="addr:postcode" v="95127"/></node>
<node visible="true" id="-298" lat="37.379345339000004" lon="-121.81024702900001"><tag k="addr:city" v="San Jose"/><tag k="addr:housenumber" v="24"/><tag k="addr:street" v="Mount Hamilton Road"/><tag k="addr:postcode" v="95127"/></node>
<node visible="true" id="-299" lat="37.388596173" lon="-121.81436711"><tag k="addr:city" v="San Jose"/><tag k="addr:housenumber" v="10960"/><tag k="addr:street" v="Brundage Way"/><tag k="addr:postcode" v="95127"/></node>
<node visible="true" id="-300" lat="37.386849174000005" lon="-121.812632249"><tag k="addr:city" v="San Jose"/><tag k="addr:housenumber" v="10970"/><tag k="addr:street" v="Edgemont Drive"/><tag k="addr:postcode" v="95127"/></node>
<node visible="true" id="-301" lat="37.382876426" lon="-121.813254036"><tag k="addr:city" v="San Jose"/><tag k="addr:housenumber" v="11140"/><tag k="addr:street" v="Mount Hamilton Road"/><tag k="addr:postcode" v="95127"/></node>
<node visible="true" id="-302" lat="37.382936267000005" lon="-121.81226523800001"><tag k="addr:city" v="San Jose"/><tag k="addr:housenumber" v="11150"/><tag k="addr:street" v="Mount Hamilton Road"/><tag k="addr:postcode" v="95127"/></node>
<node visible="true" id="-303" lat="37.376504269" lon="-121.79771405500001"><tag k="addr:city" v="San Jose"/><tag k="addr:housenumber" v="10029"/><tag k="addr:street" v="Rose View Drive"/><tag k="addr:postcode" v="95127"/></node>
<node visible="true" id="-304" lat="37.381654544" lon="-121.811881252"><tag k="addr:city" v="San Jose"/><tag k="addr:housenumber" v="11280"/><tag k="addr:street" v="Mount Hamilton Road"/><tag k="addr:postcode" v="95127"/></node>
<node visible="true" id="-305" lat="37.379033398000004" lon="-121.808374232"><tag k="addr:city" v="San Jose"/><tag k="addr:housenumber" v="11600"/><tag k="addr:street" v="Mount Hamilton Road"/><tag k="addr:postcode" v="95127"/></node>
<node visible="true" id="-306" lat="37.383986715" lon="-121.815113769"><tag k="addr:city" v="San Jose"/><tag k="addr:housenumber" v="4"/><tag k="addr:street" v="Mount Hamilton Road"/><tag k="addr:postcode" v="95127"/></node>
<node visible="true" id="-307" lat="37.38487966" lon="-121.809186464"><tag k="addr:city" v="San Jose"/><tag k="addr:housenumber" v="4030"/><tag k="addr:street" v="Soelro Court"/><tag k="addr:postcode" v="95127"/></node>
<node visible="true" id="-308" lat="37.38562815" lon="-121.809879842"><tag k="addr:city" v="San Jose"/><tag k="addr:housenumber" v="4035"/><tag k="addr:street" v="Soelro Court"/><tag k="addr:postcode" v="95127"/></node>
<node visible="true" id="-309" lat="37.386406139" lon="-121.809840131"><tag k="addr:city" v="San Jose"/><tag k="addr:housenumber" v="4055"/><tag k="addr:street" v="Soelro Court"/><tag k="addr:postcode" v="95127"/></node>
<node visible="true" id="-310" lat="37.386607992" lon="-121.80943462200001"><tag k="addr:city" v="San Jose"/><tag k="addr:housenumber" v="4065"/><tag k="addr:street" v="Soelro Court"/><tag k="addr:postcode" v="95127"/></node>
<node visible="true" id="-311" lat="37.385857634000004" lon="-121.80768470800001"><tag k="addr:city" v="San Jose"/><tag k="addr:housenumber" v="4070"/><tag k="addr:street" v="Soelro Court"/><tag k="addr:postcode" v="95127"/></node>
<node visible="true" id="-312" lat="37.378005745" lon="-121.797137878"><tag k="addr:city" v="San Jose"/><tag k="addr:housenumber" v="10080"/><tag k="addr:street" v="Bon Vista Court"/><tag k="addr:postcode" v="95127"/></node>
<node visible="true" id="-313" lat="37.376755270000004" lon="-121.80086718400001"><tag k="addr:city" v="San Jose"/><tag k="addr:housenumber" v="12100"/><tag k="addr:street" v="Mount Hamilton Road"/><tag k="addr:postcode" v="95127"/></node>
<node visible="true" id="-314" lat="37.375565422" lon="-121.799568182"><tag k="addr:city" v="San Jose"/><tag k="addr:housenumber" v="12150"/><tag k="addr:street" v="Mount Hamilton Road"/><tag k="addr:postcode" v="95127"/></node>
<node visible="true" id="-315" lat="37.376678631000004" lon="-121.79649988000001"><tag k="addr:city" v="San Jose"/><tag k="addr:housenumber" v="12450"/><tag k="addr:street" v="Mount Hamilton Road"/><tag k="addr:postcode" v="95127"/></node>
<node visible="true" id="-316" lat="37.376985655000006" lon="-121.795913967"><tag k="addr:city" v="San Jose"/><tag k="addr:housenumber" v="12460"/><tag k="addr:street" v="Mount Hamilton Road"/><tag k="addr:postcode" v="95127"/></node>
<node visible="true" id="-317" lat="37.377664467" lon="-121.79849028900001"><tag k="addr:city" v="San Jose"/><tag k="addr:housenumber" v="10116"/><tag k="addr:street" v="Vista Valle Court"/><tag k="addr:postcode" v="95127"/></node>
<node visible="true" id="-318" lat="37.378018602000004" lon="-121.79914014900001"><tag k="addr:city" v="San Jose"/><tag k="addr:housenumber" v="10151"/><tag k="addr:street" v="Vista Valle Court"/><tag k="addr:postcode" v="95127"/></node>
<node visible="true" id="-319" lat="37.378538644" lon="-121.79851236900001"><tag k="addr:city" v="San Jose"/><tag k="addr:housenumber" v="10162"/><tag k="addr:street" v="Vista Valle Court"/><tag k="addr:postcode" v="95127"/></node>
<node visible="true" id="-320" lat="37.378742684" lon="-121.798982538"><tag k="addr:city" v="San Jose"/><tag k="addr:housenumber" v="10175"/><tag k="addr:street" v="Vista Valle Court"/><tag k="addr:postcode" v="95127"/></node>
<node visible="true" id="-321" lat="37.378569067" lon="-121.80604272900001"><tag k="addr:city" v="San Jose"/><tag k="addr:housenumber" v="15560"/><tag k="addr:street" v="Lori Anne Lane"/><tag k="addr:postcode" v="95127"/></node>
<node visible="true" id="-322" lat="37.384450014" lon="-121.81527249000001"><tag k="addr:city" v="San Jose"/><tag k="addr:housenumber" v="15550"/><tag k="addr:street" v="Alum Rock Avenue"/><tag k="addr:postcode" v="95127"/></node>
<node visible="true" id="-323" lat="37.378250365" lon="-121.806856228"><tag k="addr:city" v="San Jose"/><tag k="addr:housenumber" v="15561"/><tag k="addr:street" v="Lori Anne Lane"/><tag k="addr:postcode" v="95127"/></node>
<node visible="true" id="-324" lat="37.387880039" lon="-121.81136147900001"><tag k="addr:city" v="San Jose"/><tag k="addr:housenumber" v="15714"/><tag k="addr:street" v="Alta Vista Way"/><tag k="addr:postcode" v="95127"/></node>
<node visible="true" id="-325" lat="37.387554509000005" lon="-121.81252182200001"><tag k="addr:city" v="San Jose"/><tag k="addr:housenumber" v="15725"/><tag k="addr:street" v="Highland Drive"/><tag k="addr:postcode" v="95127"/></node>
<node visible="true" id="-326" lat="37.382785072000004" lon="-121.80862124500001"><tag k="addr:city" v="San Jose"/><tag k="addr:housenumber" v="15744"/><tag k="addr:street" v="Simoni Drive"/><tag k="addr:postcode" v="95127"/></node>
<node visible="true" id="-327" lat="37.383261350000005" lon="-121.80796921500001"><tag k="addr:city" v="San Jose"/><tag k="addr:housenumber" v="15758"/><tag k="addr:street" v="Simoni Drive"/><tag k="addr:postcode" v="95127"/></node>
<node visible="true" id="-328" lat="37.387924334000004" lon="-121.81348825900001"><tag k="addr:city" v="San Jose"/><tag k="addr:housenumber" v="15767"/><tag k="addr:street" v="Highland Drive"/><tag k="addr:postcode" v="95127"/></node>
<node visible="true" id="-329" lat="37.380475624" lon="-121.80671156400001"><tag k="addr:city" v="San Jose"/><tag k="addr:housenumber" v="15770"/><tag k="addr:street" v="Rica Vista Way"/><tag k="addr:postcode" v="95127"/></node>
<node visible="true" id="-330" lat="37.383406751" lon="-121.808708968"><tag k="addr:city" v="San Jose"/><tag k="addr:housenumber" v="15771"/><tag k="addr:street" v="Simoni Drive"/><tag k="addr:postcode" v="95127"/></node>
<node visible="true" id="-331" lat="37.388893875" lon="-121.81153205400001"><tag k="addr:city" v="San Jose"/><tag k="addr:housenumber" v="15775"/><tag k="addr:street" v="East Alta Vista Way"/><tag k="addr:postcode" v="95127"/></node>
<node visible="true" id="-332" lat="37.383663258000006" lon="-121.80897334500001"><tag k="addr:city" v="San Jose"/><tag k="addr:housenumber" v="15781"/><tag k="addr:street" v="Simoni Drive"/><tag k="addr:postcode" v="95127"/></node>
<node visible="true" id="-333" lat="37.388685112000005" lon="-121.81286630900001"><tag k="addr:city" v="San Jose"/><tag k="addr:housenumber" v="15795"/><tag k="addr:street" v="Alta Vista Way"/><tag k="addr:postcode" v="95127"/></node>
<node visible="true" id="-334" lat="37.388790549" lon="-121.813402045"><tag k="addr:city" v="San Jose"/><tag k="addr:housenumber" v="15800"/><tag k="addr:street" v="Highland Drive"/><tag k="addr:postcode" v="95127"/></node>
<node visible="true" id="-335" lat="37.384060265" lon="-121.80921492200001"><tag k="addr:city" v="San Jose"/><tag k="addr:housenumber" v="15801"/><tag k="addr:street" v="Simoni Drive"/><tag k="addr:postcode" v="95127"/></node>
<node visible="true" id="-336" lat="37.389456833000004" lon="-121.812211081"><tag k="addr:city" v="San Jose"/><tag k="addr:housenumber" v="15817"/><tag k="addr:street" v="East Alta Vista Way"/><tag k="addr:postcode" v="95127"/></node>
<node visible="true" id="-337" lat="37.384458725" lon="-121.80904356600001"><tag k="addr:city" v="San Jose"/><tag k="addr:housenumber" v="15821"/><tag k="addr:street" v="Simoni Drive"/><tag k="addr:postcode" v="95127"/></node>
<node visible="true" id="-338" lat="37.38263163" lon="-121.80599404700001"><tag k="addr:city" v="San Jose"/><tag k="addr:housenumber" v="15850"/><tag k="addr:street" v="Rica Vista Way"/><tag k="addr:postcode" v="95127"/></node>
<node visible="true" id="-339" lat="37.382341112" lon="-121.80623177400001"><tag k="addr:city" v="San Jose"/><tag k="addr:housenumber" v="15851"/><tag k="addr:street" v="Rica Vista Way"/><tag k="addr:postcode" v="95127"/></node>
<node visible="true" id="-340" lat="37.384592522000005" lon="-121.80878482000001"><tag k="addr:city" v="San Jose"/><tag k="addr:housenumber" v="15855"/><tag k="addr:street" v="Simoni Drive"/><tag k="addr:postcode" v="95127"/></node>
<node visible="true" id="-341" lat="37.389476839000004" lon="-121.813993924"><tag k="addr:city" v="San Jose"/><tag k="addr:housenumber" v="15858"/><tag k="addr:street" v="Highland Drive"/><tag k="addr:postcode" v="95127"/></node>
<node visible="true" id="-342" lat="37.382839403000006" lon="-121.80549609600001"><tag k="addr:city" v="San Jose"/><tag k="addr:housenumber" v="15858"/><tag k="addr:street" v="Rica Vista Way"/><tag k="addr:postcode" v="95127"/></node>
<node visible="true" id="-343" lat="37.389979042" lon="-121.81335223800001"><tag k="addr:city" v="San Jose"/><tag k="addr:housenumber" v="15864"/><tag k="addr:street" v="Alta Vista Way"/><tag k="addr:postcode" v="95127"/></node>
<node visible="true" id="-344" lat="37.389288886" lon="-121.810189836"><tag k="addr:city" v="San Jose"/><tag k="addr:housenumber" v="15865"/><tag k="addr:street" v="Miradero Avenue"/><tag k="addr:postcode" v="95127"/></node>
<node visible="true" id="-345" lat="37.390439078" lon="-121.81244807200001"><tag k="addr:city" v="San Jose"/><tag k="addr:housenumber" v="15870"/><tag k="addr:street" v="East Alta Vista Way"/><tag k="addr:postcode" v="95127"/></node>
<node visible="true" id="-346" lat="37.38477064" lon="-121.808531978"><tag k="addr:city" v="San Jose"/><tag k="addr:housenumber" v="15875"/><tag k="addr:street" v="Simoni Drive"/><tag k="addr:postcode" v="95127"/></node>
<node visible="true" id="-347" lat="37.384825747" lon="-121.807482035"><tag k="addr:city" v="San Jose"/><tag k="addr:housenumber" v="15880"/><tag k="addr:street" v="Simoni Drive"/><tag k="addr:postcode" v="95127"/></node>
<node visible="true" id="-348" lat="37.390637112" lon="-121.81351593500001"><tag k="addr:city" v="San Jose"/><tag k="addr:housenumber" v="15881"/><tag k="addr:street" v="East Alta Vista Way"/><tag k="addr:postcode" v="95127"/></node>
<node visible="true" id="-349" lat="37.390376999000004" lon="-121.81395950100001"><tag k="addr:city" v="San Jose"/><tag k="addr:housenumber" v="15900"/><tag k="addr:street" v="Alta Vista Way"/><tag k="addr:postcode" v="95127"/></node>
<node visible="true" id="-350" lat="37.385510385" lon="-121.805959673"><tag k="addr:city" v="San Jose"/><tag k="addr:housenumber" v="15900"/><tag k="addr:street" v="Simoni Drive"/><tag k="addr:postcode" v="95127"/></node>
<node visible="true" id="-351" lat="37.389526905000004" lon="-121.815744045"><tag k="addr:city" v="San Jose"/><tag k="addr:housenumber" v="15930"/><tag k="addr:street" v="Highland Drive"/><tag k="addr:postcode" v="95127"/></node>
<node visible="true" id="-352" lat="37.387667962" lon="-121.81036147"><tag k="addr:city" v="San Jose"/><tag k="addr:housenumber" v="15945"/><tag k="addr:street" v="Camino Vista Way"/><tag k="addr:postcode" v="95127"/></node>
<node visible="true" id="-353" lat="37.387961149" lon="-121.80985972600001"><tag k="addr:city" v="San Jose"/><tag k="addr:housenumber" v="15949"/><tag k="addr:street" v="Camino Vista Way"/><tag k="addr:postcode" v="95127"/></node>
<node visible="true" id="-354" lat="37.387775938000004" lon="-121.80893702600001"><tag k="addr:city" v="San Jose"/><tag k="addr:housenumber" v="15956"/><tag k="addr:street" v="Camino Vista Way"/><tag k="addr:postcode" v="95127"/></node>
<node visible="true" id="-355" lat="37.389785996" lon="-121.81514466600001"><tag k="addr:city" v="San Jose"/><tag k="addr:housenumber" v="15985"/><tag k="addr:street" v="Alta Vista Way"/><tag k="addr:postcode" v="95127"/></node>
<node visible="true" id="-356" lat="37.388763212" lon="-121.809078462"><tag k="addr:city" v="San Jose"/><tag k="addr:housenumber" v="15997"/><tag k="addr:street" v="Camino Vista Way"/><tag k="addr:postcode" v="95127"/></node>
<node visible="true" id="-357" lat="37.389293286000004" lon="-121.816988015"><tag k="addr:city" v="San Jose"/><tag k="addr:housenumber" v="16000"/><tag k="addr:street" v="Alum Rock Avenue"/><tag k="addr:postcode" v="95127"/></node>
<node visible="true" id="-358" lat="37.39011192" lon="-121.815527148"><tag k="addr:city" v="San Jose"/><tag k="addr:housenumber" v="16011"/><tag k="addr:street" v="Alta Vista Way"/><tag k="addr:postcode" v="95127"/></node>
<node visible="true" id="-359" lat="37.3896798" lon="-121.81671472000001"><tag k="addr:city" v="San Jose"/><tag k="addr:housenumber" v="16021"/><tag k="addr:street" v="Highland Drive"/><tag k="addr:postcode" v="95127"/></node>
<node visible="true" id="-360" lat="37.390868170000005" lon="-121.81409444900001"><tag k="addr:city" v="San Jose"/><tag k="addr:housenumber" v="16046"/><tag k="addr:street" v="Alta Vista Way"/><tag k="addr:postcode" v="95127"/></node>
<node visible="true" id="-361" lat="37.390221001" lon="-121.816246171"><tag k="addr:city" v="San Jose"/><tag k="addr:housenumber" v="16066"/><tag k="addr:street" v="Highland Drive"/><tag k="addr:postcode" v="95127"/></node>
<node visible="true" id="-362" lat="37.390634955" lon="-121.81702503100001"><tag k="addr:city" v="San Jose"/><tag k="addr:housenumber" v="16120"/><tag k="addr:street" v="Alum Rock Avenue"/><tag k="addr:postcode" v="95127"/></node>
<node visible="true" id="-363" lat="37.390913024" lon="-121.81692321800001"><tag k="addr:city" v="San Jose"/><tag k="addr:housenumber" v="16140"/><tag k="addr:street" v="Alum Rock Avenue"/><tag k="addr:postcode" v="95127"/></node>
<node visible="true" id="-364" lat="37.391087702" lon="-121.81768020700001"><tag k="addr:city" v="San Jose"/><tag k="addr:housenumber" v="16141"/><tag k="addr:street" v="Alum Rock Avenue"/><tag k="addr:postcode" v="95127"/></node>
<node visible="true" id="-365" lat="37.391118657" lon="-121.81663337"><tag k="addr:city" v="San Jose"/><tag k="addr:housenumber" v="16160"/><tag k="addr:street" v="Alum Rock Avenue"/><tag k="addr:postcode" v="95127"/></node>
<node visible="true" id="-366" lat="37.391331909" lon="-121.81759514800001"><tag k="addr:city" v="San Jose"/><tag k="addr:housenumber" v="16161"/><tag k="addr:street" v="Alum Rock Avenue"/><tag k="addr:postcode" v="95127"/></node>
<node visible="true" id="-367" lat="37.391504452" lon="-121.81577520100001"><tag k="addr:city" v="San Jose"/><tag k="addr:housenumber" v="16196"/><tag k="addr:street" v="Highland Drive"/><tag k="addr:postcode" v="95127"/></node>
<way visible="true" id="-1"><nd ref="-2"/><nd ref="-3"/><nd ref="-4"/><nd ref="-5"/><nd ref="-6"/><nd ref="-7"/><nd ref="-8"/><nd ref="-9"/><nd ref="-10"/><nd ref="-11"/><nd ref="-2"/><tag k="building" v="yes"/><tag k="height" v="4.50"/><tag k="ele" v="175.31"/></way>
</osm>