<?xml version="1.0"?>
<osm version="0.6" generator="uvmogr2osm" upload="false">
<node visible="true" id="-2" lat="37.298032603" lon="-121.76963641100001"/>
<node visible="true" id="-3" lat="37.298092463" lon="-121.76968129900001"/>
<node visible="true" id="-4" lat="37.298058091" lon="-121.769753124"/>
<node visible="true" id="-5" lat="37.29820609" lon="-121.76986411200001"/>
<node visible="true" id="-6" lat="37.298208452000004" lon="-121.769859201"/>
<node visible="true" id="-7" lat="37.298218859" lon="-121.769866976"/>
<node visible="true" id="-8" lat="37.298228492" lon="-121.769913384"/>
<node visible="true" id="-9" lat="37.298199328" lon="-121.76992289300001"/>
<node visible="true" id="-10" lat="37.298212486000004" lon="-121.769986105"/>
<node visible="true" id="-11" lat="37.298241705" lon="-121.76997659700001"/>
<node visible="true" id="-12" lat="37.298251678" lon="-121.770024488"/>
<node visible="true" id="-13" lat="37.298192171000004" lon="-121.77014983100001"/>
<node visible="true" id="-14" lat="37.298335438" lon="-121.77025640900001"/>
<node visible="true" id="-15" lat="37.298368804" lon="-121.77018611400001"/>
<node visible="true" id="-16" lat="37.298373981000005" lon="-121.770189985"/>
<node visible="true" id="-17" lat="37.298469468" lon="-121.76998885500001"/>
<node visible="true" id="-18" lat="37.298337999000005" lon="-121.769891039"/>
<node visible="true" id="-19" lat="37.298335047" lon="-121.76989721300001"/>
<node visible="true" id="-20" lat="37.298326711" lon="-121.769890985"/>
<node visible="true" id="-21" lat="37.298317376" lon="-121.76984499500001"/>
<node visible="true" id="-22" lat="37.298335316" lon="-121.769806586"/>
<node visible="true" id="-23" lat="37.298315721" lon="-121.76971386900001"/>
<node visible="true" id="-24" lat="37.298284256" lon="-121.76968985100001"/>
<node visible="true" id="-25" lat="37.298298611" lon="-121.76966038900001"/>
<node visible="true" id="-26" lat="37.298094431" lon="-121.76950725600001"/>
<node visible="true" id="-28" lat="37.298277902" lon="-121.769457492"/>
<node visible="true" id="-29" lat="37.298278546" lon="-121.769550197"/>
<node visible="true" id="-30" lat="37.298306154" lon="-121.769549909"/>
<node visible="true" id="-31" lat="37.298307052000006" lon="-121.769682434"/>
<node visible="true" id="-32" lat="37.298374246" lon="-121.769681684"/>
<node visible="true" id="-33" lat="37.298374219" lon="-121.769679104"/>
<node visible="true" id="-34" lat="37.298413116" lon="-121.76967869900001"/>
<node visible="true" id="-35" lat="37.298411601000005" lon="-121.76945604900001"/>
<node visible="true" id="-37" lat="37.290655605000005" lon="-121.741178461"/>
<node visible="true" id="-38" lat="37.290672423000004" lon="-121.74121923700001"/>
<node visible="true" id="-39" lat="37.290706192" lon="-121.74119738300001"/>
<node visible="true" id="-40" lat="37.290719207" lon="-121.74122885000001"/>
<node visible="true" id="-41" lat="37.290704299000005" lon="-121.741238503"/>
<node visible="true" id="-42" lat="37.29072227" lon="-121.74128201500001"/>
<node visible="true" id="-43" lat="37.290702273" lon="-121.741294952"/>
<node visible="true" id="-44" lat="37.290733178" lon="-121.741369793"/>
<node visible="true" id="-45" lat="37.290754251" lon="-121.74135618400001"/>
<node visible="true" id="-46" lat="37.290759902000005" lon="-121.74136985800001"/>
<node visible="true" id="-47" lat="37.290895863" lon="-121.741281907"/>
<node visible="true" id="-48" lat="37.290888766" lon="-121.74126473700001"/>
<node visible="true" id="-49" lat="37.290896067000006" lon="-121.74126001100001"/>
<node visible="true" id="-50" lat="37.290874777" lon="-121.74120843200001"/>
<node visible="true" id="-51" lat="37.290863936" lon="-121.74121543800001"/>
<node visible="true" id="-52" lat="37.290829015" lon="-121.74113087200001"/>
<node visible="true" id="-53" lat="37.29084016" lon="-121.74112366600001"/>
<node visible="true" id="-54" lat="37.290826503000005" lon="-121.74109057300001"/>
<node visible="true" id="-55" lat="37.290816492000005" lon="-121.74109700700001"/>
<node visible="true" id="-56" lat="37.290785721" lon="-121.74102248000001"/>
<node visible="true" id="-57" lat="37.290758259" lon="-121.74104024500001"/>
<node visible="true" id="-58" lat="37.290761017" lon="-121.74104692600001"/>
<node visible="true" id="-59" lat="37.290716351" lon="-121.741075819"/>
<node visible="true" id="-60" lat="37.290713325000006" lon="-121.74106844500001"/>
<node visible="true" id="-61" lat="37.290667028" lon="-121.74109841100001"/>
<node visible="true" id="-62" lat="37.290669814000005" lon="-121.74110512600001"/>
<node visible="true" id="-63" lat="37.290660243000005" lon="-121.741111328"/>
<node visible="true" id="-64" lat="37.290681132" lon="-121.74116193600001"/>
<node visible="true" id="-65" lat="37.294783071000005" lon="-121.75410522700001"><tag k="addr:city" v="San Jose"/><tag k="addr:housenumber" v="5128"/><tag k="addr:street" v="Cribari Place"/><tag k="addr:postcode" v="95135"/></node>
<node visible="true" id="-66" lat="37.294795269000005" lon="-121.753507177"><tag k="addr:city" v="San Jose"/><tag k="addr:housenumber" v="5144"/><tag k="addr:street" v="Cribari Place"/><tag k="addr:postcode" v="95135"/></node>
<node visible="true" id="-67" lat="37.291135702000005" lon="-121.73899407"><tag k="addr:city" v="San Jose"/><tag k="addr:housenumber" v="7821"/><tag k="addr:street" v="Prestwick Circle"/><tag k="addr:postcode" v="95135"/></node>
<node visible="true" id="-68" lat="37.291212305" lon="-121.73852689200001"><tag k="addr:city" v="San Jose"/><tag k="addr:housenumber" v="7839"/><tag k="addr:street" v="Prestwick Circle"/><tag k="addr:postcode" v="95135"/></node>
<node visible="true" id="-69" lat="37.298513474" lon="-121.769148989"><tag k="addr:city" v="San Jose"/><tag k="addr:housenumber" v="4860"/><tag k="addr:street" v="San Felipe Road"/><tag k="addr:postcode" v="95135"/></node>
<node visible="true" id="-70" lat="37.292011392" lon="-121.75011914100001"><tag k="addr:city" v="San Jose"/><tag k="addr:housenumber" v="7019"/><tag k="addr:street" v="Via Cielo"/><tag k="addr:postcode" v="95135"/></node>
<node visible="true" id="-71" lat="37.293777462" lon="-121.756325465"><tag k="addr:city" v="San Jose"/><tag k="addr:housenumber" v="5500"/><tag k="addr:street" v="Cribari Bend"/><tag k="addr:postcode" v="95135"/></node>
<node visible="true" id="-72" lat="37.293745516" lon="-121.75632300400001"><tag k="addr:city" v="San Jose"/><tag k="addr:housenumber" v="5501"/><tag k="addr:street" v="Cribari Bend"/><tag k="addr:postcode" v="95135"/></node>
<node visible="true" id="-73" lat="37.293702947" lon="-121.75631740600001"><tag k="addr:city" v="San Jose"/><tag k="addr:housenumber" v="5502"/><tag k="addr:street" v="Cribari Bend"/><tag k="addr:postcode" v="95135"/></node>
<node visible="true" id="-74" lat="37.293669459" lon="-121.756317944"><tag k="addr:city" v="San Jose"/><tag k="addr:housenumber" v="5503"/><tag k="addr:street" v="Cribari Bend"/><tag k="addr:postcode" v="95135"/></node>
<node visible="true" id="-75" lat="37.293626914" lon="-121.75631262300001"><tag k="addr:city" v="San Jose"/><tag k="addr:housenumber" v="5504"/><tag k="addr:street" v="Cribari Bend"/><tag k="addr:postcode" v="95135"/></node>
<node visible="true" id="-76" lat="37.293591911" lon="-121.756311038"><tag k="addr:city" v="San Jose"/><tag k="addr:housenumber" v="5505"/><tag k="addr:street" v="Cribari Bend"/><tag k="addr:postcode" v="95135"/></node>
<node visible="true" id="-77" lat="37.293609122" lon="-121.75589708300001"><tag k="addr:city" v="San Jose"/><tag k="addr:housenumber" v="5514"/><tag k="addr:street" v="Cribari Bend"/><tag k="addr:postcode" v="95135"/></node>
<node visible="true" id="-78" lat="37.296579204000004" lon="-121.75671194600001"><tag k="addr:city" v="San Jose"/><tag k="addr:housenumber" v="5340"/><tag k="addr:street" v="Cribari Dell"/><tag k="addr:postcode" v="95135"/></node>
<node visible="true" id="-79" lat="37.296645463000004" lon="-121.75673678400001"><tag k="addr:city" v="San Jose"/><tag k="addr:housenumber" v="5341"/><tag k="addr:street" v="Cribari Dell"/><tag k="addr:postcode" v="95135"/></node>
<node visible="true" id="-80" lat="37.296715797000004" lon="-121.756747867"><tag k="addr:city" v="San Jose"/><tag k="addr:housenumber" v="5342"/><tag k="addr:street" v="Cribari Dell"/><tag k="addr:postcode" v="95135"/></node>
<node visible="true" id="-81" lat="37.296793823" lon="-121.75677173300001"><tag k="addr:city" v="San Jose"/><tag k="addr:housenumber" v="5343"/><tag k="addr:street" v="Cribari Dell"/><tag k="addr:postcode" v="95135"/></node>
<node visible="true" id="-82" lat="37.296693886" lon="-121.75710551200001"><tag k="addr:city" v="San Jose"/><tag k="addr:housenumber" v="5344"/><tag k="addr:street" v="Cribari Dell"/><tag k="addr:postcode" v="95135"/></node>
<node visible="true" id="-83" lat="37.29666004" lon="-121.75710862100001"><tag k="addr:city" v="San Jose"/><tag k="addr:housenumber" v="5345"/><tag k="addr:street" v="Cribari Dell"/><tag k="addr:postcode" v="95135"/></node>
<node visible="true" id="-84" lat="37.29762204" lon="-121.754924809"><tag k="addr:city" v="San Jose"/><tag k="addr:housenumber" v="5258"/><tag k="addr:street" v="Cribari Heights"/><tag k="addr:postcode" v="95135"/></node>
<node visible="true" id="-85" lat="37.290982174" lon="-121.738387594"><tag k="addr:city" v="San Jose"/><tag k="addr:housenumber" v="7843"/><tag k="addr:street" v="Prestwick Circle"/><tag k="addr:postcode" v="95135"/></node>
<node visible="true" id="-86" lat="37.292915131" lon="-121.74894395300001"><tag k="addr:city" v="San Jose"/><tag k="addr:housenumber" v="7059"/><tag k="addr:street" v="Via Belmonte"/><tag k="addr:postcode" v="95135"/></node>
<node visible="true" id="-87" lat="37.292871489" lon="-121.74893339200001"><tag k="addr:city" v="San Jose"/><tag k="addr:housenumber" v="7060"/><tag k="addr:street" v="Via Belmonte"/><tag k="addr:postcode" v="95135"/></node>
<node visible="true" id="-88" lat="37.292325424000005" lon="-121.74743997300001"><tag k="addr:city" v="San Jose"/><tag k="addr:housenumber" v="7300"/><tag k="addr:street" v="Via Granja"/><tag k="addr:postcode" v="95135"/></node>
<node visible="true" id="-89" lat="37.292168052" lon="-121.74747468400001"><tag k="addr:city" v="San Jose"/><tag k="addr:housenumber" v="7301"/><tag k="addr:street" v="Via Granja"/><tag k="addr:postcode" v="95135"/></node>
<node visible="true" id="-90" lat="37.293327608000006" lon="-121.753461399"><tag k="addr:city" v="San Jose"/><tag k="addr:housenumber" v="5001"/><tag k="addr:street" v="Cribari Vale"/><tag k="addr:postcode" v="95135"/></node>
<node visible="true" id="-91" lat="37.293287192" lon="-121.753536975"><tag k="addr:city" v="San Jose"/><tag k="addr:housenumber" v="5002"/><tag k="addr:street" v="Cribari Vale"/><tag k="addr:postcode" v="95135"/></node>
<node visible="true" id="-92" lat="37.292590768000004" lon="-121.752722441"><tag k="addr:city" v="San Jose"/><tag k="addr:housenumber" v="5035"/><tag k="addr:street" v="Cribari Vale"/><tag k="addr:postcode" v="95135"/></node>
<node visible="true" id="-93" lat="37.293546866" lon="-121.75630062"><tag k="addr:city" v="San Jose"/><tag k="addr:housenumber" v="5506"/><tag k="addr:street" v="Cribari Bend"/><tag k="addr:postcode" v="95135"/></node>
<node visible="true" id="-94" lat="37.293507268" lon="-121.756304907"><tag k="addr:city" v="San Jose"/><tag k="addr:housenumber" v="5507"/><tag k="addr:street" v="Cribari Bend"/><tag k="addr:postcode" v="95135"/></node>
<node visible="true" id="-95" lat="37.293420747" lon="-121.756138327"><tag k="addr:city" v="San Jose"/><tag k="addr:housenumber" v="5508"/><tag k="addr:street" v="Cribari Bend"/><tag k="addr:postcode" v="95135"/></node>
<node visible="true" id="-96" lat="37.293395691" lon="-121.756062029"><tag k="addr:city" v="San Jose"/><tag k="addr:housenumber" v="5509"/><tag k="addr:street" v="Cribari Bend"/><tag k="addr:postcode" v="95135"/></node>
<node visible="true" id="-97" lat="37.293365284000004" lon="-121.75605949000001"><tag k="addr:city" v="San Jose"/><tag k="addr:housenumber" v="5510"/><tag k="addr:street" v="Cribari Bend"/><tag k="addr:postcode" v="95135"/></node>
<node visible="true" id="-98" lat="37.29333289" lon="-121.755958042"><tag k="addr:city" v="San Jose"/><tag k="addr:housenumber" v="5511"/><tag k="addr:street" v="Cribari Bend"/><tag k="addr:postcode" v="95135"/></node>
<node visible="true" id="-99" lat="37.293291759" lon="-121.755931016"><tag k="addr:city" v="San Jose"/><tag k="addr:housenumber" v="5512"/><tag k="addr:street" v="Cribari Bend"/><tag k="addr:postcode" v="95135"/></node>
<node visible="true" id="-100" lat="37.290696313000005" lon="-121.73962461600001"><tag k="addr:city" v="San Jose"/><tag k="addr:housenumber" v="7741"/><tag k="addr:street" v="Kilmarnok Drive"/><tag k="addr:postcode" v="95135"/></node>
<node visible="true" id="-101" lat="37.290669866" lon="-121.73912850800001"><tag k="addr:city" v="San Jose"/><tag k="addr:housenumber" v="7742"/><tag k="addr:street" v="Kilmarnok Drive"/><tag k="addr:postcode" v="95135"/></node>
<node visible="true" id="-102" lat="37.290853783" lon="-121.73973871700001"><tag k="addr:city" v="San Jose"/><tag k="addr:housenumber" v="7743"/><tag k="addr:street" v="Kilmarnok Drive"/><tag k="addr:postcode" v="95135"/></node>
<node visible="true" id="-103" lat="37.291533121" lon="-121.74293764100001"><tag k="addr:city" v="San Jose"/><tag k="addr:housenumber" v="7586"/><tag k="addr:street" v="Tayside Court"/><tag k="addr:postcode" v="95135"/></node>
<node visible="true" id="-104" lat="37.291778151" lon="-121.739316841"><tag k="addr:city" v="San Jose"/><tag k="addr:housenumber" v="7831"/><tag k="addr:street" v="Prestwick Circle"/><tag k="addr:postcode" v="95135"/></node>
<node visible="true" id="-105" lat="37.293252446000004" lon="-121.75363183200001"><tag k="addr:city" v="San Jose"/><tag k="addr:housenumber" v="5003"/><tag k="addr:street" v="Cribari Vale"/><tag k="addr:postcode" v="95135"/></node>
<node visible="true" id="-106" lat="37.293211590000006" lon="-121.75388442200001"><tag k="addr:city" v="San Jose"/><tag k="addr:housenumber" v="5004"/><tag k="addr:street" v="Cribari Vale"/><tag k="addr:postcode" v="95135"/></node>
<node visible="true" id="-107" lat="37.293142621" lon="-121.753886945"><tag k="addr:city" v="San Jose"/><tag k="addr:housenumber" v="5005"/><tag k="addr:street" v="Cribari Vale"/><tag k="addr:postcode" v="95135"/></node>
<node visible="true" id="-108" lat="37.293088376" lon="-121.753884212"><tag k="addr:city" v="San Jose"/><tag k="addr:housenumber" v="5006"/><tag k="addr:street" v="Cribari Vale"/><tag k="addr:postcode" v="95135"/></node>
<node visible="true" id="-109" lat="37.29302544" lon="-121.75387215600001"><tag k="addr:city" v="San Jose"/><tag k="addr:housenumber" v="5007"/><tag k="addr:street" v="Cribari Vale"/><tag k="addr:postcode" v="95135"/></node>
<node visible="true" id="-110" lat="37.292960785000005" lon="-121.75388207300001"><tag k="addr:city" v="San Jose"/><tag k="addr:housenumber" v="5008"/><tag k="addr:street" v="Cribari Vale"/><tag k="addr:postcode" v="95135"/></node>
<node visible="true" id="-111" lat="37.293038735" lon="-121.75358971000001"><tag k="addr:city" v="San Jose"/><tag k="addr:housenumber" v="5009"/><tag k="addr:street" v="Cribari Vale"/><tag k="addr:postcode" v="95135"/></node>
<node visible="true" id="-112" lat="37.292999098" lon="-121.75359248400001"><tag k="addr:city" v="San Jose"/><tag k="addr:housenumber" v="5010"/><tag k="addr:street" v="Cribari Vale"/><tag k="addr:postcode" v="95135"/></node>
<node visible="true" id="-113" lat="37.292946587" lon="-121.75329672900001"><tag k="addr:city" v="San Jose"/><tag k="addr:housenumber" v="5011"/><tag k="addr:street" v="Cribari Vale"/><tag k="addr:postcode" v="95135"/></node>
<node visible="true" id="-114" lat="37.293006811000005" lon="-121.753305474"><tag k="addr:city" v="San Jose"/><tag k="addr:housenumber" v="5012"/><tag k="addr:street" v="Cribari Vale"/><tag k="addr:postcode" v="95135"/></node>
<node visible="true" id="-115" lat="37.292767617" lon="-121.753563162"><tag k="addr:city" v="San Jose"/><tag k="addr:housenumber" v="5013"/><tag k="addr:street" v="Cribari Vale"/><tag k="addr:postcode" v="95135"/></node>
<node visible="true" id="-116" lat="37.292719208" lon="-121.753564173"><tag k="addr:city" v="San Jose"/><tag k="addr:housenumber" v="5014"/><tag k="addr:street" v="Cribari Vale"/><tag k="addr:postcode" v="95135"/></node>
<node visible="true" id="-117" lat="37.292659124000004" lon="-121.753557665"><tag k="addr:city" v="San Jose"/><tag k="addr:housenumber" v="5015"/><tag k="addr:street" v="Cribari Vale"/><tag k="addr:postcode" v="95135"/></node>
<node visible="true" id="-118" lat="37.292689886000005" lon="-121.753288405"><tag k="addr:city" v="San Jose"/><tag k="addr:housenumber" v="5016"/><tag k="addr:street" v="Cribari Vale"/><tag k="addr:postcode" v="95135"/></node>
<node visible="true" id="-119" lat="37.292707792" lon="-121.75385576000001"><tag k="addr:city" v="San Jose"/><tag k="addr:housenumber" v="5017"/><tag k="addr:street" v="Cribari Vale"/><tag k="addr:postcode" v="95135"/></node>
<node visible="true" id="-120" lat="37.292640337" lon="-121.753852807"><tag k="addr:city" v="San Jose"/><tag k="addr:housenumber" v="5018"/><tag k="addr:street" v="Cribari Vale"/><tag k="addr:postcode" v="95135"/></node>
<node visible="true" id="-121" lat="37.292578758000005" lon="-121.75384995200001"><tag k="addr:city" v="San Jose"/><tag k="addr:housenumber" v="5019"/><tag k="addr:street" v="Cribari Vale"/><tag k="addr:postcode" v="95135"/></node>
<node visible="true" id="-122" lat="37.292525936000004" lon="-121.753852746"><tag k="addr:city" v="San Jose"/><tag k="addr:housenumber" v="5020"/><tag k="addr:street" v="Cribari Vale"/><tag k="addr:postcode" v="95135"/></node>
<node visible="true" id="-123" lat="37.292446981000005" lon="-121.753828354"><tag k="addr:city" v="San Jose"/><tag k="addr:housenumber" v="5021"/><tag k="addr:street" v="Cribari Vale"/><tag k="addr:postcode" v="95135"/></node>
<node visible="true" id="-124" lat="37.29247619" lon="-121.753565601"><tag k="addr:city" v="San Jose"/><tag k="addr:housenumber" v="5022"/><tag k="addr:street" v="Cribari Vale"/><tag k="addr:postcode" v="95135"/></node>
<node visible="true" id="-125" lat="37.292430791" lon="-121.753557482"><tag k="addr:city" v="San Jose"/><tag k="addr:housenumber" v="5023"/><tag k="addr:street" v="Cribari Vale"/><tag k="addr:postcode" v="95135"/></node>
<node visible="true" id="-126" lat="37.292388331000005" lon="-121.753549448"><tag k="addr:city" v="San Jose"/><tag k="addr:housenumber" v="5024"/><tag k="addr:street" v="Cribari Vale"/><tag k="addr:postcode" v="95135"/></node>
<node visible="true" id="-127" lat="37.292455812" lon="-121.75327526900001"><tag k="addr:city" v="San Jose"/><tag k="addr:housenumber" v="5025"/><tag k="addr:street" v="Cribari Vale"/><tag k="addr:postcode" v="95135"/></node>
<node visible="true" id="-128" lat="37.292414796" lon="-121.75327093800001"><tag k="addr:city" v="San Jose"/><tag k="addr:housenumber" v="5026"/><tag k="addr:street" v="Cribari Vale"/><tag k="addr:postcode" v="95135"/></node>
<node visible="true" id="-129" lat="37.292372179000004" lon="-121.753277546"><tag k="addr:city" v="San Jose"/><tag k="addr:housenumber" v="5027"/><tag k="addr:street" v="Cribari Vale"/><tag k="addr:postcode" v="95135"/></node>
<node visible="true" id="-130" lat="37.292846501" lon="-121.75273147"><tag k="addr:city" v="San Jose"/><tag k="addr:housenumber" v="5028"/><tag k="addr:street" v="Cribari Vale"/><tag k="addr:postcode" v="95135"/></node>
<node visible="true" id="-131" lat="37.292808775000005" lon="-121.752727605"><tag k="addr:city" v="San Jose"/><tag k="addr:housenumber" v="5029"/><tag k="addr:street" v="Cribari Vale"/><tag k="addr:postcode" v="95135"/></node>
<node visible="true" id="-132" lat="37.292774668" lon="-121.752727034"><tag k="addr:city" v="San Jose"/><tag k="addr:housenumber" v="5030"/><tag k="addr:street" v="Cribari Vale"/><tag k="addr:postcode" v="95135"/></node>
<node visible="true" id="-133" lat="37.292736922" lon="-121.752724889"><tag k="addr:city" v="San Jose"/><tag k="addr:housenumber" v="5031"/><tag k="addr:street" v="Cribari Vale"/><tag k="addr:postcode" v="95135"/></node>
<node visible="true" id="-134" lat="37.292699161" lon="-121.75272425600001"><tag k="addr:city" v="San Jose"/><tag k="addr:housenumber" v="5032"/><tag k="addr:street" v="Cribari Vale"/><tag k="addr:postcode" v="95135"/></node>
<node visible="true" id="-135" lat="37.292661385" lon="-121.75272513600001"><tag k="addr:city" v="San Jose"/><tag k="addr:housenumber" v="5033"/><tag k="addr:street" v="Cribari Vale"/><tag k="addr:postcode" v="95135"/></node>
<node visible="true" id="-136" lat="37.292624860000004" lon="-121.752724524"><tag k="addr:city" v="San Jose"/><tag k="addr:housenumber" v="5034"/><tag k="addr:street" v="Cribari Vale"/><tag k="addr:postcode" v="95135"/></node>
<node visible="true" id="-137" lat="37.292465644" lon="-121.75275173400001"><tag k="addr:city" v="San Jose"/><tag k="addr:housenumber" v="5036"/><tag k="addr:street" v="Cribari Vale"/><tag k="addr:postcode" v="95135"/></node>
<node visible="true" id="-138" lat="37.292417125" lon="-121.752750199"><tag k="addr:city" v="San Jose"/><tag k="addr:housenumber" v="5037"/><tag k="addr:street" v="Cribari Vale"/><tag k="addr:postcode" v="95135"/></node>
<node visible="true" id="-139" lat="37.292380962" lon="-121.75271315100001"><tag k="addr:city" v="San Jose"/><tag k="addr:housenumber" v="5038"/><tag k="addr:street" v="Cribari Vale"/><tag k="addr:postcode" v="95135"/></node>
<node visible="true" id="-140" lat="37.292371003" lon="-121.752414262"><tag k="addr:city" v="San Jose"/><tag k="addr:housenumber" v="5039"/><tag k="addr:street" v="Cribari Vale"/><tag k="addr:postcode" v="95135"/></node>
<node visible="true" id="-141" lat="37.292406421" lon="-121.75241557800001"><tag k="addr:city" v="San Jose"/><tag k="addr:housenumber" v="5040"/><tag k="addr:street" v="Cribari Vale"/><tag k="addr:postcode" v="95135"/></node>
<node visible="true" id="-142" lat="37.292452752" lon="-121.752408481"><tag k="addr:city" v="San Jose"/><tag k="addr:housenumber" v="5041"/><tag k="addr:street" v="Cribari Vale"/><tag k="addr:postcode" v="95135"/></node>
<node visible="true" id="-143" lat="37.292799058" lon="-121.75238296"><tag k="addr:city" v="San Jose"/><tag k="addr:housenumber" v="5042"/><tag k="addr:street" v="Cribari Vale"/><tag k="addr:postcode" v="95135"/></node>
<node visible="true" id="-144" lat="37.292723502" lon="-121.75238475500001"><tag k="addr:city" v="San Jose"/><tag k="addr:housenumber" v="5043"/><tag k="addr:street" v="Cribari Vale"/><tag k="addr:postcode" v="95135"/></node>
<node visible="true" id="-145" lat="37.292654847" lon="-121.752424758"><tag k="addr:city" v="San Jose"/><tag k="addr:housenumber" v="5044"/><tag k="addr:street" v="Cribari Vale"/><tag k="addr:postcode" v="95135"/></node>
<node visible="true" id="-146" lat="37.292600032" lon="-121.75242384"><tag k="addr:city" v="San Jose"/><tag k="addr:housenumber" v="5045"/><tag k="addr:street" v="Cribari Vale"/><tag k="addr:postcode" v="95135"/></node>
<node visible="true" id="-147" lat="37.293442663" lon="-121.75235262000001"><tag k="addr:city" v="San Jose"/><tag k="addr:housenumber" v="5046"/><tag k="addr:street" v="Cribari Vale"/><tag k="addr:postcode" v="95135"/></node>
<node visible="true" id="-148" lat="37.293374207" lon="-121.752348276"><tag k="addr:city" v="San Jose"/><tag k="addr:housenumber" v="5047"/><tag k="addr:street" v="Cribari Vale"/><tag k="addr:postcode" v="95135"/></node>
<node visible="true" id="-149" lat="37.293307932000005" lon="-121.75237608"><tag k="addr:city" v="San Jose"/><tag k="addr:housenumber" v="5048"/><tag k="addr:street" v="Cribari Vale"/><tag k="addr:postcode" v="95135"/></node>
<node visible="true" id="-150" lat="37.293248485" lon="-121.75235889100001"><tag k="addr:city" v="San Jose"/><tag k="addr:housenumber" v="5049"/><tag k="addr:street" v="Cribari Vale"/><tag k="addr:postcode" v="95135"/></node>
<node visible="true" id="-151" lat="37.293174818000004" lon="-121.75236398300001"><tag k="addr:city" v="San Jose"/><tag k="addr:housenumber" v="5050"/><tag k="addr:street" v="Cribari Vale"/><tag k="addr:postcode" v="95135"/></node>
<node visible="true" id="-152" lat="37.293540345000004" lon="-121.75271142700001"><tag k="addr:city" v="San Jose"/><tag k="addr:housenumber" v="5051"/><tag k="addr:street" v="Cribari Vale"/><tag k="addr:postcode" v="95135"/></node>
<node visible="true" id="-153" lat="37.293503581" lon="-121.752707615"><tag k="addr:city" v="San Jose"/><tag k="addr:housenumber" v="5052"/><tag k="addr:street" v="Cribari Vale"/><tag k="addr:postcode" v="95135"/></node>
<node visible="true" id="-154" lat="37.293464304000004" lon="-121.752702213"><tag k="addr:city" v="San Jose"/><tag k="addr:housenumber" v="5053"/><tag k="addr:street" v="Cribari Vale"/><tag k="addr:postcode" v="95135"/></node>
<node visible="true" id="-155" lat="37.293422418000006" lon="-121.75270467400001"><tag k="addr:city" v="San Jose"/><tag k="addr:housenumber" v="5054"/><tag k="addr:street" v="Cribari Vale"/><tag k="addr:postcode" v="95135"/></node>
<node visible="true" id="-156" lat="37.293384355" lon="-121.75270403600001"><tag k="addr:city" v="San Jose"/><tag k="addr:housenumber" v="5055"/><tag k="addr:street" v="Cribari Vale"/><tag k="addr:postcode" v="95135"/></node>
<node visible="true" id="-157" lat="37.293343478000004" lon="-121.75273034000001"><tag k="addr:city" v="San Jose"/><tag k="addr:housenumber" v="5056"/><tag k="addr:street" v="Cribari Vale"/><tag k="addr:postcode" v="95135"/></node>
<node visible="true" id="-158" lat="37.293307969000004" lon="-121.752729744"><tag k="addr:city" v="San Jose"/><tag k="addr:housenumber" v="5057"/><tag k="addr:street" v="Cribari Vale"/><tag k="addr:postcode" v="95135"/></node>
<node visible="true" id="-159" lat="37.293271183" lon="-121.75272785700001"><tag k="addr:city" v="San Jose"/><tag k="addr:housenumber" v="5058"/><tag k="addr:street" v="Cribari Vale"/><tag k="addr:postcode" v="95135"/></node>
<node visible="true" id="-160" lat="37.295449626" lon="-121.75317547300001"><tag k="addr:city" v="San Jose"/><tag k="addr:housenumber" v="5090"/><tag k="addr:street" v="Cribari Place"/><tag k="addr:postcode" v="95135"/></node>
<node visible="true" id="-161" lat="37.295396896" lon="-121.75317744300001"><tag k="addr:city" v="San Jose"/><tag k="addr:housenumber" v="5091"/><tag k="addr:street" v="Cribari Place"/><tag k="addr:postcode" v="95135"/></node>
<node visible="true" id="-162" lat="37.295354825000004" lon="-121.75316883100001"><tag k="addr:city" v="San Jose"/><tag k="addr:housenumber" v="5092"/><tag k="addr:street" v="Cribari Place"/><tag k="addr:postcode" v="95135"/></node>
<node visible="true" id="-163" lat="37.295220073" lon="-121.75315075700001"><tag k="addr:city" v="San Jose"/><tag k="addr:housenumber" v="5093"/><tag k="addr:street" v="Cribari Place"/><tag k="addr:postcode" v="95135"/></node>
<node visible="true" id="-164" lat="37.295429150000004" lon="-121.753512989"><tag k="addr:city" v="San Jose"/><tag k="addr:housenumber" v="5094"/><tag k="addr:street" v="Cribari Place"/><tag k="addr:postcode" v="95135"/></node>
<node visible="true" id="-165" lat="37.295397569" lon="-121.75350984600001"><tag k="addr:city" v="San Jose"/><tag k="addr:housenumber" v="5095"/><tag k="addr:street" v="Cribari Place"/><tag k="addr:postcode" v="95135"/></node>
<node visible="true" id="-166" lat="37.295363845000004" lon="-121.753509281"><tag k="addr:city" v="San Jose"/><tag k="addr:housenumber" v="5096"/><tag k="addr:street" v="Cribari Place"/><tag k="addr:postcode" v="95135"/></node>
<node visible="true" id="-167" lat="37.295330093000004" lon="-121.753511329"><tag k="addr:city" v="San Jose"/><tag k="addr:housenumber" v="5097"/><tag k="addr:street" v="Cribari Place"/><tag k="addr:postcode" v="95135"/></node>
<node visible="true" id="-168" lat="37.295296596" lon="-121.75348704500001"><tag k="addr:city" v="San Jose"/><tag k="addr:housenumber" v="5098"/><tag k="addr:street" v="Cribari Place"/><tag k="addr:postcode" v="95135"/></node>
<node visible="true" id="-169" lat="37.295262872" lon="-121.75348648"><tag k="addr:city" v="San Jose"/><tag k="addr:housenumber" v="5099"/><tag k="addr:street" v="Cribari Place"/><tag k="addr:postcode" v="95135"/></node>
<node visible="true" id="-170" lat="37.295224921" lon="-121.75348825"><tag k="addr:city" v="San Jose"/><tag k="addr:housenumber" v="5100"/><tag k="addr:street" v="Cribari Place"/><tag k="addr:postcode" v="95135"/></node>
<node visible="true" id="-171" lat="37.295191308" lon="-121.753474725"><tag k="addr:city" v="San Jose"/><tag k="addr:housenumber" v="5101"/><tag k="addr:street" v="Cribari Place"/><tag k="addr:postcode" v="95135"/></node>
<node visible="true" id="-172" lat="37.295686106000005" lon="-121.75373623300001"><tag k="addr:city" v="San Jose"/><tag k="addr:housenumber" v="5102"/><tag k="addr:street" v="Cribari Place"/><tag k="addr:postcode" v="95135"/></node>
<node visible="true" id="-173" lat="37.295648182" lon="-121.75373295000001"><tag k="addr:city" v="San Jose"/><tag k="addr:housenumber" v="5103"/><tag k="addr:street" v="Cribari Place"/><tag k="addr:postcode" v="95135"/></node>
<node visible="true" id="-174" lat="37.295612456" lon="-121.75372179700001"><tag k="addr:city" v="San Jose"/><tag k="addr:housenumber" v="5104"/><tag k="addr:street" v="Cribari Place"/><tag k="addr:postcode" v="95135"/></node>
<node visible="true" id="-175" lat="37.295572303" lon="-121.75373167800001"><tag k="addr:city" v="San Jose"/><tag k="addr:housenumber" v="5105"/><tag k="addr:street" v="Cribari Place"/><tag k="addr:postcode" v="95135"/></node>
<node visible="true" id="-176" lat="37.295672180000004" lon="-121.753461676"><tag k="addr:city" v="San Jose"/><tag k="addr:housenumber" v="5106"/><tag k="addr:street" v="Cribari Place"/><tag k="addr:postcode" v="95135"/></node>
<node visible="true" id="-177" lat="37.295630195" lon="-121.753445157"><tag k="addr:city" v="San Jose"/><tag k="addr:housenumber" v="5107"/><tag k="addr:street" v="Cribari Place"/><tag k="addr:postcode" v="95135"/></node>
<node visible="true" id="-178" lat="37.295782479" lon="-121.75399106500001"><tag k="addr:city" v="San Jose"/><tag k="addr:housenumber" v="5108"/><tag k="addr:street" v="Cribari Place"/><tag k="addr:postcode" v="95135"/></node>
<node visible="true" id="-179" lat="37.295702062000004" lon="-121.75401873300001"><tag k="addr:city" v="San Jose"/><tag k="addr:housenumber" v="5109"/><tag k="addr:street" v="Cribari Place"/><tag k="addr:postcode" v="95135"/></node>
<node visible="true" id="-180" lat="37.29574044" lon="-121.753979598"><tag k="addr:city" v="San Jose"/><tag k="addr:housenumber" v="5110"/><tag k="addr:street" v="Cribari Place"/><tag k="addr:postcode" v="95135"/></node>
<node visible="true" id="-181" lat="37.295621503" lon="-121.75405960200001"><tag k="addr:city" v="San Jose"/><tag k="addr:housenumber" v="5111"/><tag k="addr:street" v="Cribari Place"/><tag k="addr:postcode" v="95135"/></node>
<node visible="true" id="-182" lat="37.295661598" lon="-121.75405762700001"><tag k="addr:city" v="San Jose"/><tag k="addr:housenumber" v="5112"/><tag k="addr:street" v="Cribari Place"/><tag k="addr:postcode" v="95135"/></node>
<node visible="true" id="-183" lat="37.295579235000005" lon="-121.75406944800001"><tag k="addr:city" v="San Jose"/><tag k="addr:housenumber" v="5113"/><tag k="addr:street" v="Cribari Place"/><tag k="addr:postcode" v="95135"/></node>
<node visible="true" id="-184" lat="37.295403538" lon="-121.75413509100001"><tag k="addr:city" v="San Jose"/><tag k="addr:housenumber" v="5114"/><tag k="addr:street" v="Cribari Place"/><tag k="addr:postcode" v="95135"/></node>
<node visible="true" id="-185" lat="37.295369815" lon="-121.75413452500001"><tag k="addr:city" v="San Jose"/><tag k="addr:housenumber" v="5115"/><tag k="addr:street" v="Cribari Place"/><tag k="addr:postcode" v="95135"/></node>
<node visible="true" id="-186" lat="37.295331974" lon="-121.754123336"><tag k="addr:city" v="San Jose"/><tag k="addr:housenumber" v="5116"/><tag k="addr:street" v="Cribari Place"/><tag k="addr:postcode" v="95135"/></node>
<node visible="true" id="-187" lat="37.295293852" lon="-121.75413851200001"><tag k="addr:city" v="San Jose"/><tag k="addr:housenumber" v="5117"/><tag k="addr:street" v="Cribari Place"/><tag k="addr:postcode" v="95135"/></node>
<node visible="true" id="-188" lat="37.295258154" lon="-121.754127393"><tag k="addr:city" v="San Jose"/><tag k="addr:housenumber" v="5118"/><tag k="addr:street" v="Cribari Place"/><tag k="addr:postcode" v="95135"/></node>
<node visible="true" id="-189" lat="37.295228689000005" lon="-121.754121604"><tag k="addr:city" v="San Jose"/><tag k="addr:housenumber" v="5119"/><tag k="addr:street" v="Cribari Place"/><tag k="addr:postcode" v="95135"/></node>
<node visible="true" id="-190" lat="37.295190766000005" lon="-121.75411811400001"><tag k="addr:city" v="San Jose"/><tag k="addr:housenumber" v="5120"/><tag k="addr:street" v="Cribari Place"/><tag k="addr:postcode" v="95135"/></node>
<node visible="true" id="-191" lat="37.295152839000004" lon="-121.754115072"><tag k="addr:city" v="San Jose"/><tag k="addr:housenumber" v="5121"/><tag k="addr:street" v="Cribari Place"/><tag k="addr:postcode" v="95135"/></node>
<node visible="true" id="-192" lat="37.295008258" lon="-121.75408634600001"><tag k="addr:city" v="San Jose"/><tag k="addr:housenumber" v="5122"/><tag k="addr:street" v="Cribari Place"/><tag k="addr:postcode" v="95135"/></node>
<node visible="true" id="-193" lat="37.294974917000005" lon="-121.75409359100001"><tag k="addr:city" v="San Jose"/><tag k="addr:housenumber" v="5123"/><tag k="addr:street" v="Cribari Place"/><tag k="addr:postcode" v="95135"/></node>
<node visible="true" id="-194" lat="37.294933628" lon="-121.754101804"><tag k="addr:city" v="San Jose"/><tag k="addr:housenumber" v="5124"/><tag k="addr:street" v="Cribari Place"/><tag k="addr:postcode" v="95135"/></node>
<node visible="true" id="-195" lat="37.294898779" lon="-121.754101219"><tag k="addr:city" v="San Jose"/><tag k="addr:housenumber" v="5125"/><tag k="addr:street" v="Cribari Place"/><tag k="addr:postcode" v="95135"/></node>
<node visible="true" id="-196" lat="37.294860718" lon="-121.75410553200001"><tag k="addr:city" v="San Jose"/><tag k="addr:housenumber" v="5126"/><tag k="addr:street" v="Cribari Place"/><tag k="addr:postcode" v="95135"/></node>
<node visible="true" id="-197" lat="37.294821886" lon="-121.754104881"><tag k="addr:city" v="San Jose"/><tag k="addr:housenumber" v="5127"/><tag k="addr:street" v="Cribari Place"/><tag k="addr:postcode" v="95135"/></node>
<node visible="true" id="-198" lat="37.294748441" lon="-121.754109837"><tag k="addr:city" v="San Jose"/><tag k="addr:housenumber" v="5129"/><tag k="addr:street" v="Cribari Place"/><tag k="addr:postcode" v="95135"/></node>
<node visible="true" id="-199" lat="37.294602956000006" lon="-121.754124312"><tag k="addr:city" v="San Jose"/><tag k="addr:housenumber" v="5130"/><tag k="addr:street" v="Cribari Place"/><tag k="addr:postcode" v="95135"/></node>
<node visible="true" id="-200" lat="37.294530872" lon="-121.75411760300001"><tag k="addr:city" v="San Jose"/><tag k="addr:housenumber" v="5131"/><tag k="addr:street" v="Cribari Place"/><tag k="addr:postcode" v="95135"/></node>
<node visible="true" id="-201" lat="37.294568346000005" lon="-121.75411427700001"><tag k="addr:city" v="San Jose"/><tag k="addr:housenumber" v="5132"/><tag k="addr:street" v="Cribari Place"/><tag k="addr:postcode" v="95135"/></node>
<node visible="true" id="-202" lat="37.294483754000005" lon="-121.754031412"><tag k="addr:city" v="San Jose"/><tag k="addr:housenumber" v="5133"/><tag k="addr:street" v="Cribari Place"/><tag k="addr:postcode" v="95135"/></node>
<node visible="true" id="-203" lat="37.294450416000004" lon="-121.753997435"><tag k="addr:city" v="San Jose"/><tag k="addr:housenumber" v="5134"/><tag k="addr:street" v="Cribari Place"/><tag k="addr:postcode" v="95135"/></node>
<node visible="true" id="-204" lat="37.294417649" lon="-121.75398712100001"><tag k="addr:city" v="San Jose"/><tag k="addr:housenumber" v="5135"/><tag k="addr:street" v="Cribari Place"/><tag k="addr:postcode" v="95135"/></node>
<node visible="true" id="-205" lat="37.294543583" lon="-121.753643506"><tag k="addr:city" v="San Jose"/><tag k="addr:housenumber" v="5136"/><tag k="addr:street" v="Cribari Place"/><tag k="addr:postcode" v="95135"/></node>
<node visible="true" id="-206" lat="37.294509090000005" lon="-121.753642928"><tag k="addr:city" v="San Jose"/><tag k="addr:housenumber" v="5137"/><tag k="addr:street" v="Cribari Place"/><tag k="addr:postcode" v="95135"/></node>
<node visible="true" id="-207" lat="37.294472992" lon="-121.753643697"><tag k="addr:city" v="San Jose"/><tag k="addr:housenumber" v="5138"/><tag k="addr:street" v="Cribari Place"/><tag k="addr:postcode" v="95135"/></node>
<node visible="true" id="-208" lat="37.294436964" lon="-121.753637592"><tag k="addr:city" v="San Jose"/><tag k="addr:housenumber" v="5139"/><tag k="addr:street" v="Cribari Place"/><tag k="addr:postcode" v="95135"/></node>
<node visible="true" id="-209" lat="37.294399838000004" lon="-121.75363150400001"><tag k="addr:city" v="San Jose"/><tag k="addr:housenumber" v="5140"/><tag k="addr:street" v="Cribari Place"/><tag k="addr:postcode" v="95135"/></node>
<node visible="true" id="-210" lat="37.294465033" lon="-121.753365771"><tag k="addr:city" v="San Jose"/><tag k="addr:housenumber" v="5141"/><tag k="addr:street" v="Cribari Place"/><tag k="addr:postcode" v="95135"/></node>
<node visible="true" id="-211" lat="37.294718605" lon="-121.75353057800001"><tag k="addr:city" v="San Jose"/><tag k="addr:housenumber" v="5142"/><tag k="addr:street" v="Cribari Place"/><tag k="addr:postcode" v="95135"/></node>
<node visible="true" id="-212" lat="37.294685456" lon="-121.75353012500001"><tag k="addr:city" v="San Jose"/><tag k="addr:housenumber" v="5143"/><tag k="addr:street" v="Cribari Place"/><tag k="addr:postcode" v="95135"/></node>
<node visible="true" id="-213" lat="37.294756817" lon="-121.753524858"><tag k="addr:city" v="San Jose"/><tag k="addr:housenumber" v="5145"/><tag k="addr:street" v="Cribari Place"/><tag k="addr:postcode" v="95135"/></node>
<node visible="true" id="-214" lat="37.294868767000004" lon="-121.75348193600001"><tag k="addr:city" v="San Jose"/><tag k="addr:housenumber" v="5146"/><tag k="addr:street" v="Cribari Place"/><tag k="addr:postcode" v="95135"/></node>
<node visible="true" id="-215" lat="37.294832192" lon="-121.75347826400001"><tag k="addr:city" v="San Jose"/><tag k="addr:housenumber" v="5147"/><tag k="addr:street" v="Cribari Place"/><tag k="addr:postcode" v="95135"/></node>
<node visible="true" id="-216" lat="37.294947137" lon="-121.753460833"><tag k="addr:city" v="San Jose"/><tag k="addr:housenumber" v="5148"/><tag k="addr:street" v="Cribari Place"/><tag k="addr:postcode" v="95135"/></node>
<node visible="true" id="-217" lat="37.294908696" lon="-121.75347751700001"><tag k="addr:city" v="San Jose"/><tag k="addr:housenumber" v="5149"/><tag k="addr:street" v="Cribari Place"/><tag k="addr:postcode" v="95135"/></node>
<node visible="true" id="-218" lat="37.29488784" lon="-121.753172832"><tag k="addr:city" v="San Jose"/><tag k="addr:housenumber" v="5150"/><tag k="addr:street" v="Cribari Place"/><tag k="addr:postcode" v="95135"/></node>
<node visible="true" id="-219" lat="37.294807278" lon="-121.753170451"><tag k="addr:city" v="San Jose"/><tag k="addr:housenumber" v="5151"/><tag k="addr:street" v="Cribari Place"/><tag k="addr:postcode" v="95135"/></node>
<node visible="true" id="-220" lat="37.294740794" lon="-121.753171674"><tag k="addr:city" v="San Jose"/><tag k="addr:housenumber" v="5152"/><tag k="addr:street" v="Cribari Place"/><tag k="addr:postcode" v="95135"/></node>
<node visible="true" id="-221" lat="37.294663667" lon="-121.753158693"><tag k="addr:city" v="San Jose"/><tag k="addr:housenumber" v="5153"/><tag k="addr:street" v="Cribari Place"/><tag k="addr:postcode" v="95135"/></node>
<node visible="true" id="-222" lat="37.295816729" lon="-121.752669315"><tag k="addr:city" v="San Jose"/><tag k="addr:housenumber" v="5154"/><tag k="addr:street" v="Cribari Knolls"/><tag k="addr:postcode" v="95135"/></node>
<node visible="true" id="-223" lat="37.295780075" lon="-121.752670421"><tag k="addr:city" v="San Jose"/><tag k="addr:housenumber" v="5155"/><tag k="addr:street" v="Cribari Knolls"/><tag k="addr:postcode" v="95135"/></node>
<node visible="true" id="-224" lat="37.295740307" lon="-121.75267006300001"><tag k="addr:city" v="San Jose"/><tag k="addr:housenumber" v="5156"/><tag k="addr:street" v="Cribari Knolls"/><tag k="addr:postcode" v="95135"/></node>
<node visible="true" id="-225" lat="37.295703182000004" lon="-121.752666554"><tag k="addr:city" v="San Jose"/><tag k="addr:housenumber" v="5157"/><tag k="addr:street" v="Cribari Knolls"/><tag k="addr:postcode" v="95135"/></node>
<node visible="true" id="-226" lat="37.29566159" lon="-121.75264402500001"><tag k="addr:city" v="San Jose"/><tag k="addr:housenumber" v="5158"/><tag k="addr:street" v="Cribari Knolls"/><tag k="addr:postcode" v="95135"/></node>
<node visible="true" id="-227" lat="37.295624418" lon="-121.75264488100001"><tag k="addr:city" v="San Jose"/><tag k="addr:housenumber" v="5159"/><tag k="addr:street" v="Cribari Knolls"/><tag k="addr:postcode" v="95135"/></node>
<node visible="true" id="-228" lat="37.295589553" lon="-121.75264574100001"><tag k="addr:city" v="San Jose"/><tag k="addr:housenumber" v="5160"/><tag k="addr:street" v="Cribari Knolls"/><tag k="addr:postcode" v="95135"/></node>
<node visible="true" id="-229" lat="37.295556688000005" lon="-121.752647081"><tag k="addr:city" v="San Jose"/><tag k="addr:housenumber" v="5161"/><tag k="addr:street" v="Cribari Knolls"/><tag k="addr:postcode" v="95135"/></node>
<node visible="true" id="-230" lat="37.295390792" lon="-121.75265929300001"><tag k="addr:city" v="San Jose"/><tag k="addr:housenumber" v="5162"/><tag k="addr:street" v="Cribari Knolls"/><tag k="addr:postcode" v="95135"/></node>
<node visible="true" id="-231" lat="37.295350162000005" lon="-121.75265479500001"><tag k="addr:city" v="San Jose"/><tag k="addr:housenumber" v="5163"/><tag k="addr:street" v="Cribari Knolls"/><tag k="addr:postcode" v="95135"/></node>
<node visible="true" id="-232" lat="37.295290046000005" lon="-121.75251764100001"><tag k="addr:city" v="San Jose"/><tag k="addr:housenumber" v="5164"/><tag k="addr:street" v="Cribari Knolls"/><tag k="addr:postcode" v="95135"/></node>
<node visible="true" id="-233" lat="37.295330528" lon="-121.752317777"><tag k="addr:city" v="San Jose"/><tag k="addr:housenumber" v="5165"/><tag k="addr:street" v="Cribari Knolls"/><tag k="addr:postcode" v="95135"/></node>
<node visible="true" id="-234" lat="37.295371055000004" lon="-121.752329423"><tag k="addr:city" v="San Jose"/><tag k="addr:housenumber" v="5166"/><tag k="addr:street" v="Cribari Knolls"/><tag k="addr:postcode" v="95135"/></node>
<node visible="true" id="-235" lat="37.295410063000006" lon="-121.75230583800001"><tag k="addr:city" v="San Jose"/><tag k="addr:housenumber" v="5167"/><tag k="addr:street" v="Cribari Knolls"/><tag k="addr:postcode" v="95135"/></node>
<node visible="true" id="-236" lat="37.295541316000005" lon="-121.75227369000001"><tag k="addr:city" v="San Jose"/><tag k="addr:housenumber" v="5168"/><tag k="addr:street" v="Cribari Knolls"/><tag k="addr:postcode" v="95135"/></node>
<node visible="true" id="-237" lat="37.295619290000005" lon="-121.75231013400001"><tag k="addr:city" v="San Jose"/><tag k="addr:housenumber" v="5169"/><tag k="addr:street" v="Cribari Knolls"/><tag k="addr:postcode" v="95135"/></node>
<node visible="true" id="-238" lat="37.295696414000005" lon="-121.75228739200001"><tag k="addr:city" v="San Jose"/><tag k="addr:housenumber" v="5170"/><tag k="addr:street" v="Cribari Knolls"/><tag k="addr:postcode" v="95135"/></node>
<node visible="true" id="-239" lat="37.295767772000005" lon="-121.75225159300001"><tag k="addr:city" v="San Jose"/><tag k="addr:housenumber" v="5171"/><tag k="addr:street" v="Cribari Knolls"/><tag k="addr:postcode" v="95135"/></node>
<node visible="true" id="-240" lat="37.296455448" lon="-121.75230230300001"><tag k="addr:city" v="San Jose"/><tag k="addr:housenumber" v="5172"/><tag k="addr:street" v="Cribari Knolls"/><tag k="addr:postcode" v="95135"/></node>
<node visible="true" id="-241" lat="37.296417548" lon="-121.752294104"><tag k="addr:city" v="San Jose"/><tag k="addr:housenumber" v="5173"/><tag k="addr:street" v="Cribari Knolls"/><tag k="addr:postcode" v="95135"/></node>
<node visible="true" id="-242" lat="37.296379241000004" lon="-121.752283012"><tag k="addr:city" v="San Jose"/><tag k="addr:housenumber" v="5174"/><tag k="addr:street" v="Cribari Knolls"/><tag k="addr:postcode" v="95135"/></node>
<node visible="true" id="-243" lat="37.296340844" lon="-121.75227762300001"><tag k="addr:city" v="San Jose"/><tag k="addr:housenumber" v="5175"/><tag k="addr:street" v="Cribari Knolls"/><tag k="addr:postcode" v="95135"/></node>
<node visible="true" id="-244" lat="37.296294134" lon="-121.752292037"><tag k="addr:city" v="San Jose"/><tag k="addr:housenumber" v="5176"/><tag k="addr:street" v="Cribari Knolls"/><tag k="addr:postcode" v="95135"/></node>
<node visible="true" id="-245" lat="37.296506895" lon="-121.75259770900001"><tag k="addr:city" v="San Jose"/><tag k="addr:housenumber" v="5177"/><tag k="addr:street" v="Cribari Knolls"/><tag k="addr:postcode" v="95135"/></node>
<node visible="true" id="-246" lat="37.296472636000004" lon="-121.75260603900001"><tag k="addr:city" v="San Jose"/><tag k="addr:housenumber" v="5178"/><tag k="addr:street" v="Cribari Knolls"/><tag k="addr:postcode" v="95135"/></node>
<node visible="true" id="-247" lat="37.296442344" lon="-121.752600477"><tag k="addr:city" v="San Jose"/><tag k="addr:housenumber" v="5179"/><tag k="addr:street" v="Cribari Knolls"/><tag k="addr:postcode" v="95135"/></node>
<node visible="true" id="-248" lat="37.29640387" lon="-121.75260234400001"><tag k="addr:city" v="San Jose"/><tag k="addr:housenumber" v="5180"/><tag k="addr:street" v="Cribari Knolls"/><tag k="addr:postcode" v="95135"/></node>
<node visible="true" id="-249" lat="37.29636545" lon="-121.75259918900001"><tag k="addr:city" v="San Jose"/><tag k="addr:housenumber" v="5181"/><tag k="addr:street" v="Cribari Knolls"/><tag k="addr:postcode" v="95135"/></node>
<node visible="true" id="-250" lat="37.296328737" lon="-121.75262642300001"><tag k="addr:city" v="San Jose"/><tag k="addr:housenumber" v="5182"/><tag k="addr:street" v="Cribari Knolls"/><tag k="addr:postcode" v="95135"/></node>
<node visible="true" id="-251" lat="37.296292295" lon="-121.752628322"><tag k="addr:city" v="San Jose"/><tag k="addr:housenumber" v="5183"/><tag k="addr:street" v="Cribari Knolls"/><tag k="addr:postcode" v="95135"/></node>
<node visible="true" id="-252" lat="37.2962519" lon="-121.75261973900001"><tag k="addr:city" v="San Jose"/><tag k="addr:housenumber" v="5184"/><tag k="addr:street" v="Cribari Knolls"/><tag k="addr:postcode" v="95135"/></node>
<node visible="true" id="-253" lat="37.296425187000004" lon="-121.75488086400001"><tag k="addr:city" v="San Jose"/><tag k="addr:housenumber" v="5210"/><tag k="addr:street" v="Cribari Lane"/><tag k="addr:postcode" v="95135"/></node>
<node visible="true" id="-254" lat="37.296468324" lon="-121.75491022800001"><tag k="addr:city" v="San Jose"/><tag k="addr:housenumber" v="5211"/><tag k="addr:street" v="Cribari Lane"/><tag k="addr:postcode" v="95135"/></node>
<node visible="true" id="-255" lat="37.296509154" lon="-121.754942407"><tag k="addr:city" v="San Jose"/><tag k="addr:housenumber" v="5212"/><tag k="addr:street" v="Cribari Lane"/><tag k="addr:postcode" v="95135"/></node>
<node visible="true" id="-256" lat="37.296365095000006" lon="-121.755151983"><tag k="addr:city" v="San Jose"/><tag k="addr:housenumber" v="5213"/><tag k="addr:street" v="Cribari Dale"/><tag k="addr:postcode" v="95135"/></node>
<node visible="true" id="-257" lat="37.296328457" lon="-121.755154222"><tag k="addr:city" v="San Jose"/><tag k="addr:housenumber" v="5214"/><tag k="addr:street" v="Cribari Dale"/><tag k="addr:postcode" v="95135"/></node>
<node visible="true" id="-258" lat="37.296294311000004" lon="-121.755139346"><tag k="addr:city" v="San Jose"/><tag k="addr:housenumber" v="5215"/><tag k="addr:street" v="Cribari Dale"/><tag k="addr:postcode" v="95135"/></node>
<node visible="true" id="-259" lat="37.296257949" lon="-121.75511580400001"><tag k="addr:city" v="San Jose"/><tag k="addr:housenumber" v="5216"/><tag k="addr:street" v="Cribari Dale"/><tag k="addr:postcode" v="95135"/></node>
<node visible="true" id="-260" lat="37.296221737" lon="-121.75508081500001"><tag k="addr:city" v="San Jose"/><tag k="addr:housenumber" v="5217"/><tag k="addr:street" v="Cribari Dale"/><tag k="addr:postcode" v="95135"/></node>
<node visible="true" id="-261" lat="37.296185498" lon="-121.75504586000001"><tag k="addr:city" v="San Jose"/><tag k="addr:housenumber" v="5218"/><tag k="addr:street" v="Cribari Dale"/><tag k="addr:postcode" v="95135"/></node>
<node visible="true" id="-262" lat="37.296151229" lon="-121.75504239700001"><tag k="addr:city" v="San Jose"/><tag k="addr:housenumber" v="5219"/><tag k="addr:street" v="Cribari Dale"/><tag k="addr:postcode" v="95135"/></node>
<node visible="true" id="-263" lat="37.296119483000005" lon="-121.755016112"><tag k="addr:city" v="San Jose"/><tag k="addr:housenumber" v="5220"/><tag k="addr:street" v="Cribari Dale"/><tag k="addr:postcode" v="95135"/></node>
<node visible="true" id="-264" lat="37.295963677" lon="-121.754609591"><tag k="addr:city" v="San Jose"/><tag k="addr:housenumber" v="5221"/><tag k="addr:street" v="Cribari Dale"/><tag k="addr:postcode" v="95135"/></node>
<node visible="true" id="-265" lat="37.295929315" lon="-121.75461475600001"><tag k="addr:city" v="San Jose"/><tag k="addr:housenumber" v="5222"/><tag k="addr:street" v="Cribari Dale"/><tag k="addr:postcode" v="95135"/></node>
<node visible="true" id="-266" lat="37.295892800000004" lon="-121.754605548"><tag k="addr:city" v="San Jose"/><tag k="addr:housenumber" v="5223"/><tag k="addr:street" v="Cribari Dale"/><tag k="addr:postcode" v="95135"/></node>
<node visible="true" id="-267" lat="37.29586081" lon="-121.75460212200001"><tag k="addr:city" v="San Jose"/><tag k="addr:housenumber" v="5224"/><tag k="addr:street" v="Cribari Dale"/><tag k="addr:postcode" v="95135"/></node>
<node visible="true" id="-268" lat="37.295826787" lon="-121.754575766"><tag k="addr:city" v="San Jose"/><tag k="addr:housenumber" v="5225"/><tag k="addr:street" v="Cribari Dale"/><tag k="addr:postcode" v="95135"/></node>
<node visible="true" id="-269" lat="37.295810922" lon="-121.75434635200001"><tag k="addr:city" v="San Jose"/><tag k="addr:housenumber" v="5226"/><tag k="addr:street" v="Cribari Dale"/><tag k="addr:postcode" v="95135"/></node>
<node visible="true" id="-270" lat="37.295775701000004" lon="-121.754431713"><tag k="addr:city" v="San Jose"/><tag k="addr:housenumber" v="5227"/><tag k="addr:street" v="Cribari Dale"/><tag k="addr:postcode" v="95135"/></node>
<node visible="true" id="-271" lat="37.295741432" lon="-121.75442825100001"><tag k="addr:city" v="San Jose"/><tag k="addr:housenumber" v="5228"/><tag k="addr:street" v="Cribari Dale"/><tag k="addr:postcode" v="95135"/></node>
<node visible="true" id="-272" lat="37.295961842000004" lon="-121.75413977800001"><tag k="addr:city" v="San Jose"/><tag k="addr:housenumber" v="5229"/><tag k="addr:street" v="Cribari Lane"/><tag k="addr:postcode" v="95135"/></node>
<node visible="true" id="-273" lat="37.296009628" lon="-121.754163511"><tag k="addr:city" v="San Jose"/><tag k="addr:housenumber" v="5230"/><tag k="addr:street" v="Cribari Lane"/><tag k="addr:postcode" v="95135"/></node>
<node visible="true" id="-274" lat="37.296054429" lon="-121.754253035"><tag k="addr:city" v="San Jose"/><tag k="addr:housenumber" v="5231"/><tag k="addr:street" v="Cribari Lane"/><tag k="addr:postcode" v="95135"/></node>
<node visible="true" id="-275" lat="37.296102032" lon="-121.754293922"><tag k="addr:city" v="San Jose"/><tag k="addr:housenumber" v="5232"/><tag k="addr:street" v="Cribari Lane"/><tag k="addr:postcode" v="95135"/></node>
<node visible="true" id="-276" lat="37.296149235" lon="-121.754372071"><tag k="addr:city" v="San Jose"/><tag k="addr:housenumber" v="5233"/><tag k="addr:street" v="Cribari Lane"/><tag k="addr:postcode" v="95135"/></node>
<node visible="true" id="-277" lat="37.296862194" lon="-121.75530352400001"><tag k="addr:city" v="San Jose"/><tag k="addr:housenumber" v="5250"/><tag k="addr:street" v="Cribari Lane"/><tag k="addr:postcode" v="95135"/></node>
<node visible="true" id="-278" lat="37.296832207" lon="-121.75532595400001"><tag k="addr:city" v="San Jose"/><tag k="addr:housenumber" v="5251"/><tag k="addr:street" v="Cribari Lane"/><tag k="addr:postcode" v="95135"/></node>
<node visible="true" id="-279" lat="37.296802311" lon="-121.755339789"><tag k="addr:city" v="San Jose"/><tag k="addr:housenumber" v="5252"/><tag k="addr:street" v="Cribari Lane"/><tag k="addr:postcode" v="95135"/></node>
<node visible="true" id="-280" lat="37.296769983000004" lon="-121.755367886"><tag k="addr:city" v="San Jose"/><tag k="addr:housenumber" v="5253"/><tag k="addr:street" v="Cribari Lane"/><tag k="addr:postcode" v="95135"/></node>
<node visible="true" id="-281" lat="37.296740425" lon="-121.75535020000001"><tag k="addr:city" v="San Jose"/><tag k="addr:housenumber" v="5254"/><tag k="addr:street" v="Cribari Lane"/><tag k="addr:postcode" v="95135"/></node>
<node visible="true" id="-282" lat="37.296709295" lon="-121.75526661200001"><tag k="addr:city" v="San Jose"/><tag k="addr:housenumber" v="5255"/><tag k="addr:street" v="Cribari Lane"/><tag k="addr:postcode" v="95135"/></node>
<node visible="true" id="-283" lat="37.296672991" lon="-121.755240216"><tag k="addr:city" v="San Jose"/><tag k="addr:housenumber" v="5256"/><tag k="addr:street" v="Cribari Lane"/><tag k="addr:postcode" v="95135"/></node>
<node visible="true" id="-284" lat="37.296638694" lon="-121.755236787"><tag k="addr:city" v="San Jose"/><tag k="addr:housenumber" v="5257"/><tag k="addr:street" v="Cribari Lane"/><tag k="addr:postcode" v="95135"/></node>
<node visible="true" id="-285" lat="37.297588610000005" lon="-121.75492242700001"><tag k="addr:city" v="San Jose"/><tag k="addr:housenumber" v="5259"/><tag k="addr:street" v="Cribari Heights"/><tag k="addr:postcode" v="95135"/></node>
<node visible="true" id="-286" lat="37.297547651" lon="-121.754943572"><tag k="addr:city" v="San Jose"/><tag k="addr:housenumber" v="5260"/><tag k="addr:street" v="Cribari Heights"/><tag k="addr:postcode" v="95135"/></node>
<node visible="true" id="-287" lat="37.297511996000004" lon="-121.75501036300001"><tag k="addr:city" v="San Jose"/><tag k="addr:housenumber" v="5261"/><tag k="addr:street" v="Cribari Heights"/><tag k="addr:postcode" v="95135"/></node>
<node visible="true" id="-288" lat="37.297821133" lon="-121.755300609"><tag k="addr:city" v="San Jose"/><tag k="addr:housenumber" v="5262"/><tag k="addr:street" v="Cribari Heights"/><tag k="addr:postcode" v="95135"/></node>
<node visible="true" id="-289" lat="37.297781375" lon="-121.75527866"><tag k="addr:city" v="San Jose"/><tag k="addr:housenumber" v="5263"/><tag k="addr:street" v="Cribari Heights"/><tag k="addr:postcode" v="95135"/></node>
<node visible="true" id="-290" lat="37.297746237000005" lon="-121.755241006"><tag k="addr:city" v="San Jose"/><tag k="addr:housenumber" v="5264"/><tag k="addr:street" v="Cribari Heights"/><tag k="addr:postcode" v="95135"/></node>
<node visible="true" id="-291" lat="37.297699274" lon="-121.755199406"><tag k="addr:city" v="San Jose"/><tag k="addr:housenumber" v="5265"/><tag k="addr:street" v="Cribari Heights"/><tag k="addr:postcode" v="95135"/></node>
<node visible="true" id="-292" lat="37.297779779" lon="-121.755566064"><tag k="addr:city" v="San Jose"/><tag k="addr:housenumber" v="5266"/><tag k="addr:street" v="Cribari Heights"/><tag k="addr:postcode" v="95135"/></node>
<node visible="true" id="-293" lat="37.297744223" lon="-121.75556732400001"><tag k="addr:city" v="San Jose"/><tag k="addr:housenumber" v="5267"/><tag k="addr:street" v="Cribari Heights"/><tag k="addr:postcode" v="95135"/></node>
<node visible="true" id="-294" lat="37.297698404" lon="-121.75555730600001"><tag k="addr:city" v="San Jose"/><tag k="addr:housenumber" v="5268"/><tag k="addr:street" v="Cribari Heights"/><tag k="addr:postcode" v="95135"/></node>
<node visible="true" id="-295" lat="37.297660022" lon="-121.755545521"><tag k="addr:city" v="San Jose"/><tag k="addr:housenumber" v="5269"/><tag k="addr:street" v="Cribari Heights"/><tag k="addr:postcode" v="95135"/></node>
<node visible="true" id="-296" lat="37.297610174" lon="-121.75549648100001"><tag k="addr:city" v="San Jose"/><tag k="addr:housenumber" v="5270"/><tag k="addr:street" v="Cribari Heights"/><tag k="addr:postcode" v="95135"/></node>
<node visible="true" id="-297" lat="37.297615934" lon="-121.756176064"><tag k="addr:city" v="San Jose"/><tag k="addr:housenumber" v="5271"/><tag k="addr:street" v="Cribari Corner"/><tag k="addr:postcode" v="95135"/></node>
<node visible="true" id="-298" lat="37.297583078" lon="-121.756204737"><tag k="addr:city" v="San Jose"/><tag k="addr:housenumber" v="5272"/><tag k="addr:street" v="Cribari Corner"/><tag k="addr:postcode" v="95135"/></node>
<node visible="true" id="-299" lat="37.297546637" lon="-121.756206531"><tag k="addr:city" v="San Jose"/><tag k="addr:housenumber" v="5273"/><tag k="addr:street" v="Cribari Corner"/><tag k="addr:postcode" v="95135"/></node>
<node visible="true" id="-300" lat="37.297508174" lon="-121.75622025700001"><tag k="addr:city" v="San Jose"/><tag k="addr:housenumber" v="5274"/><tag k="addr:street" v="Cribari Corner"/><tag k="addr:postcode" v="95135"/></node>
<node visible="true" id="-301" lat="37.297474437000005" lon="-121.75629264800001"><tag k="addr:city" v="San Jose"/><tag k="addr:housenumber" v="5275"/><tag k="addr:street" v="Cribari Corner"/><tag k="addr:postcode" v="95135"/></node>
<node visible="true" id="-302" lat="37.297438597" lon="-121.756276643"><tag k="addr:city" v="San Jose"/><tag k="addr:housenumber" v="5276"/><tag k="addr:street" v="Cribari Corner"/><tag k="addr:postcode" v="95135"/></node>
<node visible="true" id="-303" lat="37.297401797" lon="-121.75631198800001"><tag k="addr:city" v="San Jose"/><tag k="addr:housenumber" v="5277"/><tag k="addr:street" v="Cribari Corner"/><tag k="addr:postcode" v="95135"/></node>
<node visible="true" id="-304" lat="37.297363256000004" lon="-121.75633289800001"><tag k="addr:city" v="San Jose"/><tag k="addr:housenumber" v="5278"/><tag k="addr:street" v="Cribari Corner"/><tag k="addr:postcode" v="95135"/></node>
<node visible="true" id="-305" lat="37.297324663000005" lon="-121.75635862000001"><tag k="addr:city" v="San Jose"/><tag k="addr:housenumber" v="5279"/><tag k="addr:street" v="Cribari Corner"/><tag k="addr:postcode" v="95135"/></node>
<node visible="true" id="-306" lat="37.297289913" lon="-121.756382001"><tag k="addr:city" v="San Jose"/><tag k="addr:housenumber" v="5280"/><tag k="addr:street" v="Cribari Corner"/><tag k="addr:postcode" v="95135"/></node>
<node visible="true" id="-307" lat="37.297253583" lon="-121.756376129"><tag k="addr:city" v="San Jose"/><tag k="addr:housenumber" v="5281"/><tag k="addr:street" v="Cribari Corner"/><tag k="addr:postcode" v="95135"/></node>
<node visible="true" id="-308" lat="37.297237049" lon="-121.756368604"><tag k="addr:city" v="San Jose"/><tag k="addr:housenumber" v="5282"/><tag k="addr:street" v="Cribari Corner"/><tag k="addr:postcode" v="95135"/></node>
<node visible="true" id="-309" lat="37.298119351000004" lon="-121.75553838100001"><tag k="addr:city" v="San Jose"/><tag k="addr:housenumber" v="5283"/><tag k="addr:street" v="Cribari Heights"/><tag k="addr:postcode" v="95135"/></node>
<node visible="true" id="-310" lat="37.298079965" lon="-121.75547923600001"><tag k="addr:city" v="San Jose"/><tag k="addr:housenumber" v="5284"/><tag k="addr:street" v="Cribari Heights"/><tag k="addr:postcode" v="95135"/></node>
<node visible="true" id="-311" lat="37.298041591" lon="-121.75546662600001"><tag k="addr:city" v="San Jose"/><tag k="addr:housenumber" v="5285"/><tag k="addr:street" v="Cribari Heights"/><tag k="addr:postcode" v="95135"/></node>
<node visible="true" id="-312" lat="37.298001956" lon="-121.75543072"><tag k="addr:city" v="San Jose"/><tag k="addr:housenumber" v="5286"/><tag k="addr:street" v="Cribari Heights"/><tag k="addr:postcode" v="95135"/></node>
<node visible="true" id="-313" lat="37.297963514" lon="-121.75542450500001"><tag k="addr:city" v="San Jose"/><tag k="addr:housenumber" v="5287"/><tag k="addr:street" v="Cribari Heights"/><tag k="addr:postcode" v="95135"/></node>
<node visible="true" id="-314" lat="37.29792758" lon="-121.75546100000001"><tag k="addr:city" v="San Jose"/><tag k="addr:housenumber" v="5288"/><tag k="addr:street" v="Cribari Heights"/><tag k="addr:postcode" v="95135"/></node>
<node visible="true" id="-315" lat="37.298338226000006" lon="-121.75598527400001"><tag k="addr:city" v="San Jose"/><tag k="addr:housenumber" v="5289"/><tag k="addr:street" v="Cribari Heights"/><tag k="addr:postcode" v="95135"/></node>
<node visible="true" id="-316" lat="37.298302629000005" lon="-121.75599024700001"><tag k="addr:city" v="San Jose"/><tag k="addr:housenumber" v="5290"/><tag k="addr:street" v="Cribari Heights"/><tag k="addr:postcode" v="95135"/></node>
<node visible="true" id="-317" lat="37.298268577" lon="-121.75598967500001"><tag k="addr:city" v="San Jose"/><tag k="addr:housenumber" v="5291"/><tag k="addr:street" v="Cribari Heights"/><tag k="addr:postcode" v="95135"/></node>
<node visible="true" id="-318" lat="37.298234495" lon="-121.755989102"><tag k="addr:city" v="San Jose"/><tag k="addr:housenumber" v="5292"/><tag k="addr:street" v="Cribari Heights"/><tag k="addr:postcode" v="95135"/></node>
<node visible="true" id="-319" lat="37.298335462000004" lon="-121.755692224"><tag k="addr:city" v="San Jose"/><tag k="addr:housenumber" v="5293"/><tag k="addr:street" v="Cribari Heights"/><tag k="addr:postcode" v="95135"/></node>
<node visible="true" id="-320" lat="37.298304338" lon="-121.755692561"><tag k="addr:city" v="San Jose"/><tag k="addr:housenumber" v="5294"/><tag k="addr:street" v="Cribari Heights"/><tag k="addr:postcode" v="95135"/></node>
<node visible="true" id="-321" lat="37.298270126000006" lon="-121.755704124"><tag k="addr:city" v="San Jose"/><tag k="addr:housenumber" v="5295"/><tag k="addr:street" v="Cribari Heights"/><tag k="addr:postcode" v="95135"/></node>
<node visible="true" id="-322" lat="37.298237636" lon="-121.75569615200001"><tag k="addr:city" v="San Jose"/><tag k="addr:housenumber" v="5296"/><tag k="addr:street" v="Cribari Heights"/><tag k="addr:postcode" v="95135"/></node>
<node visible="true" id="-323" lat="37.298149394" lon="-121.756389427"><tag k="addr:city" v="San Jose"/><tag k="addr:housenumber" v="5297"/><tag k="addr:street" v="Cribari Heights"/><tag k="addr:postcode" v="95135"/></node>
<node visible="true" id="-324" lat="37.298182382" lon="-121.756402221"><tag k="addr:city" v="San Jose"/><tag k="addr:housenumber" v="5298"/><tag k="addr:street" v="Cribari Heights"/><tag k="addr:postcode" v="95135"/></node>
<node visible="true" id="-325" lat="37.298230833000005" lon="-121.75652261500001"><tag k="addr:city" v="San Jose"/><tag k="addr:housenumber" v="5299"/><tag k="addr:street" v="Cribari Heights"/><tag k="addr:postcode" v="95135"/></node>
<node visible="true" id="-326" lat="37.298266448" lon="-121.75652878400001"><tag k="addr:city" v="San Jose"/><tag k="addr:housenumber" v="5300"/><tag k="addr:street" v="Cribari Heights"/><tag k="addr:postcode" v="95135"/></node>
<node visible="true" id="-327" lat="37.298100944000005" lon="-121.75662725800001"><tag k="addr:city" v="San Jose"/><tag k="addr:housenumber" v="5301"/><tag k="addr:street" v="Cribari Heights"/><tag k="addr:postcode" v="95135"/></node>
<node visible="true" id="-328" lat="37.298132759000005" lon="-121.75663174600001"><tag k="addr:city" v="San Jose"/><tag k="addr:housenumber" v="5302"/><tag k="addr:street" v="Cribari Heights"/><tag k="addr:postcode" v="95135"/></node>
<node visible="true" id="-329" lat="37.298162538" lon="-121.75670816200001"><tag k="addr:city" v="San Jose"/><tag k="addr:housenumber" v="5303"/><tag k="addr:street" v="Cribari Heights"/><tag k="addr:postcode" v="95135"/></node>
<node visible="true" id="-330" lat="37.298198155" lon="-121.756716599"><tag k="addr:city" v="San Jose"/><tag k="addr:housenumber" v="5304"/><tag k="addr:street" v="Cribari Heights"/><tag k="addr:postcode" v="95135"/></node>
<node visible="true" id="-331" lat="37.297907488" lon="-121.756607263"><tag k="addr:city" v="San Jose"/><tag k="addr:housenumber" v="5305"/><tag k="addr:street" v="Cribari Heights"/><tag k="addr:postcode" v="95135"/></node>
<node visible="true" id="-332" lat="37.29785401" lon="-121.75648173"><tag k="addr:city" v="San Jose"/><tag k="addr:housenumber" v="5306"/><tag k="addr:street" v="Cribari Heights"/><tag k="addr:postcode" v="95135"/></node>
<node visible="true" id="-333" lat="37.297954221000005" lon="-121.75640911400001"><tag k="addr:city" v="San Jose"/><tag k="addr:housenumber" v="5307"/><tag k="addr:street" v="Cribari Heights"/><tag k="addr:postcode" v="95135"/></node>
<node visible="true" id="-334" lat="37.297917059" lon="-121.756309126"><tag k="addr:city" v="San Jose"/><tag k="addr:housenumber" v="5308"/><tag k="addr:street" v="Cribari Heights"/><tag k="addr:postcode" v="95135"/></node>
<node visible="true" id="-335" lat="37.298019574" lon="-121.75707127400001"><tag k="addr:city" v="San Jose"/><tag k="addr:housenumber" v="5309"/><tag k="addr:street" v="Cribari Glen"/><tag k="addr:postcode" v="95135"/></node>
<node visible="true" id="-336" lat="37.298093529" lon="-121.75707011"><tag k="addr:city" v="San Jose"/><tag k="addr:housenumber" v="5310"/><tag k="addr:street" v="Cribari Glen"/><tag k="addr:postcode" v="95135"/></node>
<node visible="true" id="-337" lat="37.298167124" lon="-121.757102462"><tag k="addr:city" v="San Jose"/><tag k="addr:housenumber" v="5311"/><tag k="addr:street" v="Cribari Glen"/><tag k="addr:postcode" v="95135"/></node>
<node visible="true" id="-338" lat="37.298085868" lon="-121.75742050500001"><tag k="addr:city" v="San Jose"/><tag k="addr:housenumber" v="5312"/><tag k="addr:street" v="Cribari Glen"/><tag k="addr:postcode" v="95135"/></node>
<node visible="true" id="-339" lat="37.298050285" lon="-121.757424239"><tag k="addr:city" v="San Jose"/><tag k="addr:housenumber" v="5313"/><tag k="addr:street" v="Cribari Glen"/><tag k="addr:postcode" v="95135"/></node>
<node visible="true" id="-340" lat="37.298008123" lon="-121.75740633900001"><tag k="addr:city" v="San Jose"/><tag k="addr:housenumber" v="5314"/><tag k="addr:street" v="Cribari Glen"/><tag k="addr:postcode" v="95135"/></node>
<node visible="true" id="-341" lat="37.297975194" lon="-121.75741864400001"><tag k="addr:city" v="San Jose"/><tag k="addr:housenumber" v="5315"/><tag k="addr:street" v="Cribari Glen"/><tag k="addr:postcode" v="95135"/></node>
<node visible="true" id="-342" lat="37.297936834000005" lon="-121.757427867"><tag k="addr:city" v="San Jose"/><tag k="addr:housenumber" v="5316"/><tag k="addr:street" v="Cribari Glen"/><tag k="addr:postcode" v="95135"/></node>
<node visible="true" id="-343" lat="37.297901303" lon="-121.75742675400001"><tag k="addr:city" v="San Jose"/><tag k="addr:housenumber" v="5317"/><tag k="addr:street" v="Cribari Glen"/><tag k="addr:postcode" v="95135"/></node>
<node visible="true" id="-344" lat="37.297856387" lon="-121.75740956300001"><tag k="addr:city" v="San Jose"/><tag k="addr:housenumber" v="5318"/><tag k="addr:street" v="Cribari Glen"/><tag k="addr:postcode" v="95135"/></node>
<node visible="true" id="-345" lat="37.297824952" lon="-121.75741072000001"><tag k="addr:city" v="San Jose"/><tag k="addr:housenumber" v="5319"/><tag k="addr:street" v="Cribari Glen"/><tag k="addr:postcode" v="95135"/></node>
<node visible="true" id="-346" lat="37.297540168000005" lon="-121.75726524100001"><tag k="addr:city" v="San Jose"/><tag k="addr:housenumber" v="5320"/><tag k="addr:street" v="Cribari Glen"/><tag k="addr:postcode" v="95135"/></node>
<node visible="true" id="-347" lat="37.297504528000005" lon="-121.75727677900001"><tag k="addr:city" v="San Jose"/><tag k="addr:housenumber" v="5321"/><tag k="addr:street" v="Cribari Glen"/><tag k="addr:postcode" v="95135"/></node>
<node visible="true" id="-348" lat="37.297464608000006" lon="-121.75727782700001"><tag k="addr:city" v="San Jose"/><tag k="addr:housenumber" v="5322"/><tag k="addr:street" v="Cribari Glen"/><tag k="addr:postcode" v="95135"/></node>
<node visible="true" id="-349" lat="37.297428112000006" lon="-121.757274428"><tag k="addr:city" v="San Jose"/><tag k="addr:housenumber" v="5323"/><tag k="addr:street" v="Cribari Glen"/><tag k="addr:postcode" v="95135"/></node>
<node visible="true" id="-350" lat="37.297388712" lon="-121.757272975"><tag k="addr:city" v="San Jose"/><tag k="addr:housenumber" v="5324"/><tag k="addr:street" v="Cribari Glen"/><tag k="addr:postcode" v="95135"/></node>
<node visible="true" id="-351" lat="37.297353118000004" lon="-121.75727519600001"><tag k="addr:city" v="San Jose"/><tag k="addr:housenumber" v="5325"/><tag k="addr:street" v="Cribari Glen"/><tag k="addr:postcode" v="95135"/></node>
<node visible="true" id="-352" lat="37.297318544" lon="-121.75727193300001"><tag k="addr:city" v="San Jose"/><tag k="addr:housenumber" v="5326"/><tag k="addr:street" v="Cribari Glen"/><tag k="addr:postcode" v="95135"/></node>
<node visible="true" id="-353" lat="37.29728489" lon="-121.757270026"><tag k="addr:city" v="San Jose"/><tag k="addr:housenumber" v="5327"/><tag k="addr:street" v="Cribari Glen"/><tag k="addr:postcode" v="95135"/></node>
<node visible="true" id="-354" lat="37.297127377" lon="-121.757230624"><tag k="addr:city" v="San Jose"/><tag k="addr:housenumber" v="5328"/><tag k="addr:street" v="Cribari Glen"/><tag k="addr:postcode" v="95135"/></node>
<node visible="true" id="-355" lat="37.297099665000005" lon="-121.75721510000001"><tag k="addr:city" v="San Jose"/><tag k="addr:housenumber" v="5329"/><tag k="addr:street" v="Cribari Glen"/><tag k="addr:postcode" v="95135"/></node>
<node visible="true" id="-356" lat="37.29706903" lon="-121.75711350200001"><tag k="addr:city" v="San Jose"/><tag k="addr:housenumber" v="5330"/><tag k="addr:street" v="Cribari Glen"/><tag k="addr:postcode" v="95135"/></node>
<node visible="true" id="-357" lat="37.297038295" lon="-121.75711078600001"><tag k="addr:city" v="San Jose"/><tag k="addr:housenumber" v="5331"/><tag k="addr:street" v="Cribari Glen"/><tag k="addr:postcode" v="95135"/></node>
<node visible="true" id="-358" lat="37.297189607" lon="-121.75700128000001"><tag k="addr:city" v="San Jose"/><tag k="addr:housenumber" v="5332"/><tag k="addr:street" v="Cribari Glen"/><tag k="addr:postcode" v="95135"/></node>
<node visible="true" id="-359" lat="37.297158716000006" lon="-121.75702077000001"><tag k="addr:city" v="San Jose"/><tag k="addr:housenumber" v="5333"/><tag k="addr:street" v="Cribari Glen"/><tag k="addr:postcode" v="95135"/></node>
<node visible="true" id="-360" lat="37.297130978000006" lon="-121.756905367"><tag k="addr:city" v="San Jose"/><tag k="addr:housenumber" v="5334"/><tag k="addr:street" v="Cribari Glen"/><tag k="addr:postcode" v="95135"/></node>
<node visible="true" id="-361" lat="37.29709854" lon="-121.75689488600001"><tag k="addr:city" v="San Jose"/><tag k="addr:housenumber" v="5335"/><tag k="addr:street" v="Cribari Glen"/><tag k="addr:postcode" v="95135"/></node>
<node visible="true" id="-362" lat="37.297353976000004" lon="-121.75689838800001"><tag k="addr:city" v="San Jose"/><tag k="addr:housenumber" v="5336"/><tag k="addr:street" v="Cribari Glen"/><tag k="addr:postcode" v="95135"/></node>
<node visible="true" id="-363" lat="37.297431029" lon="-121.75691051300001"><tag k="addr:city" v="San Jose"/><tag k="addr:housenumber" v="5337"/><tag k="addr:street" v="Cribari Glen"/><tag k="addr:postcode" v="95135"/></node>
<node visible="true" id="-364" lat="37.297502269" lon="-121.75690383700001"><tag k="addr:city" v="San Jose"/><tag k="addr:housenumber" v="5338"/><tag k="addr:street" v="Cribari Glen"/><tag k="addr:postcode" v="95135"/></node>
<node visible="true" id="-365" lat="37.297596000000006" lon="-121.756902663"><tag k="addr:city" v="San Jose"/><tag k="addr:housenumber" v="5339"/><tag k="addr:street" v="Cribari Glen"/><tag k="addr:postcode" v="95135"/></node>
<node visible="true" id="-366" lat="37.296620498" lon="-121.757084543"><tag k="addr:city" v="San Jose"/><tag k="addr:housenumber" v="5346"/><tag k="addr:street" v="Cribari Dell"/><tag k="addr:postcode" v="95135"/></node>
<node visible="true" id="-367" lat="37.296586224" lon="-121.75708668300001"><tag k="addr:city" v="San Jose"/><tag k="addr:housenumber" v="5347"/><tag k="addr:street" v="Cribari Dell"/><tag k="addr:postcode" v="95135"/></node>
<node visible="true" id="-368" lat="37.296547493000006" lon="-121.757076646"><tag k="addr:city" v="San Jose"/><tag k="addr:housenumber" v="5348"/><tag k="addr:street" v="Cribari Dell"/><tag k="addr:postcode" v="95135"/></node>
<node visible="true" id="-369" lat="37.296513179" lon="-121.75708246200001"><tag k="addr:city" v="San Jose"/><tag k="addr:housenumber" v="5349"/><tag k="addr:street" v="Cribari Dell"/><tag k="addr:postcode" v="95135"/></node>
<node visible="true" id="-370" lat="37.296472300000005" lon="-121.75706014900001"><tag k="addr:city" v="San Jose"/><tag k="addr:housenumber" v="5350"/><tag k="addr:street" v="Cribari Dell"/><tag k="addr:postcode" v="95135"/></node>
<node visible="true" id="-371" lat="37.296442564" lon="-121.757064259"><tag k="addr:city" v="San Jose"/><tag k="addr:housenumber" v="5351"/><tag k="addr:street" v="Cribari Dell"/><tag k="addr:postcode" v="95135"/></node>
<node visible="true" id="-372" lat="37.296400521" lon="-121.757058326"><tag k="addr:city" v="San Jose"/><tag k="addr:housenumber" v="5352"/><tag k="addr:street" v="Cribari Dell"/><tag k="addr:postcode" v="95135"/></node>
<node visible="true" id="-373" lat="37.296367803" lon="-121.75706128300001"><tag k="addr:city" v="San Jose"/><tag k="addr:housenumber" v="5353"/><tag k="addr:street" v="Cribari Dell"/><tag k="addr:postcode" v="95135"/></node>
<node visible="true" id="-374" lat="37.296331025" lon="-121.75703807500001"><tag k="addr:city" v="San Jose"/><tag k="addr:housenumber" v="5354"/><tag k="addr:street" v="Cribari Dell"/><tag k="addr:postcode" v="95135"/></node>
<node visible="true" id="-375" lat="37.296299251" lon="-121.757042767"><tag k="addr:city" v="San Jose"/><tag k="addr:housenumber" v="5355"/><tag k="addr:street" v="Cribari Dell"/><tag k="addr:postcode" v="95135"/></node>
<node visible="true" id="-376" lat="37.296075945000005" lon="-121.75705785400001"><tag k="addr:city" v="San Jose"/><tag k="addr:housenumber" v="5356"/><tag k="addr:street" v="Cribari Dell"/><tag k="addr:postcode" v="95135"/></node>
<node visible="true" id="-377" lat="37.296044222" lon="-121.757039753"><tag k="addr:city" v="San Jose"/><tag k="addr:housenumber" v="5357"/><tag k="addr:street" v="Cribari Dell"/><tag k="addr:postcode" v="95135"/></node>
<node visible="true" id="-378" lat="37.296015449" lon="-121.756933684"><tag k="addr:city" v="San Jose"/><tag k="addr:housenumber" v="5358"/><tag k="addr:street" v="Cribari Dell"/><tag k="addr:postcode" v="95135"/></node>
<node visible="true" id="-379" lat="37.295979673000005" lon="-121.756922082"><tag k="addr:city" v="San Jose"/><tag k="addr:housenumber" v="5359"/><tag k="addr:street" v="Cribari Dell"/><tag k="addr:postcode" v="95135"/></node>
<node visible="true" id="-380" lat="37.29615382" lon="-121.756862814"><tag k="addr:city" v="San Jose"/><tag k="addr:housenumber" v="5360"/><tag k="addr:street" v="Cribari Dell"/><tag k="addr:postcode" v="95135"/></node>
<node visible="true" id="-381" lat="37.296121856" lon="-121.756867227"><tag k="addr:city" v="San Jose"/><tag k="addr:housenumber" v="5361"/><tag k="addr:street" v="Cribari Dell"/><tag k="addr:postcode" v="95135"/></node>
<node visible="true" id="-382" lat="37.296091443" lon="-121.75672702600001"><tag k="addr:city" v="San Jose"/><tag k="addr:housenumber" v="5362"/><tag k="addr:street" v="Cribari Dell"/><tag k="addr:postcode" v="95135"/></node>
<node visible="true" id="-383" lat="37.296053511000004" lon="-121.7567322"><tag k="addr:city" v="San Jose"/><tag k="addr:housenumber" v="5363"/><tag k="addr:street" v="Cribari Dell"/><tag k="addr:postcode" v="95135"/></node>
<node visible="true" id="-384" lat="37.296305355" lon="-121.75599239"><tag k="addr:city" v="San Jose"/><tag k="addr:housenumber" v="5364"/><tag k="addr:street" v="Cribari Crest"/><tag k="addr:postcode" v="95135"/></node>
<node visible="true" id="-385" lat="37.296273173" lon="-121.756004261"><tag k="addr:city" v="San Jose"/><tag k="addr:housenumber" v="5365"/><tag k="addr:street" v="Cribari Crest"/><tag k="addr:postcode" v="95135"/></node>
<node visible="true" id="-386" lat="37.296242615000004" lon="-121.756005638"><tag k="addr:city" v="San Jose"/><tag k="addr:housenumber" v="5366"/><tag k="addr:street" v="Cribari Crest"/><tag k="addr:postcode" v="95135"/></node>
<node visible="true" id="-387" lat="37.296212159" lon="-121.755997495"><tag k="addr:city" v="San Jose"/><tag k="addr:housenumber" v="5367"/><tag k="addr:street" v="Cribari Crest"/><tag k="addr:postcode" v="95135"/></node>
<node visible="true" id="-388" lat="37.29618009" lon="-121.75599888100001"><tag k="addr:city" v="San Jose"/><tag k="addr:housenumber" v="5368"/><tag k="addr:street" v="Cribari Crest"/><tag k="addr:postcode" v="95135"/></node>
<node visible="true" id="-389" lat="37.296146503" lon="-121.755998317"><tag k="addr:city" v="San Jose"/><tag k="addr:housenumber" v="5369"/><tag k="addr:street" v="Cribari Crest"/><tag k="addr:postcode" v="95135"/></node>
<node visible="true" id="-390" lat="37.296111427" lon="-121.755995803"><tag k="addr:city" v="San Jose"/><tag k="addr:housenumber" v="5370"/><tag k="addr:street" v="Cribari Crest"/><tag k="addr:postcode" v="95135"/></node>
<node visible="true" id="-391" lat="37.296071846000004" lon="-121.75598557900001"><tag k="addr:city" v="San Jose"/><tag k="addr:housenumber" v="5371"/><tag k="addr:street" v="Cribari Crest"/><tag k="addr:postcode" v="95135"/></node>
<node visible="true" id="-392" lat="37.295914090000004" lon="-121.75588934500001"><tag k="addr:city" v="San Jose"/><tag k="addr:housenumber" v="5372"/><tag k="addr:street" v="Cribari Crest"/><tag k="addr:postcode" v="95135"/></node>
<node visible="true" id="-393" lat="37.295878945000005" lon="-121.75589068000001"><tag k="addr:city" v="San Jose"/><tag k="addr:housenumber" v="5373"/><tag k="addr:street" v="Cribari Crest"/><tag k="addr:postcode" v="95135"/></node>
<node visible="true" id="-394" lat="37.295843798" lon="-121.755894869"><tag k="addr:city" v="San Jose"/><tag k="addr:housenumber" v="5374"/><tag k="addr:street" v="Cribari Crest"/><tag k="addr:postcode" v="95135"/></node>
<node visible="true" id="-395" lat="37.2958118" lon="-121.75588955200001"><tag k="addr:city" v="San Jose"/><tag k="addr:housenumber" v="5375"/><tag k="addr:street" v="Cribari Crest"/><tag k="addr:postcode" v="95135"/></node>
<node visible="true" id="-396" lat="37.295991776" lon="-121.75561941800001"><tag k="addr:city" v="San Jose"/><tag k="addr:housenumber" v="5376"/><tag k="addr:street" v="Cribari Crest"/><tag k="addr:postcode" v="95135"/></node>
<node visible="true" id="-397" lat="37.295962736" lon="-121.75562274800001"><tag k="addr:city" v="San Jose"/><tag k="addr:housenumber" v="5377"/><tag k="addr:street" v="Cribari Crest"/><tag k="addr:postcode" v="95135"/></node>
<node visible="true" id="-398" lat="37.295927701000004" lon="-121.75561641700001"><tag k="addr:city" v="San Jose"/><tag k="addr:housenumber" v="5378"/><tag k="addr:street" v="Cribari Crest"/><tag k="addr:postcode" v="95135"/></node>
<node visible="true" id="-399" lat="37.295892618" lon="-121.75561201200001"><tag k="addr:city" v="San Jose"/><tag k="addr:housenumber" v="5379"/><tag k="addr:street" v="Cribari Crest"/><tag k="addr:postcode" v="95135"/></node>
<node visible="true" id="-400" lat="37.296231154000004" lon="-121.75565018600001"><tag k="addr:city" v="San Jose"/><tag k="addr:housenumber" v="5380"/><tag k="addr:street" v="Cribari Crest"/><tag k="addr:postcode" v="95135"/></node>
<node visible="true" id="-401" lat="37.296272293" lon="-121.75565850900001"><tag k="addr:city" v="San Jose"/><tag k="addr:housenumber" v="5381"/><tag k="addr:street" v="Cribari Crest"/><tag k="addr:postcode" v="95135"/></node>
<node visible="true" id="-402" lat="37.296308928" lon="-121.755659124"><tag k="addr:city" v="San Jose"/><tag k="addr:housenumber" v="5382"/><tag k="addr:street" v="Cribari Crest"/><tag k="addr:postcode" v="95135"/></node>
<node visible="true" id="-403" lat="37.296345481" lon="-121.75566737000001"><tag k="addr:city" v="San Jose"/><tag k="addr:housenumber" v="5383"/><tag k="addr:street" v="Cribari Crest"/><tag k="addr:postcode" v="95135"/></node>
<node visible="true" id="-404" lat="37.296863621" lon="-121.755931352"><tag k="addr:city" v="San Jose"/><tag k="addr:housenumber" v="5384"/><tag k="addr:street" v="Cribari Crest"/><tag k="addr:postcode" v="95135"/></node>
<node visible="true" id="-405" lat="37.296823338" lon="-121.75593549000001"><tag k="addr:city" v="San Jose"/><tag k="addr:housenumber" v="5385"/><tag k="addr:street" v="Cribari Crest"/><tag k="addr:postcode" v="95135"/></node>
<node visible="true" id="-406" lat="37.29678718" lon="-121.755910919"><tag k="addr:city" v="San Jose"/><tag k="addr:housenumber" v="5386"/><tag k="addr:street" v="Cribari Crest"/><tag k="addr:postcode" v="95135"/></node>
<node visible="true" id="-407" lat="37.296745464000004" lon="-121.75587184800001"><tag k="addr:city" v="San Jose"/><tag k="addr:housenumber" v="5387"/><tag k="addr:street" v="Cribari Crest"/><tag k="addr:postcode" v="95135"/></node>
<node visible="true" id="-408" lat="37.297147414" lon="-121.756269344"><tag k="addr:city" v="San Jose"/><tag k="addr:housenumber" v="5388"/><tag k="addr:street" v="Cribari Crest"/><tag k="addr:postcode" v="95135"/></node>
<node visible="true" id="-409" lat="37.297114740000005" lon="-121.75627838800001"><tag k="addr:city" v="San Jose"/><tag k="addr:housenumber" v="5389"/><tag k="addr:street" v="Cribari Crest"/><tag k="addr:postcode" v="95135"/></node>
<node visible="true" id="-410" lat="37.297084067" lon="-121.75628028000001"><tag k="addr:city" v="San Jose"/><tag k="addr:housenumber" v="5390"/><tag k="addr:street" v="Cribari Crest"/><tag k="addr:postcode" v="95135"/></node>
<node visible="true" id="-411" lat="37.297051394" lon="-121.75628932400001"><tag k="addr:city" v="San Jose"/><tag k="addr:housenumber" v="5391"/><tag k="addr:street" v="Cribari Crest"/><tag k="addr:postcode" v="95135"/></node>
<node visible="true" id="-412" lat="37.297017009" lon="-121.756278706"><tag k="addr:city" v="San Jose"/><tag k="addr:housenumber" v="5392"/><tag k="addr:street" v="Cribari Crest"/><tag k="addr:postcode" v="95135"/></node>
<node visible="true" id="-413" lat="37.296982436" lon="-121.756288165"><tag k="addr:city" v="San Jose"/><tag k="addr:housenumber" v="5393"/><tag k="addr:street" v="Cribari Crest"/><tag k="addr:postcode" v="95135"/></node>
<node visible="true" id="-414" lat="37.296951891" lon="-121.75627805900001"><tag k="addr:city" v="San Jose"/><tag k="addr:housenumber" v="5394"/><tag k="addr:street" v="Cribari Crest"/><tag k="addr:postcode" v="95135"/></node>
<node visible="true" id="-415" lat="37.296923293" lon="-121.756263207"><tag k="addr:city" v="San Jose"/><tag k="addr:housenumber" v="5395"/><tag k="addr:street" v="Cribari Crest"/><tag k="addr:postcode" v="95135"/></node>
<node visible="true" id="-416" lat="37.296892593" lon="-121.756267471"><tag k="addr:city" v="San Jose"/><tag k="addr:housenumber" v="5396"/><tag k="addr:street" v="Cribari Crest"/><tag k="addr:postcode" v="95135"/></node>
<node visible="true" id="-417" lat="37.296860151000004" lon="-121.75625492600001"><tag k="addr:city" v="San Jose"/><tag k="addr:housenumber" v="5397"/><tag k="addr:street" v="Cribari Crest"/><tag k="addr:postcode" v="95135"/></node>
<node visible="true" id="-418" lat="37.296831477000005" lon="-121.75624966500001"><tag k="addr:city" v="San Jose"/><tag k="addr:housenumber" v="5398"/><tag k="addr:street" v="Cribari Crest"/><tag k="addr:postcode" v="95135"/></node>
<node visible="true" id="-419" lat="37.296804775000005" lon="-121.75623721800001"><tag k="addr:city" v="San Jose"/><tag k="addr:housenumber" v="5399"/><tag k="addr:street" v="Cribari Crest"/><tag k="addr:postcode" v="95135"/></node>
<node visible="true" id="-420" lat="37.295481917000004" lon="-121.756317451"><tag k="addr:city" v="San Jose"/><tag k="addr:housenumber" v="5400"/><tag k="addr:street" v="Cribari Court"/><tag k="addr:postcode" v="95135"/></node>
<node visible="true" id="-421" lat="37.295554213" lon="-121.75633008000001"><tag k="addr:city" v="San Jose"/><tag k="addr:housenumber" v="5401"/><tag k="addr:street" v="Cribari Court"/><tag k="addr:postcode" v="95135"/></node>
<node visible="true" id="-422" lat="37.295617975" lon="-121.75634445700001"><tag k="addr:city" v="San Jose"/><tag k="addr:housenumber" v="5402"/><tag k="addr:street" v="Cribari Court"/><tag k="addr:postcode" v="95135"/></node>
<node visible="true" id="-423" lat="37.295662031" lon="-121.75673369900001"><tag k="addr:city" v="San Jose"/><tag k="addr:housenumber" v="5403"/><tag k="addr:street" v="Cribari Court"/><tag k="addr:postcode" v="95135"/></node>
<node visible="true" id="-424" lat="37.295631117" lon="-121.75673503600001"><tag k="addr:city" v="San Jose"/><tag k="addr:housenumber" v="5404"/><tag k="addr:street" v="Cribari Court"/><tag k="addr:postcode" v="95135"/></node>
<node visible="true" id="-425" lat="37.295588588" lon="-121.756728202"><tag k="addr:city" v="San Jose"/><tag k="addr:housenumber" v="5405"/><tag k="addr:street" v="Cribari Court"/><tag k="addr:postcode" v="95135"/></node>
<node visible="true" id="-426" lat="37.295554512" lon="-121.756727217"><tag k="addr:city" v="San Jose"/><tag k="addr:housenumber" v="5406"/><tag k="addr:street" v="Cribari Court"/><tag k="addr:postcode" v="95135"/></node>
<node visible="true" id="-427" lat="37.295512991" lon="-121.75672638200001"><tag k="addr:city" v="San Jose"/><tag k="addr:housenumber" v="5407"/><tag k="addr:street" v="Cribari Court"/><tag k="addr:postcode" v="95135"/></node>
<node visible="true" id="-428" lat="37.295478904" lon="-121.75672635800001"><tag k="addr:city" v="San Jose"/><tag k="addr:housenumber" v="5408"/><tag k="addr:street" v="Cribari Court"/><tag k="addr:postcode" v="95135"/></node>
<node visible="true" id="-429" lat="37.295437410000005" lon="-121.75672036700001"><tag k="addr:city" v="San Jose"/><tag k="addr:housenumber" v="5409"/><tag k="addr:street" v="Cribari Court"/><tag k="addr:postcode" v="95135"/></node>
<node visible="true" id="-430" lat="37.295404393000005" lon="-121.75672050000001"><tag k="addr:city" v="San Jose"/><tag k="addr:housenumber" v="5410"/><tag k="addr:street" v="Cribari Court"/><tag k="addr:postcode" v="95135"/></node>
<node visible="true" id="-431" lat="37.295329242" lon="-121.75663356000001"><tag k="addr:city" v="San Jose"/><tag k="addr:housenumber" v="5411"/><tag k="addr:street" v="Cribari Court"/><tag k="addr:postcode" v="95135"/></node>
<node visible="true" id="-432" lat="37.295298304" lon="-121.756637029"><tag k="addr:city" v="San Jose"/><tag k="addr:housenumber" v="5412"/><tag k="addr:street" v="Cribari Court"/><tag k="addr:postcode" v="95135"/></node>
<node visible="true" id="-433" lat="37.295257972" lon="-121.756625177"><tag k="addr:city" v="San Jose"/><tag k="addr:housenumber" v="5413"/><tag k="addr:street" v="Cribari Court"/><tag k="addr:postcode" v="95135"/></node>
<node visible="true" id="-434" lat="37.295226043" lon="-121.756621167"><tag k="addr:city" v="San Jose"/><tag k="addr:housenumber" v="5414"/><tag k="addr:street" v="Cribari Court"/><tag k="addr:postcode" v="95135"/></node>
<node visible="true" id="-435" lat="37.295183515000005" lon="-121.756614299"><tag k="addr:city" v="San Jose"/><tag k="addr:housenumber" v="5415"/><tag k="addr:street" v="Cribari Court"/><tag k="addr:postcode" v="95135"/></node>
<node visible="true" id="-436" lat="37.295148339" lon="-121.75661601200001"><tag k="addr:city" v="San Jose"/><tag k="addr:housenumber" v="5416"/><tag k="addr:street" v="Cribari Court"/><tag k="addr:postcode" v="95135"/></node>
<node visible="true" id="-437" lat="37.295107152" lon="-121.75661982300001"><tag k="addr:city" v="San Jose"/><tag k="addr:housenumber" v="5417"/><tag k="addr:street" v="Cribari Court"/><tag k="addr:postcode" v="95135"/></node>
<node visible="true" id="-438" lat="37.295072328" lon="-121.75661672800001"><tag k="addr:city" v="San Jose"/><tag k="addr:housenumber" v="5418"/><tag k="addr:street" v="Cribari Court"/><tag k="addr:postcode" v="95135"/></node>
<node visible="true" id="-439" lat="37.295036128" lon="-121.756619215"><tag k="addr:city" v="San Jose"/><tag k="addr:housenumber" v="5419"/><tag k="addr:street" v="Cribari Court"/><tag k="addr:postcode" v="95135"/></node>
<node visible="true" id="-440" lat="37.29500263" lon="-121.756618067"><tag k="addr:city" v="San Jose"/><tag k="addr:housenumber" v="5420"/><tag k="addr:street" v="Cribari Court"/><tag k="addr:postcode" v="95135"/></node>
<node visible="true" id="-441" lat="37.29495699" lon="-121.75662472600001"><tag k="addr:city" v="San Jose"/><tag k="addr:housenumber" v="5421"/><tag k="addr:street" v="Cribari Court"/><tag k="addr:postcode" v="95135"/></node>
<node visible="true" id="-442" lat="37.294919459" lon="-121.75662578100001"><tag k="addr:city" v="San Jose"/><tag k="addr:housenumber" v="5422"/><tag k="addr:street" v="Cribari Court"/><tag k="addr:postcode" v="95135"/></node>
<node visible="true" id="-443" lat="37.294776635000005" lon="-121.75674811200001"><tag k="addr:city" v="San Jose"/><tag k="addr:housenumber" v="5423"/><tag k="addr:street" v="Cribari Court"/><tag k="addr:postcode" v="95135"/></node>
<node visible="true" id="-444" lat="37.294744067" lon="-121.75666292000001"><tag k="addr:city" v="San Jose"/><tag k="addr:housenumber" v="5424"/><tag k="addr:street" v="Cribari Court"/><tag k="addr:postcode" v="95135"/></node>
<node visible="true" id="-445" lat="37.294711953000004" lon="-121.75665825600001"><tag k="addr:city" v="San Jose"/><tag k="addr:housenumber" v="5425"/><tag k="addr:street" v="Cribari Court"/><tag k="addr:postcode" v="95135"/></node>
<node visible="true" id="-446" lat="37.294678225000006" lon="-121.75655303500001"><tag k="addr:city" v="San Jose"/><tag k="addr:housenumber" v="5426"/><tag k="addr:street" v="Cribari Court"/><tag k="addr:postcode" v="95135"/></node>
<node visible="true" id="-447" lat="37.294640804000004" lon="-121.756543879"><tag k="addr:city" v="San Jose"/><tag k="addr:housenumber" v="5427"/><tag k="addr:street" v="Cribari Court"/><tag k="addr:postcode" v="95135"/></node>
<node visible="true" id="-448" lat="37.294798412000006" lon="-121.75646697200001"><tag k="addr:city" v="San Jose"/><tag k="addr:housenumber" v="5428"/><tag k="addr:street" v="Cribari Court"/><tag k="addr:postcode" v="95135"/></node>
<node visible="true" id="-449" lat="37.294929226" lon="-121.75624528300001"><tag k="addr:city" v="San Jose"/><tag k="addr:housenumber" v="5429"/><tag k="addr:street" v="Cribari Court"/><tag k="addr:postcode" v="95135"/></node>
<node visible="true" id="-450" lat="37.295006852" lon="-121.756252708"><tag k="addr:city" v="San Jose"/><tag k="addr:housenumber" v="5430"/><tag k="addr:street" v="Cribari Court"/><tag k="addr:postcode" v="95135"/></node>
<node visible="true" id="-451" lat="37.29508057" lon="-121.75625298300001"><tag k="addr:city" v="San Jose"/><tag k="addr:housenumber" v="5431"/><tag k="addr:street" v="Cribari Court"/><tag k="addr:postcode" v="95135"/></node>
<node visible="true" id="-452" lat="37.295148861" lon="-121.756257465"><tag k="addr:city" v="San Jose"/><tag k="addr:housenumber" v="5432"/><tag k="addr:street" v="Cribari Court"/><tag k="addr:postcode" v="95135"/></node>
<node visible="true" id="-453" lat="37.294726286" lon="-121.75563150100001"><tag k="addr:city" v="San Jose"/><tag k="addr:housenumber" v="5433"/><tag k="addr:street" v="Cribari Green"/><tag k="addr:postcode" v="95135"/></node>
<node visible="true" id="-454" lat="37.294765064" lon="-121.75563201400001"><tag k="addr:city" v="San Jose"/><tag k="addr:housenumber" v="5434"/><tag k="addr:street" v="Cribari Green"/><tag k="addr:postcode" v="95135"/></node>
<node visible="true" id="-455" lat="37.294656725" lon="-121.75563313100001"><tag k="addr:city" v="San Jose"/><tag k="addr:housenumber" v="5435"/><tag k="addr:street" v="Cribari Green"/><tag k="addr:postcode" v="95135"/></node>
<node visible="true" id="-456" lat="37.294693156" lon="-121.75563226400001"><tag k="addr:city" v="San Jose"/><tag k="addr:housenumber" v="5436"/><tag k="addr:street" v="Cribari Green"/><tag k="addr:postcode" v="95135"/></node>
<node visible="true" id="-457" lat="37.294580743000004" lon="-121.75561828000001"><tag k="addr:city" v="San Jose"/><tag k="addr:housenumber" v="5437"/><tag k="addr:street" v="Cribari Green"/><tag k="addr:postcode" v="95135"/></node>
<node visible="true" id="-458" lat="37.294617751000004" lon="-121.75561738900001"><tag k="addr:city" v="San Jose"/><tag k="addr:housenumber" v="5438"/><tag k="addr:street" v="Cribari Green"/><tag k="addr:postcode" v="95135"/></node>
<node visible="true" id="-459" lat="37.294512047000005" lon="-121.75562084"><tag k="addr:city" v="San Jose"/><tag k="addr:housenumber" v="5439"/><tag k="addr:street" v="Cribari Green"/><tag k="addr:postcode" v="95135"/></node>
<node visible="true" id="-460" lat="37.294546141000005" lon="-121.75561769900001"><tag k="addr:city" v="San Jose"/><tag k="addr:housenumber" v="5440"/><tag k="addr:street" v="Cribari Green"/><tag k="addr:postcode" v="95135"/></node>
<node visible="true" id="-461" lat="37.29439825" lon="-121.755526137"><tag k="addr:city" v="San Jose"/><tag k="addr:housenumber" v="5441"/><tag k="addr:street" v="Cribari Green"/><tag k="addr:postcode" v="95135"/></node>
<node visible="true" id="-462" lat="37.294347595000005" lon="-121.75550868200001"><tag k="addr:city" v="San Jose"/><tag k="addr:housenumber" v="5442"/><tag k="addr:street" v="Cribari Green"/><tag k="addr:postcode" v="95135"/></node>
<node visible="true" id="-463" lat="37.29431335" lon="-121.75550800200001"><tag k="addr:city" v="San Jose"/><tag k="addr:housenumber" v="5443"/><tag k="addr:street" v="Cribari Green"/><tag k="addr:postcode" v="95135"/></node>
<node visible="true" id="-464" lat="37.29437608" lon="-121.75532663400001"><tag k="addr:city" v="San Jose"/><tag k="addr:housenumber" v="5444"/><tag k="addr:street" v="Cribari Green"/><tag k="addr:postcode" v="95135"/></node>
<node visible="true" id="-465" lat="37.294341955" lon="-121.75531224000001"><tag k="addr:city" v="San Jose"/><tag k="addr:housenumber" v="5445"/><tag k="addr:street" v="Cribari Green"/><tag k="addr:postcode" v="95135"/></node>
<node visible="true" id="-466" lat="37.294304162" lon="-121.755230057"><tag k="addr:city" v="San Jose"/><tag k="addr:housenumber" v="5446"/><tag k="addr:street" v="Cribari Green"/><tag k="addr:postcode" v="95135"/></node>
<node visible="true" id="-467" lat="37.294563669000006" lon="-121.755314897"><tag k="addr:city" v="San Jose"/><tag k="addr:housenumber" v="5447"/><tag k="addr:street" v="Cribari Green"/><tag k="addr:postcode" v="95135"/></node>
<node visible="true" id="-468" lat="37.294638534" lon="-121.755336438"><tag k="addr:city" v="San Jose"/><tag k="addr:housenumber" v="5448"/><tag k="addr:street" v="Cribari Green"/><tag k="addr:postcode" v="95135"/></node>
<node visible="true" id="-469" lat="37.294706851" lon="-121.75533590100001"><tag k="addr:city" v="San Jose"/><tag k="addr:housenumber" v="5449"/><tag k="addr:street" v="Cribari Green"/><tag k="addr:postcode" v="95135"/></node>
<node visible="true" id="-470" lat="37.294790548" lon="-121.75535339500001"><tag k="addr:city" v="San Jose"/><tag k="addr:housenumber" v="5450"/><tag k="addr:street" v="Cribari Green"/><tag k="addr:postcode" v="95135"/></node>
<node visible="true" id="-471" lat="37.294470366000006" lon="-121.754999268"><tag k="addr:city" v="San Jose"/><tag k="addr:housenumber" v="5451"/><tag k="addr:street" v="Cribari Green"/><tag k="addr:postcode" v="95135"/></node>
<node visible="true" id="-472" lat="37.294433052" lon="-121.75499561500001"><tag k="addr:city" v="San Jose"/><tag k="addr:housenumber" v="5452"/><tag k="addr:street" v="Cribari Green"/><tag k="addr:postcode" v="95135"/></node>
<node visible="true" id="-473" lat="37.294393076000006" lon="-121.75485291800001"><tag k="addr:city" v="San Jose"/><tag k="addr:housenumber" v="5453"/><tag k="addr:street" v="Cribari Green"/><tag k="addr:postcode" v="95135"/></node>
<node visible="true" id="-474" lat="37.294444597" lon="-121.75470495200001"><tag k="addr:city" v="San Jose"/><tag k="addr:housenumber" v="5454"/><tag k="addr:street" v="Cribari Green"/><tag k="addr:postcode" v="95135"/></node>
<node visible="true" id="-475" lat="37.294482579000004" lon="-121.754700295"><tag k="addr:city" v="San Jose"/><tag k="addr:housenumber" v="5455"/><tag k="addr:street" v="Cribari Green"/><tag k="addr:postcode" v="95135"/></node>
<node visible="true" id="-476" lat="37.294707677000005" lon="-121.754797346"><tag k="addr:city" v="San Jose"/><tag k="addr:housenumber" v="5456"/><tag k="addr:street" v="Cribari Green"/><tag k="addr:postcode" v="95135"/></node>
<node visible="true" id="-477" lat="37.294772425000005" lon="-121.754794031"><tag k="addr:city" v="San Jose"/><tag k="addr:housenumber" v="5457"/><tag k="addr:street" v="Cribari Green"/><tag k="addr:postcode" v="95135"/></node>
<node visible="true" id="-478" lat="37.294827829" lon="-121.75478612500001"><tag k="addr:city" v="San Jose"/><tag k="addr:housenumber" v="5458"/><tag k="addr:street" v="Cribari Green"/><tag k="addr:postcode" v="95135"/></node>
<node visible="true" id="-479" lat="37.294889252000004" lon="-121.75476504900001"><tag k="addr:city" v="San Jose"/><tag k="addr:housenumber" v="5459"/><tag k="addr:street" v="Cribari Green"/><tag k="addr:postcode" v="95135"/></node>
<node visible="true" id="-480" lat="37.295077608" lon="-121.75478433400001"><tag k="addr:city" v="San Jose"/><tag k="addr:housenumber" v="5460"/><tag k="addr:street" v="Cribari Green"/><tag k="addr:postcode" v="95135"/></node>
<node visible="true" id="-481" lat="37.295122733" lon="-121.754787257"><tag k="addr:city" v="San Jose"/><tag k="addr:housenumber" v="5461"/><tag k="addr:street" v="Cribari Green"/><tag k="addr:postcode" v="95135"/></node>
<node visible="true" id="-482" lat="37.295172167000004" lon="-121.75477760000001"><tag k="addr:city" v="San Jose"/><tag k="addr:housenumber" v="5462"/><tag k="addr:street" v="Cribari Green"/><tag k="addr:postcode" v="95135"/></node>
<node visible="true" id="-483" lat="37.295213605" lon="-121.754742609"><tag k="addr:city" v="San Jose"/><tag k="addr:housenumber" v="5463"/><tag k="addr:street" v="Cribari Green"/><tag k="addr:postcode" v="95135"/></node>
<node visible="true" id="-484" lat="37.295572334" lon="-121.75479335700001"><tag k="addr:city" v="San Jose"/><tag k="addr:housenumber" v="5464"/><tag k="addr:street" v="Cribari Green"/><tag k="addr:postcode" v="95135"/></node>
<node visible="true" id="-485" lat="37.295541979" lon="-121.75477565700001"><tag k="addr:city" v="San Jose"/><tag k="addr:housenumber" v="5465"/><tag k="addr:street" v="Cribari Green"/><tag k="addr:postcode" v="95135"/></node>
<node visible="true" id="-486" lat="37.295509788000004" lon="-121.75478849100001"><tag k="addr:city" v="San Jose"/><tag k="addr:housenumber" v="5466"/><tag k="addr:street" v="Cribari Green"/><tag k="addr:postcode" v="95135"/></node>
<node visible="true" id="-487" lat="37.295470125" lon="-121.754785935"><tag k="addr:city" v="San Jose"/><tag k="addr:housenumber" v="5467"/><tag k="addr:street" v="Cribari Green"/><tag k="addr:postcode" v="95135"/></node>
<node visible="true" id="-488" lat="37.295531202" lon="-121.755071564"><tag k="addr:city" v="San Jose"/><tag k="addr:housenumber" v="5468"/><tag k="addr:street" v="Cribari Green"/><tag k="addr:postcode" v="95135"/></node>
<node visible="true" id="-489" lat="37.295497287" lon="-121.755101525"><tag k="addr:city" v="San Jose"/><tag k="addr:housenumber" v="5469"/><tag k="addr:street" v="Cribari Green"/><tag k="addr:postcode" v="95135"/></node>
<node visible="true" id="-490" lat="37.295607508" lon="-121.755073807"><tag k="addr:city" v="San Jose"/><tag k="addr:housenumber" v="5470"/><tag k="addr:street" v="Cribari Green"/><tag k="addr:postcode" v="95135"/></node>
<node visible="true" id="-491" lat="37.295569367" lon="-121.755070278"><tag k="addr:city" v="San Jose"/><tag k="addr:housenumber" v="5471"/><tag k="addr:street" v="Cribari Green"/><tag k="addr:postcode" v="95135"/></node>
<node visible="true" id="-492" lat="37.295392736000004" lon="-121.755415212"><tag k="addr:city" v="San Jose"/><tag k="addr:housenumber" v="5472"/><tag k="addr:street" v="Cribari Green"/><tag k="addr:postcode" v="95135"/></node>
<node visible="true" id="-493" lat="37.295359088000005" lon="-121.755405021"><tag k="addr:city" v="San Jose"/><tag k="addr:housenumber" v="5473"/><tag k="addr:street" v="Cribari Green"/><tag k="addr:postcode" v="95135"/></node>
<node visible="true" id="-494" lat="37.295320161" lon="-121.75539546300001"><tag k="addr:city" v="San Jose"/><tag k="addr:housenumber" v="5474"/><tag k="addr:street" v="Cribari Green"/><tag k="addr:postcode" v="95135"/></node>
<node visible="true" id="-495" lat="37.295285045" lon="-121.75538889100001"><tag k="addr:city" v="San Jose"/><tag k="addr:housenumber" v="5475"/><tag k="addr:street" v="Cribari Green"/><tag k="addr:postcode" v="95135"/></node>
<node visible="true" id="-496" lat="37.29524018" lon="-121.75538738200001"><tag k="addr:city" v="San Jose"/><tag k="addr:housenumber" v="5476"/><tag k="addr:street" v="Cribari Green"/><tag k="addr:postcode" v="95135"/></node>
<node visible="true" id="-497" lat="37.295406109000005" lon="-121.75574862100001"><tag k="addr:city" v="San Jose"/><tag k="addr:housenumber" v="5477"/><tag k="addr:street" v="Cribari Green"/><tag k="addr:postcode" v="95135"/></node>
<node visible="true" id="-498" lat="37.295443037000005" lon="-121.75573982"><tag k="addr:city" v="San Jose"/><tag k="addr:housenumber" v="5478"/><tag k="addr:street" v="Cribari Green"/><tag k="addr:postcode" v="95135"/></node>
<node visible="true" id="-499" lat="37.295339939" lon="-121.75574104500001"><tag k="addr:city" v="San Jose"/><tag k="addr:housenumber" v="5479"/><tag k="addr:street" v="Cribari Green"/><tag k="addr:postcode" v="95135"/></node>
<node visible="true" id="-500" lat="37.295375463" lon="-121.75573259900001"><tag k="addr:city" v="San Jose"/><tag k="addr:housenumber" v="5480"/><tag k="addr:street" v="Cribari Green"/><tag k="addr:postcode" v="95135"/></node>
<node visible="true" id="-501" lat="37.295262661" lon="-121.755734626"><tag k="addr:city" v="San Jose"/><tag k="addr:housenumber" v="5481"/><tag k="addr:street" v="Cribari Green"/><tag k="addr:postcode" v="95135"/></node>
<node visible="true" id="-502" lat="37.295302262" lon="-121.75574041300001"><tag k="addr:city" v="San Jose"/><tag k="addr:housenumber" v="5482"/><tag k="addr:street" v="Cribari Green"/><tag k="addr:postcode" v="95135"/></node>
<node visible="true" id="-503" lat="37.295189595000004" lon="-121.75572982300001"><tag k="addr:city" v="San Jose"/><tag k="addr:housenumber" v="5483"/><tag k="addr:street" v="Cribari Green"/><tag k="addr:postcode" v="95135"/></node>
<node visible="true" id="-504" lat="37.295225094" lon="-121.75573382200001"><tag k="addr:city" v="San Jose"/><tag k="addr:housenumber" v="5484"/><tag k="addr:street" v="Cribari Green"/><tag k="addr:postcode" v="95135"/></node>
<node visible="true" id="-505" lat="37.295123585" lon="-121.75572782"><tag k="addr:city" v="San Jose"/><tag k="addr:housenumber" v="5485"/><tag k="addr:street" v="Cribari Green"/><tag k="addr:postcode" v="95135"/></node>
<node visible="true" id="-506" lat="37.295153021000004" lon="-121.75572859"><tag k="addr:city" v="San Jose"/><tag k="addr:housenumber" v="5486"/><tag k="addr:street" v="Cribari Green"/><tag k="addr:postcode" v="95135"/></node>
<node visible="true" id="-507" lat="37.295059626000004" lon="-121.755721589"><tag k="addr:city" v="San Jose"/><tag k="addr:housenumber" v="5487"/><tag k="addr:street" v="Cribari Green"/><tag k="addr:postcode" v="95135"/></node>
<node visible="true" id="-508" lat="37.29509497" lon="-121.755719604"><tag k="addr:city" v="San Jose"/><tag k="addr:housenumber" v="5488"/><tag k="addr:street" v="Cribari Green"/><tag k="addr:postcode" v="95135"/></node>
<node visible="true" id="-509" lat="37.294242813000004" lon="-121.756117856"><tag k="addr:city" v="San Jose"/><tag k="addr:housenumber" v="5489"/><tag k="addr:street" v="Cribari Bend"/><tag k="addr:postcode" v="95135"/></node>
<node visible="true" id="-510" lat="37.294314163" lon="-121.756134149"><tag k="addr:city" v="San Jose"/><tag k="addr:housenumber" v="5490"/><tag k="addr:street" v="Cribari Bend"/><tag k="addr:postcode" v="95135"/></node>
<node visible="true" id="-511" lat="37.294385634" lon="-121.756139132"><tag k="addr:city" v="San Jose"/><tag k="addr:housenumber" v="5491"/><tag k="addr:street" v="Cribari Bend"/><tag k="addr:postcode" v="95135"/></node>
<node visible="true" id="-512" lat="37.294346912" lon="-121.75650476700001"><tag k="addr:city" v="San Jose"/><tag k="addr:housenumber" v="5492"/><tag k="addr:street" v="Cribari Bend"/><tag k="addr:postcode" v="95135"/></node>
<node visible="true" id="-513" lat="37.294311872" lon="-121.756509096"><tag k="addr:city" v="San Jose"/><tag k="addr:housenumber" v="5493"/><tag k="addr:street" v="Cribari Bend"/><tag k="addr:postcode" v="95135"/></node>
<node visible="true" id="-514" lat="37.294273947" lon="-121.756498178"><tag k="addr:city" v="San Jose"/><tag k="addr:housenumber" v="5494"/><tag k="addr:street" v="Cribari Bend"/><tag k="addr:postcode" v="95135"/></node>
<node visible="true" id="-515" lat="37.294240556000005" lon="-121.75648709800001"><tag k="addr:city" v="San Jose"/><tag k="addr:housenumber" v="5495"/><tag k="addr:street" v="Cribari Bend"/><tag k="addr:postcode" v="95135"/></node>
<node visible="true" id="-516" lat="37.294194997000005" lon="-121.75647859700001"><tag k="addr:city" v="San Jose"/><tag k="addr:housenumber" v="5496"/><tag k="addr:street" v="Cribari Bend"/><tag k="addr:postcode" v="95135"/></node>
<node visible="true" id="-517" lat="37.294159957000005" lon="-121.75648292400001"><tag k="addr:city" v="San Jose"/><tag k="addr:housenumber" v="5497"/><tag k="addr:street" v="Cribari Bend"/><tag k="addr:postcode" v="95135"/></node>
<node visible="true" id="-518" lat="37.294122027" lon="-121.756469909"><tag k="addr:city" v="San Jose"/><tag k="addr:housenumber" v="5498"/><tag k="addr:street" v="Cribari Bend"/><tag k="addr:postcode" v="95135"/></node>
<node visible="true" id="-519" lat="37.294087138" lon="-121.756460144"><tag k="addr:city" v="San Jose"/><tag k="addr:housenumber" v="5499"/><tag k="addr:street" v="Cribari Bend"/><tag k="addr:postcode" v="95135"/></node>
<node visible="true" id="-520" lat="37.293459965000004" lon="-121.755887841"><tag k="addr:city" v="San Jose"/><tag k="addr:housenumber" v="5513"/><tag k="addr:street" v="Cribari Bend"/><tag k="addr:postcode" v="95135"/></node>
<node visible="true" id="-521" lat="37.293681637" lon="-121.755917417"><tag k="addr:city" v="San Jose"/><tag k="addr:housenumber" v="5515"/><tag k="addr:street" v="Cribari Bend"/><tag k="addr:postcode" v="95135"/></node>
<node visible="true" id="-522" lat="37.293742856" lon="-121.75597173400001"><tag k="addr:city" v="San Jose"/><tag k="addr:housenumber" v="5516"/><tag k="addr:street" v="Cribari Bend"/><tag k="addr:postcode" v="95135"/></node>
<node visible="true" id="-523" lat="37.293813477" lon="-121.755997159"><tag k="addr:city" v="San Jose"/><tag k="addr:housenumber" v="5517"/><tag k="addr:street" v="Cribari Bend"/><tag k="addr:postcode" v="95135"/></node>
<node visible="true" id="-524" lat="37.292967952000005" lon="-121.75571802900001"><tag k="addr:city" v="San Jose"/><tag k="addr:housenumber" v="5518"/><tag k="addr:street" v="Cribari Circle"/><tag k="addr:postcode" v="95135"/></node>
<node visible="true" id="-525" lat="37.29290927" lon="-121.75573694900001"><tag k="addr:city" v="San Jose"/><tag k="addr:housenumber" v="5519"/><tag k="addr:street" v="Cribari Circle"/><tag k="addr:postcode" v="95135"/></node>
<node visible="true" id="-526" lat="37.292850708" lon="-121.75573716800001"><tag k="addr:city" v="San Jose"/><tag k="addr:housenumber" v="5520"/><tag k="addr:street" v="Cribari Circle"/><tag k="addr:postcode" v="95135"/></node>
<node visible="true" id="-527" lat="37.292792041000006" lon="-121.755729239"><tag k="addr:city" v="San Jose"/><tag k="addr:housenumber" v="5521"/><tag k="addr:street" v="Cribari Circle"/><tag k="addr:postcode" v="95135"/></node>
<node visible="true" id="-528" lat="37.293067765" lon="-121.75617427300001"><tag k="addr:city" v="San Jose"/><tag k="addr:housenumber" v="5522"/><tag k="addr:street" v="Cribari Circle"/><tag k="addr:postcode" v="95135"/></node>
<node visible="true" id="-529" lat="37.293035190000005" lon="-121.756168911"><tag k="addr:city" v="San Jose"/><tag k="addr:housenumber" v="5523"/><tag k="addr:street" v="Cribari Circle"/><tag k="addr:postcode" v="95135"/></node>
<node visible="true" id="-530" lat="37.293001772000004" lon="-121.75615274200001"><tag k="addr:city" v="San Jose"/><tag k="addr:housenumber" v="5524"/><tag k="addr:street" v="Cribari Circle"/><tag k="addr:postcode" v="95135"/></node>
<node visible="true" id="-531" lat="37.292969198" lon="-121.75614741700001"><tag k="addr:city" v="San Jose"/><tag k="addr:housenumber" v="5525"/><tag k="addr:street" v="Cribari Circle"/><tag k="addr:postcode" v="95135"/></node>
<node visible="true" id="-532" lat="37.292935728" lon="-121.75613602300001"><tag k="addr:city" v="San Jose"/><tag k="addr:housenumber" v="5526"/><tag k="addr:street" v="Cribari Circle"/><tag k="addr:postcode" v="95135"/></node>
<node visible="true" id="-533" lat="37.292901217" lon="-121.75612946300001"><tag k="addr:city" v="San Jose"/><tag k="addr:housenumber" v="5527"/><tag k="addr:street" v="Cribari Circle"/><tag k="addr:postcode" v="95135"/></node>
<node visible="true" id="-534" lat="37.292868841" lon="-121.756105644"><tag k="addr:city" v="San Jose"/><tag k="addr:housenumber" v="5528"/><tag k="addr:street" v="Cribari Circle"/><tag k="addr:postcode" v="95135"/></node>
<node visible="true" id="-535" lat="37.292833482" lon="-121.756091091"><tag k="addr:city" v="San Jose"/><tag k="addr:housenumber" v="5529"/><tag k="addr:street" v="Cribari Circle"/><tag k="addr:postcode" v="95135"/></node>
<node visible="true" id="-536" lat="37.29279905" lon="-121.75607971800001"><tag k="addr:city" v="San Jose"/><tag k="addr:housenumber" v="5530"/><tag k="addr:street" v="Cribari Circle"/><tag k="addr:postcode" v="95135"/></node>
<node visible="true" id="-537" lat="37.292764734" lon="-121.756057517"><tag k="addr:city" v="San Jose"/><tag k="addr:housenumber" v="5531"/><tag k="addr:street" v="Cribari Circle"/><tag k="addr:postcode" v="95135"/></node>
<node visible="true" id="-538" lat="37.292731174000004" lon="-121.75605454800001"><tag k="addr:city" v="San Jose"/><tag k="addr:housenumber" v="5532"/><tag k="addr:street" v="Cribari Circle"/><tag k="addr:postcode" v="95135"/></node>
<node visible="true" id="-539" lat="37.292696639" lon="-121.75605276300001"><tag k="addr:city" v="San Jose"/><tag k="addr:housenumber" v="5533"/><tag k="addr:street" v="Cribari Circle"/><tag k="addr:postcode" v="95135"/></node>
<node visible="true" id="-540" lat="37.292387486" lon="-121.755992152"><tag k="addr:city" v="San Jose"/><tag k="addr:housenumber" v="5534"/><tag k="addr:street" v="Cribari Circle"/><tag k="addr:postcode" v="95135"/></node>
<node visible="true" id="-541" lat="37.292351392" lon="-121.75599746"><tag k="addr:city" v="San Jose"/><tag k="addr:housenumber" v="5535"/><tag k="addr:street" v="Cribari Circle"/><tag k="addr:postcode" v="95135"/></node>
<node visible="true" id="-542" lat="37.292312226" lon="-121.755994842"><tag k="addr:city" v="San Jose"/><tag k="addr:housenumber" v="5536"/><tag k="addr:street" v="Cribari Circle"/><tag k="addr:postcode" v="95135"/></node>
<node visible="true" id="-543" lat="37.292276194" lon="-121.755994235"><tag k="addr:city" v="San Jose"/><tag k="addr:housenumber" v="5537"/><tag k="addr:street" v="Cribari Circle"/><tag k="addr:postcode" v="95135"/></node>
<node visible="true" id="-544" lat="37.292233891" lon="-121.75599459200001"><tag k="addr:city" v="San Jose"/><tag k="addr:housenumber" v="5538"/><tag k="addr:street" v="Cribari Circle"/><tag k="addr:postcode" v="95135"/></node>
<node visible="true" id="-545" lat="37.292197872" lon="-121.755992921"><tag k="addr:city" v="San Jose"/><tag k="addr:housenumber" v="5539"/><tag k="addr:street" v="Cribari Circle"/><tag k="addr:postcode" v="95135"/></node>
<node visible="true" id="-546" lat="37.292160269" lon="-121.75599032900001"><tag k="addr:city" v="San Jose"/><tag k="addr:housenumber" v="5540"/><tag k="addr:street" v="Cribari Circle"/><tag k="addr:postcode" v="95135"/></node>
<node visible="true" id="-547" lat="37.292124196" lon="-121.75599364300001"><tag k="addr:city" v="San Jose"/><tag k="addr:housenumber" v="5541"/><tag k="addr:street" v="Cribari Circle"/><tag k="addr:postcode" v="95135"/></node>
<node visible="true" id="-548" lat="37.292263053" lon="-121.75561360900001"><tag k="addr:city" v="San Jose"/><tag k="addr:housenumber" v="5548"/><tag k="addr:street" v="Cribari Circle"/><tag k="addr:postcode" v="95135"/></node>
<node visible="true" id="-549" lat="37.292322269" lon="-121.75562674000001"><tag k="addr:city" v="San Jose"/><tag k="addr:housenumber" v="5549"/><tag k="addr:street" v="Cribari Circle"/><tag k="addr:postcode" v="95135"/></node>
<node visible="true" id="-550" lat="37.29238009" lon="-121.755629017"><tag k="addr:city" v="San Jose"/><tag k="addr:housenumber" v="5550"/><tag k="addr:street" v="Cribari Circle"/><tag k="addr:postcode" v="95135"/></node>
<node visible="true" id="-551" lat="37.29253751" lon="-121.755028886"><tag k="addr:city" v="San Jose"/><tag k="addr:housenumber" v="5551"/><tag k="addr:street" v="Cribari Circle"/><tag k="addr:postcode" v="95135"/></node>
<node visible="true" id="-552" lat="37.292477875" lon="-121.75503431400001"><tag k="addr:city" v="San Jose"/><tag k="addr:housenumber" v="5552"/><tag k="addr:street" v="Cribari Circle"/><tag k="addr:postcode" v="95135"/></node>
<node visible="true" id="-553" lat="37.292421307000005" lon="-121.75502270700001"><tag k="addr:city" v="San Jose"/><tag k="addr:housenumber" v="5553"/><tag k="addr:street" v="Cribari Circle"/><tag k="addr:postcode" v="95135"/></node>
<node visible="true" id="-554" lat="37.292226521" lon="-121.75493964500001"><tag k="addr:city" v="San Jose"/><tag k="addr:housenumber" v="5554"/><tag k="addr:street" v="Cribari Circle"/><tag k="addr:postcode" v="95135"/></node>
<node visible="true" id="-555" lat="37.292558508" lon="-121.75465608500001"><tag k="addr:city" v="San Jose"/><tag k="addr:housenumber" v="5557"/><tag k="addr:street" v="Cribari Circle"/><tag k="addr:postcode" v="95135"/></node>
<node visible="true" id="-556" lat="37.292499635000006" lon="-121.754641551"><tag k="addr:city" v="San Jose"/><tag k="addr:housenumber" v="5558"/><tag k="addr:street" v="Cribari Circle"/><tag k="addr:postcode" v="95135"/></node>
<node visible="true" id="-557" lat="37.29244044" lon="-121.754626497"><tag k="addr:city" v="San Jose"/><tag k="addr:housenumber" v="5559"/><tag k="addr:street" v="Cribari Circle"/><tag k="addr:postcode" v="95135"/></node>
<node visible="true" id="-558" lat="37.292381187000004" lon="-121.75461948700001"><tag k="addr:city" v="San Jose"/><tag k="addr:housenumber" v="5560"/><tag k="addr:street" v="Cribari Circle"/><tag k="addr:postcode" v="95135"/></node>
<node visible="true" id="-559" lat="37.292316935" lon="-121.754627588"><tag k="addr:city" v="San Jose"/><tag k="addr:housenumber" v="5561"/><tag k="addr:street" v="Cribari Circle"/><tag k="addr:postcode" v="95135"/></node>
<node visible="true" id="-560" lat="37.292948498" lon="-121.754734412"><tag k="addr:city" v="San Jose"/><tag k="addr:housenumber" v="5562"/><tag k="addr:street" v="Cribari Circle"/><tag k="addr:postcode" v="95135"/></node>
<node visible="true" id="-561" lat="37.293010849000005" lon="-121.754752373"><tag k="addr:city" v="San Jose"/><tag k="addr:housenumber" v="5563"/><tag k="addr:street" v="Cribari Circle"/><tag k="addr:postcode" v="95135"/></node>
<node visible="true" id="-562" lat="37.29306856" lon="-121.75475732900001"><tag k="addr:city" v="San Jose"/><tag k="addr:housenumber" v="5564"/><tag k="addr:street" v="Cribari Circle"/><tag k="addr:postcode" v="95135"/></node>
<node visible="true" id="-563" lat="37.293121219" lon="-121.754749274"><tag k="addr:city" v="San Jose"/><tag k="addr:housenumber" v="5565"/><tag k="addr:street" v="Cribari Circle"/><tag k="addr:postcode" v="95135"/></node>
<node visible="true" id="-564" lat="37.293206635000004" lon="-121.755090928"><tag k="addr:city" v="San Jose"/><tag k="addr:housenumber" v="5566"/><tag k="addr:street" v="Cribari Circle"/><tag k="addr:postcode" v="95135"/></node>
<node visible="true" id="-565" lat="37.29323997" lon="-121.75509946400001"><tag k="addr:city" v="San Jose"/><tag k="addr:housenumber" v="5567"/><tag k="addr:street" v="Cribari Circle"/><tag k="addr:postcode" v="95135"/></node>
<node visible="true" id="-566" lat="37.293277181" lon="-121.75509754500001"><tag k="addr:city" v="San Jose"/><tag k="addr:housenumber" v="5568"/><tag k="addr:street" v="Cribari Circle"/><tag k="addr:postcode" v="95135"/></node>
<node visible="true" id="-567" lat="37.293047417000004" lon="-121.75517455"><tag k="addr:city" v="San Jose"/><tag k="addr:housenumber" v="5569"/><tag k="addr:street" v="Cribari Circle"/><tag k="addr:postcode" v="95135"/></node>
<node visible="true" id="-568" lat="37.293007438000004" lon="-121.75517075"><tag k="addr:city" v="San Jose"/><tag k="addr:housenumber" v="5570"/><tag k="addr:street" v="Cribari Circle"/><tag k="addr:postcode" v="95135"/></node>
<node visible="true" id="-569" lat="37.292969924000005" lon="-121.75517011900001"><tag k="addr:city" v="San Jose"/><tag k="addr:housenumber" v="5571"/><tag k="addr:street" v="Cribari Circle"/><tag k="addr:postcode" v="95135"/></node>
<node visible="true" id="-570" lat="37.292932441000005" lon="-121.755166637"><tag k="addr:city" v="San Jose"/><tag k="addr:housenumber" v="5572"/><tag k="addr:street" v="Cribari Circle"/><tag k="addr:postcode" v="95135"/></node>
<node visible="true" id="-571" lat="37.292895333000004" lon="-121.755128197"><tag k="addr:city" v="San Jose"/><tag k="addr:housenumber" v="5573"/><tag k="addr:street" v="Cribari Circle"/><tag k="addr:postcode" v="95135"/></node>
<node visible="true" id="-572" lat="37.292858087" lon="-121.75510254400001"><tag k="addr:city" v="San Jose"/><tag k="addr:housenumber" v="5574"/><tag k="addr:street" v="Cribari Circle"/><tag k="addr:postcode" v="95135"/></node>
<node visible="true" id="-573" lat="37.292820641000006" lon="-121.755095658"><tag k="addr:city" v="San Jose"/><tag k="addr:housenumber" v="5575"/><tag k="addr:street" v="Cribari Circle"/><tag k="addr:postcode" v="95135"/></node>
<node visible="true" id="-574" lat="37.292785096" lon="-121.755093309"><tag k="addr:city" v="San Jose"/><tag k="addr:housenumber" v="5576"/><tag k="addr:street" v="Cribari Circle"/><tag k="addr:postcode" v="95135"/></node>
<node visible="true" id="-575" lat="37.292183361" lon="-121.74807953700001"><tag k="addr:city" v="San Jose"/><tag k="addr:housenumber" v="7001"/><tag k="addr:street" v="Via Belmonte"/><tag k="addr:postcode" v="95135"/></node>
<node visible="true" id="-576" lat="37.292174413000005" lon="-121.748604705"><tag k="addr:city" v="San Jose"/><tag k="addr:housenumber" v="7003"/><tag k="addr:street" v="Via Belmonte"/><tag k="addr:postcode" v="95135"/></node>
<node visible="true" id="-577" lat="37.292133872" lon="-121.74860481700001"><tag k="addr:city" v="San Jose"/><tag k="addr:housenumber" v="7004"/><tag k="addr:street" v="Via Belmonte"/><tag k="addr:postcode" v="95135"/></node>
<node visible="true" id="-578" lat="37.292308857" lon="-121.74867777000001"><tag k="addr:city" v="San Jose"/><tag k="addr:housenumber" v="7005"/><tag k="addr:street" v="Via Belmonte"/><tag k="addr:postcode" v="95135"/></node>
<node visible="true" id="-579" lat="37.292268538" lon="-121.748679882"><tag k="addr:city" v="San Jose"/><tag k="addr:housenumber" v="7006"/><tag k="addr:street" v="Via Belmonte"/><tag k="addr:postcode" v="95135"/></node>
<node visible="true" id="-580" lat="37.292334483000005" lon="-121.74897922400001"><tag k="addr:city" v="San Jose"/><tag k="addr:housenumber" v="7007"/><tag k="addr:street" v="Via Valverde"/><tag k="addr:postcode" v="95135"/></node>
<node visible="true" id="-581" lat="37.292276048000005" lon="-121.74910393900001"><tag k="addr:city" v="San Jose"/><tag k="addr:housenumber" v="7008"/><tag k="addr:street" v="Via Valverde"/><tag k="addr:postcode" v="95135"/></node>
<node visible="true" id="-582" lat="37.292779102000004" lon="-121.74920774600001"><tag k="addr:city" v="San Jose"/><tag k="addr:housenumber" v="7009"/><tag k="addr:street" v="Via Valverde"/><tag k="addr:postcode" v="95135"/></node>
<node visible="true" id="-583" lat="37.292682447000004" lon="-121.74936971000001"><tag k="addr:city" v="San Jose"/><tag k="addr:housenumber" v="7010"/><tag k="addr:street" v="Via Valverde"/><tag k="addr:postcode" v="95135"/></node>
<node visible="true" id="-584" lat="37.292721292" lon="-121.749364032"><tag k="addr:city" v="San Jose"/><tag k="addr:housenumber" v="7011"/><tag k="addr:street" v="Via Valverde"/><tag k="addr:postcode" v="95135"/></node>
<node visible="true" id="-585" lat="37.292630856" lon="-121.74953521100001"><tag k="addr:city" v="San Jose"/><tag k="addr:housenumber" v="7012"/><tag k="addr:street" v="Via Valverde"/><tag k="addr:postcode" v="95135"/></node>
<node visible="true" id="-586" lat="37.292596235000005" lon="-121.74953638500001"><tag k="addr:city" v="San Jose"/><tag k="addr:housenumber" v="7013"/><tag k="addr:street" v="Via Valverde"/><tag k="addr:postcode" v="95135"/></node>
<node visible="true" id="-587" lat="37.292114260000005" lon="-121.74941866300001"><tag k="addr:city" v="San Jose"/><tag k="addr:housenumber" v="7014"/><tag k="addr:street" v="Via Valverde"/><tag k="addr:postcode" v="95135"/></node>
<node visible="true" id="-588" lat="37.292077147" lon="-121.749416565"><tag k="addr:city" v="San Jose"/><tag k="addr:housenumber" v="7015"/><tag k="addr:street" v="Via Valverde"/><tag k="addr:postcode" v="95135"/></node>
<node visible="true" id="-589" lat="37.292224357" lon="-121.74953887000001"><tag k="addr:city" v="San Jose"/><tag k="addr:housenumber" v="7016"/><tag k="addr:street" v="Via Valverde"/><tag k="addr:postcode" v="95135"/></node>
<node visible="true" id="-590" lat="37.292183484" lon="-121.74955465500001"><tag k="addr:city" v="San Jose"/><tag k="addr:housenumber" v="7017"/><tag k="addr:street" v="Via Valverde"/><tag k="addr:postcode" v="95135"/></node>
<node visible="true" id="-591" lat="37.291964963000005" lon="-121.74994767300001"><tag k="addr:city" v="San Jose"/><tag k="addr:housenumber" v="7018"/><tag k="addr:street" v="Via Cielo"/><tag k="addr:postcode" v="95135"/></node>
<node visible="true" id="-592" lat="37.292177524" lon="-121.75030093100001"><tag k="addr:city" v="San Jose"/><tag k="addr:housenumber" v="7020"/><tag k="addr:street" v="Via Cielo"/><tag k="addr:postcode" v="95135"/></node>
<node visible="true" id="-593" lat="37.292320700000005" lon="-121.75029421400001"><tag k="addr:city" v="San Jose"/><tag k="addr:housenumber" v="7021"/><tag k="addr:street" v="Via Cielo"/><tag k="addr:postcode" v="95135"/></node>
<node visible="true" id="-594" lat="37.292522199000004" lon="-121.75005493200001"><tag k="addr:city" v="San Jose"/><tag k="addr:housenumber" v="7022"/><tag k="addr:street" v="Via Valverde"/><tag k="addr:postcode" v="95135"/></node>
<node visible="true" id="-595" lat="37.292558246000006" lon="-121.75005914500001"><tag k="addr:city" v="San Jose"/><tag k="addr:housenumber" v="7023"/><tag k="addr:street" v="Via Valverde"/><tag k="addr:postcode" v="95135"/></node>
<node visible="true" id="-596" lat="37.292638924" lon="-121.75007403900001"><tag k="addr:city" v="San Jose"/><tag k="addr:housenumber" v="7024"/><tag k="addr:street" v="Via Valverde"/><tag k="addr:postcode" v="95135"/></node>
<node visible="true" id="-597" lat="37.292677219000005" lon="-121.750070897"><tag k="addr:city" v="San Jose"/><tag k="addr:housenumber" v="7025"/><tag k="addr:street" v="Via Valverde"/><tag k="addr:postcode" v="95135"/></node>
<node visible="true" id="-598" lat="37.29286556" lon="-121.750029799"><tag k="addr:city" v="San Jose"/><tag k="addr:housenumber" v="7026"/><tag k="addr:street" v="Via Valverde"/><tag k="addr:postcode" v="95135"/></node>
<node visible="true" id="-599" lat="37.292972097" lon="-121.75000748100001"><tag k="addr:city" v="San Jose"/><tag k="addr:housenumber" v="7027"/><tag k="addr:street" v="Via Valverde"/><tag k="addr:postcode" v="95135"/></node>
<node visible="true" id="-600" lat="37.293009122" lon="-121.750002323"><tag k="addr:city" v="San Jose"/><tag k="addr:housenumber" v="7028"/><tag k="addr:street" v="Via Valverde"/><tag k="addr:postcode" v="95135"/></node>
<node visible="true" id="-601" lat="37.293099237" lon="-121.750002867"><tag k="addr:city" v="San Jose"/><tag k="addr:housenumber" v="7029"/><tag k="addr:street" v="Via Valverde"/><tag k="addr:postcode" v="95135"/></node>
<node visible="true" id="-602" lat="37.293139206" lon="-121.750010273"><tag k="addr:city" v="San Jose"/><tag k="addr:housenumber" v="7030"/><tag k="addr:street" v="Via Valverde"/><tag k="addr:postcode" v="95135"/></node>
<node visible="true" id="-603" lat="37.293305622000005" lon="-121.749951756"><tag k="addr:city" v="San Jose"/><tag k="addr:housenumber" v="7031"/><tag k="addr:street" v="Via Valverde"/><tag k="addr:postcode" v="95135"/></node>
<node visible="true" id="-604" lat="37.293346024" lon="-121.74996212600001"><tag k="addr:city" v="San Jose"/><tag k="addr:housenumber" v="7032"/><tag k="addr:street" v="Via Valverde"/><tag k="addr:postcode" v="95135"/></node>
<node visible="true" id="-605" lat="37.29343952" lon="-121.74992123000001"><tag k="addr:city" v="San Jose"/><tag k="addr:housenumber" v="7033"/><tag k="addr:street" v="Via Valverde"/><tag k="addr:postcode" v="95135"/></node>
<node visible="true" id="-606" lat="37.293478929" lon="-121.749919171"><tag k="addr:city" v="San Jose"/><tag k="addr:housenumber" v="7034"/><tag k="addr:street" v="Via Valverde"/><tag k="addr:postcode" v="95135"/></node>
<node visible="true" id="-607" lat="37.293657083" lon="-121.749900972"><tag k="addr:city" v="San Jose"/><tag k="addr:housenumber" v="7035"/><tag k="addr:street" v="Via Valverde"/><tag k="addr:postcode" v="95135"/></node>
<node visible="true" id="-608" lat="37.293773025" lon="-121.74989053200001"><tag k="addr:city" v="San Jose"/><tag k="addr:housenumber" v="7036"/><tag k="addr:street" v="Via Valverde"/><tag k="addr:postcode" v="95135"/></node>
<node visible="true" id="-609" lat="37.293819723000006" lon="-121.749882478"><tag k="addr:city" v="San Jose"/><tag k="addr:housenumber" v="7037"/><tag k="addr:street" v="Via Valverde"/><tag k="addr:postcode" v="95135"/></node>
<node visible="true" id="-610" lat="37.293901596000005" lon="-121.74988559900001"><tag k="addr:city" v="San Jose"/><tag k="addr:housenumber" v="7038"/><tag k="addr:street" v="Via Valverde"/><tag k="addr:postcode" v="95135"/></node>
<node visible="true" id="-611" lat="37.293938371" lon="-121.749880919"><tag k="addr:city" v="San Jose"/><tag k="addr:housenumber" v="7039"/><tag k="addr:street" v="Via Valverde"/><tag k="addr:postcode" v="95135"/></node>
<node visible="true" id="-612" lat="37.294075813" lon="-121.749927635"><tag k="addr:city" v="San Jose"/><tag k="addr:housenumber" v="7040"/><tag k="addr:street" v="Via Valverde"/><tag k="addr:postcode" v="95135"/></node>
<node visible="true" id="-613" lat="37.294115048" lon="-121.749910963"><tag k="addr:city" v="San Jose"/><tag k="addr:housenumber" v="7041"/><tag k="addr:street" v="Via Valverde"/><tag k="addr:postcode" v="95135"/></node>
<node visible="true" id="-614" lat="37.294208485000006" lon="-121.749826713"><tag k="addr:city" v="San Jose"/><tag k="addr:housenumber" v="7042"/><tag k="addr:street" v="Via Valverde"/><tag k="addr:postcode" v="95135"/></node>
<node visible="true" id="-615" lat="37.294251924" lon="-121.74982021800001"><tag k="addr:city" v="San Jose"/><tag k="addr:housenumber" v="7043"/><tag k="addr:street" v="Via Valverde"/><tag k="addr:postcode" v="95135"/></node>
<node visible="true" id="-616" lat="37.294363855" lon="-121.749766015"><tag k="addr:city" v="San Jose"/><tag k="addr:housenumber" v="7044"/><tag k="addr:street" v="Via Valverde"/><tag k="addr:postcode" v="95135"/></node>
<node visible="true" id="-617" lat="37.294415262" lon="-121.749419527"><tag k="addr:city" v="San Jose"/><tag k="addr:housenumber" v="7045"/><tag k="addr:street" v="Via Valverde"/><tag k="addr:postcode" v="95135"/></node>
<node visible="true" id="-618" lat="37.294467449" lon="-121.74927026"><tag k="addr:city" v="San Jose"/><tag k="addr:housenumber" v="7046"/><tag k="addr:street" v="Via Valverde"/><tag k="addr:postcode" v="95135"/></node>
<node visible="true" id="-619" lat="37.293980842" lon="-121.74894277300001"><tag k="addr:city" v="San Jose"/><tag k="addr:housenumber" v="7047"/><tag k="addr:street" v="Via Belmonte"/><tag k="addr:postcode" v="95135"/></node>
<node visible="true" id="-620" lat="37.293940653" lon="-121.74895093900001"><tag k="addr:city" v="San Jose"/><tag k="addr:housenumber" v="7048"/><tag k="addr:street" v="Via Belmonte"/><tag k="addr:postcode" v="95135"/></node>
<node visible="true" id="-621" lat="37.293841097000005" lon="-121.748993557"><tag k="addr:city" v="San Jose"/><tag k="addr:housenumber" v="7049"/><tag k="addr:street" v="Via Belmonte"/><tag k="addr:postcode" v="95135"/></node>
<node visible="true" id="-622" lat="37.293800944000004" lon="-121.748995844"><tag k="addr:city" v="San Jose"/><tag k="addr:housenumber" v="7050"/><tag k="addr:street" v="Via Belmonte"/><tag k="addr:postcode" v="95135"/></node>
<node visible="true" id="-623" lat="37.293617170000005" lon="-121.74901051500001"><tag k="addr:city" v="San Jose"/><tag k="addr:housenumber" v="7051"/><tag k="addr:street" v="Via Belmonte"/><tag k="addr:postcode" v="95135"/></node>
<node visible="true" id="-624" lat="37.293508406" lon="-121.74900467600001"><tag k="addr:city" v="San Jose"/><tag k="addr:housenumber" v="7052"/><tag k="addr:street" v="Via Belmonte"/><tag k="addr:postcode" v="95135"/></node>
<node visible="true" id="-625" lat="37.293461101000005" lon="-121.749008012"><tag k="addr:city" v="San Jose"/><tag k="addr:housenumber" v="7053"/><tag k="addr:street" v="Via Belmonte"/><tag k="addr:postcode" v="95135"/></node>
<node visible="true" id="-626" lat="37.293374349000004" lon="-121.749001061"><tag k="addr:city" v="San Jose"/><tag k="addr:housenumber" v="7054"/><tag k="addr:street" v="Via Belmonte"/><tag k="addr:postcode" v="95135"/></node>
<node visible="true" id="-627" lat="37.293334878" lon="-121.748993526"><tag k="addr:city" v="San Jose"/><tag k="addr:housenumber" v="7055"/><tag k="addr:street" v="Via Belmonte"/><tag k="addr:postcode" v="95135"/></node>
<node visible="true" id="-628" lat="37.293224035" lon="-121.748976548"><tag k="addr:city" v="San Jose"/><tag k="addr:housenumber" v="7056"/><tag k="addr:street" v="Via Belmonte"/><tag k="addr:postcode" v="95135"/></node>
<node visible="true" id="-629" lat="37.293044184" lon="-121.748937686"><tag k="addr:city" v="San Jose"/><tag k="addr:housenumber" v="7057"/><tag k="addr:street" v="Via Belmonte"/><tag k="addr:postcode" v="95135"/></node>
<node visible="true" id="-630" lat="37.292999370000004" lon="-121.748931334"><tag k="addr:city" v="San Jose"/><tag k="addr:housenumber" v="7058"/><tag k="addr:street" v="Via Belmonte"/><tag k="addr:postcode" v="95135"/></node>
<node visible="true" id="-631" lat="37.291955631" lon="-121.74673845100001"><tag k="addr:city" v="San Jose"/><tag k="addr:housenumber" v="7308"/><tag k="addr:street" v="Via Piedra"/><tag k="addr:postcode" v="95135"/></node>
<node visible="true" id="-632" lat="37.292039319000004" lon="-121.74663571"><tag k="addr:city" v="San Jose"/><tag k="addr:housenumber" v="7309"/><tag k="addr:street" v="Via Piedra"/><tag k="addr:postcode" v="95135"/></node>
<node visible="true" id="-633" lat="37.292347262" lon="-121.74654705600001"><tag k="addr:city" v="San Jose"/><tag k="addr:housenumber" v="7310"/><tag k="addr:street" v="Via Piedra"/><tag k="addr:postcode" v="95135"/></node>
<node visible="true" id="-634" lat="37.292471031000005" lon="-121.74661918400001"><tag k="addr:city" v="San Jose"/><tag k="addr:housenumber" v="7311"/><tag k="addr:street" v="Via Piedra"/><tag k="addr:postcode" v="95135"/></node>
<node visible="true" id="-635" lat="37.292686742" lon="-121.74688382500001"><tag k="addr:city" v="San Jose"/><tag k="addr:housenumber" v="7312"/><tag k="addr:street" v="Via Granja"/><tag k="addr:postcode" v="95135"/></node>
<node visible="true" id="-636" lat="37.292787961" lon="-121.74689654800001"><tag k="addr:city" v="San Jose"/><tag k="addr:housenumber" v="7313"/><tag k="addr:street" v="Via Granja"/><tag k="addr:postcode" v="95135"/></node>
<node visible="true" id="-637" lat="37.292423277000005" lon="-121.74494465800001"><tag k="addr:city" v="San Jose"/><tag k="addr:housenumber" v="7364"/><tag k="addr:street" v="Via Montecitos"/><tag k="addr:postcode" v="95135"/></node>
<node visible="true" id="-638" lat="37.292484264" lon="-121.74490242300001"><tag k="addr:city" v="San Jose"/><tag k="addr:housenumber" v="7365"/><tag k="addr:street" v="Via Montecitos"/><tag k="addr:postcode" v="95135"/></node>
<node visible="true" id="-639" lat="37.29265413" lon="-121.74453962400001"><tag k="addr:city" v="San Jose"/><tag k="addr:housenumber" v="7366"/><tag k="addr:street" v="Via Montecitos"/><tag k="addr:postcode" v="95135"/></node>
<node visible="true" id="-640" lat="37.292711261" lon="-121.74453191"><tag k="addr:city" v="San Jose"/><tag k="addr:housenumber" v="7367"/><tag k="addr:street" v="Via Montecitos"/><tag k="addr:postcode" v="95135"/></node>
<node visible="true" id="-641" lat="37.293168859000005" lon="-121.743942899"><tag k="addr:city" v="San Jose"/><tag k="addr:housenumber" v="7368"/><tag k="addr:street" v="Via Montecitos"/><tag k="addr:postcode" v="95135"/></node>
<node visible="true" id="-642" lat="37.293215546" lon="-121.743961725"><tag k="addr:city" v="San Jose"/><tag k="addr:housenumber" v="7369"/><tag k="addr:street" v="Via Montecitos"/><tag k="addr:postcode" v="95135"/></node>
<node visible="true" id="-643" lat="37.293273005" lon="-121.74432133"><tag k="addr:city" v="San Jose"/><tag k="addr:housenumber" v="7370"/><tag k="addr:street" v="Via Montecitos"/><tag k="addr:postcode" v="95135"/></node>
<node visible="true" id="-644" lat="37.293190753000005" lon="-121.74459678900001"><tag k="addr:city" v="San Jose"/><tag k="addr:housenumber" v="7371"/><tag k="addr:street" v="Via Montecitos"/><tag k="addr:postcode" v="95135"/></node>
<node visible="true" id="-645" lat="37.293275301" lon="-121.74461456"><tag k="addr:city" v="San Jose"/><tag k="addr:housenumber" v="7372"/><tag k="addr:street" v="Via Montecitos"/><tag k="addr:postcode" v="95135"/></node>
<node visible="true" id="-646" lat="37.293314884000004" lon="-121.744621992"><tag k="addr:city" v="San Jose"/><tag k="addr:housenumber" v="7373"/><tag k="addr:street" v="Via Montecitos"/><tag k="addr:postcode" v="95135"/></node>
<node visible="true" id="-647" lat="37.293233789000006" lon="-121.74462064400001"><tag k="addr:city" v="San Jose"/><tag k="addr:housenumber" v="7374"/><tag k="addr:street" v="Via Montecitos"/><tag k="addr:postcode" v="95135"/></node>
<node visible="true" id="-648" lat="37.293336371" lon="-121.745179581"><tag k="addr:city" v="San Jose"/><tag k="addr:housenumber" v="7375"/><tag k="addr:street" v="Via Montecitos"/><tag k="addr:postcode" v="95135"/></node>
<node visible="true" id="-649" lat="37.29342254" lon="-121.74518435"><tag k="addr:city" v="San Jose"/><tag k="addr:housenumber" v="7376"/><tag k="addr:street" v="Via Montecitos"/><tag k="addr:postcode" v="95135"/></node>
<node visible="true" id="-650" lat="37.29337926" lon="-121.74518362900001"><tag k="addr:city" v="San Jose"/><tag k="addr:housenumber" v="7377"/><tag k="addr:street" v="Via Montecitos"/><tag k="addr:postcode" v="95135"/></node>
<node visible="true" id="-651" lat="37.293761068" lon="-121.74600359200001"><tag k="addr:city" v="San Jose"/><tag k="addr:housenumber" v="7389"/><tag k="addr:street" v="Via Cantares"/><tag k="addr:postcode" v="95135"/></node>
<node visible="true" id="-652" lat="37.293839348" lon="-121.746101881"><tag k="addr:city" v="San Jose"/><tag k="addr:housenumber" v="7390"/><tag k="addr:street" v="Via Cantares"/><tag k="addr:postcode" v="95135"/></node>
<node visible="true" id="-653" lat="37.29390629" lon="-121.74607821000001"><tag k="addr:city" v="San Jose"/><tag k="addr:housenumber" v="7391"/><tag k="addr:street" v="Via Cantares"/><tag k="addr:postcode" v="95135"/></node>
<node visible="true" id="-654" lat="37.293978703" lon="-121.74621923900001"><tag k="addr:city" v="San Jose"/><tag k="addr:housenumber" v="7392"/><tag k="addr:street" v="Via Cantares"/><tag k="addr:postcode" v="95135"/></node>
<node visible="true" id="-655" lat="37.294042700000006" lon="-121.74613686500001"><tag k="addr:city" v="San Jose"/><tag k="addr:housenumber" v="7393"/><tag k="addr:street" v="Via Cantares"/><tag k="addr:postcode" v="95135"/></node>
<node visible="true" id="-656" lat="37.294121556" lon="-121.74618101700001"><tag k="addr:city" v="San Jose"/><tag k="addr:housenumber" v="7394"/><tag k="addr:street" v="Via Cantares"/><tag k="addr:postcode" v="95135"/></node>
<node visible="true" id="-657" lat="37.294214051000004" lon="-121.746466162"><tag k="addr:city" v="San Jose"/><tag k="addr:housenumber" v="7395"/><tag k="addr:street" v="Via Cantares"/><tag k="addr:postcode" v="95135"/></node>
<node visible="true" id="-658" lat="37.294315225000005" lon="-121.74661733500001"><tag k="addr:city" v="San Jose"/><tag k="addr:housenumber" v="7396"/><tag k="addr:street" v="Via Cantares"/><tag k="addr:postcode" v="95135"/></node>
<node visible="true" id="-659" lat="37.294346062" lon="-121.746958867"><tag k="addr:city" v="San Jose"/><tag k="addr:housenumber" v="7397"/><tag k="addr:street" v="Via Cantares"/><tag k="addr:postcode" v="95135"/></node>
<node visible="true" id="-660" lat="37.294272387" lon="-121.747083505"><tag k="addr:city" v="San Jose"/><tag k="addr:housenumber" v="7398"/><tag k="addr:street" v="Via Cantares"/><tag k="addr:postcode" v="95135"/></node>
<node visible="true" id="-661" lat="37.293632273" lon="-121.746754815"><tag k="addr:city" v="San Jose"/><tag k="addr:housenumber" v="7399"/><tag k="addr:street" v="Via Calzada"/><tag k="addr:postcode" v="95135"/></node>
<node visible="true" id="-662" lat="37.293678741" lon="-121.74679169000001"><tag k="addr:city" v="San Jose"/><tag k="addr:housenumber" v="7400"/><tag k="addr:street" v="Via Calzada"/><tag k="addr:postcode" v="95135"/></node>
<node visible="true" id="-663" lat="37.293731566000005" lon="-121.74690984"><tag k="addr:city" v="San Jose"/><tag k="addr:housenumber" v="7401"/><tag k="addr:street" v="Via Calzada"/><tag k="addr:postcode" v="95135"/></node>
<node visible="true" id="-664" lat="37.293767528000004" lon="-121.74691944700001"><tag k="addr:city" v="San Jose"/><tag k="addr:housenumber" v="7402"/><tag k="addr:street" v="Via Calzada"/><tag k="addr:postcode" v="95135"/></node>
<node visible="true" id="-665" lat="37.293803178000005" lon="-121.74695841"><tag k="addr:city" v="San Jose"/><tag k="addr:housenumber" v="7403"/><tag k="addr:street" v="Via Calzada"/><tag k="addr:postcode" v="95135"/></node>
<node visible="true" id="-666" lat="37.29384102" lon="-121.746959043"><tag k="addr:city" v="San Jose"/><tag k="addr:housenumber" v="7404"/><tag k="addr:street" v="Via Calzada"/><tag k="addr:postcode" v="95135"/></node>
<node visible="true" id="-667" lat="37.289259624" lon="-121.74254260000001"><tag k="addr:city" v="San Jose"/><tag k="addr:housenumber" v="7540"/><tag k="addr:street" v="Morevern Circle"/><tag k="addr:postcode" v="95135"/></node>
<node visible="true" id="-668" lat="37.289251371" lon="-121.74218898800001"><tag k="addr:city" v="San Jose"/><tag k="addr:housenumber" v="7541"/><tag k="addr:street" v="Portree Drive"/><tag k="addr:postcode" v="95135"/></node>
<node visible="true" id="-669" lat="37.289353101" lon="-121.74208365800001"><tag k="addr:city" v="San Jose"/><tag k="addr:housenumber" v="7542"/><tag k="addr:street" v="Portree Drive"/><tag k="addr:postcode" v="95135"/></node>
<node visible="true" id="-670" lat="37.289447489000004" lon="-121.74201784600001"><tag k="addr:city" v="San Jose"/><tag k="addr:housenumber" v="7543"/><tag k="addr:street" v="Portree Drive"/><tag k="addr:postcode" v="95135"/></node>
<node visible="true" id="-671" lat="37.289548175" lon="-121.74231393100001"><tag k="addr:city" v="San Jose"/><tag k="addr:housenumber" v="7544"/><tag k="addr:street" v="Morevern Circle"/><tag k="addr:postcode" v="95135"/></node>
<node visible="true" id="-672" lat="37.28961618" lon="-121.74240234800001"><tag k="addr:city" v="San Jose"/><tag k="addr:housenumber" v="7545"/><tag k="addr:street" v="Morevern Circle"/><tag k="addr:postcode" v="95135"/></node>
<node visible="true" id="-673" lat="37.289699702" lon="-121.74253488800001"><tag k="addr:city" v="San Jose"/><tag k="addr:housenumber" v="7546"/><tag k="addr:street" v="Morevern Circle"/><tag k="addr:postcode" v="95135"/></node>
<node visible="true" id="-674" lat="37.289824842" lon="-121.74275760600001"><tag k="addr:city" v="San Jose"/><tag k="addr:housenumber" v="7547"/><tag k="addr:street" v="Morevern Circle"/><tag k="addr:postcode" v="95135"/></node>
<node visible="true" id="-675" lat="37.289886208000006" lon="-121.742889128"><tag k="addr:city" v="San Jose"/><tag k="addr:housenumber" v="7548"/><tag k="addr:street" v="Morevern Circle"/><tag k="addr:postcode" v="95135"/></node>
<node visible="true" id="-676" lat="37.290116608000005" lon="-121.743242976"><tag k="addr:city" v="San Jose"/><tag k="addr:housenumber" v="7549"/><tag k="addr:street" v="Morevern Circle"/><tag k="addr:postcode" v="95135"/></node>
<node visible="true" id="-677" lat="37.290219629" lon="-121.74318458200001"><tag k="addr:city" v="San Jose"/><tag k="addr:housenumber" v="7550"/><tag k="addr:street" v="Morevern Circle"/><tag k="addr:postcode" v="95135"/></node>
<node visible="true" id="-678" lat="37.290311631" lon="-121.743097793"><tag k="addr:city" v="San Jose"/><tag k="addr:housenumber" v="7551"/><tag k="addr:street" v="Morevern Circle"/><tag k="addr:postcode" v="95135"/></node>
<node visible="true" id="-679" lat="37.290419357000005" lon="-121.743043408"><tag k="addr:city" v="San Jose"/><tag k="addr:housenumber" v="7552"/><tag k="addr:street" v="Morevern Circle"/><tag k="addr:postcode" v="95135"/></node>
<node visible="true" id="-680" lat="37.290260182000004" lon="-121.742748649"><tag k="addr:city" v="San Jose"/><tag k="addr:housenumber" v="7553"/><tag k="addr:street" v="Morevern Circle"/><tag k="addr:postcode" v="95135"/></node>
<node visible="true" id="-681" lat="37.290188431000004" lon="-121.742640471"><tag k="addr:city" v="San Jose"/><tag k="addr:housenumber" v="7554"/><tag k="addr:street" v="Morevern Circle"/><tag k="addr:postcode" v="95135"/></node>
<node visible="true" id="-682" lat="37.290119551000004" lon="-121.742525877"><tag k="addr:city" v="San Jose"/><tag k="addr:housenumber" v="7555"/><tag k="addr:street" v="Morevern Circle"/><tag k="addr:postcode" v="95135"/></node>
<node visible="true" id="-683" lat="37.290049347" lon="-121.742406587"><tag k="addr:city" v="San Jose"/><tag k="addr:housenumber" v="7556"/><tag k="addr:street" v="Morevern Circle"/><tag k="addr:postcode" v="95135"/></node>
<node visible="true" id="-684" lat="37.289861868" lon="-121.74212590200001"><tag k="addr:city" v="San Jose"/><tag k="addr:housenumber" v="7557"/><tag k="addr:street" v="Morevern Circle"/><tag k="addr:postcode" v="95135"/></node>
<node visible="true" id="-685" lat="37.289803114" lon="-121.74200945000001"><tag k="addr:city" v="San Jose"/><tag k="addr:housenumber" v="7558"/><tag k="addr:street" v="Morevern Circle"/><tag k="addr:postcode" v="95135"/></node>
<node visible="true" id="-686" lat="37.289739225000005" lon="-121.74188500400001"><tag k="addr:city" v="San Jose"/><tag k="addr:housenumber" v="7559"/><tag k="addr:street" v="Morevern Circle"/><tag k="addr:postcode" v="95135"/></node>
<node visible="true" id="-687" lat="37.290267183000005" lon="-121.741684546"><tag k="addr:city" v="San Jose"/><tag k="addr:housenumber" v="7560"/><tag k="addr:street" v="Helmsdale Court"/><tag k="addr:postcode" v="95135"/></node>
<node visible="true" id="-688" lat="37.290215992" lon="-121.74179772900001"><tag k="addr:city" v="San Jose"/><tag k="addr:housenumber" v="7561"/><tag k="addr:street" v="Helmsdale Court"/><tag k="addr:postcode" v="95135"/></node>
<node visible="true" id="-689" lat="37.290267664000005" lon="-121.74191629900001"><tag k="addr:city" v="San Jose"/><tag k="addr:housenumber" v="7562"/><tag k="addr:street" v="Helmsdale Court"/><tag k="addr:postcode" v="95135"/></node>
<node visible="true" id="-690" lat="37.290311248" lon="-121.742243274"><tag k="addr:city" v="San Jose"/><tag k="addr:housenumber" v="7563"/><tag k="addr:street" v="Helmsdale Court"/><tag k="addr:postcode" v="95135"/></node>
<node visible="true" id="-691" lat="37.290367876000005" lon="-121.742339994"><tag k="addr:city" v="San Jose"/><tag k="addr:housenumber" v="7564"/><tag k="addr:street" v="Helmsdale Court"/><tag k="addr:postcode" v="95135"/></node>
<node visible="true" id="-692" lat="37.290416631" lon="-121.74245133000001"><tag k="addr:city" v="San Jose"/><tag k="addr:housenumber" v="7565"/><tag k="addr:street" v="Helmsdale Court"/><tag k="addr:postcode" v="95135"/></node>
<node visible="true" id="-693" lat="37.290471817000004" lon="-121.74255957700001"><tag k="addr:city" v="San Jose"/><tag k="addr:housenumber" v="7566"/><tag k="addr:street" v="Helmsdale Court"/><tag k="addr:postcode" v="95135"/></node>
<node visible="true" id="-694" lat="37.290650196" lon="-121.74288772800001"><tag k="addr:city" v="San Jose"/><tag k="addr:housenumber" v="7567"/><tag k="addr:street" v="Helmsdale Court"/><tag k="addr:postcode" v="95135"/></node>
<node visible="true" id="-695" lat="37.290738010000005" lon="-121.742820292"><tag k="addr:city" v="San Jose"/><tag k="addr:housenumber" v="7568"/><tag k="addr:street" v="Helmsdale Court"/><tag k="addr:postcode" v="95135"/></node>
<node visible="true" id="-696" lat="37.290811538" lon="-121.74276864100001"><tag k="addr:city" v="San Jose"/><tag k="addr:housenumber" v="7569"/><tag k="addr:street" v="Helmsdale Court"/><tag k="addr:postcode" v="95135"/></node>
<node visible="true" id="-697" lat="37.290746676000005" lon="-121.742371039"><tag k="addr:city" v="San Jose"/><tag k="addr:housenumber" v="7570"/><tag k="addr:street" v="Helmsdale Court"/><tag k="addr:postcode" v="95135"/></node>
<node visible="true" id="-698" lat="37.29067912" lon="-121.74227400000001"><tag k="addr:city" v="San Jose"/><tag k="addr:housenumber" v="7571"/><tag k="addr:street" v="Helmsdale Court"/><tag k="addr:postcode" v="95135"/></node>
<node visible="true" id="-699" lat="37.290619958" lon="-121.742144338"><tag k="addr:city" v="San Jose"/><tag k="addr:housenumber" v="7572"/><tag k="addr:street" v="Helmsdale Court"/><tag k="addr:postcode" v="95135"/></node>
<node visible="true" id="-700" lat="37.290562509000004" lon="-121.74204464900001"><tag k="addr:city" v="San Jose"/><tag k="addr:housenumber" v="7573"/><tag k="addr:street" v="Helmsdale Court"/><tag k="addr:postcode" v="95135"/></node>
<node visible="true" id="-701" lat="37.29056429" lon="-121.74167476400001"><tag k="addr:city" v="San Jose"/><tag k="addr:housenumber" v="7574"/><tag k="addr:street" v="Portree Drive"/><tag k="addr:postcode" v="95135"/></node>
<node visible="true" id="-702" lat="37.290667073" lon="-121.74168747200001"><tag k="addr:city" v="San Jose"/><tag k="addr:housenumber" v="7575"/><tag k="addr:street" v="Portree Drive"/><tag k="addr:postcode" v="95135"/></node>
<node visible="true" id="-703" lat="37.290740434" lon="-121.741703404"><tag k="addr:city" v="San Jose"/><tag k="addr:housenumber" v="7576"/><tag k="addr:street" v="Portree Drive"/><tag k="addr:postcode" v="95135"/></node>
<node visible="true" id="-704" lat="37.291012947000006" lon="-121.741746433"><tag k="addr:city" v="San Jose"/><tag k="addr:housenumber" v="7577"/><tag k="addr:street" v="Portree Drive"/><tag k="addr:postcode" v="95135"/></node>
<node visible="true" id="-705" lat="37.291100778" lon="-121.741780997"><tag k="addr:city" v="San Jose"/><tag k="addr:housenumber" v="7578"/><tag k="addr:street" v="Portree Drive"/><tag k="addr:postcode" v="95135"/></node>
<node visible="true" id="-706" lat="37.291181577" lon="-121.74178969600001"><tag k="addr:city" v="San Jose"/><tag k="addr:housenumber" v="7579"/><tag k="addr:street" v="Portree Drive"/><tag k="addr:postcode" v="95135"/></node>
<node visible="true" id="-707" lat="37.291145696" lon="-121.742261845"><tag k="addr:city" v="San Jose"/><tag k="addr:housenumber" v="7580"/><tag k="addr:street" v="Tayside Court"/><tag k="addr:postcode" v="95135"/></node>
<node visible="true" id="-708" lat="37.291090206" lon="-121.74230124900001"><tag k="addr:city" v="San Jose"/><tag k="addr:housenumber" v="7581"/><tag k="addr:street" v="Tayside Court"/><tag k="addr:postcode" v="95135"/></node>
<node visible="true" id="-709" lat="37.291065788000004" lon="-121.74272586900001"><tag k="addr:city" v="San Jose"/><tag k="addr:housenumber" v="7582"/><tag k="addr:street" v="Tayside Court"/><tag k="addr:postcode" v="95135"/></node>
<node visible="true" id="-710" lat="37.291162199000006" lon="-121.74278529700001"><tag k="addr:city" v="San Jose"/><tag k="addr:housenumber" v="7583"/><tag k="addr:street" v="Tayside Court"/><tag k="addr:postcode" v="95135"/></node>
<node visible="true" id="-711" lat="37.291253102" lon="-121.74280991"><tag k="addr:city" v="San Jose"/><tag k="addr:housenumber" v="7584"/><tag k="addr:street" v="Tayside Court"/><tag k="addr:postcode" v="95135"/></node>
<node visible="true" id="-712" lat="37.291430981000005" lon="-121.74291070800001"><tag k="addr:city" v="San Jose"/><tag k="addr:housenumber" v="7585"/><tag k="addr:street" v="Tayside Court"/><tag k="addr:postcode" v="95135"/></node>
<node visible="true" id="-713" lat="37.291627173" lon="-121.743017416"><tag k="addr:city" v="San Jose"/><tag k="addr:housenumber" v="7587"/><tag k="addr:street" v="Tayside Court"/><tag k="addr:postcode" v="95135"/></node>
<node visible="true" id="-714" lat="37.291726894" lon="-121.743070333"><tag k="addr:city" v="San Jose"/><tag k="addr:housenumber" v="7588"/><tag k="addr:street" v="Tayside Court"/><tag k="addr:postcode" v="95135"/></node>
<node visible="true" id="-715" lat="37.291886961" lon="-121.74316715900001"><tag k="addr:city" v="San Jose"/><tag k="addr:housenumber" v="7589"/><tag k="addr:street" v="Tayside Court"/><tag k="addr:postcode" v="95135"/></node>
<node visible="true" id="-716" lat="37.291966210000005" lon="-121.74321839400001"><tag k="addr:city" v="San Jose"/><tag k="addr:housenumber" v="7590"/><tag k="addr:street" v="Tayside Court"/><tag k="addr:postcode" v="95135"/></node>
<node visible="true" id="-717" lat="37.29206356" lon="-121.74329282800001"><tag k="addr:city" v="San Jose"/><tag k="addr:housenumber" v="7591"/><tag k="addr:street" v="Tayside Court"/><tag k="addr:postcode" v="95135"/></node>
<node visible="true" id="-718" lat="37.292157999000004" lon="-121.74333352100001"><tag k="addr:city" v="San Jose"/><tag k="addr:housenumber" v="7592"/><tag k="addr:street" v="Tayside Court"/><tag k="addr:postcode" v="95135"/></node>
<node visible="true" id="-719" lat="37.291447258000005" lon="-121.74238370900001"><tag k="addr:city" v="San Jose"/><tag k="addr:housenumber" v="7594"/><tag k="addr:street" v="Tayside Court"/><tag k="addr:postcode" v="95135"/></node>
<node visible="true" id="-720" lat="37.291373531000005" lon="-121.74246691900001"><tag k="addr:city" v="San Jose"/><tag k="addr:housenumber" v="7595"/><tag k="addr:street" v="Tayside Court"/><tag k="addr:postcode" v="95135"/></node>
<node visible="true" id="-721" lat="37.291407884" lon="-121.74224770400001"><tag k="addr:city" v="San Jose"/><tag k="addr:housenumber" v="7596"/><tag k="addr:street" v="Tayside Court"/><tag k="addr:postcode" v="95135"/></node>
<node visible="true" id="-722" lat="37.291438896" lon="-121.742066217"><tag k="addr:city" v="San Jose"/><tag k="addr:housenumber" v="7597"/><tag k="addr:street" v="Tayside Court"/><tag k="addr:postcode" v="95135"/></node>
<node visible="true" id="-723" lat="37.291488994000005" lon="-121.74205601300001"><tag k="addr:city" v="San Jose"/><tag k="addr:housenumber" v="7598"/><tag k="addr:street" v="Tayside Court"/><tag k="addr:postcode" v="95135"/></node>
<node visible="true" id="-724" lat="37.289244607" lon="-121.741656594"><tag k="addr:city" v="San Jose"/><tag k="addr:housenumber" v="7636"/><tag k="addr:street" v="Buckhaven Drive"/><tag k="addr:postcode" v="95135"/></node>
<node visible="true" id="-725" lat="37.289423024" lon="-121.741366936"><tag k="addr:city" v="San Jose"/><tag k="addr:housenumber" v="7637"/><tag k="addr:street" v="Falkirk Drive"/><tag k="addr:postcode" v="95135"/></node>
<node visible="true" id="-726" lat="37.289395245" lon="-121.741230615"><tag k="addr:city" v="San Jose"/><tag k="addr:housenumber" v="7638"/><tag k="addr:street" v="Falkirk Drive"/><tag k="addr:postcode" v="95135"/></node>
<node visible="true" id="-727" lat="37.289379931" lon="-121.74109972500001"><tag k="addr:city" v="San Jose"/><tag k="addr:housenumber" v="7639"/><tag k="addr:street" v="Falkirk Drive"/><tag k="addr:postcode" v="95135"/></node>
<node visible="true" id="-728" lat="37.289671749" lon="-121.739563079"><tag k="addr:city" v="San Jose"/><tag k="addr:housenumber" v="7649"/><tag k="addr:street" v="Falkirk Drive"/><tag k="addr:postcode" v="95135"/></node>
<node visible="true" id="-729" lat="37.289653559" lon="-121.739703863"><tag k="addr:city" v="San Jose"/><tag k="addr:housenumber" v="7650"/><tag k="addr:street" v="Falkirk Drive"/><tag k="addr:postcode" v="95135"/></node>
<node visible="true" id="-730" lat="37.289625141" lon="-121.74002214000001"><tag k="addr:city" v="San Jose"/><tag k="addr:housenumber" v="7651"/><tag k="addr:street" v="Falkirk Drive"/><tag k="addr:postcode" v="95135"/></node>
<node visible="true" id="-731" lat="37.289611235" lon="-121.74015254300001"><tag k="addr:city" v="San Jose"/><tag k="addr:housenumber" v="7652"/><tag k="addr:street" v="Falkirk Drive"/><tag k="addr:postcode" v="95135"/></node>
<node visible="true" id="-732" lat="37.289601448" lon="-121.740288242"><tag k="addr:city" v="San Jose"/><tag k="addr:housenumber" v="7653"/><tag k="addr:street" v="Falkirk Drive"/><tag k="addr:postcode" v="95135"/></node>
<node visible="true" id="-733" lat="37.289583203" lon="-121.74043425100001"><tag k="addr:city" v="San Jose"/><tag k="addr:housenumber" v="7654"/><tag k="addr:street" v="Falkirk Drive"/><tag k="addr:postcode" v="95135"/></node>
<node visible="true" id="-734" lat="37.289614107000006" lon="-121.740669905"><tag k="addr:city" v="San Jose"/><tag k="addr:housenumber" v="7655"/><tag k="addr:street" v="Falkirk Drive"/><tag k="addr:postcode" v="95135"/></node>
<node visible="true" id="-735" lat="37.289646171" lon="-121.740795847"><tag k="addr:city" v="San Jose"/><tag k="addr:housenumber" v="7656"/><tag k="addr:street" v="Falkirk Drive"/><tag k="addr:postcode" v="95135"/></node>
<node visible="true" id="-736" lat="37.289661318" lon="-121.74094240800001"><tag k="addr:city" v="San Jose"/><tag k="addr:housenumber" v="7657"/><tag k="addr:street" v="Falkirk Drive"/><tag k="addr:postcode" v="95135"/></node>
<node visible="true" id="-737" lat="37.289696506000006" lon="-121.741167684"><tag k="addr:city" v="San Jose"/><tag k="addr:housenumber" v="7658"/><tag k="addr:street" v="Falkirk Drive"/><tag k="addr:postcode" v="95135"/></node>
<node visible="true" id="-738" lat="37.289728516000004" lon="-121.74129885"><tag k="addr:city" v="San Jose"/><tag k="addr:housenumber" v="7659"/><tag k="addr:street" v="Falkirk Drive"/><tag k="addr:postcode" v="95135"/></node>
<node visible="true" id="-739" lat="37.289752176" lon="-121.741429878"><tag k="addr:city" v="San Jose"/><tag k="addr:housenumber" v="7660"/><tag k="addr:street" v="Falkirk Drive"/><tag k="addr:postcode" v="95135"/></node>
<node visible="true" id="-740" lat="37.290112328" lon="-121.74124273500001"><tag k="addr:city" v="San Jose"/><tag k="addr:housenumber" v="7661"/><tag k="addr:street" v="Helmsdale Drive"/><tag k="addr:postcode" v="95135"/></node>
<node visible="true" id="-741" lat="37.290054128" lon="-121.741116258"><tag k="addr:city" v="San Jose"/><tag k="addr:housenumber" v="7662"/><tag k="addr:street" v="Helmsdale Drive"/><tag k="addr:postcode" v="95135"/></node>
<node visible="true" id="-742" lat="37.289996052" lon="-121.74097801600001"><tag k="addr:city" v="San Jose"/><tag k="addr:housenumber" v="7663"/><tag k="addr:street" v="Helmsdale Drive"/><tag k="addr:postcode" v="95135"/></node>
<node visible="true" id="-743" lat="37.289950218" lon="-121.74086743500001"><tag k="addr:city" v="San Jose"/><tag k="addr:housenumber" v="7664"/><tag k="addr:street" v="Helmsdale Drive"/><tag k="addr:postcode" v="95135"/></node>
<node visible="true" id="-744" lat="37.289924760000005" lon="-121.74060814500001"><tag k="addr:city" v="San Jose"/><tag k="addr:housenumber" v="7665"/><tag k="addr:street" v="Helmsdale Drive"/><tag k="addr:postcode" v="95135"/></node>
<node visible="true" id="-745" lat="37.289920072" lon="-121.74045902300001"><tag k="addr:city" v="San Jose"/><tag k="addr:housenumber" v="7666"/><tag k="addr:street" v="Helmsdale Drive"/><tag k="addr:postcode" v="95135"/></node>
<node visible="true" id="-746" lat="37.289909036000005" lon="-121.740317641"><tag k="addr:city" v="San Jose"/><tag k="addr:housenumber" v="7667"/><tag k="addr:street" v="Helmsdale Drive"/><tag k="addr:postcode" v="95135"/></node>
<node visible="true" id="-747" lat="37.289901006" lon="-121.74018807600001"><tag k="addr:city" v="San Jose"/><tag k="addr:housenumber" v="7668"/><tag k="addr:street" v="Helmsdale Drive"/><tag k="addr:postcode" v="95135"/></node>
<node visible="true" id="-748" lat="37.289944644" lon="-121.73991424500001"><tag k="addr:city" v="San Jose"/><tag k="addr:housenumber" v="7669"/><tag k="addr:street" v="Helmsdale Drive"/><tag k="addr:postcode" v="95135"/></node>
<node visible="true" id="-749" lat="37.289996144" lon="-121.73978566400001"><tag k="addr:city" v="San Jose"/><tag k="addr:housenumber" v="7670"/><tag k="addr:street" v="Helmsdale Drive"/><tag k="addr:postcode" v="95135"/></node>
<node visible="true" id="-750" lat="37.290056919" lon="-121.73966900600001"><tag k="addr:city" v="San Jose"/><tag k="addr:housenumber" v="7671"/><tag k="addr:street" v="Helmsdale Drive"/><tag k="addr:postcode" v="95135"/></node>
<node visible="true" id="-751" lat="37.290275615000006" lon="-121.74044547800001"><tag k="addr:city" v="San Jose"/><tag k="addr:housenumber" v="7672"/><tag k="addr:street" v="Helmsdale Drive"/><tag k="addr:postcode" v="95135"/></node>
<node visible="true" id="-752" lat="37.290234542" lon="-121.74042561300001"><tag k="addr:city" v="San Jose"/><tag k="addr:housenumber" v="7673"/><tag k="addr:street" v="Helmsdale Drive"/><tag k="addr:postcode" v="95135"/></node>
<node visible="true" id="-753" lat="37.290279899000005" lon="-121.740149826"><tag k="addr:city" v="San Jose"/><tag k="addr:housenumber" v="7674"/><tag k="addr:street" v="Helmsdale Drive"/><tag k="addr:postcode" v="95135"/></node>
<node visible="true" id="-754" lat="37.290216221" lon="-121.74015320500001"><tag k="addr:city" v="San Jose"/><tag k="addr:housenumber" v="7675"/><tag k="addr:street" v="Helmsdale Drive"/><tag k="addr:postcode" v="95135"/></node>
<node visible="true" id="-755" lat="37.290486247000004" lon="-121.74114678900001"><tag k="addr:city" v="San Jose"/><tag k="addr:housenumber" v="7676"/><tag k="addr:street" v="Helmsdale Drive"/><tag k="addr:postcode" v="95135"/></node>
<node visible="true" id="-756" lat="37.290451246" lon="-121.741163087"><tag k="addr:city" v="San Jose"/><tag k="addr:housenumber" v="7677"/><tag k="addr:street" v="Helmsdale Drive"/><tag k="addr:postcode" v="95135"/></node>
<node visible="true" id="-757" lat="37.290411702" lon="-121.741113028"><tag k="addr:city" v="San Jose"/><tag k="addr:housenumber" v="7678"/><tag k="addr:street" v="Helmsdale Drive"/><tag k="addr:postcode" v="95135"/></node>
<node visible="true" id="-758" lat="37.290305114" lon="-121.740886321"><tag k="addr:city" v="San Jose"/><tag k="addr:housenumber" v="7679"/><tag k="addr:street" v="Helmsdale Drive"/><tag k="addr:postcode" v="95135"/></node>
<node visible="true" id="-759" lat="37.29119918" lon="-121.74130022700001"><tag k="addr:city" v="San Jose"/><tag k="addr:housenumber" v="7680"/><tag k="addr:street" v="Galloway Drive"/><tag k="addr:postcode" v="95135"/></node>
<node visible="true" id="-760" lat="37.290795632000005" lon="-121.74121727500001"><tag k="addr:city" v="San Jose"/><tag k="addr:housenumber" v="7681"/><tag k="addr:street" v="Galloway Drive"/><tag k="addr:postcode" v="95135"/></node>
<node visible="true" id="-761" lat="37.291155025" lon="-121.741296434"><tag k="addr:city" v="San Jose"/><tag k="addr:housenumber" v="7682"/><tag k="addr:street" v="Galloway Drive"/><tag k="addr:postcode" v="95135"/></node>
<node visible="true" id="-762" lat="37.290743771" lon="-121.74121493800001"><tag k="addr:city" v="San Jose"/><tag k="addr:housenumber" v="7683"/><tag k="addr:street" v="Galloway Drive"/><tag k="addr:postcode" v="95135"/></node>
<node visible="true" id="-763" lat="37.291118136" lon="-121.74121620000001"><tag k="addr:city" v="San Jose"/><tag k="addr:housenumber" v="7684"/><tag k="addr:street" v="Galloway Drive"/><tag k="addr:postcode" v="95135"/></node>
<node visible="true" id="-764" lat="37.290691216" lon="-121.740839991"><tag k="addr:city" v="San Jose"/><tag k="addr:housenumber" v="7685"/><tag k="addr:street" v="Galloway Drive"/><tag k="addr:postcode" v="95135"/></node>
<node visible="true" id="-765" lat="37.291029937000005" lon="-121.74083007200001"><tag k="addr:city" v="San Jose"/><tag k="addr:housenumber" v="7686"/><tag k="addr:street" v="Galloway Drive"/><tag k="addr:postcode" v="95135"/></node>
<node visible="true" id="-766" lat="37.290650744000004" lon="-121.74082309100001"><tag k="addr:city" v="San Jose"/><tag k="addr:housenumber" v="7687"/><tag k="addr:street" v="Galloway Drive"/><tag k="addr:postcode" v="95135"/></node>
<node visible="true" id="-767" lat="37.290986592" lon="-121.740804291"><tag k="addr:city" v="San Jose"/><tag k="addr:housenumber" v="7688"/><tag k="addr:street" v="Galloway Drive"/><tag k="addr:postcode" v="95135"/></node>
<node visible="true" id="-768" lat="37.290614850000004" lon="-121.74081734"><tag k="addr:city" v="San Jose"/><tag k="addr:housenumber" v="7689"/><tag k="addr:street" v="Galloway Drive"/><tag k="addr:postcode" v="95135"/></node>
<node visible="true" id="-769" lat="37.290951758000006" lon="-121.740641478"><tag k="addr:city" v="San Jose"/><tag k="addr:housenumber" v="7690"/><tag k="addr:street" v="Galloway Drive"/><tag k="addr:postcode" v="95135"/></node>
<node visible="true" id="-770" lat="37.290646634000005" lon="-121.740542082"><tag k="addr:city" v="San Jose"/><tag k="addr:housenumber" v="7691"/><tag k="addr:street" v="Galloway Drive"/><tag k="addr:postcode" v="95135"/></node>
<node visible="true" id="-771" lat="37.290913372000006" lon="-121.74024861500001"><tag k="addr:city" v="San Jose"/><tag k="addr:housenumber" v="7692"/><tag k="addr:street" v="Galloway Drive"/><tag k="addr:postcode" v="95135"/></node>
<node visible="true" id="-772" lat="37.290679075" lon="-121.74015018600001"><tag k="addr:city" v="San Jose"/><tag k="addr:housenumber" v="7693"/><tag k="addr:street" v="Galloway Drive"/><tag k="addr:postcode" v="95135"/></node>
<node visible="true" id="-773" lat="37.290954869000004" lon="-121.74010903800001"><tag k="addr:city" v="San Jose"/><tag k="addr:housenumber" v="7694"/><tag k="addr:street" v="Galloway Drive"/><tag k="addr:postcode" v="95135"/></node>
<node visible="true" id="-774" lat="37.290628385000005" lon="-121.74015144500001"><tag k="addr:city" v="San Jose"/><tag k="addr:housenumber" v="7695"/><tag k="addr:street" v="Galloway Drive"/><tag k="addr:postcode" v="95135"/></node>
<node visible="true" id="-775" lat="37.290993599000004" lon="-121.74010634300001"><tag k="addr:city" v="San Jose"/><tag k="addr:housenumber" v="7696"/><tag k="addr:street" v="Galloway Drive"/><tag k="addr:postcode" v="95135"/></node>
<node visible="true" id="-776" lat="37.290885757000005" lon="-121.73975660900001"><tag k="addr:city" v="San Jose"/><tag k="addr:housenumber" v="7698"/><tag k="addr:street" v="Galloway Drive"/><tag k="addr:postcode" v="95135"/></node>
<node visible="true" id="-777" lat="37.290427029" lon="-121.739894152"><tag k="addr:city" v="San Jose"/><tag k="addr:housenumber" v="7699"/><tag k="addr:street" v="Galloway Drive"/><tag k="addr:postcode" v="95135"/></node>
<node visible="true" id="-778" lat="37.290768131" lon="-121.739669469"><tag k="addr:city" v="San Jose"/><tag k="addr:housenumber" v="7700"/><tag k="addr:street" v="Galloway Drive"/><tag k="addr:postcode" v="95135"/></node>
<node visible="true" id="-779" lat="37.290374248" lon="-121.73986969200001"><tag k="addr:city" v="San Jose"/><tag k="addr:housenumber" v="7701"/><tag k="addr:street" v="Galloway Drive"/><tag k="addr:postcode" v="95135"/></node>
<node visible="true" id="-780" lat="37.290518815000006" lon="-121.739482408"><tag k="addr:city" v="San Jose"/><tag k="addr:housenumber" v="7702"/><tag k="addr:street" v="Galloway Drive"/><tag k="addr:postcode" v="95135"/></node>
<node visible="true" id="-781" lat="37.290453432" lon="-121.73942625000001"><tag k="addr:city" v="San Jose"/><tag k="addr:housenumber" v="7704"/><tag k="addr:street" v="Galloway Drive"/><tag k="addr:postcode" v="95135"/></node>
<node visible="true" id="-782" lat="37.290085184000006" lon="-121.73922078700001"><tag k="addr:city" v="San Jose"/><tag k="addr:housenumber" v="7706"/><tag k="addr:street" v="Galloway Drive"/><tag k="addr:postcode" v="95135"/></node>
<node visible="true" id="-783" lat="37.289916982" lon="-121.739191597"><tag k="addr:city" v="San Jose"/><tag k="addr:housenumber" v="7708"/><tag k="addr:street" v="Galloway Drive"/><tag k="addr:postcode" v="95135"/></node>
<node visible="true" id="-784" lat="37.289639647" lon="-121.73918102"><tag k="addr:city" v="San Jose"/><tag k="addr:housenumber" v="7727"/><tag k="addr:street" v="Kilmarnok Drive"/><tag k="addr:postcode" v="95135"/></node>
<node visible="true" id="-785" lat="37.289877967" lon="-121.73916664500001"><tag k="addr:city" v="San Jose"/><tag k="addr:housenumber" v="7729"/><tag k="addr:street" v="Kilmarnok Drive"/><tag k="addr:postcode" v="95135"/></node>
<node visible="true" id="-786" lat="37.28987688" lon="-121.738768354"><tag k="addr:city" v="San Jose"/><tag k="addr:housenumber" v="7730"/><tag k="addr:street" v="Kilmarnok Drive"/><tag k="addr:postcode" v="95135"/></node>
<node visible="true" id="-787" lat="37.290051500000004" lon="-121.73921641300001"><tag k="addr:city" v="San Jose"/><tag k="addr:housenumber" v="7731"/><tag k="addr:street" v="Kilmarnok Drive"/><tag k="addr:postcode" v="95135"/></node>
<node visible="true" id="-788" lat="37.290082691" lon="-121.73877351700001"><tag k="addr:city" v="San Jose"/><tag k="addr:housenumber" v="7732"/><tag k="addr:street" v="Kilmarnok Drive"/><tag k="addr:postcode" v="95135"/></node>
<node visible="true" id="-789" lat="37.290123616" lon="-121.73922537700001"><tag k="addr:city" v="San Jose"/><tag k="addr:housenumber" v="7733"/><tag k="addr:street" v="Kilmarnok Drive"/><tag k="addr:postcode" v="95135"/></node>
<node visible="true" id="-790" lat="37.290321636" lon="-121.73936727300001"><tag k="addr:city" v="San Jose"/><tag k="addr:housenumber" v="7735"/><tag k="addr:street" v="Kilmarnok Drive"/><tag k="addr:postcode" v="95135"/></node>
<node visible="true" id="-791" lat="37.290292135" lon="-121.73887943400001"><tag k="addr:city" v="San Jose"/><tag k="addr:housenumber" v="7736"/><tag k="addr:street" v="Kilmarnok Drive"/><tag k="addr:postcode" v="95135"/></node>
<node visible="true" id="-792" lat="37.29048753" lon="-121.73945899300001"><tag k="addr:city" v="San Jose"/><tag k="addr:housenumber" v="7737"/><tag k="addr:street" v="Kilmarnok Drive"/><tag k="addr:postcode" v="95135"/></node>
<node visible="true" id="-793" lat="37.290462513" lon="-121.738985908"><tag k="addr:city" v="San Jose"/><tag k="addr:housenumber" v="7738"/><tag k="addr:street" v="Kilmarnok Drive"/><tag k="addr:postcode" v="95135"/></node>
<node visible="true" id="-794" lat="37.290557404000005" lon="-121.739469639"><tag k="addr:city" v="San Jose"/><tag k="addr:housenumber" v="7739"/><tag k="addr:street" v="Kilmarnok Drive"/><tag k="addr:postcode" v="95135"/></node>
<node visible="true" id="-795" lat="37.290822711000004" lon="-121.73928247900001"><tag k="addr:city" v="San Jose"/><tag k="addr:housenumber" v="7744"/><tag k="addr:street" v="Kilmarnok Drive"/><tag k="addr:postcode" v="95135"/></node>
<node visible="true" id="-796" lat="37.290922941000005" lon="-121.73975722600001"><tag k="addr:city" v="San Jose"/><tag k="addr:housenumber" v="7745"/><tag k="addr:street" v="Kilmarnok Drive"/><tag k="addr:postcode" v="95135"/></node>
<node visible="true" id="-797" lat="37.291040758" lon="-121.73942150900001"><tag k="addr:city" v="San Jose"/><tag k="addr:housenumber" v="7746"/><tag k="addr:street" v="Kilmarnok Drive"/><tag k="addr:postcode" v="95135"/></node>
<node visible="true" id="-798" lat="37.291195259000006" lon="-121.739538448"><tag k="addr:city" v="San Jose"/><tag k="addr:housenumber" v="7748"/><tag k="addr:street" v="Kilmarnok Drive"/><tag k="addr:postcode" v="95135"/></node>
<node visible="true" id="-799" lat="37.291726516000004" lon="-121.739313924"><tag k="addr:city" v="San Jose"/><tag k="addr:housenumber" v="7750"/><tag k="addr:street" v="Beltane Drive"/><tag k="addr:postcode" v="95135"/></node>
<node visible="true" id="-800" lat="37.291555609" lon="-121.73924694"><tag k="addr:city" v="San Jose"/><tag k="addr:housenumber" v="7752"/><tag k="addr:street" v="Beltane Drive"/><tag k="addr:postcode" v="95135"/></node>
<node visible="true" id="-801" lat="37.291238483" lon="-121.739565225"><tag k="addr:city" v="San Jose"/><tag k="addr:housenumber" v="7753"/><tag k="addr:street" v="Beltane Drive"/><tag k="addr:postcode" v="95135"/></node>
<node visible="true" id="-802" lat="37.291319953000006" lon="-121.739128999"><tag k="addr:city" v="San Jose"/><tag k="addr:housenumber" v="7754"/><tag k="addr:street" v="Beltane Drive"/><tag k="addr:postcode" v="95135"/></node>
<node visible="true" id="-803" lat="37.291158451" lon="-121.73950236"><tag k="addr:city" v="San Jose"/><tag k="addr:housenumber" v="7755"/><tag k="addr:street" v="Beltane Drive"/><tag k="addr:postcode" v="95135"/></node>
<node visible="true" id="-804" lat="37.291168258" lon="-121.73899608800001"><tag k="addr:city" v="San Jose"/><tag k="addr:housenumber" v="7756"/><tag k="addr:street" v="Beltane Drive"/><tag k="addr:postcode" v="95135"/></node>
<node visible="true" id="-805" lat="37.291004818000005" lon="-121.739420158"><tag k="addr:city" v="San Jose"/><tag k="addr:housenumber" v="7757"/><tag k="addr:street" v="Beltane Drive"/><tag k="addr:postcode" v="95135"/></node>
<node visible="true" id="-806" lat="37.290858673" lon="-121.73928180300001"><tag k="addr:city" v="San Jose"/><tag k="addr:housenumber" v="7759"/><tag k="addr:street" v="Beltane Drive"/><tag k="addr:postcode" v="95135"/></node>
<node visible="true" id="-807" lat="37.290938361" lon="-121.738839877"><tag k="addr:city" v="San Jose"/><tag k="addr:housenumber" v="7760"/><tag k="addr:street" v="Beltane Drive"/><tag k="addr:postcode" v="95135"/></node>
<node visible="true" id="-808" lat="37.290791368" lon="-121.739264633"><tag k="addr:city" v="San Jose"/><tag k="addr:housenumber" v="7761"/><tag k="addr:street" v="Beltane Drive"/><tag k="addr:postcode" v="95135"/></node>
<node visible="true" id="-809" lat="37.290792432" lon="-121.738719954"><tag k="addr:city" v="San Jose"/><tag k="addr:housenumber" v="7762"/><tag k="addr:street" v="Beltane Drive"/><tag k="addr:postcode" v="95135"/></node>
<node visible="true" id="-810" lat="37.290631233" lon="-121.73914285500001"><tag k="addr:city" v="San Jose"/><tag k="addr:housenumber" v="7763"/><tag k="addr:street" v="Beltane Drive"/><tag k="addr:postcode" v="95135"/></node>
<node visible="true" id="-811" lat="37.290511107" lon="-121.73897457400001"><tag k="addr:city" v="San Jose"/><tag k="addr:housenumber" v="7765"/><tag k="addr:street" v="Beltane Drive"/><tag k="addr:postcode" v="95135"/></node>
<node visible="true" id="-812" lat="37.290595999000004" lon="-121.738596856"><tag k="addr:city" v="San Jose"/><tag k="addr:housenumber" v="7766"/><tag k="addr:street" v="Beltane Drive"/><tag k="addr:postcode" v="95135"/></node>
<node visible="true" id="-813" lat="37.290427993" lon="-121.73897240900001"><tag k="addr:city" v="San Jose"/><tag k="addr:housenumber" v="7767"/><tag k="addr:street" v="Beltane Drive"/><tag k="addr:postcode" v="95135"/></node>
<node visible="true" id="-814" lat="37.29043747" lon="-121.738450185"><tag k="addr:city" v="San Jose"/><tag k="addr:housenumber" v="7768"/><tag k="addr:street" v="Beltane Drive"/><tag k="addr:postcode" v="95135"/></node>
<node visible="true" id="-815" lat="37.290256214" lon="-121.73887883900001"><tag k="addr:city" v="San Jose"/><tag k="addr:housenumber" v="7769"/><tag k="addr:street" v="Beltane Drive"/><tag k="addr:postcode" v="95135"/></node>
<node visible="true" id="-816" lat="37.290120919" lon="-121.73877150300001"><tag k="addr:city" v="San Jose"/><tag k="addr:housenumber" v="7771"/><tag k="addr:street" v="Beltane Drive"/><tag k="addr:postcode" v="95135"/></node>
<node visible="true" id="-817" lat="37.2901959" lon="-121.738371927"><tag k="addr:city" v="San Jose"/><tag k="addr:housenumber" v="7772"/><tag k="addr:street" v="Beltane Drive"/><tag k="addr:postcode" v="95135"/></node>
<node visible="true" id="-818" lat="37.289908666" lon="-121.738772869"><tag k="addr:city" v="San Jose"/><tag k="addr:housenumber" v="7773"/><tag k="addr:street" v="Beltane Drive"/><tag k="addr:postcode" v="95135"/></node>
<node visible="true" id="-819" lat="37.290005344" lon="-121.738347492"><tag k="addr:city" v="San Jose"/><tag k="addr:housenumber" v="7774"/><tag k="addr:street" v="Beltane Drive"/><tag k="addr:postcode" v="95135"/></node>
<node visible="true" id="-820" lat="37.289843034" lon="-121.738758512"><tag k="addr:city" v="San Jose"/><tag k="addr:housenumber" v="7775"/><tag k="addr:street" v="Beltane Drive"/><tag k="addr:postcode" v="95135"/></node>
<node visible="true" id="-821" lat="37.289784345" lon="-121.738336888"><tag k="addr:city" v="San Jose"/><tag k="addr:housenumber" v="7801"/><tag k="addr:street" v="Prestwick Circle"/><tag k="addr:postcode" v="95135"/></node>
<node visible="true" id="-822" lat="37.289971335000004" lon="-121.73834541500001"><tag k="addr:city" v="San Jose"/><tag k="addr:housenumber" v="7803"/><tag k="addr:street" v="Prestwick Circle"/><tag k="addr:postcode" v="95135"/></node>
<node visible="true" id="-823" lat="37.290182357" lon="-121.73792777400001"><tag k="addr:city" v="San Jose"/><tag k="addr:housenumber" v="7804"/><tag k="addr:street" v="Prestwick Circle"/><tag k="addr:postcode" v="95135"/></node>
<node visible="true" id="-824" lat="37.290105036" lon="-121.73834621900001"><tag k="addr:city" v="San Jose"/><tag k="addr:housenumber" v="7805"/><tag k="addr:street" v="Prestwick Circle"/><tag k="addr:postcode" v="95135"/></node>
<node visible="true" id="-825" lat="37.290352148000004" lon="-121.737962694"><tag k="addr:city" v="San Jose"/><tag k="addr:housenumber" v="7806"/><tag k="addr:street" v="Prestwick Circle"/><tag k="addr:postcode" v="95135"/></node>
<node visible="true" id="-826" lat="37.290227498" lon="-121.738370938"><tag k="addr:city" v="San Jose"/><tag k="addr:housenumber" v="7807"/><tag k="addr:street" v="Prestwick Circle"/><tag k="addr:postcode" v="95135"/></node>
<node visible="true" id="-827" lat="37.290406399000005" lon="-121.73844822500001"><tag k="addr:city" v="San Jose"/><tag k="addr:housenumber" v="7809"/><tag k="addr:street" v="Prestwick Circle"/><tag k="addr:postcode" v="95135"/></node>
<node visible="true" id="-828" lat="37.290632466000005" lon="-121.73810663600001"><tag k="addr:city" v="San Jose"/><tag k="addr:housenumber" v="7810"/><tag k="addr:street" v="Prestwick Circle"/><tag k="addr:postcode" v="95135"/></node>
<node visible="true" id="-829" lat="37.290514955" lon="-121.73851513700001"><tag k="addr:city" v="San Jose"/><tag k="addr:housenumber" v="7811"/><tag k="addr:street" v="Prestwick Circle"/><tag k="addr:postcode" v="95135"/></node>
<node visible="true" id="-830" lat="37.290777176" lon="-121.73823537300001"><tag k="addr:city" v="San Jose"/><tag k="addr:housenumber" v="7812"/><tag k="addr:street" v="Prestwick Circle"/><tag k="addr:postcode" v="95135"/></node>
<node visible="true" id="-831" lat="37.290630176" lon="-121.738552217"><tag k="addr:city" v="San Jose"/><tag k="addr:housenumber" v="7813"/><tag k="addr:street" v="Prestwick Circle"/><tag k="addr:postcode" v="95135"/></node>
<node visible="true" id="-832" lat="37.29075762" lon="-121.73871332600001"><tag k="addr:city" v="San Jose"/><tag k="addr:housenumber" v="7815"/><tag k="addr:street" v="Prestwick Circle"/><tag k="addr:postcode" v="95135"/></node>
<node visible="true" id="-833" lat="37.291017051000004" lon="-121.738390819"><tag k="addr:city" v="San Jose"/><tag k="addr:housenumber" v="7816"/><tag k="addr:street" v="Prestwick Circle"/><tag k="addr:postcode" v="95135"/></node>
<node visible="true" id="-834" lat="37.290865021" lon="-121.73876994000001"><tag k="addr:city" v="San Jose"/><tag k="addr:housenumber" v="7817"/><tag k="addr:street" v="Prestwick Circle"/><tag k="addr:postcode" v="95135"/></node>
<node visible="true" id="-835" lat="37.291177579" lon="-121.73852497600001"><tag k="addr:city" v="San Jose"/><tag k="addr:housenumber" v="7818"/><tag k="addr:street" v="Prestwick Circle"/><tag k="addr:postcode" v="95135"/></node>
<node visible="true" id="-836" lat="37.290981623" lon="-121.73887088100001"><tag k="addr:city" v="San Jose"/><tag k="addr:housenumber" v="7819"/><tag k="addr:street" v="Prestwick Circle"/><tag k="addr:postcode" v="95135"/></node>
<node visible="true" id="-837" lat="37.291403362000004" lon="-121.738657223"><tag k="addr:city" v="San Jose"/><tag k="addr:housenumber" v="7822"/><tag k="addr:street" v="Prestwick Circle"/><tag k="addr:postcode" v="95135"/></node>
<node visible="true" id="-838" lat="37.291247513" lon="-121.739046665"><tag k="addr:city" v="San Jose"/><tag k="addr:housenumber" v="7823"/><tag k="addr:street" v="Prestwick Circle"/><tag k="addr:postcode" v="95135"/></node>
<node visible="true" id="-839" lat="37.291553565" lon="-121.73880661300001"><tag k="addr:city" v="San Jose"/><tag k="addr:housenumber" v="7824"/><tag k="addr:street" v="Prestwick Circle"/><tag k="addr:postcode" v="95135"/></node>
<node visible="true" id="-840" lat="37.291352437" lon="-121.739137686"><tag k="addr:city" v="San Jose"/><tag k="addr:housenumber" v="7825"/><tag k="addr:street" v="Prestwick Circle"/><tag k="addr:postcode" v="95135"/></node>
<node visible="true" id="-841" lat="37.291503569" lon="-121.739235522"><tag k="addr:city" v="San Jose"/><tag k="addr:housenumber" v="7827"/><tag k="addr:street" v="Prestwick Circle"/><tag k="addr:postcode" v="95135"/></node>
<node visible="true" id="-842" lat="37.29163743" lon="-121.73927325400001"><tag k="addr:city" v="San Jose"/><tag k="addr:housenumber" v="7829"/><tag k="addr:street" v="Prestwick Circle"/><tag k="addr:postcode" v="95135"/></node>
<node visible="true" id="-843" lat="37.291588131000005" lon="-121.73880282"><tag k="addr:city" v="San Jose"/><tag k="addr:housenumber" v="7833"/><tag k="addr:street" v="Prestwick Circle"/><tag k="addr:postcode" v="95135"/></node>
<node visible="true" id="-844" lat="37.291477241" lon="-121.738712594"><tag k="addr:city" v="San Jose"/><tag k="addr:housenumber" v="7835"/><tag k="addr:street" v="Prestwick Circle"/><tag k="addr:postcode" v="95135"/></node>
<node visible="true" id="-845" lat="37.291371559000005" lon="-121.738661991"><tag k="addr:city" v="San Jose"/><tag k="addr:housenumber" v="7837"/><tag k="addr:street" v="Prestwick Circle"/><tag k="addr:postcode" v="95135"/></node>
<node visible="true" id="-846" lat="37.291091322" lon="-121.73844798300001"><tag k="addr:city" v="San Jose"/><tag k="addr:housenumber" v="7841"/><tag k="addr:street" v="Prestwick Circle"/><tag k="addr:postcode" v="95135"/></node>
<node visible="true" id="-847" lat="37.290698789000004" lon="-121.738164803"><tag k="addr:city" v="San Jose"/><tag k="addr:housenumber" v="7847"/><tag k="addr:street" v="Prestwick Circle"/><tag k="addr:postcode" v="95135"/></node>
<node visible="true" id="-848" lat="37.290596593000004" lon="-121.73810418500001"><tag k="addr:city" v="San Jose"/><tag k="addr:housenumber" v="7849"/><tag k="addr:street" v="Prestwick Circle"/><tag k="addr:postcode" v="95135"/></node>
<node visible="true" id="-849" lat="37.290386131000005" lon="-121.737964597"><tag k="addr:city" v="San Jose"/><tag k="addr:housenumber" v="7851"/><tag k="addr:street" v="Prestwick Circle"/><tag k="addr:postcode" v="95135"/></node>
<node visible="true" id="-850" lat="37.290260474" lon="-121.73792765700001"><tag k="addr:city" v="San Jose"/><tag k="addr:housenumber" v="7853"/><tag k="addr:street" v="Prestwick Circle"/><tag k="addr:postcode" v="95135"/></node>
<node visible="true" id="-851" lat="37.290148314" lon="-121.737928757"><tag k="addr:city" v="San Jose"/><tag k="addr:housenumber" v="7855"/><tag k="addr:street" v="Prestwick Circle"/><tag k="addr:postcode" v="95135"/></node>
<node visible="true" id="-852" lat="37.290736161000005" lon="-121.738195074"><tag k="addr:city" v="San Jose"/><tag k="addr:housenumber" v="7845"/><tag k="addr:street" v="Prestwick Circle"/><tag k="addr:postcode" v="95135"/></node>
<node visible="true" id="-854" lat="37.292052906" lon="-121.740069418"/>
<node visible="true" id="-855" lat="37.292070035" lon="-121.740137876"/>
<node visible="true" id="-856" lat="37.292106309000005" lon="-121.74019338000001"/>
<node visible="true" id="-857" lat="37.292156509" lon="-121.740227974"/>
<node visible="true" id="-858" lat="37.292213385000004" lon="-121.74023661800001"/>
<node visible="true" id="-859" lat="37.292268735" lon="-121.74021807700001"/>
<node visible="true" id="-860" lat="37.292314566" lon="-121.74017503900001"/>
<node visible="true" id="-861" lat="37.292344276" lon="-121.74011371700001"/>
<node visible="true" id="-862" lat="37.292353567" lon="-121.74004294800001"/>
<node visible="true" id="-863" lat="37.29234107" lon="-121.73997291600001"/>
<node visible="true" id="-864" lat="37.292308624" lon="-121.739913829"/>
<node visible="true" id="-865" lat="37.292260895000005" lon="-121.73987412100001"/>
<node visible="true" id="-866" lat="37.292204797000004" lon="-121.73985954300001"/>
<node visible="true" id="-867" lat="37.292179696000005" lon="-121.739861773"/>
<node visible="true" id="-868" lat="37.292125768000005" lon="-121.73988601"/>
<node visible="true" id="-869" lat="37.292082963000006" lon="-121.739933706"/>
<node visible="true" id="-870" lat="37.292057454" lon="-121.73999791600001"/>
<way visible="true" id="-1"><nd ref="-2"/><nd ref="-3"/><nd ref="-4"/><nd ref="-5"/><nd ref="-6"/><nd ref="-7"/><nd ref="-8"/><nd ref="-9"/><nd ref="-10"/><nd ref="-11"/><nd ref="-12"/><nd ref="-13"/><nd ref="-14"/><nd ref="-15"/><nd ref="-16"/><nd ref="-17"/><nd ref="-18"/><nd ref="-19"/><nd ref="-20"/><nd ref="-21"/><nd ref="-22"/><nd ref="-23"/><nd ref="-24"/><nd ref="-25"/><nd ref="-26"/><nd ref="-2"/><tag k="building" v="yes"/><tag k="height" v="3.89"/><tag k="ele" v="113.71"/></way>
<way visible="true" id="-27"><nd ref="-28"/><nd ref="-29"/><nd ref="-30"/><nd ref="-31"/><nd ref="-32"/><nd ref="-33"/><nd ref="-34"/><nd ref="-35"/><nd ref="-28"/><tag k="building" v="yes"/><tag k="height" v="3.86"/><tag k="ele" v="111.66"/></way>
<way visible="true" id="-36"><nd ref="-37"/><nd ref="-38"/><nd ref="-39"/><nd ref="-40"/><nd ref="-41"/><nd ref="-42"/><nd ref="-43"/><nd ref="-44"/><nd ref="-45"/><nd ref="-46"/><nd ref="-47"/><nd ref="-48"/><nd ref="-49"/><nd ref="-50"/><nd ref="-51"/><nd ref="-52"/><nd ref="-53"/><nd ref="-54"/><nd ref="-55"/><nd ref="-56"/><nd ref="-57"/><nd ref="-58"/><nd ref="-59"/><nd ref="-60"/><nd ref="-61"/><nd ref="-62"/><nd ref="-63"/><nd ref="-64"/><nd ref="-37"/><tag k="building" v="yes"/><tag k="height" v="6.59"/><tag k="ele" v="222.31"/></way>
<way visible="true" id="-853"><nd ref="-854"/><nd ref="-855"/><nd ref="-856"/><nd ref="-857"/><nd ref="-858"/><nd ref="-859"/><nd ref="-860"/><nd ref="-861"/><nd ref="-862"/><nd ref="-863"/><nd ref="-864"/><nd ref="-865"/><nd ref="-866"/><nd ref="-867"/><nd ref="-868"/><nd ref="-869"/><nd ref="-870"/><nd ref="-854"/><tag k="building" v="yes"/><tag k="height" v="11.89"/><tag k="ele" v="226.49"/><tag k="addr:city" v="San Jose"/><tag k="addr:housenumber" v="7920"/><tag k="addr:street" v="Caledonia Drive"/><tag k="addr:postcode" v="95135"/></way>
</osm>