<?xml version="1.0"?>
<osm version="0.6" generator="uvmogr2osm" upload="false">
<node visible="true" id="-1" lat="37.260128164" lon="-121.81688249400001"><tag k="addr:city" v="San Jose"/><tag k="addr:housenumber" v="31"/><tag k="addr:street" v="Cherry Crest Lane"/><tag k="addr:postcode" v="95136"/></node>
<node visible="true" id="-2" lat="37.260098355000004" lon="-121.81695392900001"><tag k="addr:city" v="San Jose"/><tag k="addr:housenumber" v="33"/><tag k="addr:street" v="Cherry Crest Lane"/><tag k="addr:postcode" v="95136"/></node>
<node visible="true" id="-3" lat="37.260474957" lon="-121.818496706"><tag k="addr:city" v="San Jose"/><tag k="addr:housenumber" v="68"/><tag k="addr:street" v="Cherry Ridge Court"/><tag k="addr:postcode" v="95136"/></node>
<node visible="true" id="-4" lat="37.260557166000005" lon="-121.818569908"><tag k="addr:city" v="San Jose"/><tag k="addr:housenumber" v="72"/><tag k="addr:street" v="Cherry Ridge Court"/><tag k="addr:postcode" v="95136"/></node>
<node visible="true" id="-5" lat="37.26005586" lon="-121.818381689"><tag k="addr:city" v="San Jose"/><tag k="addr:housenumber" v="72"/><tag k="addr:street" v="Cherry Ridge Lane"/><tag k="addr:postcode" v="95136"/></node>
<node visible="true" id="-6" lat="37.260056914" lon="-121.819205088"><tag k="addr:city" v="San Jose"/><tag k="addr:housenumber" v="100"/><tag k="addr:street" v="Cherry Ridge Lane"/><tag k="addr:postcode" v="95136"/></node>
<node visible="true" id="-7" lat="37.259806905000005" lon="-121.81687264800001"><tag k="addr:city" v="San Jose"/><tag k="addr:housenumber" v="30"/><tag k="addr:street" v="Cherry Crest Lane"/><tag k="addr:postcode" v="95136"/></node>
<node visible="true" id="-8" lat="37.259831166000005" lon="-121.816952627"><tag k="addr:city" v="San Jose"/><tag k="addr:housenumber" v="32"/><tag k="addr:street" v="Cherry Crest Lane"/><tag k="addr:postcode" v="95136"/></node>
<node visible="true" id="-9" lat="37.260467663" lon="-121.817026616"><tag k="addr:city" v="San Jose"/><tag k="addr:housenumber" v="28"/><tag k="addr:street" v="Cherryton Lane"/><tag k="addr:postcode" v="95136"/></node>
<node visible="true" id="-10" lat="37.2604989" lon="-121.81702596400001"><tag k="addr:city" v="San Jose"/><tag k="addr:housenumber" v="30"/><tag k="addr:street" v="Cherryton Lane"/><tag k="addr:postcode" v="95136"/></node>
<node visible="true" id="-11" lat="37.260469782" lon="-121.81687472700001"><tag k="addr:city" v="San Jose"/><tag k="addr:housenumber" v="22"/><tag k="addr:street" v="Cherryton Lane"/><tag k="addr:postcode" v="95136"/></node>
<node visible="true" id="-12" lat="37.259218873" lon="-121.81448311400001"><tag k="addr:city" v="San Jose"/><tag k="addr:housenumber" v="54"/><tag k="addr:street" v="Country Fields Lane"/><tag k="addr:postcode" v="95136"/></node>
<node visible="true" id="-13" lat="37.260515939" lon="-121.81692753300001"><tag k="addr:city" v="San Jose"/><tag k="addr:housenumber" v="24"/><tag k="addr:street" v="Cherryton Lane"/><tag k="addr:postcode" v="95136"/></node>
<node visible="true" id="-14" lat="37.260439216" lon="-121.81695738600001"><tag k="addr:city" v="San Jose"/><tag k="addr:housenumber" v="26"/><tag k="addr:street" v="Cherryton Lane"/><tag k="addr:postcode" v="95136"/></node>
<node visible="true" id="-15" lat="37.260804712" lon="-121.81690514"><tag k="addr:city" v="San Jose"/><tag k="addr:housenumber" v="510"/><tag k="addr:street" v="Saddle Brook Drive"/><tag k="addr:unit" v="25"/><tag k="addr:postcode" v="95136"/></node>
<node visible="true" id="-16" lat="37.260056911" lon="-121.818246895"><tag k="addr:city" v="San Jose"/><tag k="addr:housenumber" v="66"/><tag k="addr:street" v="Cherry Ridge Lane"/><tag k="addr:postcode" v="95136"/></node>
<node visible="true" id="-17" lat="37.260115162000005" lon="-121.81831101600001"><tag k="addr:city" v="San Jose"/><tag k="addr:housenumber" v="70"/><tag k="addr:street" v="Cherry Ridge Lane"/><tag k="addr:postcode" v="95136"/></node>
<node visible="true" id="-18" lat="37.260035586" lon="-121.818172257"><tag k="addr:city" v="San Jose"/><tag k="addr:housenumber" v="62"/><tag k="addr:street" v="Cherry Ridge Lane"/><tag k="addr:postcode" v="95136"/></node>
<node visible="true" id="-19" lat="37.260094625" lon="-121.81820790200001"><tag k="addr:city" v="San Jose"/><tag k="addr:housenumber" v="64"/><tag k="addr:street" v="Cherry Ridge Lane"/><tag k="addr:postcode" v="95136"/></node>
<node visible="true" id="-20" lat="37.260034446" lon="-121.81831495300001"><tag k="addr:city" v="San Jose"/><tag k="addr:housenumber" v="68"/><tag k="addr:street" v="Cherry Ridge Lane"/><tag k="addr:postcode" v="95136"/></node>
<node visible="true" id="-21" lat="37.260092627" lon="-121.818385293"><tag k="addr:city" v="San Jose"/><tag k="addr:housenumber" v="74"/><tag k="addr:street" v="Cherry Ridge Lane"/><tag k="addr:postcode" v="95136"/></node>
<node visible="true" id="-22" lat="37.260111212000005" lon="-121.818493594"><tag k="addr:city" v="San Jose"/><tag k="addr:housenumber" v="78"/><tag k="addr:street" v="Cherry Ridge Lane"/><tag k="addr:postcode" v="95136"/></node>
<node visible="true" id="-23" lat="37.260058248" lon="-121.819047549"><tag k="addr:city" v="San Jose"/><tag k="addr:housenumber" v="92"/><tag k="addr:street" v="Cherry Ridge Lane"/><tag k="addr:postcode" v="95136"/></node>
<node visible="true" id="-24" lat="37.260033465" lon="-121.818984912"><tag k="addr:city" v="San Jose"/><tag k="addr:housenumber" v="88"/><tag k="addr:street" v="Cherry Ridge Lane"/><tag k="addr:postcode" v="95136"/></node>
<node visible="true" id="-25" lat="37.260112279000005" lon="-121.818981558"><tag k="addr:city" v="San Jose"/><tag k="addr:housenumber" v="90"/><tag k="addr:street" v="Cherry Ridge Lane"/><tag k="addr:postcode" v="95136"/></node>
<node visible="true" id="-26" lat="37.260059259" lon="-121.818913991"><tag k="addr:city" v="San Jose"/><tag k="addr:housenumber" v="86"/><tag k="addr:street" v="Cherry Ridge Lane"/><tag k="addr:postcode" v="95136"/></node>
<node visible="true" id="-27" lat="37.260107907000005" lon="-121.819159904"><tag k="addr:city" v="San Jose"/><tag k="addr:housenumber" v="98"/><tag k="addr:street" v="Cherry Ridge Lane"/><tag k="addr:postcode" v="95136"/></node>
<node visible="true" id="-28" lat="37.260090788" lon="-121.818877845"><tag k="addr:city" v="San Jose"/><tag k="addr:housenumber" v="84"/><tag k="addr:street" v="Cherry Ridge Lane"/><tag k="addr:postcode" v="95136"/></node>
<node visible="true" id="-29" lat="37.260092145" lon="-121.81905233900001"><tag k="addr:city" v="San Jose"/><tag k="addr:housenumber" v="94"/><tag k="addr:street" v="Cherry Ridge Lane"/><tag k="addr:postcode" v="95136"/></node>
<node visible="true" id="-30" lat="37.260031891000004" lon="-121.81912468"><tag k="addr:city" v="San Jose"/><tag k="addr:housenumber" v="96"/><tag k="addr:street" v="Cherry Ridge Lane"/><tag k="addr:postcode" v="95136"/></node>
<node visible="true" id="-31" lat="37.260031966" lon="-121.81845470500001"><tag k="addr:city" v="San Jose"/><tag k="addr:housenumber" v="76"/><tag k="addr:street" v="Cherry Ridge Lane"/><tag k="addr:postcode" v="95136"/></node>
<node visible="true" id="-32" lat="37.260131368" lon="-121.81702495900001"><tag k="addr:city" v="San Jose"/><tag k="addr:housenumber" v="35"/><tag k="addr:street" v="Cherry Crest Lane"/><tag k="addr:postcode" v="95136"/></node>
<node visible="true" id="-33" lat="37.259861305" lon="-121.817017902"><tag k="addr:city" v="San Jose"/><tag k="addr:housenumber" v="36"/><tag k="addr:street" v="Cherry Crest Lane"/><tag k="addr:postcode" v="95136"/></node>
<node visible="true" id="-34" lat="37.260624719" lon="-121.81822274100001"><tag k="addr:city" v="San Jose"/><tag k="addr:housenumber" v="5253"/><tag k="addr:street" v="Cherry Gate Lane"/><tag k="addr:postcode" v="95136"/></node>
<node visible="true" id="-35" lat="37.260503098" lon="-121.81857345700001"><tag k="addr:city" v="San Jose"/><tag k="addr:housenumber" v="70"/><tag k="addr:street" v="Cherry Ridge Court"/><tag k="addr:postcode" v="95136"/></node>
<node visible="true" id="-36" lat="37.260055549" lon="-121.818536257"><tag k="addr:city" v="San Jose"/><tag k="addr:housenumber" v="80"/><tag k="addr:street" v="Cherry Ridge Lane"/><tag k="addr:postcode" v="95136"/></node>
<node visible="true" id="-37" lat="37.260034646" lon="-121.818838642"><tag k="addr:city" v="San Jose"/><tag k="addr:housenumber" v="82"/><tag k="addr:street" v="Cherry Ridge Lane"/><tag k="addr:postcode" v="95136"/></node>
<node visible="true" id="-38" lat="37.26007028" lon="-121.81702264600001"><tag k="addr:city" v="San Jose"/><tag k="addr:housenumber" v="37"/><tag k="addr:street" v="Cherry Crest Lane"/><tag k="addr:postcode" v="95136"/></node>
<node visible="true" id="-39" lat="37.260049947" lon="-121.81708661900001"><tag k="addr:city" v="San Jose"/><tag k="addr:housenumber" v="41"/><tag k="addr:street" v="Cherry Crest Lane"/><tag k="addr:postcode" v="95136"/></node>
<node visible="true" id="-40" lat="37.264463714" lon="-121.819148126"><tag k="addr:city" v="San Jose"/><tag k="addr:housenumber" v="510"/><tag k="addr:street" v="Saddle Brook Drive"/><tag k="addr:unit" v="220"/><tag k="addr:postcode" v="95136"/></node>
<node visible="true" id="-41" lat="37.260795711" lon="-121.81845614100001"><tag k="addr:city" v="San Jose"/><tag k="addr:housenumber" v="510"/><tag k="addr:street" v="Saddle Brook Drive"/><tag k="addr:unit" v="328"/><tag k="addr:postcode" v="95136"/></node>
<node visible="true" id="-42" lat="37.260598288000004" lon="-121.81814519500001"><tag k="addr:city" v="San Jose"/><tag k="addr:housenumber" v="5251"/><tag k="addr:street" v="Cherry Gate Lane"/><tag k="addr:postcode" v="95136"/></node>
<node visible="true" id="-43" lat="37.260522141" lon="-121.81822402600001"><tag k="addr:city" v="San Jose"/><tag k="addr:housenumber" v="5259"/><tag k="addr:street" v="Cherry Gate Lane"/><tag k="addr:postcode" v="95136"/></node>
<node visible="true" id="-44" lat="37.260469742000005" lon="-121.81822554300001"><tag k="addr:city" v="San Jose"/><tag k="addr:housenumber" v="5263"/><tag k="addr:street" v="Cherry Gate Lane"/><tag k="addr:postcode" v="95136"/></node>
<node visible="true" id="-45" lat="37.260504267" lon="-121.81842089800001"><tag k="addr:city" v="San Jose"/><tag k="addr:housenumber" v="66"/><tag k="addr:street" v="Cherry Ridge Court"/><tag k="addr:postcode" v="95136"/></node>
<node visible="true" id="-46" lat="37.259803909000006" lon="-121.81702427900001"><tag k="addr:city" v="San Jose"/><tag k="addr:housenumber" v="34"/><tag k="addr:street" v="Cherry Crest Lane"/><tag k="addr:postcode" v="95136"/></node>
<node visible="true" id="-47" lat="37.259880151000004" lon="-121.817088439"><tag k="addr:city" v="San Jose"/><tag k="addr:housenumber" v="40"/><tag k="addr:street" v="Cherry Crest Lane"/><tag k="addr:postcode" v="95136"/></node>
<node visible="true" id="-48" lat="37.260795711" lon="-121.81829914100001"><tag k="addr:city" v="San Jose"/><tag k="addr:housenumber" v="510"/><tag k="addr:street" v="Saddle Brook Drive"/><tag k="addr:unit" v="327"/><tag k="addr:postcode" v="95136"/></node>
<node visible="true" id="-49" lat="37.260564523" lon="-121.818221543"><tag k="addr:city" v="San Jose"/><tag k="addr:housenumber" v="5255"/><tag k="addr:street" v="Cherry Gate Lane"/><tag k="addr:postcode" v="95136"/></node>
<node visible="true" id="-50" lat="37.260500742000005" lon="-121.818146053"><tag k="addr:city" v="San Jose"/><tag k="addr:housenumber" v="5257"/><tag k="addr:street" v="Cherry Gate Lane"/><tag k="addr:postcode" v="95136"/></node>
<node visible="true" id="-52" lat="37.259075943" lon="-121.80960693300001"/>
<node visible="true" id="-53" lat="37.259077559000005" lon="-121.80970799200001"/>
<node visible="true" id="-54" lat="37.259214441000005" lon="-121.80970454700001"/>
<node visible="true" id="-55" lat="37.259214046000004" lon="-121.80968082800001"/>
<node visible="true" id="-56" lat="37.259253583" lon="-121.809679837"/>
<node visible="true" id="-57" lat="37.259254589" lon="-121.809545834"/>
<node visible="true" id="-58" lat="37.259109836" lon="-121.80954570600001"/>
<node visible="true" id="-59" lat="37.25911102" lon="-121.809619162"/>
<node visible="true" id="-60" lat="37.259088655" lon="-121.809619733"/>
<node visible="true" id="-61" lat="37.259088443" lon="-121.80960663600001"/>
<node visible="true" id="-63" lat="37.259313476" lon="-121.80981363500001"/>
<node visible="true" id="-64" lat="37.259363999" lon="-121.809849571"/>
<node visible="true" id="-65" lat="37.259343609000005" lon="-121.80989450700001"/>
<node visible="true" id="-66" lat="37.259406804" lon="-121.809939462"/>
<node visible="true" id="-67" lat="37.259423531" lon="-121.80990267600001"/>
<node visible="true" id="-68" lat="37.259430017" lon="-121.809907257"/>
<node visible="true" id="-69" lat="37.259441620000004" lon="-121.809881687"/>
<node visible="true" id="-70" lat="37.259433499000004" lon="-121.80987594400001"/>
<node visible="true" id="-71" lat="37.259457154" lon="-121.80982388400001"/>
<node visible="true" id="-72" lat="37.259417177" lon="-121.80979545100001"/>
<node visible="true" id="-73" lat="37.259453816000004" lon="-121.809714752"/>
<node visible="true" id="-74" lat="37.259381683" lon="-121.809663455"/>
<node visible="true" id="-76" lat="37.259045332" lon="-121.809809352"/>
<node visible="true" id="-77" lat="37.259045275000005" lon="-121.809895502"/>
<node visible="true" id="-78" lat="37.259203402000004" lon="-121.809895694"/>
<node visible="true" id="-79" lat="37.259203455000005" lon="-121.80983944100001"/>
<node visible="true" id="-80" lat="37.25920708" lon="-121.809839435"/>
<node visible="true" id="-81" lat="37.259207011" lon="-121.80990950300001"/>
<node visible="true" id="-82" lat="37.259230962000004" lon="-121.80990954500001"/>
<node visible="true" id="-83" lat="37.259231019000005" lon="-121.80984064500001"/>
<node visible="true" id="-84" lat="37.259226927" lon="-121.80984064200001"/>
<node visible="true" id="-85" lat="37.259226999" lon="-121.80973597"/>
<node visible="true" id="-86" lat="37.259081369" lon="-121.80973579100001"/>
<node visible="true" id="-87" lat="37.259081344" lon="-121.809779742"/>
<node visible="true" id="-88" lat="37.259085244000005" lon="-121.809779742"/>
<node visible="true" id="-89" lat="37.259085214" lon="-121.80980939700001"/>
<node visible="true" id="-91" lat="37.259093895" lon="-121.809389378"/>
<node visible="true" id="-92" lat="37.259122089" lon="-121.809469355"/>
<node visible="true" id="-93" lat="37.259160645" lon="-121.80944807200001"/>
<node visible="true" id="-94" lat="37.259185802000005" lon="-121.809519475"/>
<node visible="true" id="-95" lat="37.259297626000006" lon="-121.809457824"/>
<node visible="true" id="-96" lat="37.259263867" lon="-121.80936204400001"/>
<node visible="true" id="-97" lat="37.259209255" lon="-121.809392153"/>
<node visible="true" id="-98" lat="37.2591903" lon="-121.80933831700001"/>
<node visible="true" id="-99" lat="37.259176122" lon="-121.809346144"/>
<node visible="true" id="-100" lat="37.259177346" lon="-121.80934963600001"/>
<node visible="true" id="-101" lat="37.259138737" lon="-121.809370919"/>
<node visible="true" id="-102" lat="37.259136873" lon="-121.809365662"/>
<node visible="true" id="-104" lat="37.259046394" lon="-121.809920676"/>
<node visible="true" id="-105" lat="37.259046670000004" lon="-121.810023602"/>
<node visible="true" id="-106" lat="37.259056587" lon="-121.81002356900001"/>
<node visible="true" id="-107" lat="37.259056535" lon="-121.810010992"/>
<node visible="true" id="-108" lat="37.259082493" lon="-121.81001089600001"/>
<node visible="true" id="-109" lat="37.259082579" lon="-121.810044918"/>
<node visible="true" id="-110" lat="37.259089172" lon="-121.81004489600001"/>
<node visible="true" id="-111" lat="37.259089270000004" lon="-121.81009012000001"/>
<node visible="true" id="-112" lat="37.259203485" lon="-121.81008964700001"/>
<node visible="true" id="-113" lat="37.259203222000004" lon="-121.80998548500001"/>
<node visible="true" id="-114" lat="37.259151114000005" lon="-121.809985706"/>
<node visible="true" id="-115" lat="37.259150983000005" lon="-121.809928694"/>
<node visible="true" id="-116" lat="37.259092529" lon="-121.80992894100001"/>
<node visible="true" id="-117" lat="37.259092514" lon="-121.80992048700001"/>
<node visible="true" id="-119" lat="37.258985807" lon="-121.80922765800001"/>
<node visible="true" id="-120" lat="37.259040192" lon="-121.809259675"/>
<node visible="true" id="-121" lat="37.259023432" lon="-121.80930419200001"/>
<node visible="true" id="-122" lat="37.259088704" lon="-121.80934265500001"/>
<node visible="true" id="-123" lat="37.259107871000005" lon="-121.809291684"/>
<node visible="true" id="-124" lat="37.259104295" lon="-121.809289559"/>
<node visible="true" id="-125" lat="37.259128331" lon="-121.809225685"/>
<node visible="true" id="-126" lat="37.25908658" lon="-121.80920110500001"/>
<node visible="true" id="-127" lat="37.259112398" lon="-121.809132485"/>
<node visible="true" id="-128" lat="37.259038093" lon="-121.809088711"/>
<node visible="true" id="-130" lat="37.259436792" lon="-121.810018647"/>
<node visible="true" id="-131" lat="37.259474114" lon="-121.81008789200001"/>
<node visible="true" id="-132" lat="37.259559382" lon="-121.81001591500001"/>
<node visible="true" id="-133" lat="37.259533334000004" lon="-121.80996762400001"/>
<node visible="true" id="-134" lat="37.259585382000004" lon="-121.809923655"/>
<node visible="true" id="-135" lat="37.259519158" lon="-121.809800846"/>
<node visible="true" id="-136" lat="37.259478037" lon="-121.809835554"/>
<node visible="true" id="-137" lat="37.25949098" lon="-121.80985956100001"/>
<node visible="true" id="-138" lat="37.259460421" lon="-121.80988534900001"/>
<node visible="true" id="-139" lat="37.259468171" lon="-121.80989978100001"/>
<node visible="true" id="-140" lat="37.259438278000005" lon="-121.809925031"/>
<node visible="true" id="-141" lat="37.259472507000005" lon="-121.809988516"/>
<node visible="true" id="-143" lat="37.259267779000005" lon="-121.81046582600001"/>
<node visible="true" id="-144" lat="37.259307188" lon="-121.810633217"/>
<node visible="true" id="-145" lat="37.259387395000005" lon="-121.810603626"/>
<node visible="true" id="-146" lat="37.259382728000006" lon="-121.81058382"/>
<node visible="true" id="-147" lat="37.259424762" lon="-121.810568301"/>
<node visible="true" id="-148" lat="37.259407481000004" lon="-121.81049500900001"/>
<node visible="true" id="-149" lat="37.259445953000004" lon="-121.810478707"/>
<node visible="true" id="-150" lat="37.259427022000004" lon="-121.810432636"/>
<node visible="true" id="-151" lat="37.259398505" lon="-121.81044547"/>
<node visible="true" id="-152" lat="37.259393629" lon="-121.810424697"/>
<node visible="true" id="-153" lat="37.259398180000005" lon="-121.81042299"/>
<node visible="true" id="-154" lat="37.259386748000004" lon="-121.81037437100001"/>
<node visible="true" id="-155" lat="37.259319228" lon="-121.81039927"/>
<node visible="true" id="-156" lat="37.259329533" lon="-121.81044306000001"/>
<node visible="true" id="-158" lat="37.259433987" lon="-121.81043124600001"/>
<node visible="true" id="-159" lat="37.259537906000006" lon="-121.81052121200001"/>
<node visible="true" id="-160" lat="37.259584219000004" lon="-121.81043752100001"/>
<node visible="true" id="-161" lat="37.259534245000005" lon="-121.810394239"/>
<node visible="true" id="-162" lat="37.259560402000005" lon="-121.81034696600001"/>
<node visible="true" id="-163" lat="37.259513774000006" lon="-121.81030659500001"/>
<node visible="true" id="-164" lat="37.259517979" lon="-121.81029900600001"/>
<node visible="true" id="-165" lat="37.259479459000005" lon="-121.81026561600001"/>
<node visible="true" id="-166" lat="37.259438586" lon="-121.810339436"/>
<node visible="true" id="-167" lat="37.259469815" lon="-121.810366513"/>
<node visible="true" id="-169" lat="37.259486339000006" lon="-121.81024233400001"/>
<node visible="true" id="-170" lat="37.259586282" lon="-121.810270305"/>
<node visible="true" id="-171" lat="37.259584643000004" lon="-121.810279417"/>
<node visible="true" id="-172" lat="37.259669471" lon="-121.810303137"/>
<node visible="true" id="-173" lat="37.25968169" lon="-121.81023479400001"/>
<node visible="true" id="-174" lat="37.259669067000004" lon="-121.810231274"/>
<node visible="true" id="-175" lat="37.259669828" lon="-121.810227026"/>
<node visible="true" id="-176" lat="37.259727057" lon="-121.81024304600001"/>
<node visible="true" id="-177" lat="37.259739979" lon="-121.81017065900001"/>
<node visible="true" id="-178" lat="37.259682861" lon="-121.81015467600001"/>
<node visible="true" id="-179" lat="37.259694436000004" lon="-121.81008989600001"/>
<node visible="true" id="-180" lat="37.259660236" lon="-121.81008032800001"/>
<node visible="true" id="-181" lat="37.259652295" lon="-121.81012476000001"/>
<node visible="true" id="-182" lat="37.259547943" lon="-121.810095578"/>
<node visible="true" id="-183" lat="37.259535050000004" lon="-121.810167722"/>
<node visible="true" id="-184" lat="37.25950137" lon="-121.810158301"/>
<node visible="true" id="-186" lat="37.25902887" lon="-121.81111318500001"/>
<node visible="true" id="-187" lat="37.259068673" lon="-121.811184158"/>
<node visible="true" id="-188" lat="37.259114388" lon="-121.81114403100001"/>
<node visible="true" id="-189" lat="37.259143715" lon="-121.81119633300001"/>
<node visible="true" id="-190" lat="37.259180026" lon="-121.811164461"/>
<node visible="true" id="-191" lat="37.259150943" lon="-121.81111257600001"/>
<node visible="true" id="-192" lat="37.259183398000005" lon="-121.81108410700001"/>
<node visible="true" id="-193" lat="37.259157034000005" lon="-121.81103711700001"/>
<node visible="true" id="-194" lat="37.259179226" lon="-121.81101764300001"/>
<node visible="true" id="-195" lat="37.2591321" lon="-121.810933586"/>
<node visible="true" id="-196" lat="37.25903082" lon="-121.811022464"/>
<node visible="true" id="-197" lat="37.259064267" lon="-121.811082088"/>
<node visible="true" id="-199" lat="37.259043894" lon="-121.810725684"/>
<node visible="true" id="-200" lat="37.259043832" lon="-121.81080977100001"/>
<node visible="true" id="-201" lat="37.259080308" lon="-121.81080982600001"/>
<node visible="true" id="-202" lat="37.259080215000004" lon="-121.810889172"/>
<node visible="true" id="-203" lat="37.259220929" lon="-121.81088937000001"/>
<node visible="true" id="-204" lat="37.259221022000006" lon="-121.81078542"/>
<node visible="true" id="-205" lat="37.259146614" lon="-121.810785318"/>
<node visible="true" id="-206" lat="37.259146648000005" lon="-121.81072583500001"/>
<node visible="true" id="-208" lat="37.259041327000006" lon="-121.810518216"/>
<node visible="true" id="-209" lat="37.259040422000005" lon="-121.810606413"/>
<node visible="true" id="-210" lat="37.259084912000006" lon="-121.81060712300001"/>
<node visible="true" id="-211" lat="37.259084119" lon="-121.810682849"/>
<node visible="true" id="-212" lat="37.259108698000006" lon="-121.810683245"/>
<node visible="true" id="-213" lat="37.259108432000005" lon="-121.81070949400001"/>
<node visible="true" id="-214" lat="37.259136031000004" lon="-121.81070990900001"/>
<node visible="true" id="-215" lat="37.25913628" lon="-121.81068527400001"/>
<node visible="true" id="-216" lat="37.259166187000005" lon="-121.81068572900001"/>
<node visible="true" id="-217" lat="37.25916593" lon="-121.81070868100001"/>
<node visible="true" id="-218" lat="37.259190179" lon="-121.81070907200001"/>
<node visible="true" id="-219" lat="37.259190398" lon="-121.810687117"/>
<node visible="true" id="-220" lat="37.259198143" lon="-121.81068721700001"/>
<node visible="true" id="-221" lat="37.259199807" lon="-121.81052628500001"/>
<node visible="true" id="-222" lat="37.259085892" lon="-121.81052446100001"/>
<node visible="true" id="-223" lat="37.259085954" lon="-121.81051892900001"/>
<way visible="true" id="-51"><nd ref="-52"/><nd ref="-53"/><nd ref="-54"/><nd ref="-55"/><nd ref="-56"/><nd ref="-57"/><nd ref="-58"/><nd ref="-59"/><nd ref="-60"/><nd ref="-61"/><nd ref="-52"/><tag k="building" v="yes"/><tag k="height" v="3.54"/><tag k="ele" v="61.26"/><tag k="addr:city" v="San Jose"/><tag k="addr:housenumber" v="23"/><tag k="addr:street" v="Shenado Place"/><tag k="addr:postcode" v="95136"/></way>
<way visible="true" id="-62"><nd ref="-63"/><nd ref="-64"/><nd ref="-65"/><nd ref="-66"/><nd ref="-67"/><nd ref="-68"/><nd ref="-69"/><nd ref="-70"/><nd ref="-71"/><nd ref="-72"/><nd ref="-73"/><nd ref="-74"/><nd ref="-63"/><tag k="building" v="yes"/><tag k="height" v="3.64"/><tag k="ele" v="60.93"/><tag k="addr:city" v="San Jose"/><tag k="addr:housenumber" v="41"/><tag k="addr:street" v="Wigwam Court"/><tag k="addr:postcode" v="95136"/></way>
<way visible="true" id="-75"><nd ref="-76"/><nd ref="-77"/><nd ref="-78"/><nd ref="-79"/><nd ref="-80"/><nd ref="-81"/><nd ref="-82"/><nd ref="-83"/><nd ref="-84"/><nd ref="-85"/><nd ref="-86"/><nd ref="-87"/><nd ref="-88"/><nd ref="-89"/><nd ref="-76"/><tag k="building" v="yes"/><tag k="height" v="3.63"/><tag k="ele" v="60.98"/><tag k="addr:city" v="San Jose"/><tag k="addr:housenumber" v="29"/><tag k="addr:street" v="Shenado Place"/><tag k="addr:postcode" v="95136"/></way>
<way visible="true" id="-90"><nd ref="-91"/><nd ref="-92"/><nd ref="-93"/><nd ref="-94"/><nd ref="-95"/><nd ref="-96"/><nd ref="-97"/><nd ref="-98"/><nd ref="-99"/><nd ref="-100"/><nd ref="-101"/><nd ref="-102"/><nd ref="-91"/><tag k="building" v="yes"/><tag k="height" v="4.06"/><tag k="ele" v="61.07"/><tag k="addr:city" v="San Jose"/><tag k="addr:housenumber" v="17"/><tag k="addr:street" v="Shenado Place"/><tag k="addr:postcode" v="95136"/></way>
<way visible="true" id="-103"><nd ref="-104"/><nd ref="-105"/><nd ref="-106"/><nd ref="-107"/><nd ref="-108"/><nd ref="-109"/><nd ref="-110"/><nd ref="-111"/><nd ref="-112"/><nd ref="-113"/><nd ref="-114"/><nd ref="-115"/><nd ref="-116"/><nd ref="-117"/><nd ref="-104"/><tag k="building" v="yes"/><tag k="height" v="3.58"/><tag k="ele" v="61.09"/><tag k="addr:city" v="San Jose"/><tag k="addr:housenumber" v="35"/><tag k="addr:street" v="Shenado Place"/><tag k="addr:postcode" v="95136"/></way>
<way visible="true" id="-118"><nd ref="-119"/><nd ref="-120"/><nd ref="-121"/><nd ref="-122"/><nd ref="-123"/><nd ref="-124"/><nd ref="-125"/><nd ref="-126"/><nd ref="-127"/><nd ref="-128"/><nd ref="-119"/><tag k="building" v="yes"/><tag k="height" v="3.68"/><tag k="ele" v="61.12"/><tag k="addr:city" v="San Jose"/><tag k="addr:housenumber" v="11"/><tag k="addr:street" v="Shenado Place"/><tag k="addr:postcode" v="95136"/></way>
<way visible="true" id="-129"><nd ref="-130"/><nd ref="-131"/><nd ref="-132"/><nd ref="-133"/><nd ref="-134"/><nd ref="-135"/><nd ref="-136"/><nd ref="-137"/><nd ref="-138"/><nd ref="-139"/><nd ref="-140"/><nd ref="-141"/><nd ref="-130"/><tag k="building" v="yes"/><tag k="height" v="4.16"/><tag k="ele" v="60.82"/><tag k="addr:city" v="San Jose"/><tag k="addr:housenumber" v="47"/><tag k="addr:street" v="Wigwam Court"/><tag k="addr:postcode" v="95136"/></way>
<way visible="true" id="-142"><nd ref="-143"/><nd ref="-144"/><nd ref="-145"/><nd ref="-146"/><nd ref="-147"/><nd ref="-148"/><nd ref="-149"/><nd ref="-150"/><nd ref="-151"/><nd ref="-152"/><nd ref="-153"/><nd ref="-154"/><nd ref="-155"/><nd ref="-156"/><nd ref="-143"/><tag k="building" v="yes"/><tag k="height" v="3.23"/><tag k="ele" v="60.76"/><tag k="addr:city" v="San Jose"/><tag k="addr:housenumber" v="65"/><tag k="addr:street" v="Wigwam Court"/><tag k="addr:postcode" v="95136"/></way>
<way visible="true" id="-157"><nd ref="-158"/><nd ref="-159"/><nd ref="-160"/><nd ref="-161"/><nd ref="-162"/><nd ref="-163"/><nd ref="-164"/><nd ref="-165"/><nd ref="-166"/><nd ref="-167"/><nd ref="-158"/><tag k="building" v="yes"/><tag k="height" v="3.68"/><tag k="ele" v="60.87"/><tag k="addr:city" v="San Jose"/><tag k="addr:housenumber" v="59"/><tag k="addr:street" v="Wigwam Court"/><tag k="addr:postcode" v="95136"/></way>
<way visible="true" id="-168"><nd ref="-169"/><nd ref="-170"/><nd ref="-171"/><nd ref="-172"/><nd ref="-173"/><nd ref="-174"/><nd ref="-175"/><nd ref="-176"/><nd ref="-177"/><nd ref="-178"/><nd ref="-179"/><nd ref="-180"/><nd ref="-181"/><nd ref="-182"/><nd ref="-183"/><nd ref="-184"/><nd ref="-169"/><tag k="building" v="yes"/><tag k="height" v="3.56"/><tag k="ele" v="60.98"/><tag k="addr:city" v="San Jose"/><tag k="addr:housenumber" v="53"/><tag k="addr:street" v="Wigwam Court"/><tag k="addr:postcode" v="95136"/></way>
<way visible="true" id="-185"><nd ref="-186"/><nd ref="-187"/><nd ref="-188"/><nd ref="-189"/><nd ref="-190"/><nd ref="-191"/><nd ref="-192"/><nd ref="-193"/><nd ref="-194"/><nd ref="-195"/><nd ref="-196"/><nd ref="-197"/><nd ref="-186"/><tag k="building" v="yes"/><tag k="height" v="3.60"/><tag k="ele" v="60.26"/><tag k="addr:city" v="San Jose"/><tag k="addr:housenumber" v="89"/><tag k="addr:street" v="Shenado Place"/><tag k="addr:postcode" v="95136"/></way>
<way visible="true" id="-198"><nd ref="-199"/><nd ref="-200"/><nd ref="-201"/><nd ref="-202"/><nd ref="-203"/><nd ref="-204"/><nd ref="-205"/><nd ref="-206"/><nd ref="-199"/><tag k="building" v="yes"/><tag k="height" v="3.42"/><tag k="ele" v="60.37"/><tag k="addr:city" v="San Jose"/><tag k="addr:housenumber" v="83"/><tag k="addr:street" v="Shenado Place"/><tag k="addr:postcode" v="95136"/></way>
<way visible="true" id="-207"><nd ref="-208"/><nd ref="-209"/><nd ref="-210"/><nd ref="-211"/><nd ref="-212"/><nd ref="-213"/><nd ref="-214"/><nd ref="-215"/><nd ref="-216"/><nd ref="-217"/><nd ref="-218"/><nd ref="-219"/><nd ref="-220"/><nd ref="-221"/><nd ref="-222"/><nd ref="-223"/><nd ref="-208"/><tag k="building" v="yes"/><tag k="height" v="3.98"/><tag k="ele" v="60.82"/><tag k="addr:city" v="San Jose"/><tag k="addr:housenumber" v="77"/><tag k="addr:street" v="Shenado Place"/><tag k="addr:postcode" v="95136"/></way>
</osm>