<?xml version="1.0"?>
<osm version="0.6" generator="uvmogr2osm" upload="false">
<node visible="true" id="-2" lat="37.308965422" lon="-121.90128372900001"/>
<node visible="true" id="-3" lat="37.309255504" lon="-121.901493122"/>
<node visible="true" id="-4" lat="37.309444276" lon="-121.901083251"/>
<node visible="true" id="-5" lat="37.309154192" lon="-121.900873859"/>
<node visible="true" id="-7" lat="37.30953847" lon="-121.89983958900001"/>
<node visible="true" id="-8" lat="37.309586433" lon="-121.89987374"/>
<node visible="true" id="-9" lat="37.309727653" lon="-121.89956269700001"/>
<node visible="true" id="-10" lat="37.309679689" lon="-121.89952858000001"/>
<node visible="true" id="-12" lat="37.309457925000004" lon="-121.901634572"/>
<node visible="true" id="-13" lat="37.309540764000005" lon="-121.90169461900001"/>
<node visible="true" id="-14" lat="37.309613822" lon="-121.90153670400001"/>
<node visible="true" id="-15" lat="37.309533134000006" lon="-121.90147821000001"/>
<node visible="true" id="-16" lat="37.309501752" lon="-121.90154602000001"/>
<node visible="true" id="-17" lat="37.309513053" lon="-121.90155421000001"/>
<node visible="true" id="-18" lat="37.309498588000004" lon="-121.90158547300001"/>
<node visible="true" id="-19" lat="37.309485163000005" lon="-121.90157572800001"/>
<node visible="true" id="-21" lat="37.310211436" lon="-121.902179724"/>
<node visible="true" id="-22" lat="37.310415169" lon="-121.902328596"/>
<node visible="true" id="-23" lat="37.310521746" lon="-121.90209204400001"/>
<node visible="true" id="-24" lat="37.310316456" lon="-121.90194709800001"/>
<node visible="true" id="-26" lat="37.311934544" lon="-121.903964481"/>
<node visible="true" id="-27" lat="37.312088631" lon="-121.90407515000001"/>
<node visible="true" id="-28" lat="37.312071708000005" lon="-121.904112076"/>
<node visible="true" id="-29" lat="37.312089791000005" lon="-121.90412503700001"/>
<node visible="true" id="-30" lat="37.312106799000006" lon="-121.904087907"/>
<node visible="true" id="-31" lat="37.312105464000005" lon="-121.904086953"/>
<node visible="true" id="-32" lat="37.312179644000004" lon="-121.90392510100001"/>
<node visible="true" id="-33" lat="37.312008808" lon="-121.903802424"/>
<node visible="true" id="-35" lat="37.311990514" lon="-121.904359528"/>
<node visible="true" id="-36" lat="37.312175321000005" lon="-121.904492028"/>
<node visible="true" id="-37" lat="37.312367072" lon="-121.90407288300001"/>
<node visible="true" id="-38" lat="37.312181473" lon="-121.903939785"/>
<node visible="true" id="-39" lat="37.312045207000004" lon="-121.904237648"/>
<node visible="true" id="-40" lat="37.312046024000004" lon="-121.904238214"/>
<node visible="true" id="-41" lat="37.310826222" lon="-121.90307044400001"><tag k="addr:city" v="San Jose"/><tag k="addr:housenumber" v="1043;1045"/><tag k="addr:street" v="Lincoln Avenue"/><tag k="addr:unit" v="A"/><tag k="addr:postcode" v="95125"/></node>
<node visible="true" id="-42" lat="37.310430169" lon="-121.89769304100001"><tag k="addr:city" v="San Jose"/><tag k="addr:housenumber" v="905"/><tag k="addr:street" v="Chabrant Way"/><tag k="addr:unit" v="A;B"/><tag k="addr:postcode" v="95125"/></node>
<node visible="true" id="-43" lat="37.310991938" lon="-121.89702600000001"><tag k="addr:city" v="San Jose"/><tag k="addr:housenumber" v="877"/><tag k="addr:street" v="Willow Street"/><tag k="addr:unit" v="107;111;116;119;124;202;203;205;206;208;211;214;217;219;220;228;309;311;314;320;323;326"/><tag k="addr:postcode" v="95125"/></node>
<node visible="true" id="-44" lat="37.315392389" lon="-121.900325237"><tag k="addr:city" v="San Jose"/><tag k="addr:housenumber" v="704"/><tag k="addr:street" v="Palm Haven Avenue"/><tag k="addr:postcode" v="95125"/></node>
<node visible="true" id="-45" lat="37.309491161000004" lon="-121.899229562"><tag k="addr:city" v="San Jose"/><tag k="addr:housenumber" v="993"/><tag k="addr:street" v="Willow Street"/><tag k="addr:postcode" v="95125"/></node>
<node visible="true" id="-46" lat="37.309508438" lon="-121.90161962500001"><tag k="addr:city" v="San Jose"/><tag k="addr:housenumber" v="1078"/><tag k="addr:street" v="Lincoln Avenue"/><tag k="addr:postcode" v="95125"/></node>
<node visible="true" id="-47" lat="37.309527196000005" lon="-121.901556169"><tag k="addr:city" v="San Jose"/><tag k="addr:housenumber" v="1080"/><tag k="addr:street" v="Lincoln Avenue"/><tag k="addr:postcode" v="95125"/></node>
<node visible="true" id="-48" lat="37.30929914" lon="-121.90127128200001"><tag k="addr:city" v="San Jose"/><tag k="addr:housenumber" v="1082"/><tag k="addr:street" v="Lincoln Avenue"/><tag k="addr:postcode" v="95125"/></node>
<node visible="true" id="-49" lat="37.309204232" lon="-121.90128150700001"><tag k="addr:city" v="San Jose"/><tag k="addr:housenumber" v="1084"/><tag k="addr:street" v="Lincoln Avenue"/><tag k="addr:postcode" v="95125"/></node>
<node visible="true" id="-50" lat="37.309583477000004" lon="-121.899215326"><tag k="addr:city" v="San Jose"/><tag k="addr:housenumber" v="1091"/><tag k="addr:street" v="Merle Avenue"/><tag k="addr:postcode" v="95125"/></node>
<node visible="true" id="-51" lat="37.309972502" lon="-121.90161237900001"><tag k="addr:city" v="San Jose"/><tag k="addr:housenumber" v="1074"/><tag k="addr:street" v="Lincoln Avenue"/><tag k="addr:unit" v="G"/><tag k="addr:postcode" v="95125"/></node>
<node visible="true" id="-52" lat="37.310685241" lon="-121.90186219600001"><tag k="addr:city" v="San Jose"/><tag k="addr:housenumber" v="1092"/><tag k="addr:street" v="Broadway Avenue"/><tag k="addr:postcode" v="95125"/></node>
<node visible="true" id="-53" lat="37.312479549" lon="-121.903452802"><tag k="addr:city" v="San Jose"/><tag k="addr:housenumber" v="1000"/><tag k="addr:street" v="Lincoln Avenue"/><tag k="addr:unit" v="A"/><tag k="addr:postcode" v="95125"/></node>
<node visible="true" id="-54" lat="37.312519614" lon="-121.903609419"><tag k="addr:city" v="San Jose"/><tag k="addr:housenumber" v="1000"/><tag k="addr:street" v="Lincoln Avenue"/><tag k="addr:unit" v="B"/><tag k="addr:postcode" v="95125"/></node>
<node visible="true" id="-55" lat="37.310287972000005" lon="-121.902118544"><tag k="addr:city" v="San Jose"/><tag k="addr:housenumber" v="1062"/><tag k="addr:street" v="Lincoln Avenue"/><tag k="addr:postcode" v="95125"/></node>
<node visible="true" id="-56" lat="37.310420362" lon="-121.90206896000001"><tag k="addr:city" v="San Jose"/><tag k="addr:housenumber" v="1064"/><tag k="addr:street" v="Lincoln Avenue"/><tag k="addr:postcode" v="95125"/></node>
<node visible="true" id="-57" lat="37.310364365000005" lon="-121.90202508700001"><tag k="addr:city" v="San Jose"/><tag k="addr:housenumber" v="1068"/><tag k="addr:street" v="Lincoln Avenue"/><tag k="addr:postcode" v="95125"/></node>
<node visible="true" id="-58" lat="37.310322233" lon="-121.90199650500001"><tag k="addr:city" v="San Jose"/><tag k="addr:housenumber" v="1070"/><tag k="addr:street" v="Lincoln Avenue"/><tag k="addr:postcode" v="95125"/><tag k="shop" v="yes"/></node>
<node visible="true" id="-59" lat="37.310463324000004" lon="-121.902098483"><tag k="addr:city" v="San Jose"/><tag k="addr:housenumber" v="1060"/><tag k="addr:street" v="Lincoln Avenue"/><tag k="addr:postcode" v="95125"/></node>
<node visible="true" id="-60" lat="37.309739092" lon="-121.898750663"><tag k="addr:city" v="San Jose"/><tag k="addr:housenumber" v="1098"/><tag k="addr:street" v="Merle Avenue"/><tag k="addr:postcode" v="95125"/></node>
<node visible="true" id="-61" lat="37.311847167" lon="-121.903719949"><tag k="addr:city" v="San Jose"/><tag k="addr:housenumber" v="1013"/><tag k="addr:street" v="Lincoln Avenue"/><tag k="addr:postcode" v="95125"/></node>
<node visible="true" id="-62" lat="37.310394458000005" lon="-121.89775019000001"><tag k="addr:city" v="San Jose"/><tag k="addr:housenumber" v="905"/><tag k="addr:street" v="Chabrant Way"/><tag k="addr:postcode" v="95125"/></node>
<node visible="true" id="-63" lat="37.31024988" lon="-121.89759483700001"><tag k="addr:city" v="San Jose"/><tag k="addr:housenumber" v="913"/><tag k="addr:street" v="Willow Street"/><tag k="addr:postcode" v="95125"/></node>
<node visible="true" id="-64" lat="37.309735989" lon="-121.89865999400001"><tag k="addr:city" v="San Jose"/><tag k="addr:housenumber" v="965"/><tag k="addr:street" v="Willow Street"/><tag k="addr:postcode" v="95125"/></node>
<node visible="true" id="-65" lat="37.311786330000004" lon="-121.90372744000001"><tag k="addr:city" v="San Jose"/><tag k="addr:housenumber" v="1017"/><tag k="addr:street" v="Lincoln Avenue"/><tag k="addr:unit" v="B"/><tag k="addr:postcode" v="95125"/></node>
<node visible="true" id="-66" lat="37.310270145000004" lon="-121.898037415"><tag k="addr:city" v="San Jose"/><tag k="addr:housenumber" v="946"/><tag k="addr:street" v="Chabrant Way"/><tag k="addr:postcode" v="95125"/></node>
<node visible="true" id="-67" lat="37.310262187" lon="-121.898117548"><tag k="addr:city" v="San Jose"/><tag k="addr:housenumber" v="948"/><tag k="addr:street" v="Chabrant Way"/><tag k="addr:postcode" v="95125"/></node>
<node visible="true" id="-68" lat="37.318913336" lon="-121.901155517"><tag k="addr:city" v="San Jose"/><tag k="addr:housenumber" v="789"/><tag k="addr:street" v="Helen Street"/><tag k="addr:postcode" v="95125"/></node>
<node visible="true" id="-69" lat="37.312153558000006" lon="-121.904143626"><tag k="addr:city" v="San Jose"/><tag k="addr:housenumber" v="1003"/><tag k="addr:street" v="Lincoln Avenue"/><tag k="addr:postcode" v="95125"/></node>
<node visible="true" id="-70" lat="37.312013471" lon="-121.904020164"><tag k="addr:city" v="San Jose"/><tag k="addr:housenumber" v="1005"/><tag k="addr:street" v="Lincoln Avenue"/><tag k="addr:postcode" v="95125"/></node>
<node visible="true" id="-71" lat="37.311982965000006" lon="-121.90395384800001"><tag k="addr:city" v="San Jose"/><tag k="addr:housenumber" v="1011"/><tag k="addr:street" v="Lincoln Avenue"/><tag k="addr:postcode" v="95125"/></node>
<node visible="true" id="-72" lat="37.309475755" lon="-121.899273691"><tag k="addr:city" v="San Jose"/><tag k="addr:housenumber" v="995"/><tag k="addr:street" v="Willow Street"/><tag k="addr:postcode" v="95125"/></node>
<node visible="true" id="-73" lat="37.311802011000005" lon="-121.903693254"><tag k="addr:city" v="San Jose"/><tag k="addr:housenumber" v="1015"/><tag k="addr:street" v="Lincoln Avenue"/><tag k="addr:postcode" v="95125"/></node>
<node visible="true" id="-74" lat="37.31205326" lon="-121.90393042400001"><tag k="addr:city" v="San Jose"/><tag k="addr:housenumber" v="1007"/><tag k="addr:street" v="Lincoln Avenue"/><tag k="addr:postcode" v="95125"/><tag k="amenity" v="restaurant"/></node>
<node visible="true" id="-75" lat="37.312009361" lon="-121.903904529"><tag k="addr:city" v="San Jose"/><tag k="addr:housenumber" v="1009"/><tag k="addr:street" v="Lincoln Avenue"/><tag k="addr:postcode" v="95125"/></node>
<node visible="true" id="-76" lat="37.311833485" lon="-121.903757455"><tag k="addr:city" v="San Jose"/><tag k="addr:housenumber" v="1017"/><tag k="addr:street" v="Lincoln Avenue"/><tag k="addr:unit" v="A"/><tag k="addr:postcode" v="95125"/></node>
<node visible="true" id="-77" lat="37.309126677" lon="-121.90030574100001"><tag k="addr:city" v="San Jose"/><tag k="addr:housenumber" v="1053"/><tag k="addr:street" v="Willow Street"/><tag k="addr:postcode" v="95125"/></node>
<node visible="true" id="-78" lat="37.309066007000006" lon="-121.901210789"><tag k="addr:city" v="San Jose"/><tag k="addr:housenumber" v="1090"/><tag k="addr:street" v="Lincoln Avenue"/><tag k="addr:unit" v="6-10"/><tag k="addr:postcode" v="95125"/></node>
<node visible="true" id="-79" lat="37.310211739" lon="-121.89767416100001"><tag k="addr:city" v="San Jose"/><tag k="addr:housenumber" v="913"/><tag k="addr:street" v="Willow Street"/><tag k="addr:unit" v="101-103;201;202;204;206"/><tag k="addr:postcode" v="95125"/></node>
<node visible="true" id="-81" lat="37.31045151" lon="-121.902289526"/>
<node visible="true" id="-82" lat="37.310460464" lon="-121.902296366"/>
<node visible="true" id="-83" lat="37.310452241" lon="-121.90231330200001"/>
<node visible="true" id="-84" lat="37.310475351" lon="-121.90233086100001"/>
<node visible="true" id="-85" lat="37.310482504" lon="-121.902316173"/>
<node visible="true" id="-86" lat="37.310529213" lon="-121.902351713"/>
<node visible="true" id="-87" lat="37.310542561000005" lon="-121.902324246"/>
<node visible="true" id="-88" lat="37.310539431" lon="-121.902321849"/>
<node visible="true" id="-89" lat="37.310587025000004" lon="-121.90222384200001"/>
<node visible="true" id="-90" lat="37.310539608" lon="-121.90218777300001"/>
<node visible="true" id="-91" lat="37.310531891000004" lon="-121.90220368700001"/>
<node visible="true" id="-92" lat="37.310508128" lon="-121.902185634"/>
<node visible="true" id="-93" lat="37.310467462000005" lon="-121.902269433"/>
<node visible="true" id="-94" lat="37.310462944" lon="-121.90226597700001"/>
<node visible="true" id="-96" lat="37.310228361" lon="-121.90197969600001"/>
<node visible="true" id="-97" lat="37.310330825" lon="-121.901758576"/>
<node visible="true" id="-98" lat="37.310261576" lon="-121.901708274"/>
<node visible="true" id="-99" lat="37.310257741" lon="-121.90171652400001"/>
<node visible="true" id="-100" lat="37.310145141" lon="-121.9016347"/>
<node visible="true" id="-101" lat="37.310132594" lon="-121.90166180400001"/>
<node visible="true" id="-102" lat="37.310127746" lon="-121.90165827400001"/>
<node visible="true" id="-103" lat="37.310062501000004" lon="-121.90179903900001"/>
<node visible="true" id="-104" lat="37.310039546000006" lon="-121.901782377"/>
<node visible="true" id="-105" lat="37.310013775" lon="-121.901837947"/>
<node visible="true" id="-106" lat="37.310121066" lon="-121.90191588900001"/>
<node visible="true" id="-107" lat="37.310120941" lon="-121.90191709000001"/>
<node visible="true" id="-108" lat="37.310120871" lon="-121.901918326"/>
<node visible="true" id="-109" lat="37.310120912" lon="-121.901919566"/>
<node visible="true" id="-110" lat="37.310121035" lon="-121.90192077100001"/>
<node visible="true" id="-111" lat="37.310121213" lon="-121.901921978"/>
<node visible="true" id="-112" lat="37.310121473" lon="-121.90192318700001"/>
<node visible="true" id="-113" lat="37.310121817" lon="-121.901924327"/>
<node visible="true" id="-114" lat="37.310122243" lon="-121.90192543600001"/>
<node visible="true" id="-115" lat="37.310122725" lon="-121.90192651100001"/>
<node visible="true" id="-116" lat="37.310123289" lon="-121.90192751900001"/>
<node visible="true" id="-117" lat="37.310123909000005" lon="-121.90192849300001"/>
<node visible="true" id="-118" lat="37.310124586" lon="-121.901929366"/>
<node visible="true" id="-119" lat="37.310125344" lon="-121.901930206"/>
<node visible="true" id="-120" lat="37.310126132" lon="-121.90193094300001"/>
<node visible="true" id="-121" lat="37.310126949" lon="-121.90193157600001"/>
<node visible="true" id="-122" lat="37.310127821" lon="-121.90193214300001"/>
<node visible="true" id="-123" lat="37.310128748000004" lon="-121.901932642"/>
<node visible="true" id="-124" lat="37.310129679" lon="-121.90193300400001"/>
<node visible="true" id="-125" lat="37.310130636000004" lon="-121.90193329600001"/>
<node visible="true" id="-126" lat="37.310131595" lon="-121.901933485"/>
<node visible="true" id="-127" lat="37.310132583000005" lon="-121.90193357400001"/>
<node visible="true" id="-128" lat="37.310133572000005" lon="-121.90193355900001"/>
<node visible="true" id="-129" lat="37.310134535" lon="-121.90193343800001"/>
<node visible="true" id="-130" lat="37.310135526" lon="-121.901933251"/>
<node visible="true" id="-131" lat="37.310136464" lon="-121.90193292400001"/>
<node visible="true" id="-132" lat="37.310137402" lon="-121.901932529"/>
<node visible="true" id="-133" lat="37.310138287" lon="-121.90193203000001"/>
<node visible="true" id="-134" lat="37.310139173" lon="-121.90193142800001"/>
<node visible="true" id="-135" lat="37.310139978" lon="-121.901930754"/>
<node visible="true" id="-136" lat="37.310140757" lon="-121.901929979"/>
<node visible="true" id="-137" lat="37.310141480000006" lon="-121.901929167"/>
<node visible="true" id="-138" lat="37.310142150000004" lon="-121.901928251"/>
<node visible="true" id="-139" lat="37.310142767" lon="-121.90192726500001"/>
<node visible="true" id="-140" lat="37.310143301000004" lon="-121.90192624400001"/>
<node visible="true" id="-141" lat="37.310151334000004" lon="-121.90193206900001"/>
<node visible="true" id="-142" lat="37.310147217" lon="-121.90194100100001"/>
<node visible="true" id="-143" lat="37.310203776" lon="-121.901982089"/>
<node visible="true" id="-144" lat="37.310210796" lon="-121.901966954"/>
<node visible="true" id="-146" lat="37.312458213" lon="-121.90340775400001"/>
<node visible="true" id="-147" lat="37.312502479" lon="-121.90357162500001"/>
<node visible="true" id="-148" lat="37.312482644" lon="-121.903581087"/>
<node visible="true" id="-149" lat="37.312505659" lon="-121.90367533400001"/>
<node visible="true" id="-150" lat="37.312644898" lon="-121.903617596"/>
<node visible="true" id="-151" lat="37.312579093000004" lon="-121.90336476700001"/>
<node visible="true" id="-152" lat="37.312577015" lon="-121.90335929400001"/>
<node visible="true" id="-153" lat="37.312563827000005" lon="-121.903350415"/>
<node visible="true" id="-154" lat="37.312551563" lon="-121.903324049"/>
<node visible="true" id="-155" lat="37.312539652000005" lon="-121.90333008500001"/>
<node visible="true" id="-156" lat="37.312549825000005" lon="-121.90335679"/>
<node visible="true" id="-157" lat="37.312465296" lon="-121.903392103"/>
<node visible="true" id="-160" lat="37.309278435" lon="-121.899627807"/>
<node visible="true" id="-161" lat="37.309500774" lon="-121.899785202"/>
<node visible="true" id="-162" lat="37.309621983" lon="-121.899516805"/>
<node visible="true" id="-163" lat="37.309400052" lon="-121.89935969300001"/>
<node visible="true" id="-164" lat="37.309358436000004" lon="-121.89945183"/>
<node visible="true" id="-165" lat="37.309354269" lon="-121.899448898"/>
<node visible="true" id="-166" lat="37.309316208000006" lon="-121.89953315700001"/>
<node visible="true" id="-167" lat="37.309319994" lon="-121.899535807"/>
<node visible="true" id="-169" lat="37.309388580000004" lon="-121.89958430600001"/>
<node visible="true" id="-170" lat="37.309426583000004" lon="-121.899500183"/>
<node visible="true" id="-171" lat="37.30950421" lon="-121.899555144"/>
<node visible="true" id="-172" lat="37.309466206" lon="-121.89963926700001"/>
<node visible="true" id="-174" lat="37.311818901" lon="-121.897336311"/>
<node visible="true" id="-175" lat="37.311919231000005" lon="-121.89742233700001"/>
<node visible="true" id="-176" lat="37.311948884" lon="-121.89736810800001"/>
<node visible="true" id="-177" lat="37.311967048" lon="-121.897383649"/>
<node visible="true" id="-178" lat="37.311965503" lon="-121.897386474"/>
<node visible="true" id="-179" lat="37.312003242" lon="-121.897418818"/>
<node visible="true" id="-180" lat="37.312052103" lon="-121.897329424"/>
<node visible="true" id="-181" lat="37.311982904000004" lon="-121.897270117"/>
<node visible="true" id="-182" lat="37.311983971000004" lon="-121.897268143"/>
<node visible="true" id="-183" lat="37.311900308000006" lon="-121.89719645900001"/>
<node visible="true" id="-184" lat="37.311882083" lon="-121.897229819"/>
<node visible="true" id="-185" lat="37.311864301" lon="-121.897214597"/>
<node visible="true" id="-186" lat="37.31183389" lon="-121.89727022000001"/>
<node visible="true" id="-187" lat="37.3118483" lon="-121.897282594"/>
<node visible="true" id="-189" lat="37.309074886000005" lon="-121.900146035"/>
<node visible="true" id="-190" lat="37.309310478" lon="-121.900313791"/>
<node visible="true" id="-191" lat="37.309386307000004" lon="-121.900146848"/>
<node visible="true" id="-192" lat="37.309150716000005" lon="-121.899979094"/>
<node visible="true" id="-194" lat="37.310568710000005" lon="-121.90237944900001"/>
<node visible="true" id="-195" lat="37.31062318" lon="-121.902418298"/>
<node visible="true" id="-196" lat="37.310630994" lon="-121.90240111300001"/>
<node visible="true" id="-197" lat="37.310668172" lon="-121.902427602"/>
<node visible="true" id="-198" lat="37.310682417" lon="-121.90239630100001"/>
<node visible="true" id="-199" lat="37.310694673" lon="-121.90240502500001"/>
<node visible="true" id="-200" lat="37.310718793" lon="-121.90235196900001"/>
<node visible="true" id="-201" lat="37.310706538000005" lon="-121.902343246"/>
<node visible="true" id="-202" lat="37.310714239" lon="-121.902326333"/>
<node visible="true" id="-203" lat="37.310662953000005" lon="-121.90228977900001"/>
<node visible="true" id="-204" lat="37.31067703" lon="-121.902258852"/>
<node visible="true" id="-205" lat="37.310636640000006" lon="-121.90223006800001"/>
<node visible="true" id="-207" lat="37.309800788000004" lon="-121.898461861"/>
<node visible="true" id="-208" lat="37.309935749000005" lon="-121.89855750900001"/>
<node visible="true" id="-209" lat="37.310038189000004" lon="-121.898330986"/>
<node visible="true" id="-210" lat="37.310049274" lon="-121.898338828"/>
<node visible="true" id="-211" lat="37.310066852000006" lon="-121.89829995400001"/>
<node visible="true" id="-212" lat="37.30996501" lon="-121.89822779400001"/>
<node visible="true" id="-213" lat="37.309897301" lon="-121.89837742200001"/>
<node visible="true" id="-214" lat="37.309867392" lon="-121.898386457"/>
<node visible="true" id="-215" lat="37.309842769" lon="-121.89836897500001"/>
<node visible="true" id="-217" lat="37.308403392" lon="-121.90151180800001"/>
<node visible="true" id="-218" lat="37.308452793" lon="-121.9015475"/>
<node visible="true" id="-219" lat="37.308456261" lon="-121.90153993000001"/>
<node visible="true" id="-220" lat="37.308464568000005" lon="-121.901545932"/>
<node visible="true" id="-221" lat="37.308461157" lon="-121.90155326200001"/>
<node visible="true" id="-222" lat="37.308480955" lon="-121.90156756"/>
<node visible="true" id="-223" lat="37.308484649" lon="-121.90155954800001"/>
<node visible="true" id="-224" lat="37.308493608" lon="-121.901566008"/>
<node visible="true" id="-225" lat="37.308491438000004" lon="-121.901570679"/>
<node visible="true" id="-226" lat="37.308532585" lon="-121.901600439"/>
<node visible="true" id="-227" lat="37.308561771" lon="-121.901537199"/>
<node visible="true" id="-228" lat="37.308594124" lon="-121.90156056900001"/>
<node visible="true" id="-229" lat="37.308606615" lon="-121.90153349900001"/>
<node visible="true" id="-230" lat="37.308574264" lon="-121.901510094"/>
<node visible="true" id="-231" lat="37.308631368" lon="-121.901386235"/>
<node visible="true" id="-232" lat="37.308589021" lon="-121.901355628"/>
<node visible="true" id="-233" lat="37.308579293" lon="-121.90137673000001"/>
<node visible="true" id="-234" lat="37.30855865" lon="-121.901361832"/>
<node visible="true" id="-235" lat="37.308564545" lon="-121.901349013"/>
<node visible="true" id="-236" lat="37.308520291" lon="-121.90131702900001"/>
<node visible="true" id="-237" lat="37.308508251" lon="-121.90134310900001"/>
<node visible="true" id="-238" lat="37.308524046" lon="-121.90135454600001"/>
<node visible="true" id="-239" lat="37.308518969000005" lon="-121.90136555800001"/>
<node visible="true" id="-240" lat="37.308482886" lon="-121.90133947000001"/>
<node visible="true" id="-242" lat="37.308854754" lon="-121.900576262"/>
<node visible="true" id="-243" lat="37.308894139" lon="-121.90060413200001"/>
<node visible="true" id="-244" lat="37.308881977000006" lon="-121.90063113900001"/>
<node visible="true" id="-245" lat="37.308938059" lon="-121.90067077200001"/>
<node visible="true" id="-246" lat="37.308950616000004" lon="-121.90064291300001"/>
<node visible="true" id="-247" lat="37.309006044" lon="-121.900682087"/>
<node visible="true" id="-248" lat="37.309061601" lon="-121.90055892100001"/>
<node visible="true" id="-249" lat="37.308911412" lon="-121.90045277200001"/>
<node visible="true" id="-250" lat="37.308890533" lon="-121.90049907900001"/>
<node visible="true" id="-251" lat="37.308894509000005" lon="-121.90050190500001"/>
<node visible="true" id="-252" lat="37.308879781" lon="-121.900534538"/>
<node visible="true" id="-253" lat="37.308875068" lon="-121.90053121700001"/>
<node visible="true" id="-255" lat="37.309657351000006" lon="-121.90151441200001"/>
<node visible="true" id="-256" lat="37.310027813000005" lon="-121.90178270800001"/>
<node visible="true" id="-257" lat="37.310100423" lon="-121.90162557500001"/>
<node visible="true" id="-258" lat="37.310120766000004" lon="-121.90164029600001"/>
<node visible="true" id="-259" lat="37.310147751" lon="-121.901581894"/>
<node visible="true" id="-260" lat="37.310127409" lon="-121.901567173"/>
<node visible="true" id="-261" lat="37.310132456000005" lon="-121.90155622900001"/>
<node visible="true" id="-262" lat="37.309761993" lon="-121.90128793500001"/>
<way visible="true" id="-1"><nd ref="-2"/><nd ref="-3"/><nd ref="-4"/><nd ref="-5"/><nd ref="-2"/><tag k="building" v="yes"/><tag k="height" v="4.15"/><tag k="ele" v="40.64"/></way>
<way visible="true" id="-6"><nd ref="-7"/><nd ref="-8"/><nd ref="-9"/><nd ref="-10"/><nd ref="-7"/><tag k="building" v="yes"/><tag k="height" v="2.82"/><tag k="ele" v="38.26"/></way>
<way visible="true" id="-11"><nd ref="-12"/><nd ref="-13"/><nd ref="-14"/><nd ref="-15"/><nd ref="-16"/><nd ref="-17"/><nd ref="-18"/><nd ref="-19"/><nd ref="-12"/><tag k="building" v="yes"/><tag k="height" v="3.87"/><tag k="ele" v="39.96"/></way>
<way visible="true" id="-20"><nd ref="-21"/><nd ref="-22"/><nd ref="-23"/><nd ref="-24"/><nd ref="-21"/><tag k="building" v="yes"/><tag k="height" v="5.34"/><tag k="ele" v="41.29"/></way>
<way visible="true" id="-25"><nd ref="-26"/><nd ref="-27"/><nd ref="-28"/><nd ref="-29"/><nd ref="-30"/><nd ref="-31"/><nd ref="-32"/><nd ref="-33"/><nd ref="-26"/><tag k="building" v="yes"/><tag k="height" v="4.45"/><tag k="ele" v="41.02"/></way>
<way visible="true" id="-34"><nd ref="-35"/><nd ref="-36"/><nd ref="-37"/><nd ref="-38"/><nd ref="-39"/><nd ref="-40"/><nd ref="-35"/><tag k="building" v="yes"/><tag k="height" v="6.17"/><tag k="ele" v="43.62"/></way>
<way visible="true" id="-80"><nd ref="-81"/><nd ref="-82"/><nd ref="-83"/><nd ref="-84"/><nd ref="-85"/><nd ref="-86"/><nd ref="-87"/><nd ref="-88"/><nd ref="-89"/><nd ref="-90"/><nd ref="-91"/><nd ref="-92"/><nd ref="-93"/><nd ref="-94"/><nd ref="-81"/><tag k="building" v="yes"/><tag k="height" v="4.97"/><tag k="ele" v="41.29"/><tag k="addr:city" v="San Jose"/><tag k="addr:housenumber" v="1058"/><tag k="addr:street" v="Lincoln Avenue"/><tag k="addr:postcode" v="95125"/></way>
<way visible="true" id="-95"><nd ref="-96"/><nd ref="-97"/><nd ref="-98"/><nd ref="-99"/><nd ref="-100"/><nd ref="-101"/><nd ref="-102"/><nd ref="-103"/><nd ref="-104"/><nd ref="-105"/><nd ref="-106"/><nd ref="-107"/><nd ref="-108"/><nd ref="-109"/><nd ref="-110"/><nd ref="-111"/><nd ref="-112"/><nd ref="-113"/><nd ref="-114"/><nd ref="-115"/><nd ref="-116"/><nd ref="-117"/><nd ref="-118"/><nd ref="-119"/><nd ref="-120"/><nd ref="-121"/><nd ref="-122"/><nd ref="-123"/><nd ref="-124"/><nd ref="-125"/><nd ref="-126"/><nd ref="-127"/><nd ref="-128"/><nd ref="-129"/><nd ref="-130"/><nd ref="-131"/><nd ref="-132"/><nd ref="-133"/><nd ref="-134"/><nd ref="-135"/><nd ref="-136"/><nd ref="-137"/><nd ref="-138"/><nd ref="-139"/><nd ref="-140"/><nd ref="-141"/><nd ref="-142"/><nd ref="-143"/><nd ref="-144"/><nd ref="-96"/><tag k="building" v="yes"/><tag k="height" v="4.16"/><tag k="ele" v="40.37"/><tag k="addr:city" v="San Jose"/><tag k="addr:housenumber" v="1072"/><tag k="addr:street" v="Lincoln Avenue"/><tag k="addr:postcode" v="95125"/></way>
<way visible="true" id="-145"><nd ref="-146"/><nd ref="-147"/><nd ref="-148"/><nd ref="-149"/><nd ref="-150"/><nd ref="-151"/><nd ref="-152"/><nd ref="-153"/><nd ref="-154"/><nd ref="-155"/><nd ref="-156"/><nd ref="-157"/><nd ref="-146"/><tag k="building" v="yes"/><tag k="height" v="6.99"/><tag k="ele" v="43.92"/><tag k="addr:city" v="San Jose"/><tag k="addr:housenumber" v="990"/><tag k="addr:street" v="Coe Avenue"/><tag k="addr:postcode" v="95125"/></way>
<way visible="true" id="-159"><nd ref="-160"/><nd ref="-161"/><nd ref="-162"/><nd ref="-163"/><nd ref="-164"/><nd ref="-165"/><nd ref="-166"/><nd ref="-167"/><nd ref="-160"/></way>
<way visible="true" id="-168"><nd ref="-169"/><nd ref="-170"/><nd ref="-171"/><nd ref="-172"/><nd ref="-169"/></way>
<way visible="true" id="-173"><nd ref="-174"/><nd ref="-175"/><nd ref="-176"/><nd ref="-177"/><nd ref="-178"/><nd ref="-179"/><nd ref="-180"/><nd ref="-181"/><nd ref="-182"/><nd ref="-183"/><nd ref="-184"/><nd ref="-185"/><nd ref="-186"/><nd ref="-187"/><nd ref="-174"/><tag k="building" v="yes"/><tag k="height" v="7.07"/><tag k="ele" v="42.43"/><tag k="addr:city" v="San Jose"/><tag k="addr:housenumber" v="702"/><tag k="addr:street" v="Iris Gardens Court"/><tag k="addr:postcode" v="95125"/></way>
<way visible="true" id="-188"><nd ref="-189"/><nd ref="-190"/><nd ref="-191"/><nd ref="-192"/><nd ref="-189"/><tag k="building" v="yes"/><tag k="height" v="4.75"/><tag k="ele" v="40.37"/><tag k="addr:city" v="San Jose"/><tag k="addr:housenumber" v="1045"/><tag k="addr:street" v="Willow Street"/><tag k="addr:postcode" v="95125"/></way>
<way visible="true" id="-193"><nd ref="-194"/><nd ref="-195"/><nd ref="-196"/><nd ref="-197"/><nd ref="-198"/><nd ref="-199"/><nd ref="-200"/><nd ref="-201"/><nd ref="-202"/><nd ref="-203"/><nd ref="-204"/><nd ref="-205"/><nd ref="-194"/><tag k="building" v="yes"/><tag k="height" v="5.04"/><tag k="ele" v="41.19"/><tag k="addr:city" v="San Jose"/><tag k="addr:housenumber" v="1056"/><tag k="addr:street" v="Lincoln Avenue"/><tag k="addr:postcode" v="95125"/></way>
<way visible="true" id="-206"><nd ref="-207"/><nd ref="-208"/><nd ref="-209"/><nd ref="-210"/><nd ref="-211"/><nd ref="-212"/><nd ref="-213"/><nd ref="-214"/><nd ref="-215"/><nd ref="-207"/><tag k="building" v="yes"/><tag k="height" v="8.20"/><tag k="ele" v="43.87"/><tag k="addr:city" v="San Jose"/><tag k="addr:housenumber" v="945"/><tag k="addr:street" v="Willow Street"/><tag k="addr:postcode" v="95125"/></way>
<way visible="true" id="-216"><nd ref="-217"/><nd ref="-218"/><nd ref="-219"/><nd ref="-220"/><nd ref="-221"/><nd ref="-222"/><nd ref="-223"/><nd ref="-224"/><nd ref="-225"/><nd ref="-226"/><nd ref="-227"/><nd ref="-228"/><nd ref="-229"/><nd ref="-230"/><nd ref="-231"/><nd ref="-232"/><nd ref="-233"/><nd ref="-234"/><nd ref="-235"/><nd ref="-236"/><nd ref="-237"/><nd ref="-238"/><nd ref="-239"/><nd ref="-240"/><nd ref="-217"/><tag k="building" v="yes"/><tag k="height" v="8.01"/><tag k="ele" v="46.64"/><tag k="addr:city" v="San Jose"/><tag k="addr:housenumber" v="1099"/><tag k="addr:street" v="Lincoln Avenue"/><tag k="addr:postcode" v="95125"/></way>
<way visible="true" id="-241"><nd ref="-242"/><nd ref="-243"/><nd ref="-244"/><nd ref="-245"/><nd ref="-246"/><nd ref="-247"/><nd ref="-248"/><nd ref="-249"/><nd ref="-250"/><nd ref="-251"/><nd ref="-252"/><nd ref="-253"/><nd ref="-242"/><tag k="building" v="yes"/><tag k="height" v="6.17"/><tag k="ele" v="43.74"/><tag k="addr:city" v="San Jose"/><tag k="addr:housenumber" v="1075"/><tag k="addr:street" v="Willow Street"/><tag k="addr:postcode" v="95125"/></way>
<way visible="true" id="-254"><nd ref="-255"/><nd ref="-256"/><nd ref="-257"/><nd ref="-258"/><nd ref="-259"/><nd ref="-260"/><nd ref="-261"/><nd ref="-262"/><nd ref="-255"/><tag k="building" v="yes"/><tag k="height" v="3.63"/><tag k="ele" v="39.81"/><tag k="addr:city" v="San Jose"/><tag k="addr:housenumber" v="1074"/><tag k="addr:street" v="Lincoln Avenue"/><tag k="addr:postcode" v="95125"/></way>
<relation visible="true" id="-158"><member type="way" ref="-159" role="outer"/><member type="way" ref="-168" role="inner"/><tag k="type" v="multipolygon"/><tag k="building" v="yes"/><tag k="height" v="5.78"/><tag k="ele" v="41.55"/><tag k="addr:city" v="San Jose"/><tag k="addr:housenumber" v="1007"/><tag k="addr:street" v="Willow Street"/><tag k="addr:unit" v="1-17"/><tag k="addr:postcode" v="95125"/></relation>
</osm>