<?xml version="1.0"?>
<osm version="0.6" generator="uvmogr2osm" upload="false">
<node visible="true" id="-2" lat="37.251548096" lon="-121.83241200200001"/>
<node visible="true" id="-3" lat="37.251553149" lon="-121.83241209200001"/>
<node visible="true" id="-4" lat="37.251552008000004" lon="-121.832507559"/>
<node visible="true" id="-5" lat="37.251715378" lon="-121.83251057400001"/>
<node visible="true" id="-6" lat="37.251715424000004" lon="-121.832506553"/>
<node visible="true" id="-7" lat="37.252220556000005" lon="-121.83251589500001"/>
<node visible="true" id="-8" lat="37.252223548" lon="-121.83226267200001"/>
<node visible="true" id="-9" lat="37.252263202" lon="-121.832263413"/>
<node visible="true" id="-10" lat="37.252270112000005" lon="-121.83167784800001"/>
<node visible="true" id="-11" lat="37.252242348" lon="-121.831677354"/>
<node visible="true" id="-12" lat="37.252243161" lon="-121.83160826900001"/>
<node visible="true" id="-13" lat="37.25218118" lon="-121.83160713000001"/>
<node visible="true" id="-14" lat="37.252181258" lon="-121.83160029400001"/>
<node visible="true" id="-15" lat="37.252127432" lon="-121.83159930100001"/>
<node visible="true" id="-16" lat="37.252127355" lon="-121.83160613800001"/>
<node visible="true" id="-17" lat="37.252068505000004" lon="-121.831605056"/>
<node visible="true" id="-18" lat="37.252066768" lon="-121.831750442"/>
<node visible="true" id="-19" lat="37.252060122" lon="-121.83175032300001"/>
<node visible="true" id="-20" lat="37.252059157000005" lon="-121.831832704"/>
<node visible="true" id="-21" lat="37.252065804000004" lon="-121.83183282200001"/>
<node visible="true" id="-22" lat="37.252064875" lon="-121.831912008"/>
<node visible="true" id="-23" lat="37.252059218" lon="-121.831911907"/>
<node visible="true" id="-24" lat="37.252058125000005" lon="-121.83200555600001"/>
<node visible="true" id="-25" lat="37.252063781000004" lon="-121.83200565700001"/>
<node visible="true" id="-26" lat="37.252062977" lon="-121.832073953"/>
<node visible="true" id="-27" lat="37.252075307000005" lon="-121.83207417300001"/>
<node visible="true" id="-28" lat="37.252074709000006" lon="-121.83212673400001"/>
<node visible="true" id="-29" lat="37.252045067000005" lon="-121.83216341900001"/>
<node visible="true" id="-30" lat="37.252041655" lon="-121.83215909900001"/>
<node visible="true" id="-31" lat="37.25202024" lon="-121.83215827000001"/>
<node visible="true" id="-32" lat="37.251981206" lon="-121.83220667600001"/>
<node visible="true" id="-33" lat="37.251981587" lon="-121.83223355400001"/>
<node visible="true" id="-34" lat="37.251984999" lon="-121.832237875"/>
<node visible="true" id="-35" lat="37.251957947" lon="-121.83227141200001"/>
<node visible="true" id="-36" lat="37.251913980000005" lon="-121.83227059400001"/>
<node visible="true" id="-37" lat="37.251914093" lon="-121.8322607"/>
<node visible="true" id="-38" lat="37.251857275" lon="-121.83225965400001"/>
<node visible="true" id="-39" lat="37.251857417000004" lon="-121.832249554"/>
<node visible="true" id="-40" lat="37.251783187" lon="-121.832248198"/>
<node visible="true" id="-41" lat="37.251783072" lon="-121.83225829700001"/>
<node visible="true" id="-42" lat="37.251720543000005" lon="-121.832257114"/>
<node visible="true" id="-43" lat="37.251720651" lon="-121.83224759900001"/>
<node visible="true" id="-44" lat="37.251646174" lon="-121.832246204"/>
<node visible="true" id="-45" lat="37.251646065" lon="-121.832255754"/>
<node visible="true" id="-46" lat="37.251553025" lon="-121.83225402800001"/>
<node visible="true" id="-47" lat="37.251551979000006" lon="-121.83234352000001"/>
<node visible="true" id="-48" lat="37.251548904" lon="-121.83234346600001"/>
<node visible="true" id="-50" lat="37.256670176" lon="-121.83692142700001"/>
<node visible="true" id="-51" lat="37.256668783" lon="-121.83708425100001"/>
<node visible="true" id="-52" lat="37.256799811" lon="-121.837086009"/>
<node visible="true" id="-53" lat="37.256801204000006" lon="-121.836923185"/>
<node visible="true" id="-55" lat="37.257187199" lon="-121.837046473"/>
<node visible="true" id="-56" lat="37.257253849" lon="-121.83704770000001"/>
<node visible="true" id="-57" lat="37.257255772" lon="-121.83688413"/>
<node visible="true" id="-58" lat="37.257189121" lon="-121.836882904"/>
<node visible="true" id="-60" lat="37.251884262000004" lon="-121.831270914"/>
<node visible="true" id="-61" lat="37.251882194000004" lon="-121.831452682"/>
<node visible="true" id="-62" lat="37.252244418000004" lon="-121.83145912900001"/>
<node visible="true" id="-63" lat="37.252246485" lon="-121.83127739400001"/>
<node visible="true" id="-65" lat="37.252378130000004" lon="-121.834539558"/>
<node visible="true" id="-66" lat="37.252730163" lon="-121.83455326100001"/>
<node visible="true" id="-67" lat="37.252734316" lon="-121.83438654400001"/>
<node visible="true" id="-68" lat="37.252382283" lon="-121.834372876"/>
<node visible="true" id="-70" lat="37.251564040000005" lon="-121.83278235200001"/>
<node visible="true" id="-71" lat="37.251562224000004" lon="-121.832978143"/>
<node visible="true" id="-72" lat="37.251581943000005" lon="-121.83297842500001"/>
<node visible="true" id="-73" lat="37.251581907" lon="-121.83298395700001"/>
<node visible="true" id="-74" lat="37.251620108000004" lon="-121.83298450000001"/>
<node visible="true" id="-75" lat="37.251620171" lon="-121.83297896900001"/>
<node visible="true" id="-76" lat="37.252415225" lon="-121.832990593"/>
<node visible="true" id="-77" lat="37.25241495" lon="-121.83302196100001"/>
<node visible="true" id="-78" lat="37.252977393" lon="-121.83303019700001"/>
<node visible="true" id="-79" lat="37.252978726" lon="-121.832888995"/>
<node visible="true" id="-80" lat="37.252420347000005" lon="-121.83288083100001"/>
<node visible="true" id="-81" lat="37.252420968" lon="-121.83281428500001"/>
<node visible="true" id="-82" lat="37.251764273" lon="-121.83280468100001"/>
<node visible="true" id="-83" lat="37.251764467" lon="-121.83278527"/>
<node visible="true" id="-85" lat="37.251703548" lon="-121.83141868000001"/>
<node visible="true" id="-86" lat="37.251782811000005" lon="-121.831470018"/>
<node visible="true" id="-87" lat="37.251798736000005" lon="-121.83144164400001"/>
<node visible="true" id="-88" lat="37.251817578" lon="-121.831453834"/>
<node visible="true" id="-89" lat="37.251845002" lon="-121.831387558"/>
<node visible="true" id="-90" lat="37.251826161000004" lon="-121.831375334"/>
<node visible="true" id="-91" lat="37.251869311" lon="-121.83126198800001"/>
<node visible="true" id="-92" lat="37.251789337000005" lon="-121.83121015900001"/>
<node visible="true" id="-93" lat="37.251726995000006" lon="-121.83135436100001"/>
<node visible="true" id="-94" lat="37.25172211" lon="-121.831361181"/>
<node visible="true" id="-96" lat="37.253292370000004" lon="-121.83186156800001"/>
<node visible="true" id="-97" lat="37.253291629" lon="-121.831950825"/>
<node visible="true" id="-98" lat="37.253292892000005" lon="-121.831950847"/>
<node visible="true" id="-99" lat="37.253292189" lon="-121.83203436900001"/>
<node visible="true" id="-100" lat="37.253303119" lon="-121.83203452900001"/>
<node visible="true" id="-101" lat="37.253303193" lon="-121.8320257"/>
<node visible="true" id="-102" lat="37.25398434" lon="-121.832034702"/>
<node visible="true" id="-103" lat="37.253988108" lon="-121.83158761600001"/>
<node visible="true" id="-104" lat="37.253857547" lon="-121.831585876"/>
<node visible="true" id="-105" lat="37.253857624000005" lon="-121.831574332"/>
<node visible="true" id="-106" lat="37.253850429" lon="-121.83157423700001"/>
<node visible="true" id="-107" lat="37.253850406000005" lon="-121.83157626500001"/>
<node visible="true" id="-108" lat="37.253827089000005" lon="-121.83157595300001"/>
<node visible="true" id="-109" lat="37.253824612" lon="-121.83186857000001"/>
<node visible="true" id="-111" lat="37.252571876000005" lon="-121.831109763"/>
<node visible="true" id="-112" lat="37.252570517" lon="-121.83123179200001"/>
<node visible="true" id="-113" lat="37.252583973" lon="-121.83123199600001"/>
<node visible="true" id="-114" lat="37.252582713" lon="-121.83134529700001"/>
<node visible="true" id="-115" lat="37.252703106000006" lon="-121.831347371"/>
<node visible="true" id="-116" lat="37.252704069" lon="-121.83126038600001"/>
<node visible="true" id="-117" lat="37.252709341" lon="-121.83126048000001"/>
<node visible="true" id="-118" lat="37.252710927" lon="-121.83111862800001"/>
<node visible="true" id="-119" lat="37.252655014000005" lon="-121.83111763400001"/>
<node visible="true" id="-120" lat="37.252655087" lon="-121.83111121"/>
<node visible="true" id="-122" lat="37.257405522" lon="-121.83688680600001"/>
<node visible="true" id="-123" lat="37.257403901" lon="-121.83704794200001"/>
<node visible="true" id="-124" lat="37.25746951" lon="-121.837048976"/>
<node visible="true" id="-125" lat="37.257471158" lon="-121.836887841"/>
<node visible="true" id="-127" lat="37.257332373000004" lon="-121.83688457000001"/>
<node visible="true" id="-128" lat="37.257331189000006" lon="-121.837048463"/>
<node visible="true" id="-129" lat="37.257397981000004" lon="-121.83704921100001"/>
<node visible="true" id="-130" lat="37.257399166" lon="-121.83688531700001"/>
<node visible="true" id="-132" lat="37.25726083" lon="-121.83704730800001"/>
<node visible="true" id="-133" lat="37.257325992000005" lon="-121.83704895400001"/>
<node visible="true" id="-134" lat="37.257328605000005" lon="-121.83688512200001"/>
<node visible="true" id="-135" lat="37.257263470000005" lon="-121.83688347600001"/>
<node visible="true" id="-137" lat="37.252401301" lon="-121.83208798400001"/>
<node visible="true" id="-138" lat="37.252397635" lon="-121.83244627200001"/>
<node visible="true" id="-139" lat="37.252426636" lon="-121.83244672000001"/>
<node visible="true" id="-140" lat="37.252425720000005" lon="-121.832536867"/>
<node visible="true" id="-141" lat="37.252537382" lon="-121.83253865100001"/>
<node visible="true" id="-142" lat="37.252541976" lon="-121.83208914900001"/>
<node visible="true" id="-143" lat="37.252430314" lon="-121.83208733200001"/>
<node visible="true" id="-144" lat="37.252430329" lon="-121.832088466"/>
<node visible="true" id="-146" lat="37.25228542" lon="-121.831126451"/>
<node visible="true" id="-147" lat="37.252284151000005" lon="-121.83125981900001"/>
<node visible="true" id="-148" lat="37.25252761" lon="-121.831263465"/>
<node visible="true" id="-149" lat="37.252528879" lon="-121.83113009600001"/>
<node visible="true" id="-151" lat="37.252733344" lon="-121.83213004400001"/>
<node visible="true" id="-152" lat="37.252730759" lon="-121.832369326"/>
<node visible="true" id="-153" lat="37.252786507" lon="-121.83237025000001"/>
<node visible="true" id="-154" lat="37.252789093000004" lon="-121.832130968"/>
<node visible="true" id="-155" lat="37.252825211" lon="-121.839189809"><tag k="addr:city" v="San Jose"/><tag k="addr:housenumber" v="449"/><tag k="addr:street" v="Velasco Drive"/><tag k="addr:postcode" v="95123"/></node>
<node visible="true" id="-156" lat="37.253448519" lon="-121.84079628100001"><tag k="addr:city" v="San Jose"/><tag k="addr:housenumber" v="467"/><tag k="addr:street" v="Velasco Drive"/><tag k="addr:postcode" v="95123"/></node>
<node visible="true" id="-157" lat="37.254306272" lon="-121.84083038000001"><tag k="addr:city" v="San Jose"/><tag k="addr:housenumber" v="468"/><tag k="addr:street" v="Don Marco Court"/><tag k="addr:postcode" v="95123"/></node>
<node visible="true" id="-158" lat="37.254289666000005" lon="-121.84214519400001"><tag k="addr:city" v="San Jose"/><tag k="addr:housenumber" v="493"/><tag k="addr:street" v="Velasco Drive"/><tag k="addr:postcode" v="95123"/></node>
<node visible="true" id="-159" lat="37.254344584" lon="-121.842156317"><tag k="addr:city" v="San Jose"/><tag k="addr:housenumber" v="495"/><tag k="addr:street" v="Velasco Drive"/><tag k="addr:postcode" v="95123"/></node>
<node visible="true" id="-160" lat="37.252932747" lon="-121.833842085"><tag k="addr:city" v="San Jose"/><tag k="addr:housenumber" v="534"/><tag k="addr:street" v="Giuffrida Avenue"/><tag k="addr:postcode" v="95123"/></node>
<node visible="true" id="-161" lat="37.254523901" lon="-121.84051601700001"><tag k="addr:city" v="San Jose"/><tag k="addr:housenumber" v="5453"/><tag k="addr:street" v="Don Edmondo Court"/><tag k="addr:postcode" v="95123"/></node>
<node visible="true" id="-162" lat="37.254309182" lon="-121.84176783400001"><tag k="addr:city" v="San Jose"/><tag k="addr:housenumber" v="5466"/><tag k="addr:street" v="Don Diablo Court"/><tag k="addr:postcode" v="95123"/></node>
<node visible="true" id="-163" lat="37.253638947" lon="-121.83804819800001"><tag k="addr:city" v="San Jose"/><tag k="addr:housenumber" v="5479"/><tag k="addr:street" v="Don Juan Circle"/><tag k="addr:postcode" v="95123"/></node>
<node visible="true" id="-164" lat="37.254143498000005" lon="-121.84174376400001"><tag k="addr:city" v="San Jose"/><tag k="addr:housenumber" v="5480"/><tag k="addr:street" v="Don Diablo Court"/><tag k="addr:postcode" v="95123"/></node>
<node visible="true" id="-165" lat="37.253871944000004" lon="-121.84159598400001"><tag k="addr:city" v="San Jose"/><tag k="addr:housenumber" v="5505"/><tag k="addr:street" v="Don Rodolfo Court"/><tag k="addr:postcode" v="95123"/></node>
<node visible="true" id="-166" lat="37.253817545000004" lon="-121.84162589900001"><tag k="addr:city" v="San Jose"/><tag k="addr:housenumber" v="5507"/><tag k="addr:street" v="Don Rodolfo Court"/><tag k="addr:postcode" v="95123"/></node>
<node visible="true" id="-167" lat="37.253051444" lon="-121.839320927"><tag k="addr:city" v="San Jose"/><tag k="addr:housenumber" v="5530"/><tag k="addr:street" v="Don Octavio Court"/><tag k="addr:postcode" v="95123"/></node>
<node visible="true" id="-168" lat="37.252994470000004" lon="-121.83936227500001"><tag k="addr:city" v="San Jose"/><tag k="addr:housenumber" v="5532"/><tag k="addr:street" v="Don Octavio Court"/><tag k="addr:postcode" v="95123"/></node>
<node visible="true" id="-169" lat="37.252942222" lon="-121.83939872500001"><tag k="addr:city" v="San Jose"/><tag k="addr:housenumber" v="5534"/><tag k="addr:street" v="Don Octavio Court"/><tag k="addr:postcode" v="95123"/></node>
<node visible="true" id="-170" lat="37.252417889" lon="-121.83802993500001"><tag k="addr:city" v="San Jose"/><tag k="addr:housenumber" v="5547"/><tag k="addr:street" v="Don Juan Circle"/><tag k="addr:postcode" v="95123"/></node>
<node visible="true" id="-171" lat="37.252355823" lon="-121.838021815"><tag k="addr:city" v="San Jose"/><tag k="addr:housenumber" v="5549"/><tag k="addr:street" v="Don Juan Circle"/><tag k="addr:postcode" v="95123"/></node>
<node visible="true" id="-172" lat="37.252859176" lon="-121.83924123700001"><tag k="addr:city" v="San Jose"/><tag k="addr:housenumber" v="451"/><tag k="addr:street" v="Velasco Drive"/><tag k="addr:postcode" v="95123"/></node>
<node visible="true" id="-173" lat="37.252804657000006" lon="-121.83912796800001"><tag k="addr:city" v="San Jose"/><tag k="addr:housenumber" v="447"/><tag k="addr:street" v="Velasco Drive"/><tag k="addr:postcode" v="95123"/></node>
<node visible="true" id="-174" lat="37.255220874" lon="-121.841452653"><tag k="addr:city" v="San Jose"/><tag k="addr:housenumber" v="416"/><tag k="addr:street" v="Colony Cove Drive"/><tag k="addr:postcode" v="95123"/></node>
<node visible="true" id="-175" lat="37.255487789" lon="-121.841595475"><tag k="addr:city" v="San Jose"/><tag k="addr:housenumber" v="411"/><tag k="addr:street" v="Colony Cove Drive"/><tag k="addr:postcode" v="95123"/></node>
<node visible="true" id="-176" lat="37.255484794000004" lon="-121.84181843500001"><tag k="addr:city" v="San Jose"/><tag k="addr:housenumber" v="429"/><tag k="addr:street" v="Colony Cove Drive"/><tag k="addr:postcode" v="95123"/></node>
<node visible="true" id="-177" lat="37.255318895" lon="-121.841465647"><tag k="addr:city" v="San Jose"/><tag k="addr:housenumber" v="414"/><tag k="addr:street" v="Colony Cove Drive"/><tag k="addr:postcode" v="95123"/></node>
<node visible="true" id="-178" lat="37.258677078000005" lon="-121.842755553"><tag k="addr:city" v="San Jose"/><tag k="addr:housenumber" v="441"/><tag k="addr:street" v="Colony Crest Drive"/><tag k="addr:postcode" v="95123"/></node>
<node visible="true" id="-179" lat="37.258388377" lon="-121.84285745000001"><tag k="addr:city" v="San Jose"/><tag k="addr:housenumber" v="5352"/><tag k="addr:street" v="Colony Field Drive"/><tag k="addr:postcode" v="95123"/></node>
<node visible="true" id="-180" lat="37.258660012" lon="-121.842761158"><tag k="addr:city" v="San Jose"/><tag k="addr:housenumber" v="439"/><tag k="addr:street" v="Colony Crest Drive"/><tag k="addr:postcode" v="95123"/></node>
<node visible="true" id="-181" lat="37.25828706" lon="-121.842866044"><tag k="addr:city" v="San Jose"/><tag k="addr:housenumber" v="5356"/><tag k="addr:street" v="Colony Field Drive"/><tag k="addr:postcode" v="95123"/></node>
<node visible="true" id="-182" lat="37.252879644000004" lon="-121.833808766"><tag k="addr:city" v="San Jose"/><tag k="addr:housenumber" v="534"/><tag k="addr:street" v="Giuffrida Avenue"/><tag k="addr:unit" v="B"/><tag k="addr:postcode" v="95123"/></node>
<node visible="true" id="-183" lat="37.252574123" lon="-121.83382271800001"><tag k="addr:city" v="San Jose"/><tag k="addr:housenumber" v="536"/><tag k="addr:street" v="Giuffrida Avenue"/><tag k="addr:postcode" v="95123"/></node>
<node visible="true" id="-184" lat="37.252813450000005" lon="-121.833815868"><tag k="addr:city" v="San Jose"/><tag k="addr:housenumber" v="534"/><tag k="addr:street" v="Giuffrida Avenue"/><tag k="addr:unit" v="C"/><tag k="addr:postcode" v="95123"/></node>
<node visible="true" id="-185" lat="37.253425920000005" lon="-121.83672238800001"><tag k="addr:city" v="San Jose"/><tag k="addr:housenumber" v="388"/><tag k="addr:street" v="Don Basillo Way"/><tag k="addr:postcode" v="95123"/></node>
<node visible="true" id="-186" lat="37.252952234000006" lon="-121.83381665900001"><tag k="addr:city" v="San Jose"/><tag k="addr:housenumber" v="534"/><tag k="addr:street" v="Giuffrida Avenue"/><tag k="addr:unit" v="A"/><tag k="addr:postcode" v="95123"/></node>
<node visible="true" id="-187" lat="37.252743365" lon="-121.833819567"><tag k="addr:city" v="San Jose"/><tag k="addr:housenumber" v="534"/><tag k="addr:street" v="Giuffrida Avenue"/><tag k="addr:unit" v="D"/><tag k="addr:postcode" v="95123"/></node>
<node visible="true" id="-188" lat="37.252636299" lon="-121.833819308"><tag k="addr:city" v="San Jose"/><tag k="addr:housenumber" v="536"/><tag k="addr:street" v="Giuffrida Avenue"/><tag k="addr:unit" v="A"/><tag k="addr:postcode" v="95123"/></node>
<node visible="true" id="-189" lat="37.252167074" lon="-121.83483342900001"><tag k="addr:city" v="San Jose"/><tag k="addr:housenumber" v="5568"/><tag k="addr:street" v="Cedar Garden Court"/><tag k="addr:postcode" v="95123"/></node>
<node visible="true" id="-190" lat="37.25202048" lon="-121.83280842"><tag k="addr:city" v="San Jose"/><tag k="addr:housenumber" v="463"/><tag k="addr:street" v="Blossom Hill Road"/><tag k="addr:postcode" v="95123"/></node>
<node visible="true" id="-191" lat="37.252357542000006" lon="-121.83118878500001"><tag k="addr:city" v="San Jose"/><tag k="addr:housenumber" v="5533"/><tag k="addr:street" v="Snell Avenue"/><tag k="addr:unit" v="203"/><tag k="addr:postcode" v="95123"/></node>
<node visible="true" id="-192" lat="37.251740111000004" lon="-121.83235047500001"><tag k="addr:city" v="San Jose"/><tag k="addr:housenumber" v="461"/><tag k="addr:street" v="Blossom Hill Road"/><tag k="addr:unit" v="H2"/><tag k="addr:postcode" v="95123"/></node>
<node visible="true" id="-193" lat="37.251856102000005" lon="-121.831887605"><tag k="addr:city" v="San Jose"/><tag k="addr:housenumber" v="461"/><tag k="addr:street" v="Blossom Hill Road"/><tag k="addr:postcode" v="95123"/></node>
<node visible="true" id="-194" lat="37.253847791000005" lon="-121.83224857"><tag k="addr:city" v="San Jose"/><tag k="addr:housenumber" v="5442"/><tag k="addr:street" v="Giuffrida Court"/><tag k="addr:postcode" v="95123"/></node>
<node visible="true" id="-195" lat="37.253622632" lon="-121.83169323400001"><tag k="addr:city" v="San Jose"/><tag k="addr:housenumber" v="5489"/><tag k="addr:street" v="Snell Avenue"/><tag k="addr:postcode" v="95123"/></node>
<node visible="true" id="-196" lat="37.253747165" lon="-121.832126582"><tag k="addr:city" v="San Jose"/><tag k="addr:housenumber" v="5438"/><tag k="addr:street" v="Giuffrida Court"/><tag k="addr:postcode" v="95123"/></node>
<node visible="true" id="-197" lat="37.251789189" lon="-121.83285728800001"><tag k="addr:city" v="San Jose"/><tag k="addr:housenumber" v="463"/><tag k="addr:street" v="Blossom Hill Road"/><tag k="addr:unit" v="A-G;I;K;G1;G2;G3;G4;G6"/><tag k="addr:postcode" v="95123"/></node>
<node visible="true" id="-198" lat="37.255278293" lon="-121.841942973"><tag k="addr:city" v="San Jose"/><tag k="addr:housenumber" v="418"/><tag k="addr:street" v="Colony Cove Drive"/><tag k="addr:postcode" v="95123"/></node>
<node visible="true" id="-199" lat="37.253602912000005" lon="-121.84109140000001"><tag k="addr:city" v="San Jose"/><tag k="addr:housenumber" v="467"/><tag k="addr:street" v="Don Edgardo Court"/><tag k="addr:postcode" v="95123"/></node>
<node visible="true" id="-200" lat="37.254277265" lon="-121.84046111900001"><tag k="addr:city" v="San Jose"/><tag k="addr:housenumber" v="467"/><tag k="addr:street" v="Don Marco Court"/><tag k="addr:postcode" v="95123"/></node>
<node visible="true" id="-201" lat="37.252429757" lon="-121.83323698000001"><tag k="addr:city" v="San Jose"/><tag k="addr:housenumber" v="532"/><tag k="addr:street" v="Giuffrida Avenue"/><tag k="addr:unit" v="19"/><tag k="addr:postcode" v="95123"/></node>
<node visible="true" id="-202" lat="37.252913724" lon="-121.83321141500001"><tag k="addr:city" v="San Jose"/><tag k="addr:housenumber" v="532"/><tag k="addr:street" v="Giuffrida Avenue"/><tag k="addr:unit" v="4"/><tag k="addr:postcode" v="95123"/></node>
<node visible="true" id="-203" lat="37.25287658" lon="-121.83320738600001"><tag k="addr:city" v="San Jose"/><tag k="addr:housenumber" v="532"/><tag k="addr:street" v="Giuffrida Avenue"/><tag k="addr:unit" v="5"/><tag k="addr:postcode" v="95123"/></node>
<node visible="true" id="-204" lat="37.254080246" lon="-121.84174087800001"><tag k="addr:city" v="San Jose"/><tag k="addr:housenumber" v="5486"/><tag k="addr:street" v="Don Diablo Court"/><tag k="addr:postcode" v="95123"/></node>
<node visible="true" id="-205" lat="37.253890452" lon="-121.831729917"><tag k="addr:city" v="San Jose"/><tag k="addr:housenumber" v="5489"/><tag k="addr:street" v="Snell Avenue"/><tag k="addr:unit" v="10"/><tag k="addr:postcode" v="95123"/></node>
<node visible="true" id="-206" lat="37.25376175" lon="-121.831934931"><tag k="addr:city" v="San Jose"/><tag k="addr:housenumber" v="5489"/><tag k="addr:street" v="Snell Avenue"/><tag k="addr:unit" v="35"/><tag k="addr:postcode" v="95123"/></node>
<node visible="true" id="-207" lat="37.25367593" lon="-121.83193340400001"><tag k="addr:city" v="San Jose"/><tag k="addr:housenumber" v="5489"/><tag k="addr:street" v="Snell Avenue"/><tag k="addr:unit" v="50"/><tag k="addr:postcode" v="95123"/></node>
<node visible="true" id="-208" lat="37.253514986" lon="-121.83193352"><tag k="addr:city" v="San Jose"/><tag k="addr:housenumber" v="5489"/><tag k="addr:street" v="Snell Avenue"/><tag k="addr:unit" v="70"/><tag k="addr:postcode" v="95123"/></node>
<node visible="true" id="-209" lat="37.254111881" lon="-121.841528194"><tag k="addr:city" v="San Jose"/><tag k="addr:housenumber" v="5490"/><tag k="addr:street" v="Don Rodolfo Court"/><tag k="addr:postcode" v="95123"/></node>
<node visible="true" id="-210" lat="37.254043441" lon="-121.841409998"><tag k="addr:city" v="San Jose"/><tag k="addr:housenumber" v="5494"/><tag k="addr:street" v="Don Rodolfo Court"/><tag k="addr:postcode" v="95123"/></node>
<node visible="true" id="-211" lat="37.253108536" lon="-121.83905557700001"><tag k="addr:city" v="San Jose"/><tag k="addr:housenumber" v="5520"/><tag k="addr:street" v="Don Ricardo Court"/><tag k="addr:postcode" v="95123"/></node>
<node visible="true" id="-212" lat="37.252536109000005" lon="-121.83803005600001"><tag k="addr:city" v="San Jose"/><tag k="addr:housenumber" v="5543"/><tag k="addr:street" v="Don Juan Circle"/><tag k="addr:postcode" v="95123"/></node>
<node visible="true" id="-213" lat="37.252507699" lon="-121.838400789"><tag k="addr:city" v="San Jose"/><tag k="addr:housenumber" v="5555"/><tag k="addr:street" v="Don Scala Court"/><tag k="addr:postcode" v="95123"/></node>
<node visible="true" id="-214" lat="37.252033798" lon="-121.83469879600001"><tag k="addr:city" v="San Jose"/><tag k="addr:housenumber" v="5576"/><tag k="addr:street" v="Cedar Garden Court"/><tag k="addr:postcode" v="95123"/></node>
<node visible="true" id="-215" lat="37.251785157" lon="-121.83467508300001"><tag k="addr:city" v="San Jose"/><tag k="addr:housenumber" v="5584"/><tag k="addr:street" v="Cedar Garden Court"/><tag k="addr:postcode" v="95123"/></node>
<node visible="true" id="-216" lat="37.252924141" lon="-121.83469571"><tag k="addr:city" v="San Jose"/><tag k="addr:housenumber" v="576"/><tag k="addr:street" v="Giuffrida Avenue"/><tag k="addr:unit" v="1"/><tag k="addr:postcode" v="95123"/></node>
<node visible="true" id="-217" lat="37.252683137000005" lon="-121.834710482"><tag k="addr:city" v="San Jose"/><tag k="addr:housenumber" v="576"/><tag k="addr:street" v="Giuffrida Avenue"/><tag k="addr:unit" v="3"/><tag k="addr:postcode" v="95123"/></node>
<node visible="true" id="-218" lat="37.252476919" lon="-121.83839681200001"><tag k="addr:city" v="San Jose"/><tag k="addr:housenumber" v="5557"/><tag k="addr:street" v="Don Scala Court"/><tag k="addr:postcode" v="95123"/></node>
<node visible="true" id="-219" lat="37.255257796" lon="-121.841941094"><tag k="addr:city" v="San Jose"/><tag k="addr:housenumber" v="420"/><tag k="addr:street" v="Colony Cove Drive"/><tag k="addr:postcode" v="95123"/></node>
<node visible="true" id="-220" lat="37.25550139" lon="-121.84188501800001"><tag k="addr:city" v="San Jose"/><tag k="addr:housenumber" v="431"/><tag k="addr:street" v="Colony Cove Drive"/><tag k="addr:postcode" v="95123"/></node>
<node visible="true" id="-221" lat="37.254342589000004" lon="-121.840460676"><tag k="addr:city" v="San Jose"/><tag k="addr:housenumber" v="469"/><tag k="addr:street" v="Don Marco Court"/><tag k="addr:postcode" v="95123"/></node>
<node visible="true" id="-222" lat="37.253475199" lon="-121.84086019200001"><tag k="addr:city" v="San Jose"/><tag k="addr:housenumber" v="469"/><tag k="addr:street" v="Velasco Drive"/><tag k="addr:postcode" v="95123"/></node>
<node visible="true" id="-223" lat="37.254355955" lon="-121.840833333"><tag k="addr:city" v="San Jose"/><tag k="addr:housenumber" v="470"/><tag k="addr:street" v="Don Marco Court"/><tag k="addr:postcode" v="95123"/></node>
<node visible="true" id="-224" lat="37.252619049" lon="-121.833209292"><tag k="addr:city" v="San Jose"/><tag k="addr:housenumber" v="532"/><tag k="addr:street" v="Giuffrida Avenue"/><tag k="addr:unit" v="17"/><tag k="addr:postcode" v="95123"/></node>
<node visible="true" id="-225" lat="37.252794955" lon="-121.833238058"><tag k="addr:city" v="San Jose"/><tag k="addr:housenumber" v="532"/><tag k="addr:street" v="Giuffrida Avenue"/><tag k="addr:unit" v="6"/><tag k="addr:postcode" v="95123"/></node>
<node visible="true" id="-226" lat="37.254483363000006" lon="-121.840582779"><tag k="addr:city" v="San Jose"/><tag k="addr:housenumber" v="5449"/><tag k="addr:street" v="Don Edmondo Court"/><tag k="addr:postcode" v="95123"/></node>
<node visible="true" id="-227" lat="37.254267121000005" lon="-121.841756531"><tag k="addr:city" v="San Jose"/><tag k="addr:housenumber" v="5470"/><tag k="addr:street" v="Don Diablo Court"/><tag k="addr:postcode" v="95123"/></node>
<node visible="true" id="-228" lat="37.253703619" lon="-121.838049354"><tag k="addr:city" v="San Jose"/><tag k="addr:housenumber" v="5477"/><tag k="addr:street" v="Don Juan Circle"/><tag k="addr:postcode" v="95123"/></node>
<node visible="true" id="-229" lat="37.253582704" lon="-121.838047192"><tag k="addr:city" v="San Jose"/><tag k="addr:housenumber" v="5481"/><tag k="addr:street" v="Don Juan Circle"/><tag k="addr:postcode" v="95123"/></node>
<node visible="true" id="-230" lat="37.253822555" lon="-121.83193452100001"><tag k="addr:city" v="San Jose"/><tag k="addr:housenumber" v="5489"/><tag k="addr:street" v="Snell Avenue"/><tag k="addr:unit" v="30"/><tag k="addr:postcode" v="95123"/></node>
<node visible="true" id="-231" lat="37.253591304000004" lon="-121.831931897"><tag k="addr:city" v="San Jose"/><tag k="addr:housenumber" v="5489"/><tag k="addr:street" v="Snell Avenue"/><tag k="addr:unit" v="60"/><tag k="addr:postcode" v="95123"/></node>
<node visible="true" id="-232" lat="37.253392201000004" lon="-121.83193282600001"><tag k="addr:city" v="San Jose"/><tag k="addr:housenumber" v="5489"/><tag k="addr:street" v="Snell Avenue"/><tag k="addr:unit" v="80"/><tag k="addr:postcode" v="95123"/></node>
<node visible="true" id="-233" lat="37.253919973" lon="-121.84182469900001"><tag k="addr:city" v="San Jose"/><tag k="addr:housenumber" v="5490"/><tag k="addr:street" v="Don Diablo Court"/><tag k="addr:postcode" v="95123"/></node>
<node visible="true" id="-234" lat="37.253051864" lon="-121.838928902"><tag k="addr:city" v="San Jose"/><tag k="addr:housenumber" v="5528"/><tag k="addr:street" v="Don Ricardo Court"/><tag k="addr:postcode" v="95123"/></node>
<node visible="true" id="-235" lat="37.252032147" lon="-121.831271552"><tag k="addr:city" v="San Jose"/><tag k="addr:housenumber" v="5591"/><tag k="addr:street" v="Snell Avenue"/><tag k="addr:postcode" v="95123"/></node>
<node visible="true" id="-236" lat="37.252853097" lon="-121.834725746"><tag k="addr:city" v="San Jose"/><tag k="addr:housenumber" v="576"/><tag k="addr:street" v="Giuffrida Avenue"/><tag k="addr:unit" v="2"/><tag k="addr:postcode" v="95123"/></node>
<node visible="true" id="-237" lat="37.252613097" lon="-121.83469095100001"><tag k="addr:city" v="San Jose"/><tag k="addr:housenumber" v="576"/><tag k="addr:street" v="Giuffrida Avenue"/><tag k="addr:unit" v="4"/><tag k="addr:postcode" v="95123"/></node>
<node visible="true" id="-238" lat="37.252594606" lon="-121.834850086"><tag k="addr:city" v="San Jose"/><tag k="addr:housenumber" v="576"/><tag k="addr:street" v="Giuffrida Avenue"/><tag k="addr:postcode" v="95123"/></node>
<node visible="true" id="-239" lat="37.252061222" lon="-121.832287707"><tag k="addr:city" v="San Jose"/><tag k="addr:housenumber" v="461"/><tag k="addr:street" v="Blossom Hill Road"/><tag k="addr:unit" v="A-D;F;G;I;J;M;Q"/><tag k="addr:postcode" v="95123"/></node>
<node visible="true" id="-240" lat="37.252402459" lon="-121.83119757700001"><tag k="addr:city" v="San Jose"/><tag k="addr:housenumber" v="5533"/><tag k="addr:street" v="Snell Avenue"/><tag k="addr:unit" v="100;201;202;204"/><tag k="addr:postcode" v="95123"/></node>
<node visible="true" id="-241" lat="37.253417692" lon="-121.840741781"><tag k="addr:city" v="San Jose"/><tag k="addr:housenumber" v="465"/><tag k="addr:street" v="Velasco Drive"/><tag k="addr:postcode" v="95123"/></node>
<node visible="true" id="-242" lat="37.254248718" lon="-121.84083601500001"><tag k="addr:city" v="San Jose"/><tag k="addr:housenumber" v="466"/><tag k="addr:street" v="Don Marco Court"/><tag k="addr:postcode" v="95123"/></node>
<node visible="true" id="-243" lat="37.251790423" lon="-121.83320269800001"><tag k="addr:city" v="San Jose"/><tag k="addr:housenumber" v="469"/><tag k="addr:street" v="Blossom Hill Road"/><tag k="addr:postcode" v="95123"/></node>
<node visible="true" id="-244" lat="37.254230869000004" lon="-121.84214417300001"><tag k="addr:city" v="San Jose"/><tag k="addr:housenumber" v="491"/><tag k="addr:street" v="Velasco Drive"/><tag k="addr:postcode" v="95123"/></node>
<node visible="true" id="-245" lat="37.252503236" lon="-121.83323427100001"><tag k="addr:city" v="San Jose"/><tag k="addr:housenumber" v="532"/><tag k="addr:street" v="Giuffrida Avenue"/><tag k="addr:unit" v="18"/><tag k="addr:postcode" v="95123"/></node>
<node visible="true" id="-246" lat="37.252771533" lon="-121.833232351"><tag k="addr:city" v="San Jose"/><tag k="addr:housenumber" v="532"/><tag k="addr:street" v="Giuffrida Avenue"/><tag k="addr:unit" v="7"/><tag k="addr:postcode" v="95123"/></node>
<node visible="true" id="-247" lat="37.253456565" lon="-121.83193397100001"><tag k="addr:city" v="San Jose"/><tag k="addr:housenumber" v="5489"/><tag k="addr:street" v="Snell Avenue"/><tag k="addr:unit" v="75"/><tag k="addr:postcode" v="95123"/></node>
<node visible="true" id="-248" lat="37.253764724" lon="-121.84165708"><tag k="addr:city" v="San Jose"/><tag k="addr:housenumber" v="5509"/><tag k="addr:street" v="Don Rodolfo Court"/><tag k="addr:postcode" v="95123"/></node>
<node visible="true" id="-249" lat="37.252737731" lon="-121.831247683"><tag k="addr:city" v="San Jose"/><tag k="addr:housenumber" v="5519"/><tag k="addr:street" v="Snell Avenue"/><tag k="addr:postcode" v="95123"/></node>
<node visible="true" id="-250" lat="37.25308305" lon="-121.838985574"><tag k="addr:city" v="San Jose"/><tag k="addr:housenumber" v="5524"/><tag k="addr:street" v="Don Ricardo Court"/><tag k="addr:postcode" v="95123"/></node>
<node visible="true" id="-251" lat="37.252475973" lon="-121.83803090500001"><tag k="addr:city" v="San Jose"/><tag k="addr:housenumber" v="5545"/><tag k="addr:street" v="Don Juan Circle"/><tag k="addr:postcode" v="95123"/></node>
<node visible="true" id="-252" lat="37.253540621" lon="-121.84113165500001"><tag k="addr:city" v="San Jose"/><tag k="addr:housenumber" v="469"/><tag k="addr:street" v="Don Edgardo Court"/><tag k="addr:postcode" v="95123"/></node>
<node visible="true" id="-253" lat="37.252713687" lon="-121.83323956500001"><tag k="addr:city" v="San Jose"/><tag k="addr:housenumber" v="532"/><tag k="addr:street" v="Giuffrida Avenue"/><tag k="addr:unit" v="16"/><tag k="addr:postcode" v="95123"/></node>
<node visible="true" id="-254" lat="37.25451158" lon="-121.84067802000001"><tag k="addr:city" v="San Jose"/><tag k="addr:housenumber" v="5447"/><tag k="addr:street" v="Don Edmondo Court"/><tag k="addr:postcode" v="95123"/></node>
<node visible="true" id="-255" lat="37.254359572000006" lon="-121.841788084"><tag k="addr:city" v="San Jose"/><tag k="addr:housenumber" v="5460"/><tag k="addr:street" v="Don Diablo Court"/><tag k="addr:postcode" v="95123"/></node>
<node visible="true" id="-256" lat="37.253888026000006" lon="-121.831943143"><tag k="addr:city" v="San Jose"/><tag k="addr:housenumber" v="5489"/><tag k="addr:street" v="Snell Avenue"/><tag k="addr:unit" v="20"/><tag k="addr:postcode" v="95123"/></node>
<node visible="true" id="-257" lat="37.253333017" lon="-121.83195831900001"><tag k="addr:city" v="San Jose"/><tag k="addr:housenumber" v="5489"/><tag k="addr:street" v="Snell Avenue"/><tag k="addr:unit" v="90"/><tag k="addr:postcode" v="95123"/></node>
<node visible="true" id="-258" lat="37.254076486" lon="-121.841464985"><tag k="addr:city" v="San Jose"/><tag k="addr:housenumber" v="5492"/><tag k="addr:street" v="Don Rodolfo Court"/><tag k="addr:postcode" v="95123"/></node>
<node visible="true" id="-259" lat="37.254014539" lon="-121.841352955"><tag k="addr:city" v="San Jose"/><tag k="addr:housenumber" v="5496"/><tag k="addr:street" v="Don Rodolfo Court"/><tag k="addr:postcode" v="95123"/></node>
<node visible="true" id="-260" lat="37.252199923" lon="-121.83470591800001"><tag k="addr:city" v="San Jose"/><tag k="addr:housenumber" v="5572"/><tag k="addr:street" v="Cedar Garden Court"/><tag k="addr:postcode" v="95123"/></node>
<node visible="true" id="-261" lat="37.251941785" lon="-121.83468389100001"><tag k="addr:city" v="San Jose"/><tag k="addr:housenumber" v="5580"/><tag k="addr:street" v="Cedar Garden Court"/><tag k="addr:postcode" v="95123"/></node>
<node visible="true" id="-262" lat="37.251692878" lon="-121.834666771"><tag k="addr:city" v="San Jose"/><tag k="addr:housenumber" v="5588"/><tag k="addr:street" v="Cedar Garden Court"/><tag k="addr:postcode" v="95123"/></node>
<node visible="true" id="-263" lat="37.252407155" lon="-121.834687621"><tag k="addr:city" v="San Jose"/><tag k="addr:housenumber" v="576"/><tag k="addr:street" v="Giuffrida Avenue"/><tag k="addr:unit" v="5"/><tag k="addr:postcode" v="95123"/></node>
<node visible="true" id="-264" lat="37.252331966" lon="-121.83470054000001"><tag k="addr:city" v="San Jose"/><tag k="addr:housenumber" v="576"/><tag k="addr:street" v="Giuffrida Avenue"/><tag k="addr:unit" v="6"/><tag k="addr:postcode" v="95123"/></node>
<node visible="true" id="-265" lat="37.252206105" lon="-121.831315535"><tag k="addr:city" v="San Jose"/><tag k="addr:housenumber" v="5585;5589"/><tag k="addr:street" v="Snell Avenue"/><tag k="addr:postcode" v="95123"/></node>
<node visible="true" id="-267" lat="37.253745929000004" lon="-121.831326586"/>
<node visible="true" id="-268" lat="37.253937035" lon="-121.83133510900001"/>
<node visible="true" id="-269" lat="37.253936336" lon="-121.83136028300001"/>
<node visible="true" id="-270" lat="37.253966947" lon="-121.831361653"/>
<node visible="true" id="-271" lat="37.253967672" lon="-121.831336479"/>
<node visible="true" id="-272" lat="37.253976046000005" lon="-121.83133686800001"/>
<node visible="true" id="-273" lat="37.253981158" lon="-121.83115779500001"/>
<node visible="true" id="-274" lat="37.253799086" lon="-121.83114971100001"/>
<node visible="true" id="-275" lat="37.253799132000005" lon="-121.831148028"/>
<node visible="true" id="-276" lat="37.25375106" lon="-121.83114590000001"/>
<node visible="true" id="-278" lat="37.253308015" lon="-121.831121213"/>
<node visible="true" id="-279" lat="37.253305718" lon="-121.831340091"/>
<node visible="true" id="-280" lat="37.25334293" lon="-121.831340685"/>
<node visible="true" id="-281" lat="37.25334249" lon="-121.83138174000001"/>
<node visible="true" id="-282" lat="37.253370173" lon="-121.83138219700001"/>
<node visible="true" id="-283" lat="37.253370528000005" lon="-121.83134846"/>
<node visible="true" id="-284" lat="37.253447149" lon="-121.83134972100001"/>
<node visible="true" id="-285" lat="37.253449426" lon="-121.831130121"/>
<node visible="true" id="-286" lat="37.253408096" lon="-121.83112945500001"/>
<node visible="true" id="-287" lat="37.253408171000004" lon="-121.831122824"/>
<node visible="true" id="-289" lat="37.254237833000005" lon="-121.83114178000001"/>
<node visible="true" id="-290" lat="37.254234647000004" lon="-121.831433974"/>
<node visible="true" id="-291" lat="37.254316649" lon="-121.831435365"/>
<node visible="true" id="-292" lat="37.254316727" lon="-121.83142856100001"/>
<node visible="true" id="-293" lat="37.254384477" lon="-121.83142969900001"/>
<node visible="true" id="-294" lat="37.254385251" lon="-121.83135913400001"/>
<node visible="true" id="-295" lat="37.254391458" lon="-121.83135924400001"/>
<node visible="true" id="-296" lat="37.254391746" lon="-121.83133151800001"/>
<node visible="true" id="-297" lat="37.254381777" lon="-121.83133134100001"/>
<node visible="true" id="-298" lat="37.254382089" lon="-121.83130395900001"/>
<node visible="true" id="-299" lat="37.254393348" lon="-121.83130416"/>
<node visible="true" id="-300" lat="37.254394312" lon="-121.83121456"/>
<node visible="true" id="-301" lat="37.254364379" lon="-121.831214027"/>
<node visible="true" id="-302" lat="37.254365148000005" lon="-121.831143943"/>
<node visible="true" id="-303" lat="37.254334088" lon="-121.831143424"/>
<node visible="true" id="-304" lat="37.254334175000004" lon="-121.83113572900001"/>
<node visible="true" id="-305" lat="37.25430166" lon="-121.831135184"/>
<node visible="true" id="-306" lat="37.254301573" lon="-121.831142845"/>
<node visible="true" id="-308" lat="37.256914112000004" lon="-121.835990554"/>
<node visible="true" id="-309" lat="37.256907381000005" lon="-121.83678240600001"/>
<node visible="true" id="-310" lat="37.257485128" lon="-121.83679008600001"/>
<node visible="true" id="-311" lat="37.25749186" lon="-121.835998227"/>
<node visible="true" id="-313" lat="37.252870941000005" lon="-121.832406563"/>
<node visible="true" id="-314" lat="37.252936133000006" lon="-121.83240796400001"/>
<node visible="true" id="-315" lat="37.252940201" lon="-121.83211084400001"/>
<node visible="true" id="-316" lat="37.252875037" lon="-121.832109442"/>
<node visible="true" id="-318" lat="37.25152984" lon="-121.831397205"/>
<node visible="true" id="-319" lat="37.251671039" lon="-121.83140061200001"/>
<node visible="true" id="-320" lat="37.251672313" lon="-121.831317583"/>
<node visible="true" id="-321" lat="37.251531114" lon="-121.831314211"/>
<node visible="true" id="-323" lat="37.252390128" lon="-121.834315977"/>
<node visible="true" id="-324" lat="37.252399957" lon="-121.83431632400001"/>
<node visible="true" id="-325" lat="37.252399503" lon="-121.83433452700001"/>
<node visible="true" id="-326" lat="37.252414164" lon="-121.834335064"/>
<node visible="true" id="-327" lat="37.252414591000004" lon="-121.83431689400001"/>
<node visible="true" id="-328" lat="37.252676738000005" lon="-121.834326759"/>
<node visible="true" id="-329" lat="37.252676361" lon="-121.834343039"/>
<node visible="true" id="-330" lat="37.252695415000005" lon="-121.83434375700001"/>
<node visible="true" id="-331" lat="37.252695821" lon="-121.834327477"/>
<node visible="true" id="-332" lat="37.252736483" lon="-121.83432899300001"/>
<node visible="true" id="-333" lat="37.252740663000004" lon="-121.83415495700001"/>
<node visible="true" id="-334" lat="37.252394309" lon="-121.83414190900001"/>
<node visible="true" id="-336" lat="37.252615124" lon="-121.83162780900001"/>
<node visible="true" id="-337" lat="37.252614889" lon="-121.83166302500001"/>
<node visible="true" id="-338" lat="37.252635597" lon="-121.831663222"/>
<node visible="true" id="-339" lat="37.252635598000005" lon="-121.83166562800001"/>
<node visible="true" id="-340" lat="37.252784207000005" lon="-121.83166710500001"/>
<node visible="true" id="-341" lat="37.252784173" lon="-121.831674973"/>
<node visible="true" id="-342" lat="37.252847259" lon="-121.83167561500001"/>
<node visible="true" id="-343" lat="37.252848147" lon="-121.83153718800001"/>
<node visible="true" id="-344" lat="37.252683607" lon="-121.83153556600001"/>
<node visible="true" id="-345" lat="37.252683282" lon="-121.83158586500001"/>
<node visible="true" id="-346" lat="37.252627501" lon="-121.83158531800001"/>
<node visible="true" id="-347" lat="37.252627322" lon="-121.831613183"/>
<node visible="true" id="-348" lat="37.252635918" lon="-121.83161326700001"/>
<node visible="true" id="-349" lat="37.252635833" lon="-121.83162800500001"/>
<way visible="true" id="-1"><nd ref="-2"/><nd ref="-3"/><nd ref="-4"/><nd ref="-5"/><nd ref="-6"/><nd ref="-7"/><nd ref="-8"/><nd ref="-9"/><nd ref="-10"/><nd ref="-11"/><nd ref="-12"/><nd ref="-13"/><nd ref="-14"/><nd ref="-15"/><nd ref="-16"/><nd ref="-17"/><nd ref="-18"/><nd ref="-19"/><nd ref="-20"/><nd ref="-21"/><nd ref="-22"/><nd ref="-23"/><nd ref="-24"/><nd ref="-25"/><nd ref="-26"/><nd ref="-27"/><nd ref="-28"/><nd ref="-29"/><nd ref="-30"/><nd ref="-31"/><nd ref="-32"/><nd ref="-33"/><nd ref="-34"/><nd ref="-35"/><nd ref="-36"/><nd ref="-37"/><nd ref="-38"/><nd ref="-39"/><nd ref="-40"/><nd ref="-41"/><nd ref="-42"/><nd ref="-43"/><nd ref="-44"/><nd ref="-45"/><nd ref="-46"/><nd ref="-47"/><nd ref="-48"/><nd ref="-2"/><tag k="building" v="yes"/><tag k="height" v="4.54"/><tag k="ele" v="60.57"/></way>
<way visible="true" id="-49"><nd ref="-50"/><nd ref="-51"/><nd ref="-52"/><nd ref="-53"/><nd ref="-50"/><tag k="building" v="yes"/><tag k="height" v="3.64"/><tag k="ele" v="53.29"/></way>
<way visible="true" id="-54"><nd ref="-55"/><nd ref="-56"/><nd ref="-57"/><nd ref="-58"/><nd ref="-55"/><tag k="building" v="yes"/><tag k="height" v="9.74"/><tag k="ele" v="53.33"/></way>
<way visible="true" id="-59"><nd ref="-60"/><nd ref="-61"/><nd ref="-62"/><nd ref="-63"/><nd ref="-60"/><tag k="building" v="yes"/><tag k="height" v="4.28"/><tag k="ele" v="57.02"/></way>
<way visible="true" id="-64"><nd ref="-65"/><nd ref="-66"/><nd ref="-67"/><nd ref="-68"/><nd ref="-65"/><tag k="building" v="yes"/><tag k="height" v="7.19"/><tag k="ele" v="57.78"/></way>
<way visible="true" id="-69"><nd ref="-70"/><nd ref="-71"/><nd ref="-72"/><nd ref="-73"/><nd ref="-74"/><nd ref="-75"/><nd ref="-76"/><nd ref="-77"/><nd ref="-78"/><nd ref="-79"/><nd ref="-80"/><nd ref="-81"/><nd ref="-82"/><nd ref="-83"/><nd ref="-70"/><tag k="building" v="yes"/><tag k="height" v="3.82"/><tag k="ele" v="55.75"/></way>
<way visible="true" id="-84"><nd ref="-85"/><nd ref="-86"/><nd ref="-87"/><nd ref="-88"/><nd ref="-89"/><nd ref="-90"/><nd ref="-91"/><nd ref="-92"/><nd ref="-93"/><nd ref="-94"/><nd ref="-85"/><tag k="building" v="yes"/><tag k="height" v="4.78"/><tag k="ele" v="58.55"/></way>
<way visible="true" id="-95"><nd ref="-96"/><nd ref="-97"/><nd ref="-98"/><nd ref="-99"/><nd ref="-100"/><nd ref="-101"/><nd ref="-102"/><nd ref="-103"/><nd ref="-104"/><nd ref="-105"/><nd ref="-106"/><nd ref="-107"/><nd ref="-108"/><nd ref="-109"/><nd ref="-96"/><tag k="building" v="yes"/><tag k="height" v="3.39"/><tag k="ele" v="56.36"/></way>
<way visible="true" id="-110"><nd ref="-111"/><nd ref="-112"/><nd ref="-113"/><nd ref="-114"/><nd ref="-115"/><nd ref="-116"/><nd ref="-117"/><nd ref="-118"/><nd ref="-119"/><nd ref="-120"/><nd ref="-111"/><tag k="building" v="yes"/><tag k="height" v="2.97"/><tag k="ele" v="57.29"/></way>
<way visible="true" id="-121"><nd ref="-122"/><nd ref="-123"/><nd ref="-124"/><nd ref="-125"/><nd ref="-122"/><tag k="building" v="yes"/><tag k="height" v="3.58"/><tag k="ele" v="53.18"/></way>
<way visible="true" id="-126"><nd ref="-127"/><nd ref="-128"/><nd ref="-129"/><nd ref="-130"/><nd ref="-127"/><tag k="building" v="yes"/><tag k="height" v="3.44"/><tag k="ele" v="53.29"/></way>
<way visible="true" id="-131"><nd ref="-132"/><nd ref="-133"/><nd ref="-134"/><nd ref="-135"/><nd ref="-132"/><tag k="building" v="yes"/><tag k="height" v="3.47"/><tag k="ele" v="53.33"/></way>
<way visible="true" id="-136"><nd ref="-137"/><nd ref="-138"/><nd ref="-139"/><nd ref="-140"/><nd ref="-141"/><nd ref="-142"/><nd ref="-143"/><nd ref="-144"/><nd ref="-137"/><tag k="building" v="yes"/><tag k="height" v="3.93"/><tag k="ele" v="55.57"/></way>
<way visible="true" id="-145"><nd ref="-146"/><nd ref="-147"/><nd ref="-148"/><nd ref="-149"/><nd ref="-146"/><tag k="building" v="yes"/><tag k="height" v="8.10"/><tag k="ele" v="59.51"/></way>
<way visible="true" id="-150"><nd ref="-151"/><nd ref="-152"/><nd ref="-153"/><nd ref="-154"/><nd ref="-151"/><tag k="building" v="yes"/><tag k="height" v="3.24"/><tag k="ele" v="54.02"/></way>
<way visible="true" id="-266"><nd ref="-267"/><nd ref="-268"/><nd ref="-269"/><nd ref="-270"/><nd ref="-271"/><nd ref="-272"/><nd ref="-273"/><nd ref="-274"/><nd ref="-275"/><nd ref="-276"/><nd ref="-267"/><tag k="building" v="yes"/><tag k="height" v="4.75"/><tag k="ele" v="57.15"/><tag k="addr:city" v="San Jose"/><tag k="addr:housenumber" v="5475"/><tag k="addr:street" v="Snell Avenue"/><tag k="addr:postcode" v="95123"/></way>
<way visible="true" id="-277"><nd ref="-278"/><nd ref="-279"/><nd ref="-280"/><nd ref="-281"/><nd ref="-282"/><nd ref="-283"/><nd ref="-284"/><nd ref="-285"/><nd ref="-286"/><nd ref="-287"/><nd ref="-278"/><tag k="building" v="yes"/><tag k="height" v="3.83"/><tag k="ele" v="56.64"/><tag k="addr:city" v="San Jose"/><tag k="addr:housenumber" v="5499"/><tag k="addr:street" v="Snell Avenue"/><tag k="addr:postcode" v="95123"/></way>
<way visible="true" id="-288"><nd ref="-289"/><nd ref="-290"/><nd ref="-291"/><nd ref="-292"/><nd ref="-293"/><nd ref="-294"/><nd ref="-295"/><nd ref="-296"/><nd ref="-297"/><nd ref="-298"/><nd ref="-299"/><nd ref="-300"/><nd ref="-301"/><nd ref="-302"/><nd ref="-303"/><nd ref="-304"/><nd ref="-305"/><nd ref="-306"/><nd ref="-289"/><tag k="building" v="yes"/><tag k="height" v="3.72"/><tag k="ele" v="56.81"/><tag k="addr:city" v="San Jose"/><tag k="addr:housenumber" v="5465"/><tag k="addr:street" v="Snell Avenue"/><tag k="addr:postcode" v="95123"/></way>
<way visible="true" id="-307"><nd ref="-308"/><nd ref="-309"/><nd ref="-310"/><nd ref="-311"/><nd ref="-308"/><tag k="building" v="yes"/><tag k="height" v="5.30"/><tag k="ele" v="55.34"/><tag k="addr:city" v="San Jose"/><tag k="addr:housenumber" v="5345"/><tag k="addr:street" v="Avenida Almendros"/><tag k="addr:postcode" v="95123"/></way>
<way visible="true" id="-312"><nd ref="-313"/><nd ref="-314"/><nd ref="-315"/><nd ref="-316"/><nd ref="-313"/><tag k="building" v="yes"/><tag k="height" v="3.19"/><tag k="ele" v="55.22"/><tag k="addr:city" v="San Jose"/><tag k="addr:housenumber" v="524"/><tag k="addr:street" v="Giuffrida Avenue"/><tag k="addr:postcode" v="95123"/></way>
<way visible="true" id="-317"><nd ref="-318"/><nd ref="-319"/><nd ref="-320"/><nd ref="-321"/><nd ref="-318"/><tag k="building" v="yes"/><tag k="height" v="4.96"/><tag k="ele" v="56.43"/><tag k="addr:city" v="San Jose"/><tag k="addr:housenumber" v="5599"/><tag k="addr:street" v="Snell Avenue"/><tag k="addr:postcode" v="95123"/></way>
<way visible="true" id="-322"><nd ref="-323"/><nd ref="-324"/><nd ref="-325"/><nd ref="-326"/><nd ref="-327"/><nd ref="-328"/><nd ref="-329"/><nd ref="-330"/><nd ref="-331"/><nd ref="-332"/><nd ref="-333"/><nd ref="-334"/><nd ref="-323"/><tag k="building" v="yes"/><tag k="height" v="7.71"/><tag k="ele" v="58.85"/><tag k="addr:city" v="San Jose"/><tag k="addr:housenumber" v="479"/><tag k="addr:street" v="Blossom Hill Road"/><tag k="addr:postcode" v="95123"/></way>
<way visible="true" id="-335"><nd ref="-336"/><nd ref="-337"/><nd ref="-338"/><nd ref="-339"/><nd ref="-340"/><nd ref="-341"/><nd ref="-342"/><nd ref="-343"/><nd ref="-344"/><nd ref="-345"/><nd ref="-346"/><nd ref="-347"/><nd ref="-348"/><nd ref="-349"/><nd ref="-336"/><tag k="building" v="yes"/><tag k="height" v="3.79"/><tag k="ele" v="56.32"/><tag k="addr:city" v="San Jose"/><tag k="addr:housenumber" v="512"/><tag k="addr:street" v="Giuffrida Avenue"/><tag k="addr:postcode" v="95123"/></way>
</osm>