<?xml version="1.0"?>
<osm version="0.6" generator="uvmogr2osm" upload="false">
<node visible="true" id="-2" lat="37.386503365" lon="-121.85951947400001"/>
<node visible="true" id="-3" lat="37.386509245" lon="-121.859630663"/>
<node visible="true" id="-4" lat="37.386607096000006" lon="-121.85962249600001"/>
<node visible="true" id="-5" lat="37.386601188" lon="-121.85951134000001"/>
<node visible="true" id="-7" lat="37.388005857" lon="-121.85649113000001"/>
<node visible="true" id="-8" lat="37.388060167" lon="-121.856540378"/>
<node visible="true" id="-9" lat="37.388045647000006" lon="-121.856565555"/>
<node visible="true" id="-10" lat="37.388116485000005" lon="-121.856629803"/>
<node visible="true" id="-11" lat="37.388131704" lon="-121.85660347000001"/>
<node visible="true" id="-12" lat="37.388184113" lon="-121.856650962"/>
<node visible="true" id="-13" lat="37.388351334" lon="-121.85636129400001"/>
<node visible="true" id="-14" lat="37.388373053" lon="-121.856380967"/>
<node visible="true" id="-15" lat="37.388438445000006" lon="-121.85626769400001"/>
<node visible="true" id="-16" lat="37.388416291000006" lon="-121.856247601"/>
<node visible="true" id="-17" lat="37.388585811000006" lon="-121.855953944"/>
<node visible="true" id="-18" lat="37.388532315" lon="-121.855905468"/>
<node visible="true" id="-19" lat="37.38854675" lon="-121.855880462"/>
<node visible="true" id="-20" lat="37.388476211000004" lon="-121.85581649500001"/>
<node visible="true" id="-21" lat="37.388461749" lon="-121.855841534"/>
<node visible="true" id="-22" lat="37.388408661" lon="-121.855793375"/>
<node visible="true" id="-24" lat="37.386691351" lon="-121.858801454"/>
<node visible="true" id="-25" lat="37.386852035000004" lon="-121.858946133"/>
<node visible="true" id="-26" lat="37.386835075" lon="-121.858975704"/>
<node visible="true" id="-27" lat="37.386976350000005" lon="-121.859102922"/>
<node visible="true" id="-28" lat="37.387328458" lon="-121.85848874400001"/>
<node visible="true" id="-29" lat="37.387302551000005" lon="-121.858465416"/>
<node visible="true" id="-30" lat="37.387527972" lon="-121.858072199"/>
<node visible="true" id="-31" lat="37.387509595000004" lon="-121.858055652"/>
<node visible="true" id="-32" lat="37.387703561" lon="-121.85771728300001"/>
<node visible="true" id="-33" lat="37.387790713" lon="-121.85779573600001"/>
<node visible="true" id="-34" lat="37.387777931" lon="-121.85781801600001"/>
<node visible="true" id="-35" lat="37.388035745" lon="-121.85805014300001"/>
<node visible="true" id="-36" lat="37.388032016000004" lon="-121.85805665000001"/>
<node visible="true" id="-37" lat="37.388080432" lon="-121.858100217"/>
<node visible="true" id="-38" lat="37.388081104" lon="-121.85809905800001"/>
<node visible="true" id="-39" lat="37.388260057000004" lon="-121.85826018200001"/>
<node visible="true" id="-40" lat="37.388278868" lon="-121.858227373"/>
<node visible="true" id="-41" lat="37.388263563" lon="-121.858213602"/>
<node visible="true" id="-42" lat="37.388562739" lon="-121.8576917"/>
<node visible="true" id="-43" lat="37.388534060000005" lon="-121.857665912"/>
<node visible="true" id="-44" lat="37.388530135" lon="-121.85767275900001"/>
<node visible="true" id="-45" lat="37.388438389" lon="-121.857590126"/>
<node visible="true" id="-46" lat="37.388386751000006" lon="-121.857680239"/>
<node visible="true" id="-47" lat="37.388061301" lon="-121.85738722600001"/>
<node visible="true" id="-48" lat="37.387997664000004" lon="-121.85749822300001"/>
<node visible="true" id="-49" lat="37.387976027" lon="-121.857478724"/>
<node visible="true" id="-50" lat="37.387943507" lon="-121.85753544800001"/>
<node visible="true" id="-51" lat="37.387964983" lon="-121.85755477100001"/>
<node visible="true" id="-52" lat="37.387959152" lon="-121.85756492300001"/>
<node visible="true" id="-53" lat="37.387845495" lon="-121.85746258100001"/>
<node visible="true" id="-54" lat="37.387727389000005" lon="-121.857668594"/>
<node visible="true" id="-55" lat="37.387708144" lon="-121.857651273"/>
<node visible="true" id="-56" lat="37.387712293" lon="-121.85764405100001"/>
<node visible="true" id="-57" lat="37.387580068000005" lon="-121.85752498400001"/>
<node visible="true" id="-58" lat="37.387339651000005" lon="-121.857944368"/>
<node visible="true" id="-59" lat="37.387355146000004" lon="-121.857958315"/>
<node visible="true" id="-60" lat="37.387161881000004" lon="-121.85829545600001"/>
<node visible="true" id="-61" lat="37.387038519" lon="-121.85818439900001"/>
<node visible="true" id="-62" lat="37.387007065" lon="-121.85823928200001"/>
<node visible="true" id="-63" lat="37.387011388000005" lon="-121.85824318300001"/>
<node visible="true" id="-64" lat="37.388369595" lon="-121.85609896300001"><tag k="addr:city" v="San Jose"/><tag k="addr:housenumber" v="2664"/><tag k="addr:street" v="Berryessa Road"/><tag k="addr:unit" v="101-104;106-108"/><tag k="addr:postcode" v="95132"/></node>
<node visible="true" id="-65" lat="37.387400916000004" lon="-121.85801542"><tag k="addr:city" v="San Jose"/><tag k="addr:housenumber" v="2538"/><tag k="addr:street" v="Berryessa Road"/><tag k="addr:postcode" v="95132"/></node>
<node visible="true" id="-66" lat="37.388326411" lon="-121.85634619100001"><tag k="addr:city" v="San Jose"/><tag k="addr:housenumber" v="2664"/><tag k="addr:street" v="Berryessa Road"/><tag k="addr:postcode" v="95132"/></node>
<node visible="true" id="-67" lat="37.387243938000005" lon="-121.85905635200001"><tag k="addr:city" v="San Jose"/><tag k="addr:housenumber" v="2514"/><tag k="addr:street" v="Berryessa Road"/><tag k="addr:postcode" v="95132"/></node>
<node visible="true" id="-68" lat="37.387474933" lon="-121.85787045900001"><tag k="addr:city" v="San Jose"/><tag k="addr:housenumber" v="2522"/><tag k="addr:street" v="Berryessa Road"/><tag k="addr:postcode" v="95132"/></node>
<node visible="true" id="-69" lat="37.38746013" lon="-121.85789945100001"><tag k="addr:city" v="San Jose"/><tag k="addr:housenumber" v="2524"/><tag k="addr:street" v="Berryessa Road"/><tag k="addr:postcode" v="95132"/></node>
<node visible="true" id="-70" lat="37.387029881000004" lon="-121.858656799"><tag k="addr:city" v="San Jose"/><tag k="addr:housenumber" v="2516;2518;2520"/><tag k="addr:street" v="Berryessa Road"/><tag k="addr:postcode" v="95132"/></node>
<node visible="true" id="-71" lat="37.387418886" lon="-121.85786768700001"><tag k="addr:city" v="San Jose"/><tag k="addr:housenumber" v="2528"/><tag k="addr:street" v="Berryessa Road"/><tag k="addr:postcode" v="95132"/></node>
<node visible="true" id="-72" lat="37.387445327" lon="-121.857928442"><tag k="addr:city" v="San Jose"/><tag k="addr:housenumber" v="2530"/><tag k="addr:street" v="Berryessa Road"/><tag k="addr:postcode" v="95132"/></node>
<node visible="true" id="-73" lat="37.387518983" lon="-121.857926449"><tag k="addr:city" v="San Jose"/><tag k="addr:housenumber" v="2532"/><tag k="addr:street" v="Berryessa Road"/><tag k="addr:postcode" v="95132"/></node>
<node visible="true" id="-74" lat="37.387430523" lon="-121.85795743400001"><tag k="addr:city" v="San Jose"/><tag k="addr:housenumber" v="2534"/><tag k="addr:street" v="Berryessa Road"/><tag k="addr:postcode" v="95132"/></node>
<node visible="true" id="-75" lat="37.387415721" lon="-121.857986428"><tag k="addr:city" v="San Jose"/><tag k="addr:housenumber" v="2536"/><tag k="addr:street" v="Berryessa Road"/><tag k="addr:postcode" v="95132"/></node>
<node visible="true" id="-76" lat="37.387489736" lon="-121.85784146700001"><tag k="addr:city" v="San Jose"/><tag k="addr:housenumber" v="2540"/><tag k="addr:street" v="Berryessa Road"/><tag k="addr:postcode" v="95132"/></node>
<node visible="true" id="-77" lat="37.387534302" lon="-121.857897882"><tag k="addr:city" v="San Jose"/><tag k="addr:housenumber" v="2542"/><tag k="addr:street" v="Berryessa Road"/><tag k="addr:postcode" v="95132"/></node>
<node visible="true" id="-78" lat="37.387503663000004" lon="-121.85795501700001"><tag k="addr:city" v="San Jose"/><tag k="addr:housenumber" v="2544"/><tag k="addr:street" v="Berryessa Road"/><tag k="addr:postcode" v="95132"/></node>
<node visible="true" id="-79" lat="37.387519344000005" lon="-121.85778348100001"><tag k="addr:city" v="San Jose"/><tag k="addr:housenumber" v="2546"/><tag k="addr:street" v="Berryessa Road"/><tag k="addr:postcode" v="95132"/></node>
<node visible="true" id="-80" lat="37.388068333" lon="-121.858061907"><tag k="addr:city" v="San Jose"/><tag k="addr:housenumber" v="2558"/><tag k="addr:street" v="Berryessa Road"/><tag k="addr:postcode" v="95132"/></node>
<node visible="true" id="-81" lat="37.388296983000004" lon="-121.85613763100001"><tag k="addr:city" v="San Jose"/><tag k="addr:housenumber" v="2664"/><tag k="addr:street" v="Berryessa Road"/><tag k="addr:unit" v="112;114;116;202-205"/><tag k="addr:postcode" v="95132"/></node>
<node visible="true" id="-82" lat="37.388216560000004" lon="-121.85632545700001"><tag k="addr:city" v="San Jose"/><tag k="addr:housenumber" v="2664"/><tag k="addr:street" v="Berryessa Road"/><tag k="addr:unit" v="206-214"/><tag k="addr:postcode" v="95132"/></node>
<node visible="true" id="-83" lat="37.387780194" lon="-121.857690751"><tag k="addr:city" v="San Jose"/><tag k="addr:housenumber" v="2550"/><tag k="addr:street" v="Berryessa Road"/><tag k="addr:postcode" v="95132"/></node>
<node visible="true" id="-85" lat="37.386436626000005" lon="-121.859715503"/>
<node visible="true" id="-86" lat="37.386453372000005" lon="-121.860009953"/>
<node visible="true" id="-87" lat="37.386654039" lon="-121.85999202400001"/>
<node visible="true" id="-88" lat="37.386637291" lon="-121.859697573"/>
<way visible="true" id="-1"><nd ref="-2"/><nd ref="-3"/><nd ref="-4"/><nd ref="-5"/><nd ref="-2"/><tag k="building" v="yes"/><tag k="height" v="4.29"/><tag k="ele" v="51.48"/></way>
<way visible="true" id="-6"><nd ref="-7"/><nd ref="-8"/><nd ref="-9"/><nd ref="-10"/><nd ref="-11"/><nd ref="-12"/><nd ref="-13"/><nd ref="-14"/><nd ref="-15"/><nd ref="-16"/><nd ref="-17"/><nd ref="-18"/><nd ref="-19"/><nd ref="-20"/><nd ref="-21"/><nd ref="-22"/><nd ref="-7"/><tag k="building" v="yes"/><tag k="height" v="7.65"/><tag k="ele" v="58.70"/></way>
<way visible="true" id="-23"><nd ref="-24"/><nd ref="-25"/><nd ref="-26"/><nd ref="-27"/><nd ref="-28"/><nd ref="-29"/><nd ref="-30"/><nd ref="-31"/><nd ref="-32"/><nd ref="-33"/><nd ref="-34"/><nd ref="-35"/><nd ref="-36"/><nd ref="-37"/><nd ref="-38"/><nd ref="-39"/><nd ref="-40"/><nd ref="-41"/><nd ref="-42"/><nd ref="-43"/><nd ref="-44"/><nd ref="-45"/><nd ref="-46"/><nd ref="-47"/><nd ref="-48"/><nd ref="-49"/><nd ref="-50"/><nd ref="-51"/><nd ref="-52"/><nd ref="-53"/><nd ref="-54"/><nd ref="-55"/><nd ref="-56"/><nd ref="-57"/><nd ref="-58"/><nd ref="-59"/><nd ref="-60"/><nd ref="-61"/><nd ref="-62"/><nd ref="-63"/><nd ref="-24"/><tag k="building" v="yes"/><tag k="height" v="4.33"/><tag k="ele" v="55.79"/></way>
<way visible="true" id="-84"><nd ref="-85"/><nd ref="-86"/><nd ref="-87"/><nd ref="-88"/><nd ref="-85"/><tag k="building" v="yes"/><tag k="height" v="4.66"/><tag k="ele" v="52.56"/><tag k="addr:city" v="San Jose"/><tag k="addr:housenumber" v="1140"/><tag k="addr:street" v="North Capitol Avenue"/><tag k="addr:postcode" v="95132"/></way>
</osm>