<?xml version="1.0"?>
<osm version="0.6" generator="uvmogr2osm" upload="false">
<node visible="true" id="-2" lat="37.363351521000006" lon="-121.865247796"/>
<node visible="true" id="-3" lat="37.363593234" lon="-121.86549805700001"/>
<node visible="true" id="-4" lat="37.363615099" lon="-121.86546490500001"/>
<node visible="true" id="-5" lat="37.363863732000006" lon="-121.86572231500001"/>
<node visible="true" id="-6" lat="37.363886045" lon="-121.86568848300001"/>
<node visible="true" id="-7" lat="37.364148654000005" lon="-121.86596036300001"/>
<node visible="true" id="-8" lat="37.364602747" lon="-121.86527194000001"/>
<node visible="true" id="-9" lat="37.364443161000004" lon="-121.86510673100001"/>
<node visible="true" id="-10" lat="37.364452668000006" lon="-121.865092313"/>
<node visible="true" id="-11" lat="37.364420263" lon="-121.86505875300001"/>
<node visible="true" id="-12" lat="37.36441112" lon="-121.86507259300001"/>
<node visible="true" id="-13" lat="37.364228138" lon="-121.864883144"/>
<node visible="true" id="-14" lat="37.36429751" lon="-121.86477793700001"/>
<node visible="true" id="-15" lat="37.364257532" lon="-121.864736565"/>
<node visible="true" id="-16" lat="37.364366188000005" lon="-121.864571854"/>
<node visible="true" id="-17" lat="37.364267804" lon="-121.86446998400001"/>
<node visible="true" id="-18" lat="37.364162783000005" lon="-121.864629186"/>
<node visible="true" id="-19" lat="37.363955185" lon="-121.864414237"/>
<node visible="true" id="-20" lat="37.364125606" lon="-121.864155847"/>
<node visible="true" id="-21" lat="37.364120097000004" lon="-121.86415013700001"/>
<node visible="true" id="-22" lat="37.364226880000004" lon="-121.86398821300001"/>
<node visible="true" id="-23" lat="37.364170861000005" lon="-121.86393020300001"/>
<node visible="true" id="-24" lat="37.364171113000005" lon="-121.86392982800001"/>
<node visible="true" id="-25" lat="37.363960908" lon="-121.86371218400001"/>
<node visible="true" id="-26" lat="37.363921428000005" lon="-121.86377206300001"/>
<node visible="true" id="-27" lat="37.363896078" lon="-121.86374582600001"/>
<node visible="true" id="-28" lat="37.363808533000004" lon="-121.86387853900001"/>
<node visible="true" id="-29" lat="37.364072586" lon="-121.864151886"/>
<node visible="true" id="-30" lat="37.363891259" lon="-121.86442680100001"/>
<node visible="true" id="-31" lat="37.363916608000004" lon="-121.86445303800001"/>
<node visible="true" id="-32" lat="37.363610155" lon="-121.86491762000001"/>
<node visible="true" id="-33" lat="37.363585865000005" lon="-121.864892502"/>
<node visible="true" id="-35" lat="37.365678758" lon="-121.861067274"/>
<node visible="true" id="-36" lat="37.365876593" lon="-121.861278944"/>
<node visible="true" id="-37" lat="37.366007509" lon="-121.861086893"/>
<node visible="true" id="-38" lat="37.366040554" lon="-121.861122252"/>
<node visible="true" id="-39" lat="37.366070425000004" lon="-121.861078438"/>
<node visible="true" id="-40" lat="37.366037923" lon="-121.86104363800001"/>
<node visible="true" id="-41" lat="37.366070142000005" lon="-121.86099639100001"/>
<node visible="true" id="-42" lat="37.366086284000005" lon="-121.86101365100001"/>
<node visible="true" id="-43" lat="37.366114228" lon="-121.860972657"/>
<node visible="true" id="-44" lat="37.366097842" lon="-121.860955118"/>
<node visible="true" id="-45" lat="37.366455461" lon="-121.860430386"/>
<node visible="true" id="-46" lat="37.366257352000005" lon="-121.86021843600001"/>
<node visible="true" id="-48" lat="37.365674357" lon="-121.85960943600001"/>
<node visible="true" id="-49" lat="37.365750473000006" lon="-121.85968501800001"/>
<node visible="true" id="-50" lat="37.365853747" lon="-121.85952181500001"/>
<node visible="true" id="-51" lat="37.365777633" lon="-121.859446234"/>
<node visible="true" id="-53" lat="37.365797078" lon="-121.85973301300001"/>
<node visible="true" id="-54" lat="37.365872599" lon="-121.859807723"/>
<node visible="true" id="-55" lat="37.365975349" lon="-121.85964478700001"/>
<node visible="true" id="-56" lat="37.365899857" lon="-121.859570042"/>
<node visible="true" id="-58" lat="37.364076958000005" lon="-121.86852108800001"/>
<node visible="true" id="-59" lat="37.364204541" lon="-121.868650891"/>
<node visible="true" id="-60" lat="37.364772778" lon="-121.86777409800001"/>
<node visible="true" id="-61" lat="37.364752121" lon="-121.86775307"/>
<node visible="true" id="-62" lat="37.364794441" lon="-121.86768777200001"/>
<node visible="true" id="-63" lat="37.364687542000006" lon="-121.867578996"/>
<node visible="true" id="-65" lat="37.363761244" lon="-121.868135214"/>
<node visible="true" id="-66" lat="37.363888645" lon="-121.86826645900001"/>
<node visible="true" id="-67" lat="37.364474394000005" lon="-121.867374018"/>
<node visible="true" id="-68" lat="37.364368244000005" lon="-121.867264672"/>
<node visible="true" id="-69" lat="37.364159012" lon="-121.867583429"/>
<node visible="true" id="-70" lat="37.364137762000006" lon="-121.867561531"/>
<node visible="true" id="-72" lat="37.358734476" lon="-121.861023087"/>
<node visible="true" id="-73" lat="37.35875123" lon="-121.861039668"/>
<node visible="true" id="-74" lat="37.358741856" lon="-121.86105453500001"/>
<node visible="true" id="-75" lat="37.358845265" lon="-121.86115682900001"/>
<node visible="true" id="-76" lat="37.358853996" lon="-121.86114298300001"/>
<node visible="true" id="-77" lat="37.358870587000006" lon="-121.86115942400001"/>
<node visible="true" id="-78" lat="37.359283558" lon="-121.86050440800001"/>
<node visible="true" id="-79" lat="37.359133006" lon="-121.860355455"/>
<node visible="true" id="-80" lat="37.358787895" lon="-121.86090283300001"/>
<node visible="true" id="-81" lat="37.35880169" lon="-121.86091647"/>
<node visible="true" id="-83" lat="37.364746849" lon="-121.865610997"/>
<node visible="true" id="-84" lat="37.365064448000005" lon="-121.865939393"/>
<node visible="true" id="-85" lat="37.365381985" lon="-121.86545739"/>
<node visible="true" id="-86" lat="37.365456433000006" lon="-121.865534358"/>
<node visible="true" id="-87" lat="37.365517054" lon="-121.86544234300001"/>
<node visible="true" id="-88" lat="37.365443557" lon="-121.86536632200001"/>
<node visible="true" id="-89" lat="37.366000695000004" lon="-121.864520569"/>
<node visible="true" id="-90" lat="37.365682169" lon="-121.86419119400001"/>
<node visible="true" id="-92" lat="37.363709191000005" lon="-121.85693493900001"/>
<node visible="true" id="-93" lat="37.363753029" lon="-121.85697768400001"/>
<node visible="true" id="-94" lat="37.36376859" lon="-121.85695267400001"/>
<node visible="true" id="-95" lat="37.363724725000004" lon="-121.856909927"/>
<node visible="true" id="-97" lat="37.366493789" lon="-121.86175220000001"/>
<node visible="true" id="-98" lat="37.366744881" lon="-121.86202069900001"/>
<node visible="true" id="-99" lat="37.366902151000005" lon="-121.861789861"/>
<node visible="true" id="-100" lat="37.366947892" lon="-121.86183877200001"/>
<node visible="true" id="-101" lat="37.367228087" lon="-121.861427434"/>
<node visible="true" id="-102" lat="37.366981469" lon="-121.86116366200001"/>
<node visible="true" id="-103" lat="37.366872741" lon="-121.861323255"/>
<node visible="true" id="-104" lat="37.366859636" lon="-121.86130925"/>
<node visible="true" id="-105" lat="37.366749481" lon="-121.86147098500001"/>
<node visible="true" id="-106" lat="37.366725037" lon="-121.86144483100001"/>
<node visible="true" id="-107" lat="37.366616194" lon="-121.86160459400001"/>
<node visible="true" id="-108" lat="37.366603552" lon="-121.86159107900001"/>
<node visible="true" id="-110" lat="37.366971725" lon="-121.864417137"/>
<node visible="true" id="-111" lat="37.367416256000006" lon="-121.86487763400001"/>
<node visible="true" id="-112" lat="37.368062203" lon="-121.863898812"/>
<node visible="true" id="-113" lat="37.367617668" lon="-121.86343831600001"/>
<node visible="true" id="-115" lat="37.365569242" lon="-121.86175819500001"/>
<node visible="true" id="-116" lat="37.366368991" lon="-121.862611305"/>
<node visible="true" id="-117" lat="37.366728753000004" lon="-121.86225042900001"/>
<node visible="true" id="-118" lat="37.365862609000004" lon="-121.86132649000001"/>
<node visible="true" id="-120" lat="37.366235742" lon="-121.86139406500001"/>
<node visible="true" id="-121" lat="37.366368522" lon="-121.861535793"/>
<node visible="true" id="-122" lat="37.366348932" lon="-121.861564584"/>
<node visible="true" id="-123" lat="37.366376769000006" lon="-121.86159430900001"/>
<node visible="true" id="-124" lat="37.366395968" lon="-121.861566061"/>
<node visible="true" id="-125" lat="37.366403185" lon="-121.86157373"/>
<node visible="true" id="-126" lat="37.366669973" lon="-121.86118142100001"/>
<node visible="true" id="-127" lat="37.366545468000005" lon="-121.86104851600001"/>
<node visible="true" id="-128" lat="37.366743846000006" lon="-121.860756756"/>
<node visible="true" id="-129" lat="37.366587514" lon="-121.860589891"/>
<node visible="true" id="-130" lat="37.366292895" lon="-121.86102316300001"/>
<node visible="true" id="-131" lat="37.366405925" lon="-121.86114377800001"/>
<node visible="true" id="-133" lat="37.365693154" lon="-121.867871308"/>
<node visible="true" id="-134" lat="37.365800268" lon="-121.86798518100001"/>
<node visible="true" id="-135" lat="37.365794957000006" lon="-121.86799303500001"/>
<node visible="true" id="-136" lat="37.366247575" lon="-121.868460853"/>
<node visible="true" id="-137" lat="37.3662839" lon="-121.86840566500001"/>
<node visible="true" id="-138" lat="37.366283872000004" lon="-121.86840562900001"/>
<node visible="true" id="-139" lat="37.366585612" lon="-121.867960127"/>
<node visible="true" id="-140" lat="37.366585042000004" lon="-121.86795953200001"/>
<node visible="true" id="-141" lat="37.366606089" lon="-121.867928429"/>
<node visible="true" id="-142" lat="37.366497184" lon="-121.867812662"/>
<node visible="true" id="-143" lat="37.366476781" lon="-121.86784277800001"/>
<node visible="true" id="-144" lat="37.366277367" lon="-121.867630785"/>
<node visible="true" id="-145" lat="37.366310794" lon="-121.86758142800001"/>
<node visible="true" id="-146" lat="37.366171801" lon="-121.867433657"/>
<node visible="true" id="-147" lat="37.366137396" lon="-121.867484441"/>
<node visible="true" id="-148" lat="37.366041189" lon="-121.867382124"/>
<node visible="true" id="-149" lat="37.365739705" lon="-121.867827215"/>
<node visible="true" id="-150" lat="37.365730018" lon="-121.86781692000001"/>
<node visible="true" id="-151" lat="37.366231977000005" lon="-121.86209769000001"><tag k="addr:city" v="San Jose"/><tag k="addr:housenumber" v="1901"/><tag k="addr:street" v="Las Plumas Avenue"/><tag k="addr:unit" v="10;30;40;50;60;70"/><tag k="addr:postcode" v="95133"/></node>
<node visible="true" id="-152" lat="37.365345251" lon="-121.86725661800001"><tag k="addr:city" v="San Jose"/><tag k="addr:housenumber" v="1700"/><tag k="addr:street" v="Newbury Park Drive"/><tag k="addr:unit" v="491;493;495;497;499"/><tag k="addr:postcode" v="95133"/></node>
<node visible="true" id="-153" lat="37.359096095000005" lon="-121.860220342"><tag k="addr:city" v="San Jose"/><tag k="addr:housenumber" v="1735"/><tag k="addr:street" v="McKee Road"/><tag k="addr:unit" v="11;13;15"/><tag k="addr:postcode" v="95116"/></node>
<node visible="true" id="-154" lat="37.366281966" lon="-121.86519458900001"><tag k="addr:city" v="San Jose"/><tag k="addr:housenumber" v="1859"/><tag k="addr:street" v="Dobbin Drive"/><tag k="addr:postcode" v="95133"/></node>
<node visible="true" id="-155" lat="37.366221574" lon="-121.86528734100001"><tag k="addr:city" v="San Jose"/><tag k="addr:housenumber" v="1851"/><tag k="addr:street" v="Dobbin Drive"/><tag k="addr:postcode" v="95133"/></node>
<node visible="true" id="-156" lat="37.359131556" lon="-121.860246555"><tag k="addr:city" v="San Jose"/><tag k="addr:housenumber" v="1735"/><tag k="addr:street" v="McKee Road"/><tag k="addr:unit" v="6;18;20"/><tag k="addr:postcode" v="95116"/></node>
<node visible="true" id="-157" lat="37.359020553" lon="-121.86015516100001"><tag k="addr:city" v="San Jose"/><tag k="addr:housenumber" v="1735"/><tag k="addr:street" v="McKee Road"/><tag k="addr:unit" v="8;10"/><tag k="addr:postcode" v="95116"/></node>
<node visible="true" id="-158" lat="37.359166879" lon="-121.860284715"><tag k="addr:city" v="San Jose"/><tag k="addr:housenumber" v="1735"/><tag k="addr:street" v="McKee Road"/><tag k="addr:unit" v="7;9;16"/><tag k="addr:postcode" v="95116"/></node>
<node visible="true" id="-159" lat="37.359081452000005" lon="-121.860566336"><tag k="addr:city" v="San Jose"/><tag k="addr:housenumber" v="1711"/><tag k="addr:street" v="McKee Road"/><tag k="addr:unit" v="A-E"/><tag k="addr:postcode" v="95116"/></node>
<node visible="true" id="-160" lat="37.359112092000004" lon="-121.86059700300001"><tag k="addr:city" v="San Jose"/><tag k="addr:housenumber" v="1711"/><tag k="addr:street" v="McKee Road"/><tag k="addr:unit" v="F;H;K"/><tag k="addr:postcode" v="95116"/></node>
<node visible="true" id="-161" lat="37.359004287000005" lon="-121.860782161"><tag k="addr:city" v="San Jose"/><tag k="addr:housenumber" v="1711"/><tag k="addr:street" v="McKee Road"/><tag k="addr:postcode" v="95116"/></node>
<node visible="true" id="-162" lat="37.359058251" lon="-121.860194082"><tag k="addr:city" v="San Jose"/><tag k="addr:housenumber" v="1735"/><tag k="addr:street" v="McKee Road"/><tag k="addr:unit" v="2-4"/><tag k="addr:postcode" v="95116"/></node>
<node visible="true" id="-163" lat="37.363933168" lon="-121.865548888"><tag k="addr:city" v="San Jose"/><tag k="addr:housenumber" v="656"/><tag k="addr:street" v="North King Road"/><tag k="addr:postcode" v="95133"/></node>
<node visible="true" id="-164" lat="37.364133233000004" lon="-121.86512309800001"><tag k="addr:city" v="San Jose"/><tag k="addr:housenumber" v="648;652"/><tag k="addr:street" v="North King Road"/><tag k="addr:postcode" v="95133"/></node>
<node visible="true" id="-165" lat="37.365537998" lon="-121.86490180300001"><tag k="addr:city" v="San Jose"/><tag k="addr:housenumber" v="1800"/><tag k="addr:street" v="Dobbin Drive"/><tag k="addr:postcode" v="95133"/></node>
<node visible="true" id="-166" lat="37.365367088" lon="-121.86526016200001"><tag k="addr:city" v="San Jose"/><tag k="addr:housenumber" v="1810"/><tag k="addr:street" v="Dobbin Drive"/><tag k="addr:postcode" v="95133"/></node>
<node visible="true" id="-167" lat="37.363898722" lon="-121.86538127000001"><tag k="addr:city" v="San Jose"/><tag k="addr:housenumber" v="646"/><tag k="addr:street" v="North King Road"/><tag k="addr:postcode" v="95133"/></node>
<node visible="true" id="-168" lat="37.366372915" lon="-121.86218199300001"><tag k="addr:city" v="San Jose"/><tag k="addr:housenumber" v="1901"/><tag k="addr:street" v="Las Plumas Avenue"/><tag k="addr:unit" v="20"/><tag k="addr:postcode" v="95133"/></node>
<node visible="true" id="-169" lat="37.365925068" lon="-121.861081396"><tag k="addr:city" v="San Jose"/><tag k="addr:housenumber" v="1921"/><tag k="addr:street" v="Las Plumas Avenue"/><tag k="addr:postcode" v="95133"/></node>
<node visible="true" id="-170" lat="37.366453876" lon="-121.860916079"><tag k="addr:city" v="San Jose"/><tag k="addr:housenumber" v="631"/><tag k="addr:street" v="Giguere Court"/><tag k="addr:unit" v="B;A1;A5"/><tag k="addr:postcode" v="95133"/></node>
<node visible="true" id="-171" lat="37.367420205" lon="-121.864954764"><tag k="addr:city" v="San Jose"/><tag k="addr:housenumber" v="688"/><tag k="addr:street" v="Squire Avenue"/><tag k="addr:postcode" v="95133"/></node>
<node visible="true" id="-172" lat="37.367376013000005" lon="-121.86490804600001"><tag k="addr:city" v="San Jose"/><tag k="addr:housenumber" v="678"/><tag k="addr:street" v="Squire Avenue"/><tag k="addr:postcode" v="95133"/></node>
<node visible="true" id="-173" lat="37.367465878000004" lon="-121.865003047"><tag k="addr:city" v="San Jose"/><tag k="addr:housenumber" v="698"/><tag k="addr:street" v="Squire Avenue"/><tag k="addr:postcode" v="95133"/></node>
<node visible="true" id="-174" lat="37.367791843" lon="-121.864416417"><tag k="addr:city" v="San Jose"/><tag k="addr:housenumber" v="2054"/><tag k="addr:street" v="Mahuron Circle"/><tag k="addr:postcode" v="95133"/></node>
<node visible="true" id="-175" lat="37.367541224" lon="-121.86438610100001"><tag k="addr:city" v="San Jose"/><tag k="addr:housenumber" v="2075"/><tag k="addr:street" v="Mahuron Circle"/><tag k="addr:postcode" v="95133"/></node>
<node visible="true" id="-176" lat="37.367758857000005" lon="-121.86406120100001"><tag k="addr:city" v="San Jose"/><tag k="addr:housenumber" v="2043"/><tag k="addr:street" v="Mahuron Circle"/><tag k="addr:postcode" v="95133"/></node>
<node visible="true" id="-177" lat="37.367795587" lon="-121.86400623200001"><tag k="addr:city" v="San Jose"/><tag k="addr:housenumber" v="2035"/><tag k="addr:street" v="Mahuron Circle"/><tag k="addr:postcode" v="95133"/></node>
<node visible="true" id="-178" lat="37.367869052" lon="-121.86389628500001"><tag k="addr:city" v="San Jose"/><tag k="addr:housenumber" v="2019"/><tag k="addr:street" v="Mahuron Circle"/><tag k="addr:postcode" v="95133"/></node>
<node visible="true" id="-179" lat="37.367614686" lon="-121.864276161"><tag k="addr:city" v="San Jose"/><tag k="addr:housenumber" v="2059"/><tag k="addr:street" v="Mahuron Circle"/><tag k="addr:postcode" v="95133"/></node>
<node visible="true" id="-180" lat="37.367833547000004" lon="-121.863949421"><tag k="addr:city" v="San Jose"/><tag k="addr:housenumber" v="2027"/><tag k="addr:street" v="Mahuron Circle"/><tag k="addr:postcode" v="95133"/></node>
<node visible="true" id="-181" lat="37.367577958000005" lon="-121.86433112700001"><tag k="addr:city" v="San Jose"/><tag k="addr:housenumber" v="2067"/><tag k="addr:street" v="Mahuron Circle"/><tag k="addr:postcode" v="95133"/></node>
<node visible="true" id="-182" lat="37.367720972" lon="-121.86411789900001"><tag k="addr:city" v="San Jose"/><tag k="addr:housenumber" v="2051"/><tag k="addr:street" v="Mahuron Circle"/><tag k="addr:postcode" v="95133"/></node>
<node visible="true" id="-183" lat="37.360316331" lon="-121.858933812"><tag k="addr:city" v="San Jose"/><tag k="addr:housenumber" v="311"/><tag k="addr:street" v="Checkers Drive"/><tag k="addr:unit" v="101"/><tag k="addr:postcode" v="95133"/></node>
<node visible="true" id="-184" lat="37.360570521" lon="-121.858777508"><tag k="addr:city" v="San Jose"/><tag k="addr:housenumber" v="313"/><tag k="addr:street" v="Checkers Drive"/><tag k="addr:unit" v="102"/><tag k="addr:postcode" v="95133"/></node>
<node visible="true" id="-185" lat="37.360643962000005" lon="-121.85875621400001"><tag k="addr:city" v="San Jose"/><tag k="addr:housenumber" v="313"/><tag k="addr:street" v="Checkers Drive"/><tag k="addr:unit" v="101"/><tag k="addr:postcode" v="95133"/></node>
<node visible="true" id="-186" lat="37.36017565" lon="-121.85876926300001"><tag k="addr:city" v="San Jose"/><tag k="addr:housenumber" v="305"/><tag k="addr:street" v="Checkers Drive"/><tag k="addr:unit" v="208"/><tag k="addr:postcode" v="95133"/></node>
<node visible="true" id="-187" lat="37.365015545000006" lon="-121.859382635"><tag k="addr:city" v="San Jose"/><tag k="addr:housenumber" v="1964"/><tag k="addr:street" v="Luby Drive"/><tag k="addr:postcode" v="95133"/></node>
<node visible="true" id="-188" lat="37.366135075" lon="-121.865407875"><tag k="addr:city" v="San Jose"/><tag k="addr:housenumber" v="1829"/><tag k="addr:street" v="Dobbin Drive"/><tag k="addr:postcode" v="95133"/></node>
<node visible="true" id="-189" lat="37.367905784" lon="-121.863841312"><tag k="addr:city" v="San Jose"/><tag k="addr:housenumber" v="2011"/><tag k="addr:street" v="Mahuron Circle"/><tag k="addr:postcode" v="95133"/></node>
<node visible="true" id="-190" lat="37.366270821" lon="-121.86523092"><tag k="addr:city" v="San Jose"/><tag k="addr:housenumber" v="1855"/><tag k="addr:street" v="Dobbin Drive"/><tag k="addr:postcode" v="95133"/></node>
<node visible="true" id="-191" lat="37.366329490000005" lon="-121.86514175200001"><tag k="addr:city" v="San Jose"/><tag k="addr:housenumber" v="1867"/><tag k="addr:street" v="Dobbin Drive"/><tag k="addr:postcode" v="95133"/></node>
<node visible="true" id="-192" lat="37.36634085" lon="-121.86510554200001"><tag k="addr:city" v="San Jose"/><tag k="addr:housenumber" v="1871"/><tag k="addr:street" v="Dobbin Drive"/><tag k="addr:postcode" v="95133"/></node>
<node visible="true" id="-193" lat="37.366445060000004" lon="-121.86496016800001"><tag k="addr:city" v="San Jose"/><tag k="addr:housenumber" v="1891"/><tag k="addr:street" v="Dobbin Drive"/><tag k="addr:postcode" v="95133"/></node>
<node visible="true" id="-194" lat="37.36509607" lon="-121.85944986400001"><tag k="addr:city" v="San Jose"/><tag k="addr:housenumber" v="1968"/><tag k="addr:street" v="Luby Drive"/><tag k="addr:postcode" v="95133"/></node>
<node visible="true" id="-195" lat="37.366599617000006" lon="-121.864620552"><tag k="addr:city" v="San Jose"/><tag k="addr:housenumber" v="602"/><tag k="addr:street" v="Obsidian Drive"/><tag k="addr:postcode" v="95133"/></node>
<node visible="true" id="-196" lat="37.366718623000004" lon="-121.864752913"><tag k="addr:city" v="San Jose"/><tag k="addr:housenumber" v="626"/><tag k="addr:street" v="Obsidian Drive"/><tag k="addr:postcode" v="95133"/></node>
<node visible="true" id="-197" lat="37.366962817" lon="-121.861437096"><tag k="addr:city" v="San Jose"/><tag k="addr:housenumber" v="651"/><tag k="addr:street" v="Giguere Court"/><tag k="addr:postcode" v="95133"/></node>
<node visible="true" id="-198" lat="37.366250352" lon="-121.867785874"><tag k="addr:city" v="San Jose"/><tag k="addr:housenumber" v="678"/><tag k="addr:street" v="North King Road"/><tag k="addr:unit" v="116"/><tag k="addr:postcode" v="95133"/></node>
<node visible="true" id="-199" lat="37.366289251000005" lon="-121.867739274"><tag k="addr:city" v="San Jose"/><tag k="addr:housenumber" v="678"/><tag k="addr:street" v="North King Road"/><tag k="addr:unit" v="117"/><tag k="addr:postcode" v="95133"/></node>
<node visible="true" id="-200" lat="37.366392957" lon="-121.86794679200001"><tag k="addr:city" v="San Jose"/><tag k="addr:housenumber" v="678"/><tag k="addr:street" v="North King Road"/><tag k="addr:unit" v="120"/><tag k="addr:postcode" v="95133"/></node>
<node visible="true" id="-201" lat="37.366486987" lon="-121.867961069"><tag k="addr:city" v="San Jose"/><tag k="addr:housenumber" v="678"/><tag k="addr:street" v="North King Road"/><tag k="addr:unit" v="123"/><tag k="addr:postcode" v="95133"/></node>
<node visible="true" id="-202" lat="37.365847148" lon="-121.86783366600001"><tag k="addr:city" v="San Jose"/><tag k="addr:housenumber" v="678"/><tag k="addr:street" v="North King Road"/><tag k="addr:unit" v="203"/><tag k="addr:postcode" v="95133"/></node>
<node visible="true" id="-203" lat="37.365895446" lon="-121.867759675"><tag k="addr:city" v="San Jose"/><tag k="addr:housenumber" v="678"/><tag k="addr:street" v="North King Road"/><tag k="addr:unit" v="205"/><tag k="addr:postcode" v="95133"/></node>
<node visible="true" id="-204" lat="37.365943744" lon="-121.86768568500001"><tag k="addr:city" v="San Jose"/><tag k="addr:housenumber" v="678"/><tag k="addr:street" v="North King Road"/><tag k="addr:unit" v="207"/><tag k="addr:postcode" v="95133"/></node>
<node visible="true" id="-205" lat="37.366067604" lon="-121.867614814"><tag k="addr:city" v="San Jose"/><tag k="addr:housenumber" v="678"/><tag k="addr:street" v="North King Road"/><tag k="addr:unit" v="210"/><tag k="addr:postcode" v="95133"/></node>
<node visible="true" id="-206" lat="37.366177114" lon="-121.86760906"><tag k="addr:city" v="San Jose"/><tag k="addr:housenumber" v="678"/><tag k="addr:street" v="North King Road"/><tag k="addr:unit" v="213"/><tag k="addr:postcode" v="95133"/></node>
<node visible="true" id="-207" lat="37.366245070000005" lon="-121.86779589300001"><tag k="addr:city" v="San Jose"/><tag k="addr:housenumber" v="678"/><tag k="addr:street" v="North King Road"/><tag k="addr:unit" v="216"/><tag k="addr:postcode" v="95133"/></node>
<node visible="true" id="-208" lat="37.36632852" lon="-121.86789645100001"><tag k="addr:city" v="San Jose"/><tag k="addr:housenumber" v="678"/><tag k="addr:street" v="North King Road"/><tag k="addr:unit" v="218"/><tag k="addr:postcode" v="95133"/></node>
<node visible="true" id="-209" lat="37.365849875" lon="-121.86810526200001"><tag k="addr:city" v="San Jose"/><tag k="addr:housenumber" v="678"/><tag k="addr:street" v="North King Road"/><tag k="addr:unit" v="227"/><tag k="addr:postcode" v="95133"/></node>
<node visible="true" id="-210" lat="37.365909040000005" lon="-121.868168412"><tag k="addr:city" v="San Jose"/><tag k="addr:housenumber" v="678"/><tag k="addr:street" v="North King Road"/><tag k="addr:unit" v="229"/><tag k="addr:postcode" v="95133"/></node>
<node visible="true" id="-211" lat="37.366010564" lon="-121.86816009300001"><tag k="addr:city" v="San Jose"/><tag k="addr:housenumber" v="678"/><tag k="addr:street" v="North King Road"/><tag k="addr:unit" v="230"/><tag k="addr:postcode" v="95133"/></node>
<node visible="true" id="-212" lat="37.365837686" lon="-121.86782551300001"><tag k="addr:city" v="San Jose"/><tag k="addr:housenumber" v="678"/><tag k="addr:street" v="North King Road"/><tag k="addr:unit" v="303"/><tag k="addr:postcode" v="95133"/></node>
<node visible="true" id="-213" lat="37.366065741" lon="-121.867475775"><tag k="addr:city" v="San Jose"/><tag k="addr:housenumber" v="678"/><tag k="addr:street" v="North King Road"/><tag k="addr:unit" v="309"/><tag k="addr:postcode" v="95133"/></node>
<node visible="true" id="-214" lat="37.366302363" lon="-121.867717212"><tag k="addr:city" v="San Jose"/><tag k="addr:housenumber" v="678"/><tag k="addr:street" v="North King Road"/><tag k="addr:unit" v="317"/><tag k="addr:postcode" v="95133"/></node>
<node visible="true" id="-215" lat="37.366440944000004" lon="-121.86787864600001"><tag k="addr:city" v="San Jose"/><tag k="addr:housenumber" v="678"/><tag k="addr:street" v="North King Road"/><tag k="addr:unit" v="321"/><tag k="addr:postcode" v="95133"/></node>
<node visible="true" id="-216" lat="37.365901028" lon="-121.868179182"><tag k="addr:city" v="San Jose"/><tag k="addr:housenumber" v="678"/><tag k="addr:street" v="North King Road"/><tag k="addr:unit" v="329"/><tag k="addr:postcode" v="95133"/></node>
<node visible="true" id="-217" lat="37.366230954" lon="-121.867817285"><tag k="addr:city" v="San Jose"/><tag k="addr:housenumber" v="678"/><tag k="addr:street" v="North King Road"/><tag k="addr:unit" v="416"/><tag k="addr:postcode" v="95133"/></node>
<node visible="true" id="-218" lat="37.366308284000006" lon="-121.86770693300001"><tag k="addr:city" v="San Jose"/><tag k="addr:housenumber" v="678"/><tag k="addr:street" v="North King Road"/><tag k="addr:unit" v="417"/><tag k="addr:postcode" v="95133"/></node>
<node visible="true" id="-219" lat="37.366003729" lon="-121.868170065"><tag k="addr:city" v="San Jose"/><tag k="addr:housenumber" v="678"/><tag k="addr:street" v="North King Road"/><tag k="addr:unit" v="430"/><tag k="addr:postcode" v="95133"/></node>
<node visible="true" id="-220" lat="37.365952077" lon="-121.86825141800001"><tag k="addr:city" v="San Jose"/><tag k="addr:housenumber" v="678"/><tag k="addr:street" v="North King Road"/><tag k="addr:unit" v="431"/><tag k="addr:postcode" v="95133"/></node>
<node visible="true" id="-221" lat="37.367431313000004" lon="-121.86488200100001"><tag k="addr:city" v="San Jose"/><tag k="addr:housenumber" v="682"/><tag k="addr:street" v="Squire Avenue"/><tag k="addr:postcode" v="95133"/></node>
<node visible="true" id="-222" lat="37.367607281000005" lon="-121.86469262700001"><tag k="addr:city" v="San Jose"/><tag k="addr:housenumber" v="2094"/><tag k="addr:street" v="Mahuron Circle"/><tag k="addr:postcode" v="95133"/></node>
<node visible="true" id="-223" lat="37.367643555" lon="-121.864638341"><tag k="addr:city" v="San Jose"/><tag k="addr:housenumber" v="2086"/><tag k="addr:street" v="Mahuron Circle"/><tag k="addr:postcode" v="95133"/></node>
<node visible="true" id="-224" lat="37.367680743" lon="-121.86458268700001"><tag k="addr:city" v="San Jose"/><tag k="addr:housenumber" v="2078"/><tag k="addr:street" v="Mahuron Circle"/><tag k="addr:postcode" v="95133"/></node>
<node visible="true" id="-225" lat="37.367717939" lon="-121.86452702000001"><tag k="addr:city" v="San Jose"/><tag k="addr:housenumber" v="2070"/><tag k="addr:street" v="Mahuron Circle"/><tag k="addr:postcode" v="95133"/></node>
<node visible="true" id="-226" lat="37.367885021" lon="-121.864206976"><tag k="addr:city" v="San Jose"/><tag k="addr:housenumber" v="2042"/><tag k="addr:street" v="Mahuron Circle"/><tag k="addr:postcode" v="95133"/></node>
<node visible="true" id="-227" lat="37.368032519" lon="-121.863986541"><tag k="addr:city" v="San Jose"/><tag k="addr:housenumber" v="2010"/><tag k="addr:street" v="Mahuron Circle"/><tag k="addr:postcode" v="95133"/></node>
<node visible="true" id="-228" lat="37.36804338" lon="-121.86404561600001"><tag k="addr:city" v="San Jose"/><tag k="addr:housenumber" v="2014"/><tag k="addr:street" v="Mahuron Circle"/><tag k="addr:postcode" v="95133"/></node>
<node visible="true" id="-229" lat="37.367711287" lon="-121.864059811"><tag k="addr:city" v="San Jose"/><tag k="addr:housenumber" v="2047"/><tag k="addr:street" v="Mahuron Circle"/><tag k="addr:postcode" v="95133"/></node>
<node visible="true" id="-230" lat="37.367163323" lon="-121.86426478000001"><tag k="addr:city" v="San Jose"/><tag k="addr:housenumber" v="1929"/><tag k="addr:street" v="Mahuron Circle"/><tag k="addr:postcode" v="95133"/></node>
<node visible="true" id="-231" lat="37.367241802" lon="-121.86414737000001"><tag k="addr:city" v="San Jose"/><tag k="addr:housenumber" v="1945"/><tag k="addr:street" v="Mahuron Circle"/><tag k="addr:postcode" v="95133"/></node>
<node visible="true" id="-232" lat="37.367322162" lon="-121.86402714500001"><tag k="addr:city" v="San Jose"/><tag k="addr:housenumber" v="1961"/><tag k="addr:street" v="Mahuron Circle"/><tag k="addr:postcode" v="95133"/></node>
<node visible="true" id="-233" lat="37.367400234" lon="-121.863910344"><tag k="addr:city" v="San Jose"/><tag k="addr:housenumber" v="1979"/><tag k="addr:street" v="Mahuron Circle"/><tag k="addr:postcode" v="95133"/></node>
<node visible="true" id="-234" lat="37.367210994000004" lon="-121.86426559600001"><tag k="addr:city" v="San Jose"/><tag k="addr:housenumber" v="1933"/><tag k="addr:street" v="Mahuron Circle"/><tag k="addr:postcode" v="95133"/></node>
<node visible="true" id="-235" lat="37.366958233000005" lon="-121.86421559300001"><tag k="addr:city" v="San Jose"/><tag k="addr:housenumber" v="1927"/><tag k="addr:street" v="Dobbin Drive"/><tag k="addr:postcode" v="95133"/></node>
<node visible="true" id="-236" lat="37.366836759" lon="-121.86434641500001"><tag k="addr:city" v="San Jose"/><tag k="addr:housenumber" v="1907"/><tag k="addr:street" v="Dobbin Drive"/><tag k="addr:postcode" v="95133"/></node>
<node visible="true" id="-237" lat="37.366875373" lon="-121.86428854600001"><tag k="addr:city" v="San Jose"/><tag k="addr:housenumber" v="1915"/><tag k="addr:street" v="Dobbin Drive"/><tag k="addr:postcode" v="95133"/></node>
<node visible="true" id="-238" lat="37.366917421000004" lon="-121.86422553300001"><tag k="addr:city" v="San Jose"/><tag k="addr:housenumber" v="1923"/><tag k="addr:street" v="Dobbin Drive"/><tag k="addr:postcode" v="95133"/></node>
<node visible="true" id="-239" lat="37.367032113" lon="-121.864053655"><tag k="addr:city" v="San Jose"/><tag k="addr:housenumber" v="1947"/><tag k="addr:street" v="Dobbin Drive"/><tag k="addr:postcode" v="95133"/></node>
<node visible="true" id="-240" lat="37.367170197" lon="-121.86384304600001"><tag k="addr:city" v="San Jose"/><tag k="addr:housenumber" v="1963"/><tag k="addr:street" v="Dobbin Drive"/><tag k="addr:postcode" v="95133"/></node>
<node visible="true" id="-241" lat="37.367727424" lon="-121.86356688000001"><tag k="addr:city" v="San Jose"/><tag k="addr:housenumber" v="2005"/><tag k="addr:street" v="Mahuron Circle"/><tag k="addr:postcode" v="95133"/></node>
<node visible="true" id="-242" lat="37.360531327000004" lon="-121.858842103"><tag k="addr:city" v="San Jose"/><tag k="addr:housenumber" v="313"/><tag k="addr:street" v="Checkers Drive"/><tag k="addr:unit" v="103"/><tag k="addr:postcode" v="95133"/></node>
<node visible="true" id="-243" lat="37.360528986000006" lon="-121.85892837"><tag k="addr:city" v="San Jose"/><tag k="addr:housenumber" v="313"/><tag k="addr:street" v="Checkers Drive"/><tag k="addr:unit" v="104"/><tag k="addr:postcode" v="95133"/></node>
<node visible="true" id="-244" lat="37.365248822000005" lon="-121.86754841700001"><tag k="addr:city" v="San Jose"/><tag k="addr:housenumber" v="1700"/><tag k="addr:street" v="Newbury Park Drive"/><tag k="addr:unit" v="10"/><tag k="addr:postcode" v="95133"/></node>
<node visible="true" id="-245" lat="37.36603676" lon="-121.86836836600001"><tag k="addr:city" v="San Jose"/><tag k="addr:housenumber" v="692"/><tag k="addr:street" v="North King Road"/><tag k="addr:unit" v="500"/><tag k="addr:postcode" v="95133"/></node>
<node visible="true" id="-246" lat="37.366164938000004" lon="-121.868221069"><tag k="addr:city" v="San Jose"/><tag k="addr:housenumber" v="692"/><tag k="addr:street" v="North King Road"/><tag k="addr:unit" v="402"/><tag k="addr:postcode" v="95133"/></node>
<node visible="true" id="-247" lat="37.366263631" lon="-121.868152803"><tag k="addr:city" v="San Jose"/><tag k="addr:housenumber" v="692"/><tag k="addr:street" v="North King Road"/><tag k="addr:unit" v="505"/><tag k="addr:postcode" v="95133"/></node>
<node visible="true" id="-248" lat="37.36629611" lon="-121.868185709"><tag k="addr:city" v="San Jose"/><tag k="addr:housenumber" v="692"/><tag k="addr:street" v="North King Road"/><tag k="addr:unit" v="507"/><tag k="addr:postcode" v="95133"/></node>
<node visible="true" id="-249" lat="37.36632859" lon="-121.86821861300001"><tag k="addr:city" v="San Jose"/><tag k="addr:housenumber" v="692"/><tag k="addr:street" v="North King Road"/><tag k="addr:unit" v="509"/><tag k="addr:postcode" v="95133"/></node>
<node visible="true" id="-250" lat="37.366393549" lon="-121.868284422"><tag k="addr:city" v="San Jose"/><tag k="addr:housenumber" v="692"/><tag k="addr:street" v="North King Road"/><tag k="addr:unit" v="513"/><tag k="addr:postcode" v="95133"/></node>
<node visible="true" id="-251" lat="37.366314533" lon="-121.86840200900001"><tag k="addr:city" v="San Jose"/><tag k="addr:housenumber" v="692"/><tag k="addr:street" v="North King Road"/><tag k="addr:unit" v="312"/><tag k="addr:postcode" v="95133"/></node>
<node visible="true" id="-252" lat="37.366241030000005" lon="-121.86834943900001"><tag k="addr:city" v="San Jose"/><tag k="addr:housenumber" v="692"/><tag k="addr:street" v="North King Road"/><tag k="addr:unit" v="408"/><tag k="addr:postcode" v="95133"/></node>
<node visible="true" id="-253" lat="37.36383218" lon="-121.86544618100001"><tag k="addr:city" v="San Jose"/><tag k="addr:housenumber" v="658"/><tag k="addr:street" v="North King Road"/><tag k="addr:postcode" v="95133"/></node>
<node visible="true" id="-254" lat="37.366285143" lon="-121.862247611"><tag k="addr:city" v="San Jose"/><tag k="addr:housenumber" v="1901"/><tag k="addr:street" v="Las Plumas Avenue"/><tag k="addr:postcode" v="95133"/></node>
<node visible="true" id="-255" lat="37.366461243" lon="-121.86492329000001"><tag k="addr:city" v="San Jose"/><tag k="addr:housenumber" v="1895"/><tag k="addr:street" v="Dobbin Drive"/><tag k="addr:postcode" v="95133"/></node>
<node visible="true" id="-256" lat="37.366490141" lon="-121.86490010400001"><tag k="addr:city" v="San Jose"/><tag k="addr:housenumber" v="1899"/><tag k="addr:street" v="Dobbin Drive"/><tag k="addr:postcode" v="95133"/></node>
<node visible="true" id="-257" lat="37.366159067000005" lon="-121.86080907600001"><tag k="addr:city" v="San Jose"/><tag k="addr:housenumber" v="1931"/><tag k="addr:street" v="Las Plumas Avenue"/><tag k="addr:postcode" v="95133"/></node>
<node visible="true" id="-258" lat="37.366644742000005" lon="-121.86468199800001"><tag k="addr:city" v="San Jose"/><tag k="addr:housenumber" v="610"/><tag k="addr:street" v="Obsidian Drive"/><tag k="addr:postcode" v="95133"/></node>
<node visible="true" id="-259" lat="37.367028609" lon="-121.861438297"><tag k="addr:city" v="San Jose"/><tag k="addr:housenumber" v="641"/><tag k="addr:street" v="Giguere Court"/><tag k="addr:postcode" v="95133"/></node>
<node visible="true" id="-260" lat="37.363979805" lon="-121.865072361"><tag k="addr:city" v="San Jose"/><tag k="addr:housenumber" v="650"/><tag k="addr:street" v="North King Road"/><tag k="addr:postcode" v="95133"/></node>
<node visible="true" id="-261" lat="37.364025564" lon="-121.86545833000001"><tag k="addr:city" v="San Jose"/><tag k="addr:housenumber" v="654"/><tag k="addr:street" v="North King Road"/><tag k="addr:postcode" v="95133"/></node>
<node visible="true" id="-262" lat="37.365984147" lon="-121.86759640100001"><tag k="addr:city" v="San Jose"/><tag k="addr:housenumber" v="678"/><tag k="addr:street" v="North King Road"/><tag k="addr:unit" v="100"/><tag k="addr:postcode" v="95133"/></node>
<node visible="true" id="-263" lat="37.366333802" lon="-121.86788643300001"><tag k="addr:city" v="San Jose"/><tag k="addr:housenumber" v="678"/><tag k="addr:street" v="North King Road"/><tag k="addr:unit" v="118"/><tag k="addr:postcode" v="95133"/></node>
<node visible="true" id="-264" lat="37.366452112000005" lon="-121.868007152"><tag k="addr:city" v="San Jose"/><tag k="addr:housenumber" v="678"/><tag k="addr:street" v="North King Road"/><tag k="addr:unit" v="122"/><tag k="addr:postcode" v="95133"/></node>
<node visible="true" id="-265" lat="37.366059254" lon="-121.867487647"><tag k="addr:city" v="San Jose"/><tag k="addr:housenumber" v="678"/><tag k="addr:street" v="North King Road"/><tag k="addr:unit" v="209"/><tag k="addr:postcode" v="95133"/></node>
<node visible="true" id="-266" lat="37.366185915" lon="-121.867735533"><tag k="addr:city" v="San Jose"/><tag k="addr:housenumber" v="678"/><tag k="addr:street" v="North King Road"/><tag k="addr:unit" v="214"/><tag k="addr:postcode" v="95133"/></node>
<node visible="true" id="-267" lat="37.366295876" lon="-121.867729084"><tag k="addr:city" v="San Jose"/><tag k="addr:housenumber" v="678"/><tag k="addr:street" v="North King Road"/><tag k="addr:unit" v="217"/><tag k="addr:postcode" v="95133"/></node>
<node visible="true" id="-268" lat="37.366387675000006" lon="-121.86795681000001"><tag k="addr:city" v="San Jose"/><tag k="addr:housenumber" v="678"/><tag k="addr:street" v="North King Road"/><tag k="addr:unit" v="220"/><tag k="addr:postcode" v="95133"/></node>
<node visible="true" id="-269" lat="37.36644683" lon="-121.86801717"><tag k="addr:city" v="San Jose"/><tag k="addr:housenumber" v="678"/><tag k="addr:street" v="North King Road"/><tag k="addr:unit" v="222"/><tag k="addr:postcode" v="95133"/></node>
<node visible="true" id="-270" lat="37.366061116000004" lon="-121.86762668600001"><tag k="addr:city" v="San Jose"/><tag k="addr:housenumber" v="678"/><tag k="addr:street" v="North King Road"/><tag k="addr:unit" v="310"/><tag k="addr:postcode" v="95133"/></node>
<node visible="true" id="-271" lat="37.366243208" lon="-121.86765685200001"><tag k="addr:city" v="San Jose"/><tag k="addr:housenumber" v="678"/><tag k="addr:street" v="North King Road"/><tag k="addr:unit" v="315"/><tag k="addr:postcode" v="95133"/></node>
<node visible="true" id="-272" lat="37.366238583000005" lon="-121.86780776500001"><tag k="addr:city" v="San Jose"/><tag k="addr:housenumber" v="678"/><tag k="addr:street" v="North King Road"/><tag k="addr:unit" v="316"/><tag k="addr:postcode" v="95133"/></node>
<node visible="true" id="-273" lat="37.366322033" lon="-121.86790832300001"><tag k="addr:city" v="San Jose"/><tag k="addr:housenumber" v="678"/><tag k="addr:street" v="North King Road"/><tag k="addr:unit" v="318"/><tag k="addr:postcode" v="95133"/></node>
<node visible="true" id="-274" lat="37.366381188000005" lon="-121.86796868200001"><tag k="addr:city" v="San Jose"/><tag k="addr:housenumber" v="678"/><tag k="addr:street" v="North King Road"/><tag k="addr:unit" v="320"/><tag k="addr:postcode" v="95133"/></node>
<node visible="true" id="-275" lat="37.366500099" lon="-121.86793900600001"><tag k="addr:city" v="San Jose"/><tag k="addr:housenumber" v="678"/><tag k="addr:street" v="North King Road"/><tag k="addr:unit" v="323"/><tag k="addr:postcode" v="95133"/></node>
<node visible="true" id="-276" lat="37.365901527000005" lon="-121.86802390800001"><tag k="addr:city" v="San Jose"/><tag k="addr:housenumber" v="678"/><tag k="addr:street" v="North King Road"/><tag k="addr:unit" v="326"/><tag k="addr:postcode" v="95133"/></node>
<node visible="true" id="-277" lat="37.365959411000006" lon="-121.868086171"><tag k="addr:city" v="San Jose"/><tag k="addr:housenumber" v="678"/><tag k="addr:street" v="North King Road"/><tag k="addr:unit" v="328"/><tag k="addr:postcode" v="95133"/></node>
<node visible="true" id="-278" lat="37.365958911" lon="-121.86824144600001"><tag k="addr:city" v="San Jose"/><tag k="addr:housenumber" v="678"/><tag k="addr:street" v="North King Road"/><tag k="addr:unit" v="331"/><tag k="addr:postcode" v="95133"/></node>
<node visible="true" id="-279" lat="37.365927709000005" lon="-121.86766973300001"><tag k="addr:city" v="San Jose"/><tag k="addr:housenumber" v="678"/><tag k="addr:street" v="North King Road"/><tag k="addr:unit" v="407"/><tag k="addr:postcode" v="95133"/></node>
<node visible="true" id="-280" lat="37.366071967" lon="-121.86746336300001"><tag k="addr:city" v="San Jose"/><tag k="addr:housenumber" v="678"/><tag k="addr:street" v="North King Road"/><tag k="addr:unit" v="409"/><tag k="addr:postcode" v="95133"/></node>
<node visible="true" id="-281" lat="37.366113648" lon="-121.86769723600001"><tag k="addr:city" v="San Jose"/><tag k="addr:housenumber" v="678"/><tag k="addr:street" v="North King Road"/><tag k="addr:unit" v="412"/><tag k="addr:postcode" v="95133"/></node>
<node visible="true" id="-282" lat="37.366170843" lon="-121.867758018"><tag k="addr:city" v="San Jose"/><tag k="addr:housenumber" v="678"/><tag k="addr:street" v="North King Road"/><tag k="addr:unit" v="414"/><tag k="addr:postcode" v="95133"/></node>
<node visible="true" id="-283" lat="37.366387071000005" lon="-121.867808268"><tag k="addr:city" v="San Jose"/><tag k="addr:housenumber" v="678"/><tag k="addr:street" v="North King Road"/><tag k="addr:unit" v="419"/><tag k="addr:postcode" v="95133"/></node>
<node visible="true" id="-284" lat="37.366446226" lon="-121.86786862700001"><tag k="addr:city" v="San Jose"/><tag k="addr:housenumber" v="678"/><tag k="addr:street" v="North King Road"/><tag k="addr:unit" v="421"/><tag k="addr:postcode" v="95133"/></node>
<node visible="true" id="-285" lat="37.366505381" lon="-121.867928988"><tag k="addr:city" v="San Jose"/><tag k="addr:housenumber" v="678"/><tag k="addr:street" v="North King Road"/><tag k="addr:unit" v="423"/><tag k="addr:postcode" v="95133"/></node>
<node visible="true" id="-286" lat="37.365778425" lon="-121.86806462400001"><tag k="addr:city" v="San Jose"/><tag k="addr:housenumber" v="678"/><tag k="addr:street" v="North King Road"/><tag k="addr:unit" v="425"/><tag k="addr:postcode" v="95133"/></node>
<node visible="true" id="-287" lat="37.367671344" lon="-121.86452277900001"><tag k="addr:city" v="San Jose"/><tag k="addr:housenumber" v="2074"/><tag k="addr:street" v="Mahuron Circle"/><tag k="addr:postcode" v="95133"/></node>
<node visible="true" id="-288" lat="37.367298267" lon="-121.86474135200001"><tag k="addr:city" v="San Jose"/><tag k="addr:housenumber" v="654"/><tag k="addr:street" v="Squire Avenue"/><tag k="addr:postcode" v="95133"/></node>
<node visible="true" id="-289" lat="37.367342453" lon="-121.864788063"><tag k="addr:city" v="San Jose"/><tag k="addr:housenumber" v="662"/><tag k="addr:street" v="Squire Avenue"/><tag k="addr:postcode" v="95133"/></node>
<node visible="true" id="-290" lat="37.367013529000005" lon="-121.864501935"><tag k="addr:city" v="San Jose"/><tag k="addr:housenumber" v="632"/><tag k="addr:street" v="Squire Avenue"/><tag k="addr:postcode" v="95133"/></node>
<node visible="true" id="-291" lat="37.367082298" lon="-121.86457440900001"><tag k="addr:city" v="San Jose"/><tag k="addr:housenumber" v="618"/><tag k="addr:street" v="Squire Avenue"/><tag k="addr:postcode" v="95133"/></node>
<node visible="true" id="-292" lat="37.367037485000004" lon="-121.86452120700001"><tag k="addr:city" v="San Jose"/><tag k="addr:housenumber" v="628"/><tag k="addr:street" v="Squire Avenue"/><tag k="addr:postcode" v="95133"/></node>
<node visible="true" id="-293" lat="37.366986593" lon="-121.864478184"><tag k="addr:city" v="San Jose"/><tag k="addr:housenumber" v="636"/><tag k="addr:street" v="Squire Avenue"/><tag k="addr:postcode" v="95133"/></node>
<node visible="true" id="-294" lat="37.367596957" lon="-121.86463410500001"><tag k="addr:city" v="San Jose"/><tag k="addr:housenumber" v="2090"/><tag k="addr:street" v="Mahuron Circle"/><tag k="addr:postcode" v="95133"/></node>
<node visible="true" id="-295" lat="37.367745263" lon="-121.86441215400001"><tag k="addr:city" v="San Jose"/><tag k="addr:housenumber" v="2058"/><tag k="addr:street" v="Mahuron Circle"/><tag k="addr:postcode" v="95133"/></node>
<node visible="true" id="-296" lat="37.368007073" lon="-121.86409987900001"><tag k="addr:city" v="San Jose"/><tag k="addr:housenumber" v="2022"/><tag k="addr:street" v="Mahuron Circle"/><tag k="addr:postcode" v="95133"/></node>
<node visible="true" id="-297" lat="37.367430086" lon="-121.864552426"><tag k="addr:city" v="San Jose"/><tag k="addr:housenumber" v="2099"/><tag k="addr:street" v="Mahuron Circle"/><tag k="addr:postcode" v="95133"/></node>
<node visible="true" id="-298" lat="37.367504494" lon="-121.86444106900001"><tag k="addr:city" v="San Jose"/><tag k="addr:housenumber" v="2083"/><tag k="addr:street" v="Mahuron Circle"/><tag k="addr:postcode" v="95133"/></node>
<node visible="true" id="-299" lat="37.36756761" lon="-121.864272162"><tag k="addr:city" v="San Jose"/><tag k="addr:housenumber" v="2063"/><tag k="addr:street" v="Mahuron Circle"/><tag k="addr:postcode" v="95133"/></node>
<node visible="true" id="-300" lat="37.367203684" lon="-121.86420439700001"><tag k="addr:city" v="San Jose"/><tag k="addr:housenumber" v="1937"/><tag k="addr:street" v="Mahuron Circle"/><tag k="addr:postcode" v="95133"/></node>
<node visible="true" id="-301" lat="37.367281751" lon="-121.86408760200001"><tag k="addr:city" v="San Jose"/><tag k="addr:housenumber" v="1953"/><tag k="addr:street" v="Mahuron Circle"/><tag k="addr:postcode" v="95133"/></node>
<node visible="true" id="-302" lat="37.367330849000005" lon="-121.864086283"><tag k="addr:city" v="San Jose"/><tag k="addr:housenumber" v="1957"/><tag k="addr:street" v="Mahuron Circle"/><tag k="addr:postcode" v="95133"/></node>
<node visible="true" id="-303" lat="37.367409828" lon="-121.86396812400001"><tag k="addr:city" v="San Jose"/><tag k="addr:housenumber" v="1975"/><tag k="addr:street" v="Mahuron Circle"/><tag k="addr:postcode" v="95133"/></node>
<node visible="true" id="-304" lat="37.367447442" lon="-121.86391185100001"><tag k="addr:city" v="San Jose"/><tag k="addr:housenumber" v="1985"/><tag k="addr:street" v="Mahuron Circle"/><tag k="addr:postcode" v="95133"/></node>
<node visible="true" id="-305" lat="37.366996078" lon="-121.86415887700001"><tag k="addr:city" v="San Jose"/><tag k="addr:housenumber" v="1935"/><tag k="addr:street" v="Dobbin Drive"/><tag k="addr:postcode" v="95133"/></node>
<node visible="true" id="-306" lat="37.367033164000006" lon="-121.86410330100001"><tag k="addr:city" v="San Jose"/><tag k="addr:housenumber" v="1943"/><tag k="addr:street" v="Dobbin Drive"/><tag k="addr:postcode" v="95133"/></node>
<node visible="true" id="-307" lat="37.366993502" lon="-121.864111519"><tag k="addr:city" v="San Jose"/><tag k="addr:housenumber" v="1939"/><tag k="addr:street" v="Dobbin Drive"/><tag k="addr:postcode" v="95133"/></node>
<node visible="true" id="-308" lat="37.367070346000006" lon="-121.86399635800001"><tag k="addr:city" v="San Jose"/><tag k="addr:housenumber" v="1955"/><tag k="addr:street" v="Dobbin Drive"/><tag k="addr:postcode" v="95133"/></node>
<node visible="true" id="-309" lat="37.367518869" lon="-121.86343512500001"><tag k="addr:city" v="San Jose"/><tag k="addr:housenumber" v="1997"/><tag k="addr:street" v="Dobbin Drive"/><tag k="addr:postcode" v="95133"/></node>
<node visible="true" id="-310" lat="37.36753327" lon="-121.863349532"><tag k="addr:city" v="San Jose"/><tag k="addr:housenumber" v="1999"/><tag k="addr:street" v="Dobbin Drive"/><tag k="addr:postcode" v="95133"/></node>
<node visible="true" id="-311" lat="37.367551124" lon="-121.86370760400001"><tag k="addr:city" v="San Jose"/><tag k="addr:housenumber" v="1993"/><tag k="addr:street" v="Mahuron Circle"/><tag k="addr:postcode" v="95133"/></node>
<node visible="true" id="-312" lat="37.367698194" lon="-121.86348594"><tag k="addr:city" v="San Jose"/><tag k="addr:housenumber" v="2001"/><tag k="addr:street" v="Mahuron Circle"/><tag k="addr:postcode" v="95133"/></node>
<node visible="true" id="-313" lat="37.366144695" lon="-121.865369013"><tag k="addr:city" v="San Jose"/><tag k="addr:housenumber" v="1835"/><tag k="addr:street" v="Dobbin Drive"/><tag k="addr:postcode" v="95133"/></node>
<node visible="true" id="-314" lat="37.366049989000004" lon="-121.86838349700001"><tag k="addr:city" v="San Jose"/><tag k="addr:housenumber" v="692"/><tag k="addr:street" v="North King Road"/><tag k="addr:unit" v="300"/><tag k="addr:postcode" v="95133"/></node>
<node visible="true" id="-315" lat="37.366145717" lon="-121.868276503"><tag k="addr:city" v="San Jose"/><tag k="addr:housenumber" v="692"/><tag k="addr:street" v="North King Road"/><tag k="addr:unit" v="301"/><tag k="addr:postcode" v="95133"/></node>
<node visible="true" id="-316" lat="37.366231151" lon="-121.868119899"><tag k="addr:city" v="San Jose"/><tag k="addr:housenumber" v="692"/><tag k="addr:street" v="North King Road"/><tag k="addr:unit" v="503"/><tag k="addr:postcode" v="95133"/></node>
<node visible="true" id="-317" lat="37.366244980000005" lon="-121.868178853"><tag k="addr:city" v="San Jose"/><tag k="addr:housenumber" v="692"/><tag k="addr:street" v="North King Road"/><tag k="addr:unit" v="305"/><tag k="addr:postcode" v="95133"/></node>
<node visible="true" id="-318" lat="37.366361069" lon="-121.86825151800001"><tag k="addr:city" v="San Jose"/><tag k="addr:housenumber" v="692"/><tag k="addr:street" v="North King Road"/><tag k="addr:unit" v="511"/><tag k="addr:postcode" v="95133"/></node>
<node visible="true" id="-319" lat="37.366352525" lon="-121.86826475800001"><tag k="addr:city" v="San Jose"/><tag k="addr:housenumber" v="692"/><tag k="addr:street" v="North King Road"/><tag k="addr:unit" v="411"/><tag k="addr:postcode" v="95133"/></node>
<node visible="true" id="-320" lat="37.366374898000004" lon="-121.868310472"><tag k="addr:city" v="San Jose"/><tag k="addr:housenumber" v="692"/><tag k="addr:street" v="North King Road"/><tag k="addr:unit" v="313"/><tag k="addr:postcode" v="95133"/></node>
<node visible="true" id="-321" lat="37.366263402" lon="-121.86839515400001"><tag k="addr:city" v="San Jose"/><tag k="addr:housenumber" v="692"/><tag k="addr:street" v="North King Road"/><tag k="addr:unit" v="510"/><tag k="addr:postcode" v="95133"/></node>
<node visible="true" id="-322" lat="37.366282053" lon="-121.86836910500001"><tag k="addr:city" v="San Jose"/><tag k="addr:housenumber" v="692"/><tag k="addr:street" v="North King Road"/><tag k="addr:unit" v="310"/><tag k="addr:postcode" v="95133"/></node>
<node visible="true" id="-323" lat="37.360607148" lon="-121.858723284"><tag k="addr:city" v="San Jose"/><tag k="addr:housenumber" v="313"/><tag k="addr:street" v="Checkers Drive"/><tag k="addr:unit" v="201"/><tag k="addr:postcode" v="95133"/></node>
<node visible="true" id="-324" lat="37.366248106" lon="-121.86525610100001"><tag k="addr:city" v="San Jose"/><tag k="addr:housenumber" v="1853"/><tag k="addr:street" v="Dobbin Drive"/><tag k="addr:postcode" v="95133"/></node>
<node visible="true" id="-325" lat="37.366352916000004" lon="-121.860536057"><tag k="addr:city" v="San Jose"/><tag k="addr:housenumber" v="1941"/><tag k="addr:street" v="Las Plumas Avenue"/><tag k="addr:postcode" v="95133"/></node>
<node visible="true" id="-326" lat="37.360208608" lon="-121.858284542"><tag k="addr:city" v="San Jose"/><tag k="addr:housenumber" v="303"/><tag k="addr:street" v="Checkers Drive"/><tag k="addr:postcode" v="95133"/></node>
<node visible="true" id="-327" lat="37.366624555" lon="-121.864653789"><tag k="addr:city" v="San Jose"/><tag k="addr:housenumber" v="606"/><tag k="addr:street" v="Obsidian Drive"/><tag k="addr:postcode" v="95133"/></node>
<node visible="true" id="-328" lat="37.366673645000006" lon="-121.864696174"><tag k="addr:city" v="San Jose"/><tag k="addr:housenumber" v="614"/><tag k="addr:street" v="Obsidian Drive"/><tag k="addr:postcode" v="95133"/></node>
<node visible="true" id="-329" lat="37.366695157" lon="-121.86472858200001"><tag k="addr:city" v="San Jose"/><tag k="addr:housenumber" v="620"/><tag k="addr:street" v="Obsidian Drive"/><tag k="addr:postcode" v="95133"/></node>
<node visible="true" id="-330" lat="37.366504585" lon="-121.861305666"><tag k="addr:city" v="San Jose"/><tag k="addr:housenumber" v="631"/><tag k="addr:street" v="Giguere Court"/><tag k="addr:postcode" v="95133"/></node>
<node visible="true" id="-331" lat="37.365951865" lon="-121.86769400700001"><tag k="addr:city" v="San Jose"/><tag k="addr:housenumber" v="678"/><tag k="addr:street" v="North King Road"/><tag k="addr:unit" v="107"/><tag k="addr:postcode" v="95133"/></node>
<node visible="true" id="-332" lat="37.366072886000005" lon="-121.86760479600001"><tag k="addr:city" v="San Jose"/><tag k="addr:housenumber" v="678"/><tag k="addr:street" v="North King Road"/><tag k="addr:unit" v="110"/><tag k="addr:postcode" v="95133"/></node>
<node visible="true" id="-333" lat="37.366132042000004" lon="-121.867665156"><tag k="addr:city" v="San Jose"/><tag k="addr:housenumber" v="678"/><tag k="addr:street" v="North King Road"/><tag k="addr:unit" v="112"/><tag k="addr:postcode" v="95133"/></node>
<node visible="true" id="-334" lat="37.366368677000004" lon="-121.867840349"><tag k="addr:city" v="San Jose"/><tag k="addr:housenumber" v="678"/><tag k="addr:street" v="North King Road"/><tag k="addr:unit" v="119"/><tag k="addr:postcode" v="95133"/></node>
<node visible="true" id="-335" lat="37.365798850000004" lon="-121.867907657"><tag k="addr:city" v="San Jose"/><tag k="addr:housenumber" v="678"/><tag k="addr:street" v="North King Road"/><tag k="addr:unit" v="201"/><tag k="addr:postcode" v="95133"/></node>
<node visible="true" id="-336" lat="37.36612676" lon="-121.86767517400001"><tag k="addr:city" v="San Jose"/><tag k="addr:housenumber" v="678"/><tag k="addr:street" v="North King Road"/><tag k="addr:unit" v="212"/><tag k="addr:postcode" v="95133"/></node>
<node visible="true" id="-337" lat="37.366236721" lon="-121.86766872400001"><tag k="addr:city" v="San Jose"/><tag k="addr:housenumber" v="678"/><tag k="addr:street" v="North King Road"/><tag k="addr:unit" v="215"/><tag k="addr:postcode" v="95133"/></node>
<node visible="true" id="-338" lat="37.366375302" lon="-121.86783015900001"><tag k="addr:city" v="San Jose"/><tag k="addr:housenumber" v="678"/><tag k="addr:street" v="North King Road"/><tag k="addr:unit" v="219"/><tag k="addr:postcode" v="95133"/></node>
<node visible="true" id="-339" lat="37.366493612" lon="-121.867950878"><tag k="addr:city" v="San Jose"/><tag k="addr:housenumber" v="678"/><tag k="addr:street" v="North King Road"/><tag k="addr:unit" v="223"/><tag k="addr:postcode" v="95133"/></node>
<node visible="true" id="-340" lat="37.36595268" lon="-121.868097829"><tag k="addr:city" v="San Jose"/><tag k="addr:housenumber" v="678"/><tag k="addr:street" v="North King Road"/><tag k="addr:unit" v="228"/><tag k="addr:postcode" v="95133"/></node>
<node visible="true" id="-341" lat="37.365966923" lon="-121.868230678"><tag k="addr:city" v="San Jose"/><tag k="addr:housenumber" v="678"/><tag k="addr:street" v="North King Road"/><tag k="addr:unit" v="231"/><tag k="addr:postcode" v="95133"/></node>
<node visible="true" id="-342" lat="37.365934282000005" lon="-121.86767753400001"><tag k="addr:city" v="San Jose"/><tag k="addr:housenumber" v="678"/><tag k="addr:street" v="North King Road"/><tag k="addr:unit" v="307"/><tag k="addr:postcode" v="95133"/></node>
<node visible="true" id="-343" lat="37.366120272" lon="-121.86768704600001"><tag k="addr:city" v="San Jose"/><tag k="addr:housenumber" v="678"/><tag k="addr:street" v="North King Road"/><tag k="addr:unit" v="312"/><tag k="addr:postcode" v="95133"/></node>
<node visible="true" id="-344" lat="37.366183601" lon="-121.867597188"><tag k="addr:city" v="San Jose"/><tag k="addr:housenumber" v="678"/><tag k="addr:street" v="North King Road"/><tag k="addr:unit" v="313"/><tag k="addr:postcode" v="95133"/></node>
<node visible="true" id="-345" lat="37.366381789" lon="-121.867818287"><tag k="addr:city" v="San Jose"/><tag k="addr:housenumber" v="678"/><tag k="addr:street" v="North King Road"/><tag k="addr:unit" v="319"/><tag k="addr:postcode" v="95133"/></node>
<node visible="true" id="-346" lat="37.365843143" lon="-121.86811691800001"><tag k="addr:city" v="San Jose"/><tag k="addr:housenumber" v="678"/><tag k="addr:street" v="North King Road"/><tag k="addr:unit" v="327"/><tag k="addr:postcode" v="95133"/></node>
<node visible="true" id="-347" lat="37.366017294" lon="-121.86814843600001"><tag k="addr:city" v="San Jose"/><tag k="addr:housenumber" v="678"/><tag k="addr:street" v="North King Road"/><tag k="addr:unit" v="330"/><tag k="addr:postcode" v="95133"/></node>
<node visible="true" id="-348" lat="37.365781402" lon="-121.867892865"><tag k="addr:city" v="San Jose"/><tag k="addr:housenumber" v="678"/><tag k="addr:street" v="North King Road"/><tag k="addr:unit" v="401"/><tag k="addr:postcode" v="95133"/></node>
<node visible="true" id="-349" lat="37.365829701" lon="-121.86781887500001"><tag k="addr:city" v="San Jose"/><tag k="addr:housenumber" v="678"/><tag k="addr:street" v="North King Road"/><tag k="addr:unit" v="403"/><tag k="addr:postcode" v="95133"/></node>
<node visible="true" id="-350" lat="37.365877998" lon="-121.86774488500001"><tag k="addr:city" v="San Jose"/><tag k="addr:housenumber" v="678"/><tag k="addr:street" v="North King Road"/><tag k="addr:unit" v="405"/><tag k="addr:postcode" v="95133"/></node>
<node visible="true" id="-351" lat="37.366052947" lon="-121.86763431800001"><tag k="addr:city" v="San Jose"/><tag k="addr:housenumber" v="678"/><tag k="addr:street" v="North King Road"/><tag k="addr:unit" v="410"/><tag k="addr:postcode" v="95133"/></node>
<node visible="true" id="-352" lat="37.366192950000006" lon="-121.867589394"><tag k="addr:city" v="San Jose"/><tag k="addr:housenumber" v="678"/><tag k="addr:street" v="North King Road"/><tag k="addr:unit" v="413"/><tag k="addr:postcode" v="95133"/></node>
<node visible="true" id="-353" lat="37.366315408000006" lon="-121.867918513"><tag k="addr:city" v="San Jose"/><tag k="addr:housenumber" v="678"/><tag k="addr:street" v="North King Road"/><tag k="addr:unit" v="418"/><tag k="addr:postcode" v="95133"/></node>
<node visible="true" id="-354" lat="37.366374563" lon="-121.86797887200001"><tag k="addr:city" v="San Jose"/><tag k="addr:housenumber" v="678"/><tag k="addr:street" v="North King Road"/><tag k="addr:unit" v="420"/><tag k="addr:postcode" v="95133"/></node>
<node visible="true" id="-355" lat="37.366433718" lon="-121.868039233"><tag k="addr:city" v="San Jose"/><tag k="addr:housenumber" v="678"/><tag k="addr:street" v="North King Road"/><tag k="addr:unit" v="422"/><tag k="addr:postcode" v="95133"/></node>
<node visible="true" id="-356" lat="37.367632775000004" lon="-121.864580501"><tag k="addr:city" v="San Jose"/><tag k="addr:housenumber" v="2082"/><tag k="addr:street" v="Mahuron Circle"/><tag k="addr:postcode" v="95133"/></node>
<node visible="true" id="-357" lat="37.367331821" lon="-121.864861328"><tag k="addr:city" v="San Jose"/><tag k="addr:housenumber" v="670"/><tag k="addr:street" v="Squire Avenue"/><tag k="addr:postcode" v="95133"/></node>
<node visible="true" id="-358" lat="37.367287652" lon="-121.864814635"><tag k="addr:city" v="San Jose"/><tag k="addr:housenumber" v="658"/><tag k="addr:street" v="Squire Avenue"/><tag k="addr:postcode" v="95133"/></node>
<node visible="true" id="-359" lat="37.367388021000004" lon="-121.864836236"><tag k="addr:city" v="San Jose"/><tag k="addr:housenumber" v="676"/><tag k="addr:street" v="Squire Avenue"/><tag k="addr:postcode" v="95133"/></node>
<node visible="true" id="-360" lat="37.367476389000004" lon="-121.86492965400001"><tag k="addr:city" v="San Jose"/><tag k="addr:housenumber" v="694"/><tag k="addr:street" v="Squire Avenue"/><tag k="addr:postcode" v="95133"/></node>
<node visible="true" id="-361" lat="37.367059426000004" lon="-121.864550797"><tag k="addr:city" v="San Jose"/><tag k="addr:housenumber" v="622"/><tag k="addr:street" v="Squire Avenue"/><tag k="addr:postcode" v="95133"/></node>
<node visible="true" id="-362" lat="37.367559070000006" lon="-121.86469080500001"><tag k="addr:city" v="San Jose"/><tag k="addr:housenumber" v="2098"/><tag k="addr:street" v="Mahuron Circle"/><tag k="addr:postcode" v="95133"/></node>
<node visible="true" id="-363" lat="37.367708074" lon="-121.86446781100001"><tag k="addr:city" v="San Jose"/><tag k="addr:housenumber" v="2066"/><tag k="addr:street" v="Mahuron Circle"/><tag k="addr:postcode" v="95133"/></node>
<node visible="true" id="-364" lat="37.367755594" lon="-121.864470667"><tag k="addr:city" v="San Jose"/><tag k="addr:housenumber" v="2062"/><tag k="addr:street" v="Mahuron Circle"/><tag k="addr:postcode" v="95133"/></node>
<node visible="true" id="-365" lat="37.367848026000004" lon="-121.864262264"><tag k="addr:city" v="San Jose"/><tag k="addr:housenumber" v="2050"/><tag k="addr:street" v="Mahuron Circle"/><tag k="addr:postcode" v="95133"/></node>
<node visible="true" id="-366" lat="37.367996219000005" lon="-121.86404079200001"><tag k="addr:city" v="San Jose"/><tag k="addr:housenumber" v="2018"/><tag k="addr:street" v="Mahuron Circle"/><tag k="addr:postcode" v="95133"/></node>
<node visible="true" id="-367" lat="37.368071128000004" lon="-121.86392884000001"><tag k="addr:city" v="San Jose"/><tag k="addr:housenumber" v="2002"/><tag k="addr:street" v="Mahuron Circle"/><tag k="addr:postcode" v="95133"/></node>
<node visible="true" id="-368" lat="37.367895878" lon="-121.86426605800001"><tag k="addr:city" v="San Jose"/><tag k="addr:housenumber" v="2046"/><tag k="addr:street" v="Mahuron Circle"/><tag k="addr:postcode" v="95133"/></node>
<node visible="true" id="-369" lat="37.367969864" lon="-121.86415548800001"><tag k="addr:city" v="San Jose"/><tag k="addr:housenumber" v="2030"/><tag k="addr:street" v="Mahuron Circle"/><tag k="addr:postcode" v="95133"/></node>
<node visible="true" id="-370" lat="37.36808244" lon="-121.86398724300001"><tag k="addr:city" v="San Jose"/><tag k="addr:housenumber" v="2006"/><tag k="addr:street" v="Mahuron Circle"/><tag k="addr:postcode" v="95133"/></node>
<node visible="true" id="-371" lat="37.367419467000005" lon="-121.86449386800001"><tag k="addr:city" v="San Jose"/><tag k="addr:housenumber" v="2095"/><tag k="addr:street" v="Mahuron Circle"/><tag k="addr:postcode" v="95133"/></node>
<node visible="true" id="-372" lat="37.36745742" lon="-121.86443707100001"><tag k="addr:city" v="San Jose"/><tag k="addr:housenumber" v="2087"/><tag k="addr:street" v="Mahuron Circle"/><tag k="addr:postcode" v="95133"/></node>
<node visible="true" id="-373" lat="37.367604323" lon="-121.86421721800001"><tag k="addr:city" v="San Jose"/><tag k="addr:housenumber" v="2055"/><tag k="addr:street" v="Mahuron Circle"/><tag k="addr:postcode" v="95133"/></node>
<node visible="true" id="-374" lat="37.367784753" lon="-121.86394986200001"><tag k="addr:city" v="San Jose"/><tag k="addr:housenumber" v="2031"/><tag k="addr:street" v="Mahuron Circle"/><tag k="addr:postcode" v="95133"/></node>
<node visible="true" id="-375" lat="37.367360734" lon="-121.863969439"><tag k="addr:city" v="San Jose"/><tag k="addr:housenumber" v="1971"/><tag k="addr:street" v="Mahuron Circle"/><tag k="addr:postcode" v="95133"/></node>
<node visible="true" id="-376" lat="37.367290903000004" lon="-121.864146046"><tag k="addr:city" v="San Jose"/><tag k="addr:housenumber" v="1949"/><tag k="addr:street" v="Mahuron Circle"/><tag k="addr:postcode" v="95133"/></node>
<node visible="true" id="-377" lat="37.367071774" lon="-121.864045438"><tag k="addr:city" v="San Jose"/><tag k="addr:housenumber" v="1951"/><tag k="addr:street" v="Dobbin Drive"/><tag k="addr:postcode" v="95133"/></node>
<node visible="true" id="-378" lat="37.367211833" lon="-121.863836899"><tag k="addr:city" v="San Jose"/><tag k="addr:housenumber" v="1969"/><tag k="addr:street" v="Dobbin Drive"/><tag k="addr:postcode" v="95133"/></node>
<node visible="true" id="-379" lat="37.367252266" lon="-121.86377705500001"><tag k="addr:city" v="San Jose"/><tag k="addr:housenumber" v="1977"/><tag k="addr:street" v="Dobbin Drive"/><tag k="addr:postcode" v="95133"/></node>
<node visible="true" id="-380" lat="37.367210262" lon="-121.86378374700001"><tag k="addr:city" v="San Jose"/><tag k="addr:housenumber" v="1973"/><tag k="addr:street" v="Dobbin Drive"/><tag k="addr:postcode" v="95133"/></node>
<node visible="true" id="-381" lat="37.367436689" lon="-121.86355832100001"><tag k="addr:city" v="San Jose"/><tag k="addr:housenumber" v="1989"/><tag k="addr:street" v="Dobbin Drive"/><tag k="addr:postcode" v="95133"/></node>
<node visible="true" id="-382" lat="37.367370218000005" lon="-121.863593964"><tag k="addr:city" v="San Jose"/><tag k="addr:housenumber" v="1987"/><tag k="addr:street" v="Dobbin Drive"/><tag k="addr:postcode" v="95133"/></node>
<node visible="true" id="-383" lat="37.367453539" lon="-121.863469057"><tag k="addr:city" v="San Jose"/><tag k="addr:housenumber" v="1993"/><tag k="addr:street" v="Dobbin Drive"/><tag k="addr:postcode" v="95133"/></node>
<node visible="true" id="-384" lat="37.367573055" lon="-121.86362266600001"><tag k="addr:city" v="San Jose"/><tag k="addr:housenumber" v="1995"/><tag k="addr:street" v="Mahuron Circle"/><tag k="addr:postcode" v="95133"/></node>
<node visible="true" id="-385" lat="37.367794361" lon="-121.86358757100001"><tag k="addr:city" v="San Jose"/><tag k="addr:housenumber" v="2009"/><tag k="addr:street" v="Mahuron Circle"/><tag k="addr:postcode" v="95133"/></node>
<node visible="true" id="-386" lat="37.365157633" lon="-121.86744652300001"><tag k="addr:city" v="San Jose"/><tag k="addr:housenumber" v="1700"/><tag k="addr:street" v="Newbury Park Drive"/><tag k="addr:unit" v="20"/><tag k="addr:postcode" v="95133"/></node>
<node visible="true" id="-387" lat="37.366043765" lon="-121.86837603800001"><tag k="addr:city" v="San Jose"/><tag k="addr:housenumber" v="692"/><tag k="addr:street" v="North King Road"/><tag k="addr:unit" v="400"/><tag k="addr:postcode" v="95133"/></node>
<node visible="true" id="-388" lat="37.366135706" lon="-121.86826636100001"><tag k="addr:city" v="San Jose"/><tag k="addr:housenumber" v="692"/><tag k="addr:street" v="North King Road"/><tag k="addr:unit" v="401"/><tag k="addr:postcode" v="95133"/></node>
<node visible="true" id="-389" lat="37.366126251000004" lon="-121.868256783"><tag k="addr:city" v="San Jose"/><tag k="addr:housenumber" v="692"/><tag k="addr:street" v="North King Road"/><tag k="addr:unit" v="501"/><tag k="addr:postcode" v="95133"/></node>
<node visible="true" id="-390" lat="37.366155483" lon="-121.86821149100001"><tag k="addr:city" v="San Jose"/><tag k="addr:housenumber" v="692"/><tag k="addr:street" v="North King Road"/><tag k="addr:unit" v="502"/><tag k="addr:postcode" v="95133"/></node>
<node visible="true" id="-391" lat="37.366212501" lon="-121.868145948"><tag k="addr:city" v="San Jose"/><tag k="addr:housenumber" v="692"/><tag k="addr:street" v="North King Road"/><tag k="addr:unit" v="303"/><tag k="addr:postcode" v="95133"/></node>
<node visible="true" id="-392" lat="37.366222607000005" lon="-121.86813313900001"><tag k="addr:city" v="San Jose"/><tag k="addr:housenumber" v="692"/><tag k="addr:street" v="North King Road"/><tag k="addr:unit" v="403"/><tag k="addr:postcode" v="95133"/></node>
<node visible="true" id="-393" lat="37.366255087" lon="-121.868166043"><tag k="addr:city" v="San Jose"/><tag k="addr:housenumber" v="692"/><tag k="addr:street" v="North King Road"/><tag k="addr:unit" v="405"/><tag k="addr:postcode" v="95133"/></node>
<node visible="true" id="-394" lat="37.366277459" lon="-121.868211758"><tag k="addr:city" v="San Jose"/><tag k="addr:housenumber" v="692"/><tag k="addr:street" v="North King Road"/><tag k="addr:unit" v="307"/><tag k="addr:postcode" v="95133"/></node>
<node visible="true" id="-395" lat="37.366320046000006" lon="-121.86823185300001"><tag k="addr:city" v="San Jose"/><tag k="addr:housenumber" v="692"/><tag k="addr:street" v="North King Road"/><tag k="addr:unit" v="409"/><tag k="addr:postcode" v="95133"/></node>
<node visible="true" id="-396" lat="37.366385004" lon="-121.868297662"><tag k="addr:city" v="San Jose"/><tag k="addr:housenumber" v="692"/><tag k="addr:street" v="North King Road"/><tag k="addr:unit" v="413"/><tag k="addr:postcode" v="95133"/></node>
<node visible="true" id="-397" lat="37.366305988" lon="-121.86841524900001"><tag k="addr:city" v="San Jose"/><tag k="addr:housenumber" v="692"/><tag k="addr:street" v="North King Road"/><tag k="addr:unit" v="412"/><tag k="addr:postcode" v="95133"/></node>
<node visible="true" id="-398" lat="37.366230923" lon="-121.86836224800001"><tag k="addr:city" v="San Jose"/><tag k="addr:housenumber" v="692"/><tag k="addr:street" v="North King Road"/><tag k="addr:unit" v="508"/><tag k="addr:postcode" v="95133"/></node>
<node visible="true" id="-399" lat="37.36620855" lon="-121.868316535"><tag k="addr:city" v="San Jose"/><tag k="addr:housenumber" v="692"/><tag k="addr:street" v="North King Road"/><tag k="addr:unit" v="406"/><tag k="addr:postcode" v="95133"/></node>
<node visible="true" id="-400" lat="37.360299375000004" lon="-121.858915581"><tag k="addr:city" v="San Jose"/><tag k="addr:housenumber" v="311"/><tag k="addr:street" v="Checkers Drive"/><tag k="addr:unit" v="201"/><tag k="addr:postcode" v="95133"/></node>
<node visible="true" id="-401" lat="37.366307919" lon="-121.865167819"><tag k="addr:city" v="San Jose"/><tag k="addr:housenumber" v="1863"/><tag k="addr:street" v="Dobbin Drive"/><tag k="addr:postcode" v="95133"/></node>
<node visible="true" id="-402" lat="37.366366639" lon="-121.865078549"><tag k="addr:city" v="San Jose"/><tag k="addr:housenumber" v="1875"/><tag k="addr:street" v="Dobbin Drive"/><tag k="addr:postcode" v="95133"/></node>
<node visible="true" id="-403" lat="37.366084485" lon="-121.860646723"><tag k="addr:city" v="San Jose"/><tag k="addr:housenumber" v="1935"/><tag k="addr:street" v="Las Plumas Avenue"/><tag k="addr:postcode" v="95133"/></node>
<node visible="true" id="-404" lat="37.366826183" lon="-121.861554608"><tag k="addr:city" v="San Jose"/><tag k="addr:housenumber" v="633"/><tag k="addr:street" v="Giguere Court"/><tag k="addr:postcode" v="95133"/></node>
<node visible="true" id="-405" lat="37.365806969000005" lon="-121.86791597800001"><tag k="addr:city" v="San Jose"/><tag k="addr:housenumber" v="678"/><tag k="addr:street" v="North King Road"/><tag k="addr:unit" v="101"/><tag k="addr:postcode" v="95133"/></node>
<node visible="true" id="-406" lat="37.365855269" lon="-121.867841986"><tag k="addr:city" v="San Jose"/><tag k="addr:housenumber" v="678"/><tag k="addr:street" v="North King Road"/><tag k="addr:unit" v="103"/><tag k="addr:postcode" v="95133"/></node>
<node visible="true" id="-407" lat="37.365903566" lon="-121.86776799600001"><tag k="addr:city" v="San Jose"/><tag k="addr:housenumber" v="678"/><tag k="addr:street" v="North King Road"/><tag k="addr:unit" v="105"/><tag k="addr:postcode" v="95133"/></node>
<node visible="true" id="-408" lat="37.366170489000005" lon="-121.86761925100001"><tag k="addr:city" v="San Jose"/><tag k="addr:housenumber" v="678"/><tag k="addr:street" v="North King Road"/><tag k="addr:unit" v="113"/><tag k="addr:postcode" v="95133"/></node>
<node visible="true" id="-409" lat="37.366191197" lon="-121.86772551400001"><tag k="addr:city" v="San Jose"/><tag k="addr:housenumber" v="678"/><tag k="addr:street" v="North King Road"/><tag k="addr:unit" v="114"/><tag k="addr:postcode" v="95133"/></node>
<node visible="true" id="-410" lat="37.366230096" lon="-121.86767891400001"><tag k="addr:city" v="San Jose"/><tag k="addr:housenumber" v="678"/><tag k="addr:street" v="North King Road"/><tag k="addr:unit" v="115"/><tag k="addr:postcode" v="95133"/></node>
<node visible="true" id="-411" lat="37.366427832" lon="-121.86790070800001"><tag k="addr:city" v="San Jose"/><tag k="addr:housenumber" v="678"/><tag k="addr:street" v="North King Road"/><tag k="addr:unit" v="121"/><tag k="addr:postcode" v="95133"/></node>
<node visible="true" id="-412" lat="37.36612272" lon="-121.86753853600001"><tag k="addr:city" v="San Jose"/><tag k="addr:housenumber" v="678"/><tag k="addr:street" v="North King Road"/><tag k="addr:unit" v="211"/><tag k="addr:postcode" v="95133"/></node>
<node visible="true" id="-413" lat="37.366434457000004" lon="-121.86789051800001"><tag k="addr:city" v="San Jose"/><tag k="addr:housenumber" v="678"/><tag k="addr:street" v="North King Road"/><tag k="addr:unit" v="221"/><tag k="addr:postcode" v="95133"/></node>
<node visible="true" id="-414" lat="37.365894796" lon="-121.86803556500001"><tag k="addr:city" v="San Jose"/><tag k="addr:housenumber" v="678"/><tag k="addr:street" v="North King Road"/><tag k="addr:unit" v="226"/><tag k="addr:postcode" v="95133"/></node>
<node visible="true" id="-415" lat="37.365789388" lon="-121.86789950500001"><tag k="addr:city" v="San Jose"/><tag k="addr:housenumber" v="678"/><tag k="addr:street" v="North King Road"/><tag k="addr:unit" v="301"/><tag k="addr:postcode" v="95133"/></node>
<node visible="true" id="-416" lat="37.365885983000005" lon="-121.86775152300001"><tag k="addr:city" v="San Jose"/><tag k="addr:housenumber" v="678"/><tag k="addr:street" v="North King Road"/><tag k="addr:unit" v="305"/><tag k="addr:postcode" v="95133"/></node>
<node visible="true" id="-417" lat="37.366116096" lon="-121.86754872600001"><tag k="addr:city" v="San Jose"/><tag k="addr:housenumber" v="678"/><tag k="addr:street" v="North King Road"/><tag k="addr:unit" v="311"/><tag k="addr:postcode" v="95133"/></node>
<node visible="true" id="-418" lat="37.366179427000006" lon="-121.867747405"><tag k="addr:city" v="San Jose"/><tag k="addr:housenumber" v="678"/><tag k="addr:street" v="North King Road"/><tag k="addr:unit" v="314"/><tag k="addr:postcode" v="95133"/></node>
<node visible="true" id="-419" lat="37.366440343" lon="-121.868029042"><tag k="addr:city" v="San Jose"/><tag k="addr:housenumber" v="678"/><tag k="addr:street" v="North King Road"/><tag k="addr:unit" v="322"/><tag k="addr:postcode" v="95133"/></node>
<node visible="true" id="-420" lat="37.365785259" lon="-121.868054654"><tag k="addr:city" v="San Jose"/><tag k="addr:housenumber" v="678"/><tag k="addr:street" v="North King Road"/><tag k="addr:unit" v="325"/><tag k="addr:postcode" v="95133"/></node>
<node visible="true" id="-421" lat="37.366130179" lon="-121.867526115"><tag k="addr:city" v="San Jose"/><tag k="addr:housenumber" v="678"/><tag k="addr:street" v="North King Road"/><tag k="addr:unit" v="411"/><tag k="addr:postcode" v="95133"/></node>
<node visible="true" id="-422" lat="37.366250348" lon="-121.867646648"><tag k="addr:city" v="San Jose"/><tag k="addr:housenumber" v="678"/><tag k="addr:street" v="North King Road"/><tag k="addr:unit" v="415"/><tag k="addr:postcode" v="95133"/></node>
<node visible="true" id="-423" lat="37.365907015000005" lon="-121.86801406500001"><tag k="addr:city" v="San Jose"/><tag k="addr:housenumber" v="678"/><tag k="addr:street" v="North King Road"/><tag k="addr:unit" v="426"/><tag k="addr:postcode" v="95133"/></node>
<node visible="true" id="-424" lat="37.36583631" lon="-121.86812689000001"><tag k="addr:city" v="San Jose"/><tag k="addr:housenumber" v="678"/><tag k="addr:street" v="North King Road"/><tag k="addr:unit" v="427"/><tag k="addr:postcode" v="95133"/></node>
<node visible="true" id="-425" lat="37.3659649" lon="-121.868076328"><tag k="addr:city" v="San Jose"/><tag k="addr:housenumber" v="678"/><tag k="addr:street" v="North King Road"/><tag k="addr:unit" v="428"/><tag k="addr:postcode" v="95133"/></node>
<node visible="true" id="-426" lat="37.365894194" lon="-121.868189153"><tag k="addr:city" v="San Jose"/><tag k="addr:housenumber" v="678"/><tag k="addr:street" v="North King Road"/><tag k="addr:unit" v="429"/><tag k="addr:postcode" v="95133"/></node>
<node visible="true" id="-427" lat="37.366060301000005" lon="-121.86834253500001"><tag k="addr:city" v="San Jose"/><tag k="addr:housenumber" v="692"/><tag k="addr:street" v="North King Road"/><tag k="addr:postcode" v="95133"/></node>
<node visible="true" id="-428" lat="37.367245014000005" lon="-121.864769562"><tag k="addr:city" v="San Jose"/><tag k="addr:housenumber" v="650"/><tag k="addr:street" v="Squire Avenue"/><tag k="addr:postcode" v="95133"/></node>
<node visible="true" id="-429" lat="37.367921784" lon="-121.86415203300001"><tag k="addr:city" v="San Jose"/><tag k="addr:housenumber" v="2034"/><tag k="addr:street" v="Mahuron Circle"/><tag k="addr:postcode" v="95133"/></node>
<node visible="true" id="-430" lat="37.367959461000005" lon="-121.864095726"><tag k="addr:city" v="San Jose"/><tag k="addr:housenumber" v="2026"/><tag k="addr:street" v="Mahuron Circle"/><tag k="addr:postcode" v="95133"/></node>
<node visible="true" id="-431" lat="37.367932643" lon="-121.864211115"><tag k="addr:city" v="San Jose"/><tag k="addr:housenumber" v="2038"/><tag k="addr:street" v="Mahuron Circle"/><tag k="addr:postcode" v="95133"/></node>
<node visible="true" id="-432" lat="37.36746715" lon="-121.864496958"><tag k="addr:city" v="San Jose"/><tag k="addr:housenumber" v="2091"/><tag k="addr:street" v="Mahuron Circle"/><tag k="addr:postcode" v="95133"/></node>
<node visible="true" id="-433" lat="37.367492920000004" lon="-121.86438394100001"><tag k="addr:city" v="San Jose"/><tag k="addr:housenumber" v="2079"/><tag k="addr:street" v="Mahuron Circle"/><tag k="addr:postcode" v="95133"/></node>
<node visible="true" id="-434" lat="37.367531482000004" lon="-121.86432623"><tag k="addr:city" v="San Jose"/><tag k="addr:housenumber" v="2071"/><tag k="addr:street" v="Mahuron Circle"/><tag k="addr:postcode" v="95133"/></node>
<node visible="true" id="-435" lat="37.367749245" lon="-121.86400300300001"><tag k="addr:city" v="San Jose"/><tag k="addr:housenumber" v="2039"/><tag k="addr:street" v="Mahuron Circle"/><tag k="addr:postcode" v="95133"/></node>
<node visible="true" id="-436" lat="37.367823324" lon="-121.86389213500001"><tag k="addr:city" v="San Jose"/><tag k="addr:housenumber" v="2023"/><tag k="addr:street" v="Mahuron Circle"/><tag k="addr:postcode" v="95133"/></node>
<node visible="true" id="-437" lat="37.367860042000004" lon="-121.86383718600001"><tag k="addr:city" v="San Jose"/><tag k="addr:housenumber" v="2015"/><tag k="addr:street" v="Mahuron Circle"/><tag k="addr:postcode" v="95133"/></node>
<node visible="true" id="-438" lat="37.367250948" lon="-121.86420582100001"><tag k="addr:city" v="San Jose"/><tag k="addr:housenumber" v="1941"/><tag k="addr:street" v="Mahuron Circle"/><tag k="addr:postcode" v="95133"/></node>
<node visible="true" id="-439" lat="37.36736942" lon="-121.864028579"><tag k="addr:city" v="San Jose"/><tag k="addr:housenumber" v="1965"/><tag k="addr:street" v="Mahuron Circle"/><tag k="addr:postcode" v="95133"/></node>
<node visible="true" id="-440" lat="37.366835136" lon="-121.864400066"><tag k="addr:city" v="San Jose"/><tag k="addr:housenumber" v="1903"/><tag k="addr:street" v="Dobbin Drive"/><tag k="addr:postcode" v="95133"/></node>
<node visible="true" id="-441" lat="37.366876039000005" lon="-121.86433876900001"><tag k="addr:city" v="San Jose"/><tag k="addr:housenumber" v="1911"/><tag k="addr:street" v="Dobbin Drive"/><tag k="addr:postcode" v="95133"/></node>
<node visible="true" id="-442" lat="37.366916561000004" lon="-121.86427804300001"><tag k="addr:city" v="San Jose"/><tag k="addr:housenumber" v="1919"/><tag k="addr:street" v="Dobbin Drive"/><tag k="addr:postcode" v="95133"/></node>
<node visible="true" id="-443" lat="37.366956802000004" lon="-121.86416651600001"><tag k="addr:city" v="San Jose"/><tag k="addr:housenumber" v="1931"/><tag k="addr:street" v="Dobbin Drive"/><tag k="addr:postcode" v="95133"/></node>
<node visible="true" id="-444" lat="37.367172183" lon="-121.86389558100001"><tag k="addr:city" v="San Jose"/><tag k="addr:housenumber" v="1959"/><tag k="addr:street" v="Dobbin Drive"/><tag k="addr:postcode" v="95133"/></node>
<node visible="true" id="-445" lat="37.36735566" lon="-121.86367979100001"><tag k="addr:city" v="San Jose"/><tag k="addr:housenumber" v="1983"/><tag k="addr:street" v="Dobbin Drive"/><tag k="addr:postcode" v="95133"/></node>
<node visible="true" id="-446" lat="37.367490415" lon="-121.86374536800001"><tag k="addr:city" v="San Jose"/><tag k="addr:housenumber" v="1989"/><tag k="addr:street" v="Mahuron Circle"/><tag k="addr:postcode" v="95133"/></node>
<node visible="true" id="-447" lat="37.366104587" lon="-121.86542974000001"><tag k="addr:city" v="San Jose"/><tag k="addr:housenumber" v="1825"/><tag k="addr:street" v="Dobbin Drive"/><tag k="addr:postcode" v="95133"/></node>
<node visible="true" id="-448" lat="37.365629546" lon="-121.867626035"><tag k="addr:city" v="San Jose"/><tag k="addr:housenumber" v="1700"/><tag k="addr:street" v="Newbury Park Drive"/><tag k="addr:unit" v="308"/><tag k="addr:postcode" v="95133"/></node>
<node visible="true" id="-449" lat="37.366287566000004" lon="-121.868198949"><tag k="addr:city" v="San Jose"/><tag k="addr:housenumber" v="692"/><tag k="addr:street" v="North King Road"/><tag k="addr:unit" v="407"/><tag k="addr:postcode" v="95133"/></node>
<node visible="true" id="-450" lat="37.366309939000004" lon="-121.86824466200001"><tag k="addr:city" v="San Jose"/><tag k="addr:housenumber" v="692"/><tag k="addr:street" v="North King Road"/><tag k="addr:unit" v="309"/><tag k="addr:postcode" v="95133"/></node>
<node visible="true" id="-451" lat="37.366342418" lon="-121.868277567"><tag k="addr:city" v="San Jose"/><tag k="addr:housenumber" v="692"/><tag k="addr:street" v="North King Road"/><tag k="addr:unit" v="311"/><tag k="addr:postcode" v="95133"/></node>
<node visible="true" id="-452" lat="37.366295882" lon="-121.868428058"><tag k="addr:city" v="San Jose"/><tag k="addr:housenumber" v="692"/><tag k="addr:street" v="North King Road"/><tag k="addr:unit" v="512"/><tag k="addr:postcode" v="95133"/></node>
<node visible="true" id="-453" lat="37.366273509" lon="-121.868382345"><tag k="addr:city" v="San Jose"/><tag k="addr:housenumber" v="692"/><tag k="addr:street" v="North King Road"/><tag k="addr:unit" v="410"/><tag k="addr:postcode" v="95133"/></node>
<node visible="true" id="-454" lat="37.366198443" lon="-121.868329344"><tag k="addr:city" v="San Jose"/><tag k="addr:housenumber" v="692"/><tag k="addr:street" v="North King Road"/><tag k="addr:unit" v="506"/><tag k="addr:postcode" v="95133"/></node>
<node visible="true" id="-455" lat="37.360122372" lon="-121.85870319300001"><tag k="addr:city" v="San Jose"/><tag k="addr:housenumber" v="305"/><tag k="addr:street" v="Checkers Drive"/><tag k="addr:unit" v="207"/><tag k="addr:postcode" v="95133"/></node>
<node visible="true" id="-456" lat="37.360533707" lon="-121.85874457800001"><tag k="addr:city" v="San Jose"/><tag k="addr:housenumber" v="313"/><tag k="addr:street" v="Checkers Drive"/><tag k="addr:unit" v="202"/><tag k="addr:postcode" v="95133"/></node>
<node visible="true" id="-457" lat="37.360492172" lon="-121.85889544000001"><tag k="addr:city" v="San Jose"/><tag k="addr:housenumber" v="313"/><tag k="addr:street" v="Checkers Drive"/><tag k="addr:unit" v="204"/><tag k="addr:postcode" v="95133"/></node>
<node visible="true" id="-458" lat="37.360494513" lon="-121.85880917300001"><tag k="addr:city" v="San Jose"/><tag k="addr:housenumber" v="313"/><tag k="addr:street" v="Checkers Drive"/><tag k="addr:unit" v="203"/><tag k="addr:postcode" v="95133"/></node>
<node visible="true" id="-460" lat="37.363199242" lon="-121.85677233300001"/>
<node visible="true" id="-461" lat="37.363273432" lon="-121.85684594700001"/>
<node visible="true" id="-462" lat="37.363365037" lon="-121.85670104900001"/>
<node visible="true" id="-463" lat="37.363298941000004" lon="-121.856635428"/>
<node visible="true" id="-464" lat="37.363295724000004" lon="-121.856640497"/>
<node visible="true" id="-465" lat="37.363284346" lon="-121.856629209"/>
<node visible="true" id="-466" lat="37.363243969" lon="-121.85669310200001"/>
<node visible="true" id="-467" lat="37.363256054000004" lon="-121.856705125"/>
<node visible="true" id="-468" lat="37.363244666" lon="-121.85672315800001"/>
<node visible="true" id="-469" lat="37.363235868000004" lon="-121.85671442900001"/>
<node visible="true" id="-471" lat="37.363539016000004" lon="-121.85673438900001"/>
<node visible="true" id="-472" lat="37.363605601" lon="-121.85679812500001"/>
<node visible="true" id="-473" lat="37.36369391" lon="-121.85665327000001"/>
<node visible="true" id="-474" lat="37.363619202" lon="-121.85658174500001"/>
<node visible="true" id="-475" lat="37.363586023" lon="-121.85663616900001"/>
<node visible="true" id="-476" lat="37.363576514" lon="-121.85662708400001"/>
<node visible="true" id="-477" lat="37.36353992" lon="-121.856687088"/>
<node visible="true" id="-478" lat="37.363557551" lon="-121.85670396100001"/>
<node visible="true" id="-480" lat="37.364021147" lon="-121.85757266600001"/>
<node visible="true" id="-481" lat="37.364082692000004" lon="-121.85763283600001"/>
<node visible="true" id="-482" lat="37.364094475" lon="-121.85761388300001"/>
<node visible="true" id="-483" lat="37.36410724" lon="-121.857626366"/>
<node visible="true" id="-484" lat="37.364138754" lon="-121.85757580200001"/>
<node visible="true" id="-485" lat="37.364118084000005" lon="-121.85755560400001"/>
<node visible="true" id="-486" lat="37.364162166" lon="-121.85748482700001"/>
<node visible="true" id="-487" lat="37.364108524" lon="-121.857432371"/>
<node visible="true" id="-489" lat="37.365383069" lon="-121.85931991500001"/>
<node visible="true" id="-490" lat="37.365611073000004" lon="-121.85954541100001"/>
<node visible="true" id="-491" lat="37.365713601" lon="-121.85938271200001"/>
<node visible="true" id="-492" lat="37.365485597" lon="-121.85915721500001"/>
<node visible="true" id="-494" lat="37.363847863000004" lon="-121.857403441"/>
<node visible="true" id="-495" lat="37.363921366" lon="-121.85747697400001"/>
<node visible="true" id="-496" lat="37.363961624000005" lon="-121.857413768"/>
<node visible="true" id="-497" lat="37.363951876" lon="-121.857403989"/>
<node visible="true" id="-498" lat="37.364005758000005" lon="-121.85731938400001"/>
<node visible="true" id="-499" lat="37.363942003000005" lon="-121.857255663"/>
<node visible="true" id="-501" lat="37.364279048" lon="-121.857832869"/>
<node visible="true" id="-502" lat="37.364352544" lon="-121.857904648"/>
<node visible="true" id="-503" lat="37.364388061" lon="-121.85784758400001"/>
<node visible="true" id="-504" lat="37.364379723" lon="-121.85783944900001"/>
<node visible="true" id="-505" lat="37.364433796" lon="-121.85775254"/>
<node visible="true" id="-506" lat="37.364368666000004" lon="-121.857688897"/>
<node visible="true" id="-508" lat="37.363792992" lon="-121.85726740800001"/>
<node visible="true" id="-509" lat="37.363808745" lon="-121.85728283700001"/>
<node visible="true" id="-510" lat="37.363795143000004" lon="-121.857304647"/>
<node visible="true" id="-511" lat="37.363849191" lon="-121.857357558"/>
<node visible="true" id="-512" lat="37.3639336" lon="-121.857222233"/>
<node visible="true" id="-513" lat="37.363870045000006" lon="-121.857159995"/>
<node visible="true" id="-514" lat="37.36383036" lon="-121.857223626"/>
<node visible="true" id="-515" lat="37.363824086" lon="-121.85721752500001"/>
<node visible="true" id="-517" lat="37.365740542000005" lon="-121.86414590400001"/>
<node visible="true" id="-518" lat="37.366141531000004" lon="-121.86457400600001"/>
<node visible="true" id="-519" lat="37.366341456" lon="-121.86428001300001"/>
<node visible="true" id="-520" lat="37.366275122000005" lon="-121.864209216"/>
<node visible="true" id="-521" lat="37.366234265" lon="-121.86426927900001"/>
<node visible="true" id="-522" lat="37.366105042" lon="-121.86413132800001"/>
<node visible="true" id="-523" lat="37.366163421" lon="-121.86404549900001"/>
<node visible="true" id="-524" lat="37.366108047000004" lon="-121.86398636300001"/>
<node visible="true" id="-525" lat="37.366249282000005" lon="-121.86377888000001"/>
<node visible="true" id="-526" lat="37.366099476" lon="-121.863618117"/>
<node visible="true" id="-528" lat="37.363951995" lon="-121.85811000300001"/>
<node visible="true" id="-529" lat="37.3639941" lon="-121.85815295900001"/>
<node visible="true" id="-530" lat="37.364009145000004" lon="-121.858129832"/>
<node visible="true" id="-531" lat="37.364018538" lon="-121.85813943100001"/>
<node visible="true" id="-532" lat="37.364052851000004" lon="-121.858086681"/>
<node visible="true" id="-533" lat="37.364057955" lon="-121.85809190100001"/>
<node visible="true" id="-534" lat="37.364096687" lon="-121.85803234900001"/>
<node visible="true" id="-535" lat="37.364071658" lon="-121.858006806"/>
<node visible="true" id="-536" lat="37.364084802" lon="-121.857986604"/>
<node visible="true" id="-537" lat="37.364041367000006" lon="-121.85794228300001"/>
<node visible="true" id="-538" lat="37.363955010000005" lon="-121.85807506"/>
<node visible="true" id="-539" lat="37.363966845" lon="-121.858087182"/>
<node visible="true" id="-541" lat="37.364208935" lon="-121.86642803500001"/>
<node visible="true" id="-542" lat="37.364527295" lon="-121.86675696300001"/>
<node visible="true" id="-543" lat="37.364995083000004" lon="-121.86604632100001"/>
<node visible="true" id="-544" lat="37.364676747000004" lon="-121.86571739300001"/>
<node visible="true" id="-546" lat="37.363045230000004" lon="-121.85658264300001"/>
<node visible="true" id="-547" lat="37.363062096" lon="-121.856599157"/>
<node visible="true" id="-548" lat="37.363050006" lon="-121.856618553"/>
<node visible="true" id="-549" lat="37.363103620000004" lon="-121.856670973"/>
<node visible="true" id="-550" lat="37.36318551" lon="-121.85653959400001"/>
<node visible="true" id="-551" lat="37.363121901" lon="-121.856477357"/>
<node visible="true" id="-552" lat="37.363085098" lon="-121.85653642800001"/>
<node visible="true" id="-553" lat="37.363078226" lon="-121.85652969600001"/>
<node visible="true" id="-555" lat="37.364126139" lon="-121.85825233400001"/>
<node visible="true" id="-556" lat="37.364191198" lon="-121.85831491"/>
<node visible="true" id="-557" lat="37.364243888000004" lon="-121.85822890700001"/>
<node visible="true" id="-558" lat="37.364253234" lon="-121.858237887"/>
<node visible="true" id="-559" lat="37.364288902000006" lon="-121.858179655"/>
<node visible="true" id="-560" lat="37.364214525" lon="-121.85810810000001"/>
<node visible="true" id="-562" lat="37.364106732" lon="-121.857658395"/>
<node visible="true" id="-563" lat="37.364152749000006" lon="-121.857705104"/>
<node visible="true" id="-564" lat="37.364164774" lon="-121.857686533"/>
<node visible="true" id="-565" lat="37.364188882" lon="-121.85771099200001"/>
<node visible="true" id="-566" lat="37.364204237" lon="-121.857687251"/>
<node visible="true" id="-567" lat="37.364216643" lon="-121.857699865"/>
<node visible="true" id="-568" lat="37.364230459000005" lon="-121.85767850500001"/>
<node visible="true" id="-569" lat="37.364209854" lon="-121.85765762000001"/>
<node visible="true" id="-570" lat="37.364256786000006" lon="-121.85758496700001"/>
<node visible="true" id="-571" lat="37.364254451" lon="-121.85758254900001"/>
<node visible="true" id="-572" lat="37.364269555" lon="-121.857559148"/>
<node visible="true" id="-573" lat="37.364222886" lon="-121.857511809"/>
<node visible="true" id="-574" lat="37.364205098" lon="-121.857539325"/>
<node visible="true" id="-575" lat="37.364192176" lon="-121.85752618500001"/>
<node visible="true" id="-577" lat="37.363631374" lon="-121.85717004300001"/>
<node visible="true" id="-578" lat="37.363677943" lon="-121.85721411200001"/>
<node visible="true" id="-579" lat="37.363688977" lon="-121.85719576400001"/>
<node visible="true" id="-580" lat="37.363713648" lon="-121.85721909600001"/>
<node visible="true" id="-581" lat="37.363746135" lon="-121.85716517700001"/>
<node visible="true" id="-582" lat="37.363740619000005" lon="-121.857159984"/>
<node visible="true" id="-583" lat="37.363780863" lon="-121.85709323100001"/>
<node visible="true" id="-584" lat="37.363768663" lon="-121.85708168900001"/>
<node visible="true" id="-585" lat="37.363789946000004" lon="-121.857046389"/>
<node visible="true" id="-586" lat="37.363746774" lon="-121.85700554900001"/>
<node visible="true" id="-587" lat="37.363725742" lon="-121.857040439"/>
<node visible="true" id="-588" lat="37.36371539" lon="-121.85703065000001"/>
<node visible="true" id="-590" lat="37.363543829" lon="-121.857040026"/>
<node visible="true" id="-591" lat="37.363567141000004" lon="-121.85706206"/>
<node visible="true" id="-592" lat="37.363554986000004" lon="-121.85708228000001"/>
<node visible="true" id="-593" lat="37.36360324" lon="-121.857127962"/>
<node visible="true" id="-594" lat="37.363683615" lon="-121.856994662"/>
<node visible="true" id="-595" lat="37.363670519" lon="-121.85698227700001"/>
<node visible="true" id="-596" lat="37.363687181" lon="-121.85695467000001"/>
<node visible="true" id="-597" lat="37.363635287" lon="-121.85690555000001"/>
<node visible="true" id="-598" lat="37.363582217" lon="-121.856993543"/>
<node visible="true" id="-599" lat="37.363575615" lon="-121.856987298"/>
<node visible="true" id="-601" lat="37.364341331000006" lon="-121.85751378900001"/>
<node visible="true" id="-602" lat="37.364402576" lon="-121.85757612200001"/>
<node visible="true" id="-603" lat="37.364488966" lon="-121.85744289700001"/>
<node visible="true" id="-604" lat="37.364448353" lon="-121.85740158600001"/>
<node visible="true" id="-605" lat="37.364435349000004" lon="-121.857421654"/>
<node visible="true" id="-606" lat="37.364409314" lon="-121.85739513000001"/>
<node visible="true" id="-607" lat="37.364380507" lon="-121.85743955000001"/>
<node visible="true" id="-608" lat="37.36438591" lon="-121.85744505100001"/>
<node visible="true" id="-610" lat="37.364463205" lon="-121.857983367"/>
<node visible="true" id="-611" lat="37.364525044000004" lon="-121.858044198"/>
<node visible="true" id="-612" lat="37.364534083" lon="-121.858029805"/>
<node visible="true" id="-613" lat="37.364545842000005" lon="-121.85804137500001"/>
<node visible="true" id="-614" lat="37.364575675000005" lon="-121.85799373900001"/>
<node visible="true" id="-615" lat="37.364555197" lon="-121.857973615"/>
<node visible="true" id="-616" lat="37.36461293" lon="-121.85788143900001"/>
<node visible="true" id="-617" lat="37.364559809" lon="-121.857829198"/>
<node visible="true" id="-619" lat="37.358464422000004" lon="-121.86080004"/>
<node visible="true" id="-620" lat="37.358565419" lon="-121.860906626"/>
<node visible="true" id="-621" lat="37.35872004" lon="-121.86067658700001"/>
<node visible="true" id="-622" lat="37.358619041000004" lon="-121.860570037"/>
<node visible="true" id="-624" lat="37.363720796" lon="-121.85690524500001"/>
<node visible="true" id="-625" lat="37.363785978" lon="-121.85696685900001"/>
<node visible="true" id="-626" lat="37.363868455" lon="-121.85682998300001"/>
<node visible="true" id="-627" lat="37.363815636000005" lon="-121.85678005400001"/>
<node visible="true" id="-628" lat="37.363804293" lon="-121.85679884400001"/>
<node visible="true" id="-629" lat="37.363785845" lon="-121.85678140600001"/>
<node visible="true" id="-630" lat="37.363752659" lon="-121.856836517"/>
<node visible="true" id="-631" lat="37.363758744" lon="-121.856842271"/>
<node visible="true" id="-633" lat="37.363928022" lon="-121.857497605"/>
<node visible="true" id="-634" lat="37.364003587" lon="-121.85757100500001"/>
<node visible="true" id="-635" lat="37.364039388" lon="-121.857513154"/>
<node visible="true" id="-636" lat="37.364030615000004" lon="-121.85750463100001"/>
<node visible="true" id="-637" lat="37.364104343" lon="-121.85738549300001"/>
<node visible="true" id="-638" lat="37.364064306" lon="-121.857346601"/>
<node visible="true" id="-639" lat="37.364045999000005" lon="-121.857376208"/>
<node visible="true" id="-640" lat="37.364019217" lon="-121.857350221"/>
<node visible="true" id="-642" lat="37.364362424" lon="-121.85791955600001"/>
<node visible="true" id="-643" lat="37.364436198" lon="-121.85799337200001"/>
<node visible="true" id="-644" lat="37.364471644000005" lon="-121.85793771600001"/>
<node visible="true" id="-645" lat="37.364461707000004" lon="-121.857927763"/>
<node visible="true" id="-646" lat="37.36451847" lon="-121.857838735"/>
<node visible="true" id="-647" lat="37.364454633" lon="-121.857774875"/>
<node visible="true" id="-649" lat="37.359530081" lon="-121.861807764"/>
<node visible="true" id="-650" lat="37.359553491" lon="-121.861906468"/>
<node visible="true" id="-651" lat="37.359584003" lon="-121.86189508300001"/>
<node visible="true" id="-652" lat="37.359598063" lon="-121.861954424"/>
<node visible="true" id="-653" lat="37.359724825" lon="-121.86190721800001"/>
<node visible="true" id="-654" lat="37.359707411" lon="-121.861833914"/>
<node visible="true" id="-655" lat="37.359682362" lon="-121.86184323100001"/>
<node visible="true" id="-656" lat="37.359672357" lon="-121.86180113600001"/>
<node visible="true" id="-657" lat="37.359666758" lon="-121.861803202"/>
<node visible="true" id="-658" lat="37.359656650000005" lon="-121.86176062300001"/>
<node visible="true" id="-660" lat="37.364522528" lon="-121.857701777"/>
<node visible="true" id="-661" lat="37.364574501" lon="-121.85775589"/>
<node visible="true" id="-662" lat="37.364665245000005" lon="-121.85761912900001"/>
<node visible="true" id="-663" lat="37.364591451" lon="-121.857542252"/>
<node visible="true" id="-664" lat="37.364548484000004" lon="-121.85760695900001"/>
<node visible="true" id="-665" lat="37.364570359000005" lon="-121.85762972600001"/>
<node visible="true" id="-667" lat="37.362952378" lon="-121.85651715600001"/>
<node visible="true" id="-668" lat="37.363019459" lon="-121.85658320600001"/>
<node visible="true" id="-669" lat="37.363110293000005" lon="-121.856438432"/>
<node visible="true" id="-670" lat="37.363043213000005" lon="-121.856372347"/>
<node visible="true" id="-672" lat="37.364854175000005" lon="-121.86281038300001"/>
<node visible="true" id="-673" lat="37.364906428000005" lon="-121.86286622600001"/>
<node visible="true" id="-674" lat="37.364872253" lon="-121.86291639500001"/>
<node visible="true" id="-675" lat="37.364931532" lon="-121.8629798"/>
<node visible="true" id="-676" lat="37.364895652" lon="-121.86303245100001"/>
<node visible="true" id="-677" lat="37.36537564" lon="-121.86354574600001"/>
<node visible="true" id="-678" lat="37.365303626" lon="-121.863651457"/>
<node visible="true" id="-679" lat="37.365410004000005" lon="-121.863765208"/>
<node visible="true" id="-680" lat="37.365482715" lon="-121.863658477"/>
<node visible="true" id="-681" lat="37.365540720000006" lon="-121.863720482"/>
<node visible="true" id="-682" lat="37.365931079" lon="-121.86314749900001"/>
<node visible="true" id="-683" lat="37.365872585000005" lon="-121.86308496800001"/>
<node visible="true" id="-684" lat="37.365874346000005" lon="-121.86308238500001"/>
<node visible="true" id="-685" lat="37.36579168" lon="-121.862993982"/>
<node visible="true" id="-686" lat="37.365839437000005" lon="-121.862923893"/>
<node visible="true" id="-687" lat="37.365304995" lon="-121.86235234200001"/>
<node visible="true" id="-688" lat="37.365077277000005" lon="-121.86268660900001"/>
<node visible="true" id="-689" lat="37.365109318" lon="-121.86272088400001"/>
<node visible="true" id="-690" lat="37.3650662" lon="-121.86278420900001"/>
<node visible="true" id="-691" lat="37.365006268" lon="-121.86272010500001"/>
<node visible="true" id="-692" lat="37.364935569000004" lon="-121.862823879"/>
<node visible="true" id="-693" lat="37.364883154000005" lon="-121.86276786100001"/>
<node visible="true" id="-695" lat="37.36330522" lon="-121.85682388200001"/>
<node visible="true" id="-696" lat="37.363318989" lon="-121.85683744900001"/>
<node visible="true" id="-697" lat="37.363306761000004" lon="-121.85685691100001"/>
<node visible="true" id="-698" lat="37.363368544000004" lon="-121.856917877"/>
<node visible="true" id="-699" lat="37.363456577" lon="-121.85677783400001"/>
<node visible="true" id="-700" lat="37.363401529" lon="-121.856723529"/>
<node visible="true" id="-701" lat="37.36338723" lon="-121.85674629100001"/>
<node visible="true" id="-702" lat="37.363366699000004" lon="-121.856726062"/>
<node visible="true" id="-704" lat="37.364068991" lon="-121.857257591"/>
<node visible="true" id="-705" lat="37.364136471" lon="-121.85732220700001"/>
<node visible="true" id="-706" lat="37.364224304000004" lon="-121.85717827"/>
<node visible="true" id="-707" lat="37.364147531" lon="-121.85710478000001"/>
<node visible="true" id="-708" lat="37.364111944" lon="-121.85716311700001"/>
<node visible="true" id="-709" lat="37.364121207000004" lon="-121.857172026"/>
<node visible="true" id="-711" lat="37.364204808000004" lon="-121.85834458000001"/>
<node visible="true" id="-712" lat="37.364270856000005" lon="-121.85840958300001"/>
<node visible="true" id="-713" lat="37.364325286" lon="-121.858322786"/>
<node visible="true" id="-714" lat="37.364334791000005" lon="-121.85833214700001"/>
<node visible="true" id="-715" lat="37.364370472000004" lon="-121.85827518900001"/>
<node visible="true" id="-716" lat="37.364294947000005" lon="-121.85820086000001"/>
<node visible="true" id="-718" lat="37.363387442000004" lon="-121.85692733900001"/>
<node visible="true" id="-719" lat="37.363429206" lon="-121.85696891100001"/>
<node visible="true" id="-720" lat="37.363440034" lon="-121.85695183200001"/>
<node visible="true" id="-721" lat="37.363468437" lon="-121.85698012"/>
<node visible="true" id="-722" lat="37.3635019" lon="-121.856927318"/>
<node visible="true" id="-723" lat="37.363495545" lon="-121.856921009"/>
<node visible="true" id="-724" lat="37.363535246000005" lon="-121.85685837800001"/>
<node visible="true" id="-725" lat="37.363471461" lon="-121.85679486400001"/>
<node visible="true" id="-727" lat="37.364152754" lon="-121.85733217200001"/>
<node visible="true" id="-728" lat="37.364227096" lon="-121.857404414"/>
<node visible="true" id="-729" lat="37.364315241" lon="-121.85726199700001"/>
<node visible="true" id="-730" lat="37.364254398" lon="-121.85720290600001"/>
<node visible="true" id="-731" lat="37.364248463" lon="-121.85721250300001"/>
<node visible="true" id="-732" lat="37.364232193" lon="-121.85719668700001"/>
<node visible="true" id="-733" lat="37.364221305" lon="-121.85721428100001"/>
<node visible="true" id="-734" lat="37.364224048000004" lon="-121.85721694600001"/>
<node visible="true" id="-736" lat="37.363142029" lon="-121.856651091"/>
<node visible="true" id="-737" lat="37.363166123" lon="-121.85667455100001"/>
<node visible="true" id="-738" lat="37.363154646000005" lon="-121.85669306400001"/>
<node visible="true" id="-739" lat="37.363202207" lon="-121.856739317"/>
<node visible="true" id="-740" lat="37.363285785" lon="-121.856604493"/>
<node visible="true" id="-741" lat="37.363220596000005" lon="-121.856541058"/>
<node visible="true" id="-742" lat="37.363181634" lon="-121.85660390900001"/>
<node visible="true" id="-743" lat="37.363175170000005" lon="-121.856597667"/>
<node visible="true" id="-745" lat="37.364040159000005" lon="-121.858165118"/>
<node visible="true" id="-746" lat="37.364103336" lon="-121.85822662700001"/>
<node visible="true" id="-747" lat="37.364151228000004" lon="-121.85814938000001"/>
<node visible="true" id="-748" lat="37.36415935" lon="-121.85815727100001"/>
<node visible="true" id="-749" lat="37.364183618000006" lon="-121.858118102"/>
<node visible="true" id="-750" lat="37.364165719" lon="-121.85810067400001"/>
<node visible="true" id="-751" lat="37.364174899000005" lon="-121.85808590500001"/>
<node visible="true" id="-752" lat="37.3641215" lon="-121.85803393500001"/>
<node visible="true" id="-754" lat="37.364190655" lon="-121.857747708"/>
<node visible="true" id="-755" lat="37.3642321" lon="-121.857788346"/>
<node visible="true" id="-756" lat="37.364243882000004" lon="-121.85776946000001"/>
<node visible="true" id="-757" lat="37.364272751" lon="-121.85779779200001"/>
<node visible="true" id="-758" lat="37.364307007" lon="-121.857742974"/>
<node visible="true" id="-759" lat="37.364299701" lon="-121.857735821"/>
<node visible="true" id="-760" lat="37.364337203000005" lon="-121.857675798"/>
<node visible="true" id="-761" lat="37.364274194000004" lon="-121.857614018"/>
<node visible="true" id="-763" lat="37.363786766000004" lon="-121.85697003800001"/>
<node visible="true" id="-764" lat="37.363871908" lon="-121.85705376300001"/>
<node visible="true" id="-765" lat="37.363960814" lon="-121.856911808"/>
<node visible="true" id="-766" lat="37.363886862" lon="-121.856839092"/>
<node visible="true" id="-767" lat="37.363848719" lon="-121.856899999"/>
<node visible="true" id="-768" lat="37.363837529" lon="-121.856889025"/>
<way visible="true" id="-1"><nd ref="-2"/><nd ref="-3"/><nd ref="-4"/><nd ref="-5"/><nd ref="-6"/><nd ref="-7"/><nd ref="-8"/><nd ref="-9"/><nd ref="-10"/><nd ref="-11"/><nd ref="-12"/><nd ref="-13"/><nd ref="-14"/><nd ref="-15"/><nd ref="-16"/><nd ref="-17"/><nd ref="-18"/><nd ref="-19"/><nd ref="-20"/><nd ref="-21"/><nd ref="-22"/><nd ref="-23"/><nd ref="-24"/><nd ref="-25"/><nd ref="-26"/><nd ref="-27"/><nd ref="-28"/><nd ref="-29"/><nd ref="-30"/><nd ref="-31"/><nd ref="-32"/><nd ref="-33"/><nd ref="-2"/><tag k="building" v="yes"/><tag k="height" v="6.72"/><tag k="ele" v="36.20"/></way>
<way visible="true" id="-34"><nd ref="-35"/><nd ref="-36"/><nd ref="-37"/><nd ref="-38"/><nd ref="-39"/><nd ref="-40"/><nd ref="-41"/><nd ref="-42"/><nd ref="-43"/><nd ref="-44"/><nd ref="-45"/><nd ref="-46"/><nd ref="-35"/><tag k="building" v="yes"/><tag k="height" v="5.40"/><tag k="ele" v="35.36"/></way>
<way visible="true" id="-47"><nd ref="-48"/><nd ref="-49"/><nd ref="-50"/><nd ref="-51"/><nd ref="-48"/><tag k="building" v="yes"/><tag k="height" v="3.96"/><tag k="ele" v="34.06"/></way>
<way visible="true" id="-52"><nd ref="-53"/><nd ref="-54"/><nd ref="-55"/><nd ref="-56"/><nd ref="-53"/><tag k="building" v="yes"/><tag k="height" v="3.94"/><tag k="ele" v="34.34"/></way>
<way visible="true" id="-57"><nd ref="-58"/><nd ref="-59"/><nd ref="-60"/><nd ref="-61"/><nd ref="-62"/><nd ref="-63"/><nd ref="-58"/><tag k="building" v="yes"/><tag k="height" v="4.76"/><tag k="ele" v="31.05"/></way>
<way visible="true" id="-64"><nd ref="-65"/><nd ref="-66"/><nd ref="-67"/><nd ref="-68"/><nd ref="-69"/><nd ref="-70"/><nd ref="-65"/><tag k="building" v="yes"/><tag k="height" v="4.75"/><tag k="ele" v="31.53"/></way>
<way visible="true" id="-71"><nd ref="-72"/><nd ref="-73"/><nd ref="-74"/><nd ref="-75"/><nd ref="-76"/><nd ref="-77"/><nd ref="-78"/><nd ref="-79"/><nd ref="-80"/><nd ref="-81"/><nd ref="-72"/><tag k="building" v="yes"/><tag k="height" v="3.53"/><tag k="ele" v="33.84"/></way>
<way visible="true" id="-82"><nd ref="-83"/><nd ref="-84"/><nd ref="-85"/><nd ref="-86"/><nd ref="-87"/><nd ref="-88"/><nd ref="-89"/><nd ref="-90"/><nd ref="-83"/><tag k="building" v="yes"/><tag k="height" v="10.56"/><tag k="ele" v="38.53"/></way>
<way visible="true" id="-91"><nd ref="-92"/><nd ref="-93"/><nd ref="-94"/><nd ref="-95"/><nd ref="-92"/><tag k="building" v="yes"/><tag k="height" v="2.69"/><tag k="ele" v="32.42"/></way>
<way visible="true" id="-96"><nd ref="-97"/><nd ref="-98"/><nd ref="-99"/><nd ref="-100"/><nd ref="-101"/><nd ref="-102"/><nd ref="-103"/><nd ref="-104"/><nd ref="-105"/><nd ref="-106"/><nd ref="-107"/><nd ref="-108"/><nd ref="-97"/><tag k="building" v="yes"/><tag k="height" v="5.59"/><tag k="ele" v="36.29"/></way>
<way visible="true" id="-109"><nd ref="-110"/><nd ref="-111"/><nd ref="-112"/><nd ref="-113"/><nd ref="-110"/><tag k="building" v="yes"/><tag k="height" v="7.15"/><tag k="ele" v="36.42"/></way>
<way visible="true" id="-114"><nd ref="-115"/><nd ref="-116"/><nd ref="-117"/><nd ref="-118"/><nd ref="-115"/><tag k="building" v="yes"/><tag k="height" v="8.59"/><tag k="ele" v="37.91"/></way>
<way visible="true" id="-119"><nd ref="-120"/><nd ref="-121"/><nd ref="-122"/><nd ref="-123"/><nd ref="-124"/><nd ref="-125"/><nd ref="-126"/><nd ref="-127"/><nd ref="-128"/><nd ref="-129"/><nd ref="-130"/><nd ref="-131"/><nd ref="-120"/><tag k="building" v="yes"/><tag k="height" v="6.12"/><tag k="ele" v="36.29"/></way>
<way visible="true" id="-132"><nd ref="-133"/><nd ref="-134"/><nd ref="-135"/><nd ref="-136"/><nd ref="-137"/><nd ref="-138"/><nd ref="-139"/><nd ref="-140"/><nd ref="-141"/><nd ref="-142"/><nd ref="-143"/><nd ref="-144"/><nd ref="-145"/><nd ref="-146"/><nd ref="-147"/><nd ref="-148"/><nd ref="-149"/><nd ref="-150"/><nd ref="-133"/><tag k="building" v="yes"/><tag k="height" v="10.06"/><tag k="ele" v="37.76"/></way>
<way visible="true" id="-459"><nd ref="-460"/><nd ref="-461"/><nd ref="-462"/><nd ref="-463"/><nd ref="-464"/><nd ref="-465"/><nd ref="-466"/><nd ref="-467"/><nd ref="-468"/><nd ref="-469"/><nd ref="-460"/><tag k="building" v="yes"/><tag k="height" v="4.03"/><tag k="ele" v="34.10"/><tag k="addr:city" v="San Jose"/><tag k="addr:housenumber" v="358"/><tag k="addr:street" v="Ryegate Court"/><tag k="addr:postcode" v="95133"/></way>
<way visible="true" id="-470"><nd ref="-471"/><nd ref="-472"/><nd ref="-473"/><nd ref="-474"/><nd ref="-475"/><nd ref="-476"/><nd ref="-477"/><nd ref="-478"/><nd ref="-471"/><tag k="building" v="yes"/><tag k="height" v="3.87"/><tag k="ele" v="34.27"/><tag k="addr:city" v="San Jose"/><tag k="addr:housenumber" v="355"/><tag k="addr:street" v="Educational Park Drive"/><tag k="addr:postcode" v="95133"/></way>
<way visible="true" id="-479"><nd ref="-480"/><nd ref="-481"/><nd ref="-482"/><nd ref="-483"/><nd ref="-484"/><nd ref="-485"/><nd ref="-486"/><nd ref="-487"/><nd ref="-480"/><tag k="building" v="yes"/><tag k="height" v="4.04"/><tag k="ele" v="34.32"/><tag k="addr:city" v="San Jose"/><tag k="addr:housenumber" v="384"/><tag k="addr:street" v="Linkhorne Court"/><tag k="addr:postcode" v="95133"/></way>
<way visible="true" id="-488"><nd ref="-489"/><nd ref="-490"/><nd ref="-491"/><nd ref="-492"/><nd ref="-489"/><tag k="building" v="yes"/><tag k="height" v="4.00"/><tag k="ele" v="33.98"/><tag k="addr:city" v="San Jose"/><tag k="addr:housenumber" v="625"/><tag k="addr:street" v="Educational Park Drive"/><tag k="addr:postcode" v="95133"/></way>
<way visible="true" id="-493"><nd ref="-494"/><nd ref="-495"/><nd ref="-496"/><nd ref="-497"/><nd ref="-498"/><nd ref="-499"/><nd ref="-494"/><tag k="building" v="yes"/><tag k="height" v="4.14"/><tag k="ele" v="34.04"/><tag k="addr:city" v="San Jose"/><tag k="addr:housenumber" v="380"/><tag k="addr:street" v="Linkhorne Court"/><tag k="addr:postcode" v="95133"/></way>
<way visible="true" id="-500"><nd ref="-501"/><nd ref="-502"/><nd ref="-503"/><nd ref="-504"/><nd ref="-505"/><nd ref="-506"/><nd ref="-501"/><tag k="building" v="yes"/><tag k="height" v="3.98"/><tag k="ele" v="33.81"/><tag k="addr:city" v="San Jose"/><tag k="addr:housenumber" v="392"/><tag k="addr:street" v="Linkhorne Court"/><tag k="addr:postcode" v="95133"/></way>
<way visible="true" id="-507"><nd ref="-508"/><nd ref="-509"/><nd ref="-510"/><nd ref="-511"/><nd ref="-512"/><nd ref="-513"/><nd ref="-514"/><nd ref="-515"/><nd ref="-508"/><tag k="building" v="yes"/><tag k="height" v="6.80"/><tag k="ele" v="36.86"/><tag k="addr:city" v="San Jose"/><tag k="addr:housenumber" v="378"/><tag k="addr:street" v="Linkhorne Court"/><tag k="addr:postcode" v="95133"/></way>
<way visible="true" id="-516"><nd ref="-517"/><nd ref="-518"/><nd ref="-519"/><nd ref="-520"/><nd ref="-521"/><nd ref="-522"/><nd ref="-523"/><nd ref="-524"/><nd ref="-525"/><nd ref="-526"/><nd ref="-517"/><tag k="building" v="yes"/><tag k="height" v="5.25"/><tag k="ele" v="35.81"/><tag k="addr:city" v="San Jose"/><tag k="addr:housenumber" v="1860"/><tag k="addr:street" v="Dobbin Drive"/><tag k="addr:postcode" v="95133"/></way>
<way visible="true" id="-527"><nd ref="-528"/><nd ref="-529"/><nd ref="-530"/><nd ref="-531"/><nd ref="-532"/><nd ref="-533"/><nd ref="-534"/><nd ref="-535"/><nd ref="-536"/><nd ref="-537"/><nd ref="-538"/><nd ref="-539"/><nd ref="-528"/><tag k="building" v="yes"/><tag k="height" v="6.61"/><tag k="ele" v="36.92"/><tag k="addr:city" v="San Jose"/><tag k="addr:housenumber" v="391"/><tag k="addr:street" v="Linkhorne Court"/><tag k="addr:postcode" v="95133"/></way>
<way visible="true" id="-540"><nd ref="-541"/><nd ref="-542"/><nd ref="-543"/><nd ref="-544"/><nd ref="-541"/><tag k="building" v="yes"/><tag k="height" v="10.37"/><tag k="ele" v="38.82"/><tag k="addr:city" v="San Jose"/><tag k="addr:housenumber" v="660"/><tag k="addr:street" v="North King Road"/><tag k="addr:postcode" v="95133"/></way>
<way visible="true" id="-545"><nd ref="-546"/><nd ref="-547"/><nd ref="-548"/><nd ref="-549"/><nd ref="-550"/><nd ref="-551"/><nd ref="-552"/><nd ref="-553"/><nd ref="-546"/><tag k="building" v="yes"/><tag k="height" v="6.63"/><tag k="ele" v="36.75"/><tag k="addr:city" v="San Jose"/><tag k="addr:housenumber" v="350"/><tag k="addr:street" v="Ryegate Court"/><tag k="addr:postcode" v="95133"/></way>
<way visible="true" id="-554"><nd ref="-555"/><nd ref="-556"/><nd ref="-557"/><nd ref="-558"/><nd ref="-559"/><nd ref="-560"/><nd ref="-555"/><tag k="building" v="yes"/><tag k="height" v="3.99"/><tag k="ele" v="34.03"/><tag k="addr:city" v="San Jose"/><tag k="addr:housenumber" v="395"/><tag k="addr:street" v="Linkhorne Court"/><tag k="addr:postcode" v="95133"/></way>
<way visible="true" id="-561"><nd ref="-562"/><nd ref="-563"/><nd ref="-564"/><nd ref="-565"/><nd ref="-566"/><nd ref="-567"/><nd ref="-568"/><nd ref="-569"/><nd ref="-570"/><nd ref="-571"/><nd ref="-572"/><nd ref="-573"/><nd ref="-574"/><nd ref="-575"/><nd ref="-562"/><tag k="building" v="yes"/><tag k="height" v="6.82"/><tag k="ele" v="36.53"/><tag k="addr:city" v="San Jose"/><tag k="addr:housenumber" v="386"/><tag k="addr:street" v="Linkhorne Court"/><tag k="addr:postcode" v="95133"/></way>
<way visible="true" id="-576"><nd ref="-577"/><nd ref="-578"/><nd ref="-579"/><nd ref="-580"/><nd ref="-581"/><nd ref="-582"/><nd ref="-583"/><nd ref="-584"/><nd ref="-585"/><nd ref="-586"/><nd ref="-587"/><nd ref="-588"/><nd ref="-577"/><tag k="building" v="yes"/><tag k="height" v="7.12"/><tag k="ele" v="36.98"/><tag k="addr:city" v="San Jose"/><tag k="addr:housenumber" v="376"/><tag k="addr:street" v="Linkhorne Court"/><tag k="addr:postcode" v="95133"/></way>
<way visible="true" id="-589"><nd ref="-590"/><nd ref="-591"/><nd ref="-592"/><nd ref="-593"/><nd ref="-594"/><nd ref="-595"/><nd ref="-596"/><nd ref="-597"/><nd ref="-598"/><nd ref="-599"/><nd ref="-590"/><tag k="building" v="yes"/><tag k="height" v="6.88"/><tag k="ele" v="36.81"/><tag k="addr:city" v="San Jose"/><tag k="addr:housenumber" v="374"/><tag k="addr:street" v="Ryegate Court"/><tag k="addr:postcode" v="95133"/></way>
<way visible="true" id="-600"><nd ref="-601"/><nd ref="-602"/><nd ref="-603"/><nd ref="-604"/><nd ref="-605"/><nd ref="-606"/><nd ref="-607"/><nd ref="-608"/><nd ref="-601"/><tag k="building" v="yes"/><tag k="height" v="6.57"/><tag k="ele" v="36.58"/><tag k="addr:city" v="San Jose"/><tag k="addr:housenumber" v="387"/><tag k="addr:street" v="Educational Park Drive"/><tag k="addr:postcode" v="95133"/></way>
<way visible="true" id="-609"><nd ref="-610"/><nd ref="-611"/><nd ref="-612"/><nd ref="-613"/><nd ref="-614"/><nd ref="-615"/><nd ref="-616"/><nd ref="-617"/><nd ref="-610"/><tag k="building" v="yes"/><tag k="height" v="3.77"/><tag k="ele" v="34.09"/><tag k="addr:city" v="San Jose"/><tag k="addr:housenumber" v="396"/><tag k="addr:street" v="Linkhorne Court"/><tag k="addr:postcode" v="95133"/></way>
<way visible="true" id="-618"><nd ref="-619"/><nd ref="-620"/><nd ref="-621"/><nd ref="-622"/><nd ref="-619"/><tag k="building" v="yes"/><tag k="height" v="4.67"/><tag k="ele" v="33.92"/><tag k="addr:city" v="San Jose"/><tag k="addr:housenumber" v="1705"/><tag k="addr:street" v="McKee Road"/><tag k="addr:postcode" v="95116"/></way>
<way visible="true" id="-623"><nd ref="-624"/><nd ref="-625"/><nd ref="-626"/><nd ref="-627"/><nd ref="-628"/><nd ref="-629"/><nd ref="-630"/><nd ref="-631"/><nd ref="-624"/><tag k="building" v="yes"/><tag k="height" v="6.68"/><tag k="ele" v="36.92"/><tag k="addr:city" v="San Jose"/><tag k="addr:housenumber" v="361"/><tag k="addr:street" v="Educational Park Drive"/><tag k="addr:postcode" v="95133"/></way>
<way visible="true" id="-632"><nd ref="-633"/><nd ref="-634"/><nd ref="-635"/><nd ref="-636"/><nd ref="-637"/><nd ref="-638"/><nd ref="-639"/><nd ref="-640"/><nd ref="-633"/><tag k="building" v="yes"/><tag k="height" v="4.21"/><tag k="ele" v="34.09"/><tag k="addr:city" v="San Jose"/><tag k="addr:housenumber" v="382"/><tag k="addr:street" v="Linkhorne Court"/><tag k="addr:postcode" v="95133"/></way>
<way visible="true" id="-641"><nd ref="-642"/><nd ref="-643"/><nd ref="-644"/><nd ref="-645"/><nd ref="-646"/><nd ref="-647"/><nd ref="-642"/><tag k="building" v="yes"/><tag k="height" v="3.95"/><tag k="ele" v="33.98"/><tag k="addr:city" v="San Jose"/><tag k="addr:housenumber" v="394"/><tag k="addr:street" v="Linkhorne Court"/><tag k="addr:postcode" v="95133"/></way>
<way visible="true" id="-648"><nd ref="-649"/><nd ref="-650"/><nd ref="-651"/><nd ref="-652"/><nd ref="-653"/><nd ref="-654"/><nd ref="-655"/><nd ref="-656"/><nd ref="-657"/><nd ref="-658"/><nd ref="-649"/><tag k="building" v="yes"/><tag k="height" v="3.29"/><tag k="ele" v="30.81"/><tag k="addr:city" v="San Jose"/><tag k="addr:housenumber" v="1710"/><tag k="addr:street" v="Marigold Court"/><tag k="addr:postcode" v="95133"/></way>
<way visible="true" id="-659"><nd ref="-660"/><nd ref="-661"/><nd ref="-662"/><nd ref="-663"/><nd ref="-664"/><nd ref="-665"/><nd ref="-660"/><tag k="building" v="yes"/><tag k="height" v="4.30"/><tag k="ele" v="34.03"/><tag k="addr:city" v="San Jose"/><tag k="addr:housenumber" v="395"/><tag k="addr:street" v="Educational Park Drive"/><tag k="addr:postcode" v="95133"/></way>
<way visible="true" id="-666"><nd ref="-667"/><nd ref="-668"/><nd ref="-669"/><nd ref="-670"/><nd ref="-667"/><tag k="building" v="yes"/><tag k="height" v="3.92"/><tag k="ele" v="34.04"/><tag k="addr:city" v="San Jose"/><tag k="addr:housenumber" v="346"/><tag k="addr:street" v="Ryegate Court"/><tag k="addr:postcode" v="95133"/></way>
<way visible="true" id="-671"><nd ref="-672"/><nd ref="-673"/><nd ref="-674"/><nd ref="-675"/><nd ref="-676"/><nd ref="-677"/><nd ref="-678"/><nd ref="-679"/><nd ref="-680"/><nd ref="-681"/><nd ref="-682"/><nd ref="-683"/><nd ref="-684"/><nd ref="-685"/><nd ref="-686"/><nd ref="-687"/><nd ref="-688"/><nd ref="-689"/><nd ref="-690"/><nd ref="-691"/><nd ref="-692"/><nd ref="-693"/><nd ref="-672"/><tag k="building" v="yes"/><tag k="height" v="9.12"/><tag k="ele" v="37.58"/><tag k="addr:city" v="San Jose"/><tag k="addr:housenumber" v="1885"/><tag k="addr:street" v="Las Plumas Avenue"/><tag k="addr:postcode" v="95133"/></way>
<way visible="true" id="-694"><nd ref="-695"/><nd ref="-696"/><nd ref="-697"/><nd ref="-698"/><nd ref="-699"/><nd ref="-700"/><nd ref="-701"/><nd ref="-702"/><nd ref="-695"/><tag k="building" v="yes"/><tag k="height" v="3.86"/><tag k="ele" v="34.38"/><tag k="addr:city" v="San Jose"/><tag k="addr:housenumber" v="362"/><tag k="addr:street" v="Ryegate Court"/><tag k="addr:postcode" v="95133"/></way>
<way visible="true" id="-703"><nd ref="-704"/><nd ref="-705"/><nd ref="-706"/><nd ref="-707"/><nd ref="-708"/><nd ref="-709"/><nd ref="-704"/><tag k="building" v="yes"/><tag k="height" v="3.79"/><tag k="ele" v="34.15"/><tag k="addr:city" v="San Jose"/><tag k="addr:housenumber" v="377"/><tag k="addr:street" v="Educational Park Drive"/><tag k="addr:postcode" v="95133"/></way>
<way visible="true" id="-710"><nd ref="-711"/><nd ref="-712"/><nd ref="-713"/><nd ref="-714"/><nd ref="-715"/><nd ref="-716"/><nd ref="-711"/><tag k="building" v="yes"/><tag k="height" v="3.99"/><tag k="ele" v="33.98"/><tag k="addr:city" v="San Jose"/><tag k="addr:housenumber" v="397"/><tag k="addr:street" v="Linkhorne Court"/><tag k="addr:postcode" v="95133"/></way>
<way visible="true" id="-717"><nd ref="-718"/><nd ref="-719"/><nd ref="-720"/><nd ref="-721"/><nd ref="-722"/><nd ref="-723"/><nd ref="-724"/><nd ref="-725"/><nd ref="-718"/><tag k="building" v="yes"/><tag k="height" v="6.70"/><tag k="ele" v="36.69"/><tag k="addr:city" v="San Jose"/><tag k="addr:housenumber" v="366"/><tag k="addr:street" v="Ryegate Court"/><tag k="addr:postcode" v="95133"/></way>
<way visible="true" id="-726"><nd ref="-727"/><nd ref="-728"/><nd ref="-729"/><nd ref="-730"/><nd ref="-731"/><nd ref="-732"/><nd ref="-733"/><nd ref="-734"/><nd ref="-727"/><tag k="building" v="yes"/><tag k="height" v="4.17"/><tag k="ele" v="34.21"/><tag k="addr:city" v="San Jose"/><tag k="addr:housenumber" v="379"/><tag k="addr:street" v="Educational Park Drive"/><tag k="addr:postcode" v="95133"/></way>
<way visible="true" id="-735"><nd ref="-736"/><nd ref="-737"/><nd ref="-738"/><nd ref="-739"/><nd ref="-740"/><nd ref="-741"/><nd ref="-742"/><nd ref="-743"/><nd ref="-736"/><tag k="building" v="yes"/><tag k="height" v="6.63"/><tag k="ele" v="36.64"/><tag k="addr:city" v="San Jose"/><tag k="addr:housenumber" v="354"/><tag k="addr:street" v="Ryegate Court"/><tag k="addr:postcode" v="95133"/></way>
<way visible="true" id="-744"><nd ref="-745"/><nd ref="-746"/><nd ref="-747"/><nd ref="-748"/><nd ref="-749"/><nd ref="-750"/><nd ref="-751"/><nd ref="-752"/><nd ref="-745"/><tag k="building" v="yes"/><tag k="height" v="6.34"/><tag k="ele" v="36.53"/><tag k="addr:city" v="San Jose"/><tag k="addr:housenumber" v="393"/><tag k="addr:street" v="Linkhorne Court"/><tag k="addr:postcode" v="95133"/></way>
<way visible="true" id="-753"><nd ref="-754"/><nd ref="-755"/><nd ref="-756"/><nd ref="-757"/><nd ref="-758"/><nd ref="-759"/><nd ref="-760"/><nd ref="-761"/><nd ref="-754"/><tag k="building" v="yes"/><tag k="height" v="6.50"/><tag k="ele" v="36.87"/><tag k="addr:city" v="San Jose"/><tag k="addr:housenumber" v="390"/><tag k="addr:street" v="Linkhorne Court"/><tag k="addr:postcode" v="95133"/></way>
<way visible="true" id="-762"><nd ref="-763"/><nd ref="-764"/><nd ref="-765"/><nd ref="-766"/><nd ref="-767"/><nd ref="-768"/><nd ref="-763"/><tag k="building" v="yes"/><tag k="height" v="4.20"/><tag k="ele" v="34.32"/><tag k="addr:city" v="San Jose"/><tag k="addr:housenumber" v="365"/><tag k="addr:street" v="Educational Park Drive"/><tag k="addr:postcode" v="95133"/></way>
</osm>