<?xml version="1.0"?>
<osm version="0.6" generator="uvmogr2osm" upload="false">
<node visible="true" id="-2" lat="37.320304549" lon="-121.807279699"/>
<node visible="true" id="-3" lat="37.320318608" lon="-121.807280117"/>
<node visible="true" id="-4" lat="37.320317776" lon="-121.807322748"/>
<node visible="true" id="-5" lat="37.320410034000005" lon="-121.80732560000001"/>
<node visible="true" id="-6" lat="37.320410286000005" lon="-121.807312846"/>
<node visible="true" id="-7" lat="37.320488899000004" lon="-121.80731525300001"/>
<node visible="true" id="-8" lat="37.320488662" lon="-121.807326599"/>
<node visible="true" id="-9" lat="37.320622794" lon="-121.807330733"/>
<node visible="true" id="-10" lat="37.320626013" lon="-121.807167769"/>
<node visible="true" id="-11" lat="37.320321779000004" lon="-121.80715835500001"/>
<node visible="true" id="-12" lat="37.320321015000005" lon="-121.80719730800001"/>
<node visible="true" id="-13" lat="37.320306188" lon="-121.80719684200001"/>
<node visible="true" id="-14" lat="37.320098763000004" lon="-121.807386887"><tag k="addr:city" v="San Jose"/><tag k="addr:housenumber" v="2771"/><tag k="addr:street" v="Whispering Hills Circle"/><tag k="addr:postcode" v="95148"/></node>
<node visible="true" id="-15" lat="37.319849916" lon="-121.80639681100001"><tag k="addr:city" v="San Jose"/><tag k="addr:housenumber" v="2718"/><tag k="addr:street" v="Whispering Hills Lane"/><tag k="addr:postcode" v="95148"/></node>
<node visible="true" id="-16" lat="37.318838761" lon="-121.80428088900001"><tag k="addr:city" v="San Jose"/><tag k="addr:housenumber" v="2598"/><tag k="addr:street" v="Whispering Hills Circle"/><tag k="addr:postcode" v="95148"/></node>
<node visible="true" id="-17" lat="37.318943637000004" lon="-121.80439288800001"><tag k="addr:city" v="San Jose"/><tag k="addr:housenumber" v="2599"/><tag k="addr:street" v="Whispering Hills Circle"/><tag k="addr:postcode" v="95148"/></node>
<node visible="true" id="-18" lat="37.319048511000005" lon="-121.80450488800001"><tag k="addr:city" v="San Jose"/><tag k="addr:housenumber" v="2600"/><tag k="addr:street" v="Whispering Hills Circle"/><tag k="addr:postcode" v="95148"/></node>
<node visible="true" id="-19" lat="37.318328761000004" lon="-121.80481289100001"><tag k="addr:city" v="San Jose"/><tag k="addr:housenumber" v="2665"/><tag k="addr:street" v="Whispering Hills Way"/><tag k="addr:postcode" v="95148"/></node>
<node visible="true" id="-20" lat="37.321155763" lon="-121.80638688100001"><tag k="addr:city" v="San Jose"/><tag k="addr:housenumber" v="2614"/><tag k="addr:street" v="Whispering Hills Circle"/><tag k="addr:postcode" v="95148"/></node>
<node visible="true" id="-21" lat="37.321380906" lon="-121.80658488"><tag k="addr:city" v="San Jose"/><tag k="addr:housenumber" v="2616"/><tag k="addr:street" v="Whispering Hills Circle"/><tag k="addr:postcode" v="95148"/></node>
<node visible="true" id="-22" lat="37.321237764" lon="-121.80683288300001"><tag k="addr:city" v="San Jose"/><tag k="addr:housenumber" v="2654"/><tag k="addr:street" v="Whispering Hills Drive"/><tag k="addr:postcode" v="95148"/></node>
<node visible="true" id="-23" lat="37.320334762" lon="-121.806468885"><tag k="addr:city" v="San Jose"/><tag k="addr:housenumber" v="2659"/><tag k="addr:street" v="Whispering Hills Loop"/><tag k="addr:postcode" v="95148"/></node>
<node visible="true" id="-24" lat="37.319266761" lon="-121.80501688800001"><tag k="addr:city" v="San Jose"/><tag k="addr:housenumber" v="2670"/><tag k="addr:street" v="Whispering Hills Way"/><tag k="addr:postcode" v="95148"/></node>
<node visible="true" id="-25" lat="37.319551095" lon="-121.80560888800001"><tag k="addr:city" v="San Jose"/><tag k="addr:housenumber" v="2686"/><tag k="addr:street" v="Whispering Hills Road"/><tag k="addr:postcode" v="95148"/></node>
<node visible="true" id="-26" lat="37.318296761" lon="-121.80674389500001"><tag k="addr:city" v="San Jose"/><tag k="addr:housenumber" v="2730"/><tag k="addr:street" v="Whispering Hills Drive"/><tag k="addr:postcode" v="95148"/></node>
<node visible="true" id="-27" lat="37.319691378" lon="-121.80678542700001"><tag k="addr:city" v="San Jose"/><tag k="addr:housenumber" v="2740"/><tag k="addr:street" v="Whispering Hills Drive"/><tag k="addr:postcode" v="95148"/></node>
<node visible="true" id="-28" lat="37.319563224" lon="-121.80696996600001"><tag k="addr:city" v="San Jose"/><tag k="addr:housenumber" v="2748"/><tag k="addr:street" v="Whispering Hills Drive"/><tag k="addr:postcode" v="95148"/></node>
<node visible="true" id="-29" lat="37.318177512000005" lon="-121.80752139600001"><tag k="addr:city" v="San Jose"/><tag k="addr:housenumber" v="2580"/><tag k="addr:street" v="Whispering Hills Circle"/><tag k="addr:postcode" v="95148"/></node>
<node visible="true" id="-30" lat="37.318064761" lon="-121.807518895"><tag k="addr:city" v="San Jose"/><tag k="addr:housenumber" v="2581"/><tag k="addr:street" v="Whispering Hills Circle"/><tag k="addr:postcode" v="95148"/></node>
<node visible="true" id="-31" lat="37.317946761" lon="-121.80748289700001"><tag k="addr:city" v="San Jose"/><tag k="addr:housenumber" v="2582"/><tag k="addr:street" v="Whispering Hills Circle"/><tag k="addr:postcode" v="95148"/></node>
<node visible="true" id="-32" lat="37.320094762000004" lon="-121.80561588600001"><tag k="addr:city" v="San Jose"/><tag k="addr:housenumber" v="2607"/><tag k="addr:street" v="Whispering Hills Circle"/><tag k="addr:postcode" v="95148"/></node>
<node visible="true" id="-33" lat="37.320212763" lon="-121.80573721900001"><tag k="addr:city" v="San Jose"/><tag k="addr:housenumber" v="2608"/><tag k="addr:street" v="Whispering Hills Circle"/><tag k="addr:postcode" v="95148"/></node>
<node visible="true" id="-34" lat="37.31826376" lon="-121.805498892"><tag k="addr:city" v="San Jose"/><tag k="addr:housenumber" v="2594"/><tag k="addr:street" v="Whispering Hills Circle"/><tag k="addr:postcode" v="95148"/></node>
<node visible="true" id="-35" lat="37.319363137" lon="-121.804840888"><tag k="addr:city" v="San Jose"/><tag k="addr:housenumber" v="2603"/><tag k="addr:street" v="Whispering Hills Circle"/><tag k="addr:postcode" v="95148"/></node>
<node visible="true" id="-36" lat="37.319468012" lon="-121.80495288600001"><tag k="addr:city" v="San Jose"/><tag k="addr:housenumber" v="2604"/><tag k="addr:street" v="Whispering Hills Circle"/><tag k="addr:postcode" v="95148"/></node>
<node visible="true" id="-37" lat="37.319572887" lon="-121.80506488700001"><tag k="addr:city" v="San Jose"/><tag k="addr:housenumber" v="2605"/><tag k="addr:street" v="Whispering Hills Circle"/><tag k="addr:postcode" v="95148"/></node>
<node visible="true" id="-38" lat="37.321268335" lon="-121.80648588100001"><tag k="addr:city" v="San Jose"/><tag k="addr:housenumber" v="2615"/><tag k="addr:street" v="Whispering Hills Circle"/><tag k="addr:postcode" v="95148"/></node>
<node visible="true" id="-39" lat="37.320109762" lon="-121.806797888"><tag k="addr:city" v="San Jose"/><tag k="addr:housenumber" v="2743"/><tag k="addr:street" v="Whispering Hills Drive"/><tag k="addr:postcode" v="95148"/></node>
<node visible="true" id="-40" lat="37.320116763" lon="-121.806982887"><tag k="addr:city" v="San Jose"/><tag k="addr:housenumber" v="2744"/><tag k="addr:street" v="Whispering Hills Drive"/><tag k="addr:postcode" v="95148"/></node>
<node visible="true" id="-41" lat="37.320477177" lon="-121.807218628"><tag k="addr:city" v="San Jose"/><tag k="addr:housenumber" v="2780"/><tag k="addr:street" v="East Capitol Expressway"/><tag k="addr:postcode" v="95148"/></node>
<node visible="true" id="-42" lat="37.318396761" lon="-121.80423489"><tag k="addr:city" v="San Jose"/><tag k="addr:housenumber" v="2595"/><tag k="addr:street" v="Whispering Hills Circle"/><tag k="addr:postcode" v="95148"/></node>
<node visible="true" id="-43" lat="37.318551760000005" lon="-121.804236891"><tag k="addr:city" v="San Jose"/><tag k="addr:housenumber" v="2596"/><tag k="addr:street" v="Whispering Hills Circle"/><tag k="addr:postcode" v="95148"/></node>
<node visible="true" id="-44" lat="37.320334763000005" lon="-121.80664788600001"><tag k="addr:city" v="San Jose"/><tag k="addr:housenumber" v="2660"/><tag k="addr:street" v="Whispering Hills Loop"/><tag k="addr:postcode" v="95148"/></node>
<node visible="true" id="-45" lat="37.320851763" lon="-121.80700488400001"><tag k="addr:city" v="San Jose"/><tag k="addr:housenumber" v="2650"/><tag k="addr:street" v="Whispering Hills Drive"/><tag k="addr:postcode" v="95148"/></node>
<node visible="true" id="-46" lat="37.320833763" lon="-121.806818883"><tag k="addr:city" v="San Jose"/><tag k="addr:housenumber" v="2651"/><tag k="addr:street" v="Whispering Hills Drive"/><tag k="addr:postcode" v="95148"/></node>
<node visible="true" id="-47" lat="37.320637762000004" lon="-121.806650883"><tag k="addr:city" v="San Jose"/><tag k="addr:housenumber" v="2657"/><tag k="addr:street" v="Whispering Hills Loop"/><tag k="addr:postcode" v="95148"/></node>
<node visible="true" id="-48" lat="37.318290261" lon="-121.807523896"><tag k="addr:city" v="San Jose"/><tag k="addr:housenumber" v="2579"/><tag k="addr:street" v="Whispering Hills Circle"/><tag k="addr:postcode" v="95148"/></node>
<node visible="true" id="-49" lat="37.317996762" lon="-121.807307897"><tag k="addr:city" v="San Jose"/><tag k="addr:housenumber" v="2583"/><tag k="addr:street" v="Whispering Hills Circle"/><tag k="addr:postcode" v="95148"/></node>
<node visible="true" id="-50" lat="37.318021033" lon="-121.80714344"><tag k="addr:city" v="San Jose"/><tag k="addr:housenumber" v="2584"/><tag k="addr:street" v="Whispering Hills Circle"/><tag k="addr:postcode" v="95148"/></node>
<node visible="true" id="-51" lat="37.318045306" lon="-121.806978986"><tag k="addr:city" v="San Jose"/><tag k="addr:housenumber" v="2585"/><tag k="addr:street" v="Whispering Hills Circle"/><tag k="addr:postcode" v="95148"/></node>
<node visible="true" id="-52" lat="37.318093852000004" lon="-121.80665007600001"><tag k="addr:city" v="San Jose"/><tag k="addr:housenumber" v="2587"/><tag k="addr:street" v="Whispering Hills Circle"/><tag k="addr:postcode" v="95148"/></node>
<node visible="true" id="-53" lat="37.318118124" lon="-121.80648562300001"><tag k="addr:city" v="San Jose"/><tag k="addr:housenumber" v="2588"/><tag k="addr:street" v="Whispering Hills Circle"/><tag k="addr:postcode" v="95148"/></node>
<node visible="true" id="-54" lat="37.318142398" lon="-121.806321166"><tag k="addr:city" v="San Jose"/><tag k="addr:housenumber" v="2589"/><tag k="addr:street" v="Whispering Hills Circle"/><tag k="addr:postcode" v="95148"/></node>
<node visible="true" id="-55" lat="37.318166671" lon="-121.80615671100001"><tag k="addr:city" v="San Jose"/><tag k="addr:housenumber" v="2590"/><tag k="addr:street" v="Whispering Hills Circle"/><tag k="addr:postcode" v="95148"/></node>
<node visible="true" id="-56" lat="37.318190943000005" lon="-121.80599225700001"><tag k="addr:city" v="San Jose"/><tag k="addr:housenumber" v="2591"/><tag k="addr:street" v="Whispering Hills Circle"/><tag k="addr:postcode" v="95148"/></node>
<node visible="true" id="-57" lat="37.318215216000006" lon="-121.80582780200001"><tag k="addr:city" v="San Jose"/><tag k="addr:housenumber" v="2592"/><tag k="addr:street" v="Whispering Hills Circle"/><tag k="addr:postcode" v="95148"/></node>
<node visible="true" id="-58" lat="37.320448764000005" lon="-121.80597988400001"><tag k="addr:city" v="San Jose"/><tag k="addr:housenumber" v="2610"/><tag k="addr:street" v="Whispering Hills Circle"/><tag k="addr:postcode" v="95148"/></node>
<node visible="true" id="-59" lat="37.320509763000004" lon="-121.80622288500001"><tag k="addr:city" v="San Jose"/><tag k="addr:housenumber" v="2611"/><tag k="addr:street" v="Whispering Hills Lane"/><tag k="addr:postcode" v="95148"/></node>
<node visible="true" id="-60" lat="37.318727762" lon="-121.80445289000001"><tag k="addr:city" v="San Jose"/><tag k="addr:housenumber" v="2661"/><tag k="addr:street" v="Whispering Hills Circle"/><tag k="addr:postcode" v="95148"/></node>
<node visible="true" id="-61" lat="37.318335761" lon="-121.80445989100001"><tag k="addr:city" v="San Jose"/><tag k="addr:housenumber" v="2664"/><tag k="addr:street" v="Whispering Hills Circle"/><tag k="addr:postcode" v="95148"/></node>
<node visible="true" id="-62" lat="37.318621261000004" lon="-121.80481839000001"><tag k="addr:city" v="San Jose"/><tag k="addr:housenumber" v="2667"/><tag k="addr:street" v="Whispering Hills Way"/><tag k="addr:postcode" v="95148"/></node>
<node visible="true" id="-63" lat="37.318767511000004" lon="-121.80482113900001"><tag k="addr:city" v="San Jose"/><tag k="addr:housenumber" v="2668"/><tag k="addr:street" v="Whispering Hills Way"/><tag k="addr:postcode" v="95148"/></node>
<node visible="true" id="-64" lat="37.318847619" lon="-121.805013891"><tag k="addr:city" v="San Jose"/><tag k="addr:housenumber" v="2673"/><tag k="addr:street" v="Whispering Hills Way"/><tag k="addr:postcode" v="95148"/></node>
<node visible="true" id="-65" lat="37.318707904" lon="-121.80501288900001"><tag k="addr:city" v="San Jose"/><tag k="addr:housenumber" v="2674"/><tag k="addr:street" v="Whispering Hills Way"/><tag k="addr:postcode" v="95148"/></node>
<node visible="true" id="-66" lat="37.31856819" lon="-121.80501189"><tag k="addr:city" v="San Jose"/><tag k="addr:housenumber" v="2675"/><tag k="addr:street" v="Whispering Hills Way"/><tag k="addr:postcode" v="95148"/></node>
<node visible="true" id="-67" lat="37.318587429000004" lon="-121.805580891"><tag k="addr:city" v="San Jose"/><tag k="addr:housenumber" v="2679"/><tag k="addr:street" v="Whispering Hills Road"/><tag k="addr:postcode" v="95148"/></node>
<node visible="true" id="-68" lat="37.318725095000005" lon="-121.80558489"><tag k="addr:city" v="San Jose"/><tag k="addr:housenumber" v="2680"/><tag k="addr:street" v="Whispering Hills Road"/><tag k="addr:postcode" v="95148"/></node>
<node visible="true" id="-69" lat="37.319413428000004" lon="-121.805604888"><tag k="addr:city" v="San Jose"/><tag k="addr:housenumber" v="2685"/><tag k="addr:street" v="Whispering Hills Road"/><tag k="addr:postcode" v="95148"/></node>
<node visible="true" id="-70" lat="37.320034762" lon="-121.805837886"><tag k="addr:city" v="San Jose"/><tag k="addr:housenumber" v="2688"/><tag k="addr:street" v="Whispering Hills Road"/><tag k="addr:postcode" v="95148"/></node>
<node visible="true" id="-71" lat="37.31989943" lon="-121.80583372000001"><tag k="addr:city" v="San Jose"/><tag k="addr:housenumber" v="2689"/><tag k="addr:street" v="Whispering Hills Road"/><tag k="addr:postcode" v="95148"/></node>
<node visible="true" id="-72" lat="37.319628762" lon="-121.80582538700001"><tag k="addr:city" v="San Jose"/><tag k="addr:housenumber" v="2691"/><tag k="addr:street" v="Whispering Hills Road"/><tag k="addr:postcode" v="95148"/></node>
<node visible="true" id="-73" lat="37.319493428" lon="-121.80582122000001"><tag k="addr:city" v="San Jose"/><tag k="addr:housenumber" v="2692"/><tag k="addr:street" v="Whispering Hills Road"/><tag k="addr:postcode" v="95148"/></node>
<node visible="true" id="-74" lat="37.319358096" lon="-121.805817055"><tag k="addr:city" v="San Jose"/><tag k="addr:housenumber" v="2693"/><tag k="addr:street" v="Whispering Hills Road"/><tag k="addr:postcode" v="95148"/></node>
<node visible="true" id="-75" lat="37.318816762000004" lon="-121.805800391"><tag k="addr:city" v="San Jose"/><tag k="addr:housenumber" v="2697"/><tag k="addr:street" v="Whispering Hills Road"/><tag k="addr:postcode" v="95148"/></node>
<node visible="true" id="-76" lat="37.318681429" lon="-121.80579622500001"><tag k="addr:city" v="San Jose"/><tag k="addr:housenumber" v="2698"/><tag k="addr:street" v="Whispering Hills Road"/><tag k="addr:postcode" v="95148"/></node>
<node visible="true" id="-77" lat="37.318546096000006" lon="-121.80579205800001"><tag k="addr:city" v="San Jose"/><tag k="addr:housenumber" v="2699"/><tag k="addr:street" v="Whispering Hills Road"/><tag k="addr:postcode" v="95148"/></node>
<node visible="true" id="-78" lat="37.318410762" lon="-121.80578789200001"><tag k="addr:city" v="San Jose"/><tag k="addr:housenumber" v="2700"/><tag k="addr:street" v="Whispering Hills Road"/><tag k="addr:postcode" v="95148"/></node>
<node visible="true" id="-79" lat="37.318374762000005" lon="-121.806179892"><tag k="addr:city" v="San Jose"/><tag k="addr:housenumber" v="2701"/><tag k="addr:street" v="Whispering Hills Lane"/><tag k="addr:postcode" v="95148"/></node>
<node visible="true" id="-80" lat="37.318646047" lon="-121.80618603500001"><tag k="addr:city" v="San Jose"/><tag k="addr:housenumber" v="2703"/><tag k="addr:street" v="Whispering Hills Lane"/><tag k="addr:postcode" v="95148"/></node>
<node visible="true" id="-81" lat="37.318781691000005" lon="-121.806189105"><tag k="addr:city" v="San Jose"/><tag k="addr:housenumber" v="2704"/><tag k="addr:street" v="Whispering Hills Lane"/><tag k="addr:postcode" v="95148"/></node>
<node visible="true" id="-82" lat="37.319866834" lon="-121.80621367200001"><tag k="addr:city" v="San Jose"/><tag k="addr:housenumber" v="2712"/><tag k="addr:street" v="Whispering Hills Circle"/><tag k="addr:postcode" v="95148"/></node>
<node visible="true" id="-83" lat="37.320002478" lon="-121.80621674400001"><tag k="addr:city" v="San Jose"/><tag k="addr:housenumber" v="2713"/><tag k="addr:street" v="Whispering Hills Circle"/><tag k="addr:postcode" v="95148"/></node>
<node visible="true" id="-84" lat="37.32013812" lon="-121.806219815"><tag k="addr:city" v="San Jose"/><tag k="addr:housenumber" v="2714"/><tag k="addr:street" v="Whispering Hills Circle"/><tag k="addr:postcode" v="95148"/></node>
<node visible="true" id="-85" lat="37.320273762" lon="-121.80622288500001"><tag k="addr:city" v="San Jose"/><tag k="addr:housenumber" v="2715"/><tag k="addr:street" v="Whispering Hills Circle"/><tag k="addr:postcode" v="95148"/></node>
<node visible="true" id="-86" lat="37.320127763" lon="-121.806401886"><tag k="addr:city" v="San Jose"/><tag k="addr:housenumber" v="2716"/><tag k="addr:street" v="Whispering Hills Lane"/><tag k="addr:postcode" v="95148"/></node>
<node visible="true" id="-87" lat="37.31998884" lon="-121.80639934800001"><tag k="addr:city" v="San Jose"/><tag k="addr:housenumber" v="2717"/><tag k="addr:street" v="Whispering Hills Lane"/><tag k="addr:postcode" v="95148"/></node>
<node visible="true" id="-88" lat="37.318877454" lon="-121.806379046"><tag k="addr:city" v="San Jose"/><tag k="addr:housenumber" v="2725"/><tag k="addr:street" v="Whispering Hills Lane"/><tag k="addr:postcode" v="95148"/></node>
<node visible="true" id="-89" lat="37.318738530000005" lon="-121.80637650700001"><tag k="addr:city" v="San Jose"/><tag k="addr:housenumber" v="2726"/><tag k="addr:street" v="Whispering Hills Lane"/><tag k="addr:postcode" v="95148"/></node>
<node visible="true" id="-90" lat="37.318599608" lon="-121.806373968"><tag k="addr:city" v="San Jose"/><tag k="addr:housenumber" v="2727"/><tag k="addr:street" v="Whispering Hills Lane"/><tag k="addr:postcode" v="95148"/></node>
<node visible="true" id="-91" lat="37.318321761" lon="-121.806368894"><tag k="addr:city" v="San Jose"/><tag k="addr:housenumber" v="2729"/><tag k="addr:street" v="Whispering Hills Lane"/><tag k="addr:postcode" v="95148"/></node>
<node visible="true" id="-92" lat="37.318715147" lon="-121.80675635300001"><tag k="addr:city" v="San Jose"/><tag k="addr:housenumber" v="2733"/><tag k="addr:street" v="Whispering Hills Drive"/><tag k="addr:postcode" v="95148"/></node>
<node visible="true" id="-93" lat="37.318854607000006" lon="-121.806760507"><tag k="addr:city" v="San Jose"/><tag k="addr:housenumber" v="2734"/><tag k="addr:street" v="Whispering Hills Drive"/><tag k="addr:postcode" v="95148"/></node>
<node visible="true" id="-94" lat="37.318994069000006" lon="-121.80676466000001"><tag k="addr:city" v="San Jose"/><tag k="addr:housenumber" v="2735"/><tag k="addr:street" v="Whispering Hills Drive"/><tag k="addr:postcode" v="95148"/></node>
<node visible="true" id="-95" lat="37.319551916" lon="-121.806781274"><tag k="addr:city" v="San Jose"/><tag k="addr:housenumber" v="2739"/><tag k="addr:street" v="Whispering Hills Drive"/><tag k="addr:postcode" v="95148"/></node>
<node visible="true" id="-96" lat="37.31983084" lon="-121.80678957900001"><tag k="addr:city" v="San Jose"/><tag k="addr:housenumber" v="2741"/><tag k="addr:street" v="Whispering Hills Drive"/><tag k="addr:postcode" v="95148"/></node>
<node visible="true" id="-97" lat="37.319970302" lon="-121.806793733"><tag k="addr:city" v="San Jose"/><tag k="addr:housenumber" v="2742"/><tag k="addr:street" v="Whispering Hills Drive"/><tag k="addr:postcode" v="95148"/></node>
<node visible="true" id="-98" lat="37.319978378" lon="-121.80697965700001"><tag k="addr:city" v="San Jose"/><tag k="addr:housenumber" v="2745"/><tag k="addr:street" v="Whispering Hills Drive"/><tag k="addr:postcode" v="95148"/></node>
<node visible="true" id="-99" lat="37.319839994000006" lon="-121.806976426"><tag k="addr:city" v="San Jose"/><tag k="addr:housenumber" v="2746"/><tag k="addr:street" v="Whispering Hills Drive"/><tag k="addr:postcode" v="95148"/></node>
<node visible="true" id="-100" lat="37.31970161" lon="-121.80697319500001"><tag k="addr:city" v="San Jose"/><tag k="addr:housenumber" v="2747"/><tag k="addr:street" v="Whispering Hills Drive"/><tag k="addr:postcode" v="95148"/></node>
<node visible="true" id="-101" lat="37.319009686" lon="-121.806957044"><tag k="addr:city" v="San Jose"/><tag k="addr:housenumber" v="2752"/><tag k="addr:street" v="Whispering Hills Drive"/><tag k="addr:postcode" v="95148"/></node>
<node visible="true" id="-102" lat="37.318871301" lon="-121.806953816"><tag k="addr:city" v="San Jose"/><tag k="addr:housenumber" v="2753"/><tag k="addr:street" v="Whispering Hills Drive"/><tag k="addr:postcode" v="95148"/></node>
<node visible="true" id="-103" lat="37.318732916" lon="-121.806950584"><tag k="addr:city" v="San Jose"/><tag k="addr:housenumber" v="2754"/><tag k="addr:street" v="Whispering Hills Drive"/><tag k="addr:postcode" v="95148"/></node>
<node visible="true" id="-104" lat="37.31827476" lon="-121.807321895"><tag k="addr:city" v="San Jose"/><tag k="addr:housenumber" v="2758"/><tag k="addr:street" v="Whispering Hills Circle"/><tag k="addr:postcode" v="95148"/></node>
<node visible="true" id="-105" lat="37.319818147" lon="-121.80737688900001"><tag k="addr:city" v="San Jose"/><tag k="addr:housenumber" v="2769"/><tag k="addr:street" v="Whispering Hills Circle"/><tag k="addr:postcode" v="95148"/></node>
<node visible="true" id="-106" lat="37.319958454" lon="-121.80738188800001"><tag k="addr:city" v="San Jose"/><tag k="addr:housenumber" v="2770"/><tag k="addr:street" v="Whispering Hills Circle"/><tag k="addr:postcode" v="95148"/></node>
<node visible="true" id="-108" lat="37.314081031" lon="-121.79612539200001"/>
<node visible="true" id="-109" lat="37.314085507" lon="-121.79609813"/>
<node visible="true" id="-110" lat="37.314093342" lon="-121.796100089"/>
<node visible="true" id="-111" lat="37.314099414000005" lon="-121.79607502100001"/>
<node visible="true" id="-112" lat="37.314062964" lon="-121.79601554800001"/>
<node visible="true" id="-113" lat="37.314104108" lon="-121.79597602700001"/>
<node visible="true" id="-114" lat="37.314042349000005" lon="-121.795875261"/>
<node visible="true" id="-115" lat="37.313998596000005" lon="-121.795917316"/>
<node visible="true" id="-116" lat="37.313982974000005" lon="-121.795891839"/>
<node visible="true" id="-117" lat="37.313995689" lon="-121.79587961000001"/>
<node visible="true" id="-118" lat="37.313855182000005" lon="-121.79564975800001"/>
<node visible="true" id="-119" lat="37.313840551000006" lon="-121.79566377600001"/>
<node visible="true" id="-120" lat="37.313823366" lon="-121.795635622"/>
<node visible="true" id="-121" lat="37.313831518" lon="-121.795554123"/>
<node visible="true" id="-122" lat="37.31377306" lon="-121.795544925"/>
<node visible="true" id="-123" lat="37.313772347000004" lon="-121.795552204"/>
<node visible="true" id="-124" lat="37.313712372000005" lon="-121.795454117"/>
<node visible="true" id="-125" lat="37.313700508000004" lon="-121.79545391200001"/>
<node visible="true" id="-126" lat="37.313642117" lon="-121.795679628"/>
<node visible="true" id="-127" lat="37.313628470000005" lon="-121.79567409500001"/>
<node visible="true" id="-128" lat="37.31361312" lon="-121.79573339100001"/>
<node visible="true" id="-129" lat="37.313625699" lon="-121.79573849200001"/>
<node visible="true" id="-130" lat="37.313572298000004" lon="-121.79594500200001"/>
<node visible="true" id="-131" lat="37.313569891" lon="-121.79594403200001"/>
<node visible="true" id="-132" lat="37.313568575000005" lon="-121.795948823"/>
<node visible="true" id="-133" lat="37.313567451000004" lon="-121.79595368800001"/>
<node visible="true" id="-134" lat="37.31356649" lon="-121.795958588"/>
<node visible="true" id="-135" lat="37.31356572" lon="-121.79596356200001"/>
<node visible="true" id="-136" lat="37.313565116" lon="-121.795968572"/>
<node visible="true" id="-137" lat="37.313564702" lon="-121.79597362000001"/>
<node visible="true" id="-138" lat="37.313564482000004" lon="-121.79597867300001"/>
<node visible="true" id="-139" lat="37.313564425" lon="-121.79598376000001"/>
<node visible="true" id="-140" lat="37.313564562" lon="-121.79598881800001"/>
<node visible="true" id="-141" lat="37.313564891000006" lon="-121.79599384500001"/>
<node visible="true" id="-142" lat="37.313565385000004" lon="-121.795998874"/>
<node visible="true" id="-143" lat="37.313566098" lon="-121.79600387200001"/>
<node visible="true" id="-144" lat="37.31356695" lon="-121.79600883900001"/>
<node visible="true" id="-145" lat="37.313568022000005" lon="-121.79601370600001"/>
<node visible="true" id="-146" lat="37.313569232" lon="-121.796018543"/>
<node visible="true" id="-147" lat="37.313570636" lon="-121.796023313"/>
<node visible="true" id="-148" lat="37.313572203" lon="-121.796027983"/>
<node visible="true" id="-149" lat="37.313573939" lon="-121.79603255200001"/>
<node visible="true" id="-150" lat="37.313575868" lon="-121.796037021"/>
<node visible="true" id="-151" lat="37.313577935000005" lon="-121.796041356"/>
<node visible="true" id="-152" lat="37.31358014" lon="-121.79604559"/>
<node visible="true" id="-153" lat="37.313582511" lon="-121.79604968800001"/>
<node visible="true" id="-154" lat="37.313585049000004" lon="-121.796053653"/>
<node visible="true" id="-155" lat="37.313587699" lon="-121.79605748200001"/>
<node visible="true" id="-156" lat="37.313590515" lon="-121.79606114100001"/>
<node visible="true" id="-157" lat="37.313593443" lon="-121.79606463100001"/>
<node visible="true" id="-158" lat="37.313596483000005" lon="-121.79606795100001"/>
<node visible="true" id="-159" lat="37.313599661000005" lon="-121.79607110100001"/>
<node visible="true" id="-160" lat="37.313602952000004" lon="-121.796074047"/>
<node visible="true" id="-161" lat="37.313606327" lon="-121.796076823"/>
<node visible="true" id="-162" lat="37.313609815" lon="-121.79607939300001"/>
<node visible="true" id="-163" lat="37.313613387000004" lon="-121.79608179300001"/>
<node visible="true" id="-164" lat="37.313617043" lon="-121.79608395400001"/>
<node visible="true" id="-165" lat="37.313620785000005" lon="-121.796085911"/>
<node visible="true" id="-166" lat="37.313624584" lon="-121.796087662"/>
<node visible="true" id="-167" lat="37.31362844" lon="-121.79608917300001"/>
<node visible="true" id="-168" lat="37.313632353" lon="-121.79609047900001"/>
<node visible="true" id="-169" lat="37.313636296000006" lon="-121.796091544"/>
<node visible="true" id="-170" lat="37.313640297" lon="-121.79609240500001"/>
<node visible="true" id="-171" lat="37.3136443" lon="-121.796093024"/>
<node visible="true" id="-172" lat="37.313648334" lon="-121.79609340300001"/>
<node visible="true" id="-173" lat="37.313652397000006" lon="-121.79609357700001"/>
<node visible="true" id="-174" lat="37.313656436" lon="-121.79609351"/>
<node visible="true" id="-175" lat="37.313660477" lon="-121.79609320200001"/>
<node visible="true" id="-176" lat="37.313664493000005" lon="-121.79609268700001"/>
<node visible="true" id="-177" lat="37.313668485" lon="-121.79609189700001"/>
<node visible="true" id="-178" lat="37.313672450000006" lon="-121.796090933"/>
<node visible="true" id="-179" lat="37.313676392000005" lon="-121.79608973"/>
<node visible="true" id="-180" lat="37.31368028" lon="-121.796088283"/>
<node visible="true" id="-181" lat="37.313684089" lon="-121.79608663"/>
<node visible="true" id="-182" lat="37.313687845000004" lon="-121.79608477000001"/>
<node visible="true" id="-183" lat="37.313691549000005" lon="-121.79608266800001"/>
<node visible="true" id="-184" lat="37.313695145000004" lon="-121.79608039000001"/>
<node visible="true" id="-185" lat="37.313698661000004" lon="-121.796077873"/>
<node visible="true" id="-186" lat="37.313702097000004" lon="-121.796075181"/>
<node visible="true" id="-187" lat="37.313705425" lon="-121.79607231600001"/>
<node visible="true" id="-188" lat="37.313708645000006" lon="-121.796069243"/>
<node visible="true" id="-189" lat="37.313711758000004" lon="-121.79606596"/>
<node visible="true" id="-190" lat="37.313714734" lon="-121.796062538"/>
<node visible="true" id="-191" lat="37.313717577000006" lon="-121.796058943"/>
<node visible="true" id="-192" lat="37.313802182" lon="-121.796132834"/>
<node visible="true" id="-193" lat="37.313818423" lon="-121.796114751"/>
<node visible="true" id="-194" lat="37.313820189000005" lon="-121.79611901300001"/>
<node visible="true" id="-195" lat="37.313822120000005" lon="-121.796123206"/>
<node visible="true" id="-196" lat="37.313824162" lon="-121.79612726500001"/>
<node visible="true" id="-197" lat="37.313826343" lon="-121.79613122500001"/>
<node visible="true" id="-198" lat="37.313828636000004" lon="-121.796135081"/>
<node visible="true" id="-199" lat="37.313831066000006" lon="-121.796138803"/>
<node visible="true" id="-200" lat="37.313833609" lon="-121.79614238900001"/>
<node visible="true" id="-201" lat="37.313836262" lon="-121.796145874"/>
<node visible="true" id="-202" lat="37.313839026000004" lon="-121.796149224"/>
<node visible="true" id="-203" lat="37.313841876000005" lon="-121.79615240300001"/>
<node visible="true" id="-204" lat="37.313844864000004" lon="-121.79615544600001"/>
<node visible="true" id="-205" lat="37.313847935000005" lon="-121.79615835300001"/>
<node visible="true" id="-206" lat="37.313851091000004" lon="-121.79616109000001"/>
<node visible="true" id="-207" lat="37.313854331" lon="-121.79616365800001"/>
<node visible="true" id="-208" lat="37.313857628" lon="-121.796166088"/>
<node visible="true" id="-209" lat="37.313861037" lon="-121.79616831300001"/>
<node visible="true" id="-210" lat="37.313864502" lon="-121.796170402"/>
<node visible="true" id="-211" lat="37.313868025000005" lon="-121.796172286"/>
<node visible="true" id="-212" lat="37.313871631000005" lon="-121.796173999"/>
<node visible="true" id="-213" lat="37.313875267" lon="-121.79617554100001"/>
<node visible="true" id="-214" lat="37.313878933000005" lon="-121.796176876"/>
<node visible="true" id="-215" lat="37.313882655" lon="-121.796178041"/>
<node visible="true" id="-216" lat="37.313886435" lon="-121.79617903600001"/>
<node visible="true" id="-217" lat="37.313890393" lon="-121.796178795"/>
<node visible="true" id="-218" lat="37.313894328" lon="-121.79617821000001"/>
<node visible="true" id="-219" lat="37.313898210000005" lon="-121.79617728000001"/>
<node visible="true" id="-220" lat="37.313902043" lon="-121.79617600600001"/>
<node visible="true" id="-221" lat="37.313905769" lon="-121.796174418"/>
<node visible="true" id="-222" lat="37.313909415000005" lon="-121.796172487"/>
<node visible="true" id="-223" lat="37.313912956" lon="-121.79617024400001"/>
<node visible="true" id="-224" lat="37.313916335" lon="-121.79616769"/>
<node visible="true" id="-225" lat="37.313919580000004" lon="-121.79616482300001"/>
<node visible="true" id="-226" lat="37.313922664" lon="-121.796161713"/>
<node visible="true" id="-227" lat="37.313925532" lon="-121.796158289"/>
<node visible="true" id="-228" lat="37.313928236" lon="-121.79615465600001"/>
<node visible="true" id="-229" lat="37.313930695" lon="-121.79615081300001"/>
<node visible="true" id="-230" lat="37.313932966" lon="-121.79614672500001"/>
<node visible="true" id="-231" lat="37.313934963" lon="-121.796142461"/>
<node visible="true" id="-232" lat="37.313937041" lon="-121.79613830100001"/>
<node visible="true" id="-233" lat="37.313939338000004" lon="-121.796134319"/>
<node visible="true" id="-234" lat="37.313941797000005" lon="-121.79613051000001"/>
<node visible="true" id="-235" lat="37.313944447000004" lon="-121.79612691000001"/>
<node visible="true" id="-236" lat="37.313947258" lon="-121.79612352000001"/>
<node visible="true" id="-237" lat="37.313950233" lon="-121.79612033900001"/>
<node visible="true" id="-238" lat="37.313953369000004" lon="-121.79611740000001"/>
<node visible="true" id="-239" lat="37.313956639000004" lon="-121.79611470600001"/>
<node visible="true" id="-240" lat="37.313960046000005" lon="-121.79611225500001"/>
<node visible="true" id="-241" lat="37.313963558000005" lon="-121.79611011600001"/>
<node visible="true" id="-242" lat="37.313967176000006" lon="-121.796108218"/>
<node visible="true" id="-243" lat="37.313970874" lon="-121.796106596"/>
<node visible="true" id="-244" lat="37.313974625" lon="-121.796105287"/>
<node visible="true" id="-245" lat="37.313978455000004" lon="-121.796104252"/>
<node visible="true" id="-246" lat="37.313982335000006" lon="-121.79610349400001"/>
<node visible="true" id="-247" lat="37.313986213" lon="-121.79610308000001"/>
<node visible="true" id="-248" lat="37.313990143000005" lon="-121.796102942"/>
<node visible="true" id="-249" lat="37.313994041" lon="-121.79610311200001"/>
<node visible="true" id="-250" lat="37.313997936" lon="-121.79610359300001"/>
<node visible="true" id="-251" lat="37.314001801" lon="-121.79610434800001"/>
<node visible="true" id="-252" lat="37.314005634000004" lon="-121.796105412"/>
<node visible="true" id="-253" lat="37.314009383000005" lon="-121.79610674800001"/>
<node visible="true" id="-254" lat="37.314013072" lon="-121.796108394"/>
<node visible="true" id="-255" lat="37.314016677000005" lon="-121.796110349"/>
<node visible="true" id="-256" lat="37.314020169" lon="-121.796112542"/>
<node visible="true" id="-257" lat="37.314023575" lon="-121.79611500700001"/>
<node visible="true" id="-258" lat="37.314026812" lon="-121.79611771200001"/>
<node visible="true" id="-259" lat="37.314029939" lon="-121.796120689"/>
<node visible="true" id="-260" lat="37.314033509000005" lon="-121.79612319300001"/>
<node visible="true" id="-261" lat="37.314037221" lon="-121.79612535400001"/>
<node visible="true" id="-262" lat="37.314041046" lon="-121.79612717500001"/>
<node visible="true" id="-263" lat="37.314044958000004" lon="-121.79612865300001"/>
<node visible="true" id="-264" lat="37.314048956" lon="-121.796129754"/>
<node visible="true" id="-265" lat="37.314052985000004" lon="-121.796130511"/>
<node visible="true" id="-266" lat="37.314057073" lon="-121.79613089200001"/>
<node visible="true" id="-267" lat="37.314061166" lon="-121.796130894"/>
<node visible="true" id="-268" lat="37.314065236000005" lon="-121.79613051800001"/>
<node visible="true" id="-269" lat="37.314069281" lon="-121.796129796"/>
<node visible="true" id="-270" lat="37.314073277000006" lon="-121.796128663"/>
<node visible="true" id="-271" lat="37.314077193" lon="-121.796127216"/>
<way visible="true" id="-1"><nd ref="-2"/><nd ref="-3"/><nd ref="-4"/><nd ref="-5"/><nd ref="-6"/><nd ref="-7"/><nd ref="-8"/><nd ref="-9"/><nd ref="-10"/><nd ref="-11"/><nd ref="-12"/><nd ref="-13"/><nd ref="-2"/><tag k="building" v="yes"/><tag k="height" v="4.90"/><tag k="ele" v="49.99"/></way>
<way visible="true" id="-107"><nd ref="-108"/><nd ref="-109"/><nd ref="-110"/><nd ref="-111"/><nd ref="-112"/><nd ref="-113"/><nd ref="-114"/><nd ref="-115"/><nd ref="-116"/><nd ref="-117"/><nd ref="-118"/><nd ref="-119"/><nd ref="-120"/><nd ref="-121"/><nd ref="-122"/><nd ref="-123"/><nd ref="-124"/><nd ref="-125"/><nd ref="-126"/><nd ref="-127"/><nd ref="-128"/><nd ref="-129"/><nd ref="-130"/><nd ref="-131"/><nd ref="-132"/><nd ref="-133"/><nd ref="-134"/><nd ref="-135"/><nd ref="-136"/><nd ref="-137"/><nd ref="-138"/><nd ref="-139"/><nd ref="-140"/><nd ref="-141"/><nd ref="-142"/><nd ref="-143"/><nd ref="-144"/><nd ref="-145"/><nd ref="-146"/><nd ref="-147"/><nd ref="-148"/><nd ref="-149"/><nd ref="-150"/><nd ref="-151"/><nd ref="-152"/><nd ref="-153"/><nd ref="-154"/><nd ref="-155"/><nd ref="-156"/><nd ref="-157"/><nd ref="-158"/><nd ref="-159"/><nd ref="-160"/><nd ref="-161"/><nd ref="-162"/><nd ref="-163"/><nd ref="-164"/><nd ref="-165"/><nd ref="-166"/><nd ref="-167"/><nd ref="-168"/><nd ref="-169"/><nd ref="-170"/><nd ref="-171"/><nd ref="-172"/><nd ref="-173"/><nd ref="-174"/><nd ref="-175"/><nd ref="-176"/><nd ref="-177"/><nd ref="-178"/><nd ref="-179"/><nd ref="-180"/><nd ref="-181"/><nd ref="-182"/><nd ref="-183"/><nd ref="-184"/><nd ref="-185"/><nd ref="-186"/><nd ref="-187"/><nd ref="-188"/><nd ref="-189"/><nd ref="-190"/><nd ref="-191"/><nd ref="-192"/><nd ref="-193"/><nd ref="-194"/><nd ref="-195"/><nd ref="-196"/><nd ref="-197"/><nd ref="-198"/><nd ref="-199"/><nd ref="-200"/><nd ref="-201"/><nd ref="-202"/><nd ref="-203"/><nd ref="-204"/><nd ref="-205"/><nd ref="-206"/><nd ref="-207"/><nd ref="-208"/><nd ref="-209"/><nd ref="-210"/><nd ref="-211"/><nd ref="-212"/><nd ref="-213"/><nd ref="-214"/><nd ref="-215"/><nd ref="-216"/><nd ref="-217"/><nd ref="-218"/><nd ref="-219"/><nd ref="-220"/><nd ref="-221"/><nd ref="-222"/><nd ref="-223"/><nd ref="-224"/><nd ref="-225"/><nd ref="-226"/><nd ref="-227"/><nd ref="-228"/><nd ref="-229"/><nd ref="-230"/><nd ref="-231"/><nd ref="-232"/><nd ref="-233"/><nd ref="-234"/><nd ref="-235"/><nd ref="-236"/><nd ref="-237"/><nd ref="-238"/><nd ref="-239"/><nd ref="-240"/><nd ref="-241"/><nd ref="-242"/><nd ref="-243"/><nd ref="-244"/><nd ref="-245"/><nd ref="-246"/><nd ref="-247"/><nd ref="-248"/><nd ref="-249"/><nd ref="-250"/><nd ref="-251"/><nd ref="-252"/><nd ref="-253"/><nd ref="-254"/><nd ref="-255"/><nd ref="-256"/><nd ref="-257"/><nd ref="-258"/><nd ref="-259"/><nd ref="-260"/><nd ref="-261"/><nd ref="-262"/><nd ref="-263"/><nd ref="-264"/><nd ref="-265"/><nd ref="-266"/><nd ref="-267"/><nd ref="-268"/><nd ref="-269"/><nd ref="-270"/><nd ref="-271"/><nd ref="-108"/><tag k="building" v="yes"/><tag k="height" v="5.31"/><tag k="ele" v="68.06"/><tag k="addr:city" v="San Jose"/><tag k="addr:housenumber" v="2635"/><tag k="addr:street" v="Aborn Road"/><tag k="addr:postcode" v="95148"/></way>
</osm>