<?xml version="1.0"?>
<osm version="0.6" generator="uvmogr2osm" upload="false">
<node visible="true" id="-1" lat="37.327099103" lon="-121.74710628800001"><tag k="addr:city" v="San Jose"/><tag k="addr:housenumber" v="4320"/><tag k="addr:street" v="Quimby Road"/><tag k="addr:postcode" v="95148"/></node>
<node visible="true" id="-2" lat="37.327944867" lon="-121.74625214400001"><tag k="addr:city" v="San Jose"/><tag k="addr:housenumber" v="4360"/><tag k="addr:street" v="Quimby Road"/><tag k="addr:postcode" v="95148"/></node>
<node visible="true" id="-3" lat="37.332610266" lon="-121.76171382700001"><tag k="addr:city" v="San Jose"/><tag k="addr:housenumber" v="3799"/><tag k="addr:street" v="Quimby Road"/><tag k="addr:postcode" v="95148"/></node>
<node visible="true" id="-5" lat="37.331954996" lon="-121.770065931"/>
<node visible="true" id="-6" lat="37.33196307" lon="-121.77013445000001"/>
<node visible="true" id="-7" lat="37.331991597000005" lon="-121.770193789"/>
<node visible="true" id="-8" lat="37.332036227" lon="-121.770234759"/>
<node visible="true" id="-9" lat="37.332089997000004" lon="-121.77025101500001"/>
<node visible="true" id="-10" lat="37.332144611000004" lon="-121.77024004200001"/>
<node visible="true" id="-11" lat="37.332191645" lon="-121.770203554"/>
<node visible="true" id="-12" lat="37.33222379" lon="-121.77014717200001"/>
<node visible="true" id="-13" lat="37.332236084" lon="-121.77007961700001"/>
<node visible="true" id="-14" lat="37.332226634" lon="-121.770011349"/>
<node visible="true" id="-15" lat="37.332196889" lon="-121.76995295200001"/>
<node visible="true" id="-16" lat="37.332151474" lon="-121.769913415"/>
<node visible="true" id="-17" lat="37.332097384" lon="-121.769898873"/>
<node visible="true" id="-18" lat="37.332049679" lon="-121.76990845200001"/>
<node visible="true" id="-19" lat="37.332001947" lon="-121.769943448"/>
<node visible="true" id="-20" lat="37.331968662" lon="-121.769998779"/>
<way visible="true" id="-4"><nd ref="-5"/><nd ref="-6"/><nd ref="-7"/><nd ref="-8"/><nd ref="-9"/><nd ref="-10"/><nd ref="-11"/><nd ref="-12"/><nd ref="-13"/><nd ref="-14"/><nd ref="-15"/><nd ref="-16"/><nd ref="-17"/><nd ref="-18"/><nd ref="-19"/><nd ref="-20"/><nd ref="-5"/><tag k="building" v="yes"/><tag k="height" v="5.52"/><tag k="ele" v="153.92"/><tag k="addr:city" v="San Jose"/><tag k="addr:housenumber" v="3727"/><tag k="addr:street" v="Slopeview Drive"/><tag k="addr:postcode" v="95148"/></way>
</osm>