<?xml version="1.0"?>
<osm version="0.6" generator="uvmogr2osm" upload="false">
<node visible="true" id="-2" lat="37.266610742000005" lon="-121.83165075500001"/>
<node visible="true" id="-3" lat="37.266607738000005" lon="-121.832004174"/>
<node visible="true" id="-4" lat="37.266712346000006" lon="-121.83200559000001"/>
<node visible="true" id="-5" lat="37.266715350000005" lon="-121.831652136"/>
<node visible="true" id="-7" lat="37.266873241" lon="-121.832771561"/>
<node visible="true" id="-8" lat="37.266873135000004" lon="-121.83285088000001"/>
<node visible="true" id="-9" lat="37.266874948" lon="-121.832850879"/>
<node visible="true" id="-10" lat="37.266874798" lon="-121.83297023600001"/>
<node visible="true" id="-11" lat="37.266872601" lon="-121.83297023"/>
<node visible="true" id="-12" lat="37.266872509" lon="-121.83304824400001"/>
<node visible="true" id="-13" lat="37.266875915" lon="-121.83304827100001"/>
<node visible="true" id="-14" lat="37.266875645" lon="-121.833260179"/>
<node visible="true" id="-15" lat="37.266870534" lon="-121.83326025900001"/>
<node visible="true" id="-16" lat="37.266868452000004" lon="-121.83333225800001"/>
<node visible="true" id="-17" lat="37.266871747" lon="-121.83333231700001"/>
<node visible="true" id="-18" lat="37.266872575" lon="-121.83341876700001"/>
<node visible="true" id="-19" lat="37.266868137" lon="-121.833417725"/>
<node visible="true" id="-20" lat="37.266868234" lon="-121.83349838800001"/>
<node visible="true" id="-21" lat="37.266901195" lon="-121.83349842700001"/>
<node visible="true" id="-22" lat="37.266901074" lon="-121.833605618"/>
<node visible="true" id="-23" lat="37.266926506000004" lon="-121.833637209"/>
<node visible="true" id="-24" lat="37.266943419" lon="-121.833659541"/>
<node visible="true" id="-25" lat="37.266916387" lon="-121.83369840900001"/>
<node visible="true" id="-26" lat="37.266916325000004" lon="-121.83373999400001"/>
<node visible="true" id="-27" lat="37.266931899" lon="-121.83374003"/>
<node visible="true" id="-28" lat="37.266931706" lon="-121.833894442"/>
<node visible="true" id="-29" lat="37.266915366" lon="-121.83389662600001"/>
<node visible="true" id="-30" lat="37.266913843000005" lon="-121.83415315600001"/>
<node visible="true" id="-31" lat="37.267156925" lon="-121.83415367600001"/>
<node visible="true" id="-32" lat="37.267157596000004" lon="-121.83366085"/>
<node visible="true" id="-33" lat="37.267412159" lon="-121.83366140400001"/>
<node visible="true" id="-34" lat="37.267412997" lon="-121.833023338"/>
<node visible="true" id="-35" lat="37.267498859" lon="-121.83302352800001"/>
<node visible="true" id="-36" lat="37.267499268" lon="-121.83271731500001"/>
<node visible="true" id="-37" lat="37.26744535" lon="-121.83271721300001"/>
<node visible="true" id="-38" lat="37.267445434" lon="-121.83265438900001"/>
<node visible="true" id="-39" lat="37.267356634" lon="-121.83265421600001"/>
<node visible="true" id="-40" lat="37.267356552" lon="-121.832714393"/>
<node visible="true" id="-41" lat="37.267179583" lon="-121.83271402300001"/>
<node visible="true" id="-42" lat="37.267179907" lon="-121.832453794"/>
<node visible="true" id="-43" lat="37.267494513" lon="-121.83245445000001"/>
<node visible="true" id="-44" lat="37.267494905" lon="-121.83215452600001"/>
<node visible="true" id="-45" lat="37.267307856" lon="-121.83215411600001"/>
<node visible="true" id="-46" lat="37.267307835000004" lon="-121.832170406"/>
<node visible="true" id="-47" lat="37.267186404" lon="-121.832170167"/>
<node visible="true" id="-48" lat="37.267186451" lon="-121.832151541"/>
<node visible="true" id="-49" lat="37.266976658000004" lon="-121.832151103"/>
<node visible="true" id="-50" lat="37.266926534" lon="-121.83221355100001"/>
<node visible="true" id="-51" lat="37.266926297000005" lon="-121.83240332700001"/>
<node visible="true" id="-52" lat="37.266940497" lon="-121.832403372"/>
<node visible="true" id="-53" lat="37.26694028" lon="-121.83255043000001"/>
<node visible="true" id="-54" lat="37.2669252" lon="-121.832550401"/>
<node visible="true" id="-55" lat="37.266925763" lon="-121.832669944"/>
<node visible="true" id="-56" lat="37.266957312" lon="-121.832707107"/>
<node visible="true" id="-57" lat="37.266906816" lon="-121.83276349900001"/>
<node visible="true" id="-58" lat="37.266908784" lon="-121.83277164500001"/>
<node visible="true" id="-59" lat="37.268012819" lon="-121.833696492"><tag k="addr:city" v="San Jose"/><tag k="addr:housenumber" v="4501"/><tag k="addr:street" v="Snell Avenue"/><tag k="addr:unit" v="3405"/><tag k="addr:postcode" v="95136"/></node>
<node visible="true" id="-60" lat="37.267988593000005" lon="-121.833605539"><tag k="addr:city" v="San Jose"/><tag k="addr:housenumber" v="4501"/><tag k="addr:street" v="Snell Avenue"/><tag k="addr:unit" v="3407"/><tag k="addr:postcode" v="95136"/></node>
<node visible="true" id="-61" lat="37.267942169" lon="-121.83344532800001"><tag k="addr:city" v="San Jose"/><tag k="addr:housenumber" v="4501"/><tag k="addr:street" v="Snell Avenue"/><tag k="addr:unit" v="3501"/><tag k="addr:postcode" v="95136"/></node>
<node visible="true" id="-62" lat="37.267916862" lon="-121.833391054"><tag k="addr:city" v="San Jose"/><tag k="addr:housenumber" v="4501"/><tag k="addr:street" v="Snell Avenue"/><tag k="addr:unit" v="3503"/><tag k="addr:postcode" v="95136"/></node>
<node visible="true" id="-63" lat="37.267806901" lon="-121.83387445000001"><tag k="addr:city" v="San Jose"/><tag k="addr:housenumber" v="4501"/><tag k="addr:street" v="Snell Avenue"/><tag k="addr:unit" v="3701"/><tag k="addr:postcode" v="95136"/></node>
<node visible="true" id="-64" lat="37.268724696" lon="-121.835221192"><tag k="addr:city" v="San Jose"/><tag k="addr:housenumber" v="4501"/><tag k="addr:street" v="Snell Avenue"/><tag k="addr:postcode" v="95136"/></node>
<node visible="true" id="-65" lat="37.268574188" lon="-121.83508875800001"><tag k="addr:city" v="San Jose"/><tag k="addr:housenumber" v="4501"/><tag k="addr:street" v="Snell Avenue"/><tag k="addr:unit" v="2108"/><tag k="addr:postcode" v="95136"/></node>
<node visible="true" id="-66" lat="37.267693626" lon="-121.83227784500001"><tag k="addr:city" v="San Jose"/><tag k="addr:housenumber" v="4501"/><tag k="addr:street" v="Snell Avenue"/><tag k="addr:unit" v="3309"/><tag k="addr:postcode" v="95136"/></node>
<node visible="true" id="-67" lat="37.266968150000004" lon="-121.83369899600001"><tag k="addr:city" v="San Jose"/><tag k="addr:housenumber" v="185"/><tag k="addr:street" v="Branham Lane"/><tag k="addr:unit" v="2"/><tag k="addr:postcode" v="95136"/></node>
<node visible="true" id="-68" lat="37.266969417000006" lon="-121.833760921"><tag k="addr:city" v="San Jose"/><tag k="addr:housenumber" v="185"/><tag k="addr:street" v="Branham Lane"/><tag k="addr:unit" v="3"/><tag k="addr:postcode" v="95136"/></node>
<node visible="true" id="-69" lat="37.266968062000004" lon="-121.83388706100001"><tag k="addr:city" v="San Jose"/><tag k="addr:housenumber" v="185"/><tag k="addr:street" v="Branham Lane"/><tag k="addr:unit" v="5"/><tag k="addr:postcode" v="95136"/></node>
<node visible="true" id="-70" lat="37.26696775" lon="-121.834042752"><tag k="addr:city" v="San Jose"/><tag k="addr:housenumber" v="185"/><tag k="addr:street" v="Branham Lane"/><tag k="addr:unit" v="7"/><tag k="addr:postcode" v="95136"/></node>
<node visible="true" id="-71" lat="37.267064562" lon="-121.83442696200001"><tag k="addr:city" v="San Jose"/><tag k="addr:housenumber" v="4501"/><tag k="addr:street" v="Snell Avenue"/><tag k="addr:unit" v="1001"/><tag k="addr:postcode" v="95136"/></node>
<node visible="true" id="-72" lat="37.266969898" lon="-121.833827365"><tag k="addr:city" v="San Jose"/><tag k="addr:housenumber" v="185"/><tag k="addr:street" v="Branham Lane"/><tag k="addr:unit" v="4"/><tag k="addr:postcode" v="95136"/></node>
<node visible="true" id="-73" lat="37.267270966000005" lon="-121.83438999900001"><tag k="addr:city" v="San Jose"/><tag k="addr:housenumber" v="4501"/><tag k="addr:street" v="Snell Avenue"/><tag k="addr:unit" v="1102"/><tag k="addr:postcode" v="95136"/></node>
<node visible="true" id="-74" lat="37.267129542" lon="-121.83439745700001"><tag k="addr:city" v="San Jose"/><tag k="addr:housenumber" v="4501"/><tag k="addr:street" v="Snell Avenue"/><tag k="addr:unit" v="1002"/><tag k="addr:postcode" v="95136"/></node>
<node visible="true" id="-75" lat="37.267703459" lon="-121.83293390600001"><tag k="addr:city" v="San Jose"/><tag k="addr:housenumber" v="4501"/><tag k="addr:street" v="Snell Avenue"/><tag k="addr:unit" v="3605"/><tag k="addr:postcode" v="95136"/></node>
<node visible="true" id="-76" lat="37.267659702" lon="-121.83286502400001"><tag k="addr:city" v="San Jose"/><tag k="addr:housenumber" v="4501"/><tag k="addr:street" v="Snell Avenue"/><tag k="addr:unit" v="3607"/><tag k="addr:postcode" v="95136"/></node>
<node visible="true" id="-77" lat="37.267843702" lon="-121.83387314400001"><tag k="addr:city" v="San Jose"/><tag k="addr:housenumber" v="4501"/><tag k="addr:street" v="Snell Avenue"/><tag k="addr:unit" v="3702"/><tag k="addr:postcode" v="95136"/></node>
<node visible="true" id="-78" lat="37.267889828" lon="-121.83386930100001"><tag k="addr:city" v="San Jose"/><tag k="addr:housenumber" v="4501"/><tag k="addr:street" v="Snell Avenue"/><tag k="addr:unit" v="3703"/><tag k="addr:postcode" v="95136"/></node>
<node visible="true" id="-79" lat="37.267920542" lon="-121.833868795"><tag k="addr:city" v="San Jose"/><tag k="addr:housenumber" v="4501"/><tag k="addr:street" v="Snell Avenue"/><tag k="addr:unit" v="3704"/><tag k="addr:postcode" v="95136"/></node>
<node visible="true" id="-80" lat="37.267805010000004" lon="-121.833793514"><tag k="addr:city" v="San Jose"/><tag k="addr:housenumber" v="4501"/><tag k="addr:street" v="Snell Avenue"/><tag k="addr:unit" v="3705"/><tag k="addr:postcode" v="95136"/></node>
<node visible="true" id="-81" lat="37.2678339" lon="-121.833796559"><tag k="addr:city" v="San Jose"/><tag k="addr:housenumber" v="4501"/><tag k="addr:street" v="Snell Avenue"/><tag k="addr:unit" v="3706"/><tag k="addr:postcode" v="95136"/></node>
<node visible="true" id="-82" lat="37.267891008" lon="-121.83380318100001"><tag k="addr:city" v="San Jose"/><tag k="addr:housenumber" v="4501"/><tag k="addr:street" v="Snell Avenue"/><tag k="addr:unit" v="3707"/><tag k="addr:postcode" v="95136"/></node>
<node visible="true" id="-83" lat="37.267922066000004" lon="-121.83380402300001"><tag k="addr:city" v="San Jose"/><tag k="addr:housenumber" v="4501"/><tag k="addr:street" v="Snell Avenue"/><tag k="addr:unit" v="3708"/><tag k="addr:postcode" v="95136"/></node>
<node visible="true" id="-84" lat="37.266715085" lon="-121.83513376500001"><tag k="addr:city" v="San Jose"/><tag k="addr:housenumber" v="4501"/><tag k="addr:street" v="Snell Avenue"/><tag k="addr:unit" v="410"/><tag k="addr:postcode" v="95136"/></node>
<node visible="true" id="-85" lat="37.266707848" lon="-121.83549056700001"><tag k="addr:city" v="San Jose"/><tag k="addr:housenumber" v="4501"/><tag k="addr:street" v="Snell Avenue"/><tag k="addr:unit" v="502"/><tag k="addr:postcode" v="95136"/></node>
<node visible="true" id="-86" lat="37.267024595" lon="-121.83521706100001"><tag k="addr:city" v="San Jose"/><tag k="addr:housenumber" v="4501"/><tag k="addr:street" v="Snell Avenue"/><tag k="addr:unit" v="605"/><tag k="addr:postcode" v="95136"/></node>
<node visible="true" id="-87" lat="37.267026646000005" lon="-121.83528851300001"><tag k="addr:city" v="San Jose"/><tag k="addr:housenumber" v="4501"/><tag k="addr:street" v="Snell Avenue"/><tag k="addr:unit" v="607"/><tag k="addr:postcode" v="95136"/></node>
<node visible="true" id="-88" lat="37.266897967000006" lon="-121.835472835"><tag k="addr:city" v="San Jose"/><tag k="addr:housenumber" v="4501"/><tag k="addr:street" v="Snell Avenue"/><tag k="addr:unit" v="803"/><tag k="addr:postcode" v="95136"/></node>
<node visible="true" id="-89" lat="37.266877759" lon="-121.835547876"><tag k="addr:city" v="San Jose"/><tag k="addr:housenumber" v="4501"/><tag k="addr:street" v="Snell Avenue"/><tag k="addr:unit" v="808"/><tag k="addr:postcode" v="95136"/></node>
<node visible="true" id="-90" lat="37.267000847000006" lon="-121.83547403600001"><tag k="addr:city" v="San Jose"/><tag k="addr:housenumber" v="4501"/><tag k="addr:street" v="Snell Avenue"/><tag k="addr:unit" v="801"/><tag k="addr:postcode" v="95136"/></node>
<node visible="true" id="-91" lat="37.267035441000004" lon="-121.83258103700001"><tag k="addr:city" v="San Jose"/><tag k="addr:housenumber" v="171"/><tag k="addr:street" v="Branham Lane"/><tag k="addr:unit" v="12"/><tag k="addr:postcode" v="95136"/></node>
<node visible="true" id="-92" lat="37.267382564" lon="-121.832306501"><tag k="addr:city" v="San Jose"/><tag k="addr:housenumber" v="171"/><tag k="addr:street" v="Branham Lane"/><tag k="addr:unit" v="1"/><tag k="addr:postcode" v="95136"/></node>
<node visible="true" id="-93" lat="37.267041264" lon="-121.83243256"><tag k="addr:city" v="San Jose"/><tag k="addr:housenumber" v="171"/><tag k="addr:street" v="Branham Lane"/><tag k="addr:unit" v="10"/><tag k="addr:postcode" v="95136"/></node>
<node visible="true" id="-94" lat="37.267037143" lon="-121.832505885"><tag k="addr:city" v="San Jose"/><tag k="addr:housenumber" v="171"/><tag k="addr:street" v="Branham Lane"/><tag k="addr:unit" v="11"/><tag k="addr:postcode" v="95136"/></node>
<node visible="true" id="-95" lat="37.26703786" lon="-121.83265428300001"><tag k="addr:city" v="San Jose"/><tag k="addr:housenumber" v="171"/><tag k="addr:street" v="Branham Lane"/><tag k="addr:unit" v="14"/><tag k="addr:postcode" v="95136"/></node>
<node visible="true" id="-96" lat="37.267320832" lon="-121.832304522"><tag k="addr:city" v="San Jose"/><tag k="addr:housenumber" v="171"/><tag k="addr:street" v="Branham Lane"/><tag k="addr:unit" v="2"/><tag k="addr:postcode" v="95136"/></node>
<node visible="true" id="-97" lat="37.267284504" lon="-121.83230347800001"><tag k="addr:city" v="San Jose"/><tag k="addr:housenumber" v="171"/><tag k="addr:street" v="Branham Lane"/><tag k="addr:unit" v="3"/><tag k="addr:postcode" v="95136"/></node>
<node visible="true" id="-98" lat="37.267232249" lon="-121.832302603"><tag k="addr:city" v="San Jose"/><tag k="addr:housenumber" v="171"/><tag k="addr:street" v="Branham Lane"/><tag k="addr:unit" v="4"/><tag k="addr:postcode" v="95136"/></node>
<node visible="true" id="-99" lat="37.267161371" lon="-121.832304484"><tag k="addr:city" v="San Jose"/><tag k="addr:housenumber" v="171"/><tag k="addr:street" v="Branham Lane"/><tag k="addr:unit" v="5"/><tag k="addr:postcode" v="95136"/></node>
<node visible="true" id="-100" lat="37.267105164" lon="-121.83230282900001"><tag k="addr:city" v="San Jose"/><tag k="addr:housenumber" v="171"/><tag k="addr:street" v="Branham Lane"/><tag k="addr:unit" v="6"/><tag k="addr:postcode" v="95136"/></node>
<node visible="true" id="-101" lat="37.267042512" lon="-121.83230227000001"><tag k="addr:city" v="San Jose"/><tag k="addr:housenumber" v="171"/><tag k="addr:street" v="Branham Lane"/><tag k="addr:unit" v="7"/><tag k="addr:postcode" v="95136"/></node>
<node visible="true" id="-102" lat="37.267040559" lon="-121.8323594"><tag k="addr:city" v="San Jose"/><tag k="addr:housenumber" v="171"/><tag k="addr:street" v="Branham Lane"/><tag k="addr:unit" v="9"/><tag k="addr:postcode" v="95136"/></node>
<node visible="true" id="-104" lat="37.266289549" lon="-121.832344968"/>
<node visible="true" id="-105" lat="37.266517344" lon="-121.83234919700001"/>
<node visible="true" id="-106" lat="37.266517605000004" lon="-121.83232631400001"/>
<node visible="true" id="-107" lat="37.266542705" lon="-121.83232679500001"/>
<node visible="true" id="-108" lat="37.266542452" lon="-121.83234899200001"/>
<node visible="true" id="-109" lat="37.266591417" lon="-121.832349898"/>
<node visible="true" id="-110" lat="37.266593327" lon="-121.83218922900001"/>
<node visible="true" id="-111" lat="37.266543759" lon="-121.83218831100001"/>
<node visible="true" id="-112" lat="37.266543995" lon="-121.832167557"/>
<node visible="true" id="-113" lat="37.266399051" lon="-121.83216487300001"/>
<node visible="true" id="-114" lat="37.266398944" lon="-121.83217435600001"/>
<node visible="true" id="-115" lat="37.266291596" lon="-121.83217237500001"/>
<way visible="true" id="-1"><nd ref="-2"/><nd ref="-3"/><nd ref="-4"/><nd ref="-5"/><nd ref="-2"/><tag k="building" v="yes"/><tag k="height" v="5.59"/><tag k="ele" v="56.81"/></way>
<way visible="true" id="-6"><nd ref="-7"/><nd ref="-8"/><nd ref="-9"/><nd ref="-10"/><nd ref="-11"/><nd ref="-12"/><nd ref="-13"/><nd ref="-14"/><nd ref="-15"/><nd ref="-16"/><nd ref="-17"/><nd ref="-18"/><nd ref="-19"/><nd ref="-20"/><nd ref="-21"/><nd ref="-22"/><nd ref="-23"/><nd ref="-24"/><nd ref="-25"/><nd ref="-26"/><nd ref="-27"/><nd ref="-28"/><nd ref="-29"/><nd ref="-30"/><nd ref="-31"/><nd ref="-32"/><nd ref="-33"/><nd ref="-34"/><nd ref="-35"/><nd ref="-36"/><nd ref="-37"/><nd ref="-38"/><nd ref="-39"/><nd ref="-40"/><nd ref="-41"/><nd ref="-42"/><nd ref="-43"/><nd ref="-44"/><nd ref="-45"/><nd ref="-46"/><nd ref="-47"/><nd ref="-48"/><nd ref="-49"/><nd ref="-50"/><nd ref="-51"/><nd ref="-52"/><nd ref="-53"/><nd ref="-54"/><nd ref="-55"/><nd ref="-56"/><nd ref="-57"/><nd ref="-58"/><nd ref="-7"/><tag k="building" v="yes"/><tag k="height" v="6.85"/><tag k="ele" v="64.20"/></way>
<way visible="true" id="-103"><nd ref="-104"/><nd ref="-105"/><nd ref="-106"/><nd ref="-107"/><nd ref="-108"/><nd ref="-109"/><nd ref="-110"/><nd ref="-111"/><nd ref="-112"/><nd ref="-113"/><nd ref="-114"/><nd ref="-115"/><nd ref="-104"/><tag k="building" v="yes"/><tag k="height" v="4.02"/><tag k="ele" v="56.04"/><tag k="addr:city" v="San Jose"/><tag k="addr:housenumber" v="163"/><tag k="addr:street" v="Branham Lane"/><tag k="addr:postcode" v="95136"/></way>
</osm>