<?xml version="1.0"?>
<osm version="0.6" generator="uvmogr2osm" upload="false">
<node visible="true" id="-1" lat="37.287976964" lon="-121.83793181"><tag k="addr:city" v="San Jose"/><tag k="addr:housenumber" v="10337"/><tag k="addr:street" v="Singleton Road"/><tag k="addr:unit" v="2"/><tag k="addr:postcode" v="95111"/></node>
<node visible="true" id="-2" lat="37.285864721" lon="-121.84036754300001"><tag k="addr:city" v="San Jose"/><tag k="addr:housenumber" v="12986"/><tag k="addr:street" v="Pfeifle Avenue"/><tag k="addr:postcode" v="95111"/></node>
<node visible="true" id="-3" lat="37.285539235" lon="-121.840888301"><tag k="addr:city" v="San Jose"/><tag k="addr:housenumber" v="12987"/><tag k="addr:street" v="Pfeifle Avenue"/><tag k="addr:unit" v="2"/><tag k="addr:postcode" v="95111"/></node>
<node visible="true" id="-4" lat="37.281678748000004" lon="-121.83834009700001"><tag k="addr:city" v="San Jose"/><tag k="addr:housenumber" v="3856"/><tag k="addr:street" v="Monterey Road"/><tag k="addr:postcode" v="95111"/></node>
<node visible="true" id="-5" lat="37.281585213" lon="-121.83827337500001"><tag k="addr:city" v="San Jose"/><tag k="addr:housenumber" v="3860"/><tag k="addr:street" v="Monterey Road"/><tag k="addr:postcode" v="95111"/></node>
<node visible="true" id="-6" lat="37.281535007" lon="-121.83823842700001"><tag k="addr:city" v="San Jose"/><tag k="addr:housenumber" v="3880"/><tag k="addr:street" v="Monterey Road"/><tag k="addr:postcode" v="95111"/></node>
<node visible="true" id="-7" lat="37.283020839" lon="-121.834854565"><tag k="addr:city" v="San Jose"/><tag k="addr:housenumber" v="132"/><tag k="addr:street" v="Rancho Drive"/><tag k="addr:unit" v="166"/><tag k="addr:postcode" v="95111"/></node>
<node visible="true" id="-8" lat="37.283009888" lon="-121.83481756500001"><tag k="addr:city" v="San Jose"/><tag k="addr:housenumber" v="132"/><tag k="addr:street" v="Rancho Drive"/><tag k="addr:unit" v="266"/><tag k="addr:postcode" v="95111"/></node>
<node visible="true" id="-9" lat="37.283540752" lon="-121.83517647400001"><tag k="addr:city" v="San Jose"/><tag k="addr:housenumber" v="3819"/><tag k="addr:street" v="Seven Trees Boulevard"/><tag k="addr:unit" v="212"/><tag k="addr:postcode" v="95111"/></node>
<node visible="true" id="-10" lat="37.284394208" lon="-121.835694371"><tag k="addr:city" v="San Jose"/><tag k="addr:housenumber" v="13230"/><tag k="addr:street" v="Rancho Drive"/><tag k="addr:postcode" v="95111"/></node>
<node visible="true" id="-11" lat="37.281223695" lon="-121.83783104000001"><tag k="addr:city" v="San Jose"/><tag k="addr:housenumber" v="3900"/><tag k="addr:street" v="Monterey Road"/><tag k="addr:postcode" v="95111"/></node>
<node visible="true" id="-12" lat="37.282449707000005" lon="-121.83618332100001"><tag k="addr:city" v="San Jose"/><tag k="addr:housenumber" v="124"/><tag k="addr:street" v="Rancho Drive"/><tag k="addr:postcode" v="95111"/></node>
<node visible="true" id="-13" lat="37.284594407" lon="-121.84136838"><tag k="addr:city" v="San Jose"/><tag k="addr:housenumber" v="3390"/><tag k="addr:street" v="Monterey Road"/><tag k="addr:postcode" v="95111"/></node>
<node visible="true" id="-14" lat="37.286588142" lon="-121.83528739500001"><tag k="addr:city" v="San Jose"/><tag k="addr:housenumber" v="13149"/><tag k="addr:street" v="Potts Drive"/><tag k="addr:postcode" v="95111"/></node>
<node visible="true" id="-15" lat="37.287177733" lon="-121.839437469"><tag k="addr:city" v="San Jose"/><tag k="addr:housenumber" v="10231"/><tag k="addr:street" v="Singleton Road"/><tag k="addr:postcode" v="95111"/></node>
<node visible="true" id="-16" lat="37.287620172000004" lon="-121.83824325"><tag k="addr:city" v="San Jose"/><tag k="addr:housenumber" v="10305"/><tag k="addr:street" v="Singleton Road"/><tag k="addr:postcode" v="95111"/></node>
<node visible="true" id="-17" lat="37.287659096000006" lon="-121.838147011"><tag k="addr:city" v="San Jose"/><tag k="addr:housenumber" v="10307"/><tag k="addr:street" v="Singleton Road"/><tag k="addr:postcode" v="95111"/></node>
<node visible="true" id="-18" lat="37.28871316" lon="-121.835752072"><tag k="addr:city" v="San Jose"/><tag k="addr:housenumber" v="10467"/><tag k="addr:street" v="Singleton Road"/><tag k="addr:postcode" v="95111"/></node>
<node visible="true" id="-19" lat="37.28874656" lon="-121.83566672500001"><tag k="addr:city" v="San Jose"/><tag k="addr:housenumber" v="10469"/><tag k="addr:street" v="Singleton Road"/><tag k="addr:postcode" v="95111"/></node>
<node visible="true" id="-20" lat="37.287227981" lon="-121.839329491"><tag k="addr:city" v="San Jose"/><tag k="addr:housenumber" v="12955"/><tag k="addr:street" v="Water Street"/><tag k="addr:postcode" v="95111"/></node>
<node visible="true" id="-21" lat="37.285796231" lon="-121.84032170500001"><tag k="addr:city" v="San Jose"/><tag k="addr:housenumber" v="12988"/><tag k="addr:street" v="Pfeifle Avenue"/><tag k="addr:postcode" v="95111"/></node>
<node visible="true" id="-22" lat="37.284408081" lon="-121.838760296"><tag k="addr:city" v="San Jose"/><tag k="addr:housenumber" v="13113"/><tag k="addr:street" v="Brown Avenue"/><tag k="addr:postcode" v="95111"/></node>
<node visible="true" id="-23" lat="37.284474812" lon="-121.838683789"><tag k="addr:city" v="San Jose"/><tag k="addr:housenumber" v="13113"/><tag k="addr:street" v="Brown Avenue"/><tag k="addr:unit" v="2"/><tag k="addr:postcode" v="95111"/></node>
<node visible="true" id="-24" lat="37.284332521" lon="-121.83566903"><tag k="addr:city" v="San Jose"/><tag k="addr:housenumber" v="13230"/><tag k="addr:street" v="Rancho Drive"/><tag k="addr:unit" v="B"/><tag k="addr:postcode" v="95111"/></node>
<node visible="true" id="-25" lat="37.283066228" lon="-121.83823530500001"><tag k="addr:city" v="San Jose"/><tag k="addr:housenumber" v="55"/><tag k="addr:street" v="Rancho Drive"/><tag k="addr:unit" v="10"/><tag k="addr:postcode" v="95111"/></node>
<node visible="true" id="-26" lat="37.283037470000004" lon="-121.83829716800001"><tag k="addr:city" v="San Jose"/><tag k="addr:housenumber" v="55"/><tag k="addr:street" v="Rancho Drive"/><tag k="addr:unit" v="12"/><tag k="addr:postcode" v="95111"/></node>
<node visible="true" id="-27" lat="37.283168834" lon="-121.838163561"><tag k="addr:city" v="San Jose"/><tag k="addr:housenumber" v="69"/><tag k="addr:street" v="Rancho Drive"/><tag k="addr:postcode" v="95111"/></node>
<node visible="true" id="-28" lat="37.283118716000004" lon="-121.838128908"><tag k="addr:city" v="San Jose"/><tag k="addr:housenumber" v="71"/><tag k="addr:street" v="Rancho Drive"/><tag k="addr:postcode" v="95111"/></node>
<node visible="true" id="-29" lat="37.283194626000004" lon="-121.838074473"><tag k="addr:city" v="San Jose"/><tag k="addr:housenumber" v="73"/><tag k="addr:street" v="Rancho Drive"/><tag k="addr:postcode" v="95111"/></node>
<node visible="true" id="-30" lat="37.283150445000004" lon="-121.83803477000001"><tag k="addr:city" v="San Jose"/><tag k="addr:housenumber" v="75"/><tag k="addr:street" v="Rancho Drive"/><tag k="addr:postcode" v="95111"/></node>
<node visible="true" id="-31" lat="37.285408450000006" lon="-121.83716903000001"><tag k="addr:city" v="San Jose"/><tag k="addr:housenumber" v="13099"/><tag k="addr:street" v="Wool Avenue"/><tag k="addr:unit" v="2"/><tag k="addr:postcode" v="95111"/></node>
<node visible="true" id="-32" lat="37.286543921" lon="-121.83519532800001"><tag k="addr:city" v="San Jose"/><tag k="addr:housenumber" v="13151"/><tag k="addr:street" v="Potts Drive"/><tag k="addr:postcode" v="95111"/></node>
<node visible="true" id="-33" lat="37.283559465" lon="-121.83517808"><tag k="addr:city" v="San Jose"/><tag k="addr:housenumber" v="3819"/><tag k="addr:street" v="Seven Trees Boulevard"/><tag k="addr:unit" v="211"/><tag k="addr:postcode" v="95111"/></node>
<node visible="true" id="-34" lat="37.283564385000005" lon="-121.834867102"><tag k="addr:city" v="San Jose"/><tag k="addr:housenumber" v="3819"/><tag k="addr:street" v="Seven Trees Boulevard"/><tag k="addr:unit" v="303"/><tag k="addr:postcode" v="95111"/></node>
<node visible="true" id="-35" lat="37.283544264" lon="-121.834856189"><tag k="addr:city" v="San Jose"/><tag k="addr:housenumber" v="3819"/><tag k="addr:street" v="Seven Trees Boulevard"/><tag k="addr:unit" v="304"/><tag k="addr:postcode" v="95111"/></node>
<node visible="true" id="-36" lat="37.282582674000004" lon="-121.836317178"><tag k="addr:city" v="San Jose"/><tag k="addr:housenumber" v="124"/><tag k="addr:street" v="Rancho Drive"/><tag k="addr:unit" v="102"/><tag k="addr:postcode" v="95111"/></node>
<node visible="true" id="-37" lat="37.282527714000004" lon="-121.836280027"><tag k="addr:city" v="San Jose"/><tag k="addr:housenumber" v="124"/><tag k="addr:street" v="Rancho Drive"/><tag k="addr:unit" v="104"/><tag k="addr:postcode" v="95111"/></node>
<node visible="true" id="-38" lat="37.282518519" lon="-121.83614187500001"><tag k="addr:city" v="San Jose"/><tag k="addr:housenumber" v="124"/><tag k="addr:street" v="Rancho Drive"/><tag k="addr:unit" v="105"/><tag k="addr:postcode" v="95111"/></node>
<node visible="true" id="-39" lat="37.282472753" lon="-121.83624287500001"><tag k="addr:city" v="San Jose"/><tag k="addr:housenumber" v="124"/><tag k="addr:street" v="Rancho Drive"/><tag k="addr:unit" v="106"/><tag k="addr:postcode" v="95111"/></node>
<node visible="true" id="-40" lat="37.282433224" lon="-121.836093203"><tag k="addr:city" v="San Jose"/><tag k="addr:housenumber" v="124"/><tag k="addr:street" v="Rancho Drive"/><tag k="addr:unit" v="107"/><tag k="addr:postcode" v="95111"/></node>
<node visible="true" id="-41" lat="37.282387458" lon="-121.836194203"><tag k="addr:city" v="San Jose"/><tag k="addr:housenumber" v="124"/><tag k="addr:street" v="Rancho Drive"/><tag k="addr:unit" v="108"/><tag k="addr:postcode" v="95111"/></node>
<node visible="true" id="-42" lat="37.282378264" lon="-121.83605605100001"><tag k="addr:city" v="San Jose"/><tag k="addr:housenumber" v="124"/><tag k="addr:street" v="Rancho Drive"/><tag k="addr:unit" v="109"/><tag k="addr:postcode" v="95111"/></node>
<node visible="true" id="-43" lat="37.282332498" lon="-121.836157052"><tag k="addr:city" v="San Jose"/><tag k="addr:housenumber" v="124"/><tag k="addr:street" v="Rancho Drive"/><tag k="addr:unit" v="110"/><tag k="addr:postcode" v="95111"/></node>
<node visible="true" id="-44" lat="37.282277537" lon="-121.836119901"><tag k="addr:city" v="San Jose"/><tag k="addr:housenumber" v="124"/><tag k="addr:street" v="Rancho Drive"/><tag k="addr:unit" v="112"/><tag k="addr:postcode" v="95111"/></node>
<node visible="true" id="-45" lat="37.282215739" lon="-121.83587539400001"><tag k="addr:city" v="San Jose"/><tag k="addr:housenumber" v="124"/><tag k="addr:street" v="Rancho Drive"/><tag k="addr:postcode" v="95111"/></node>
<node visible="true" id="-46" lat="37.282218549" lon="-121.835926357"><tag k="addr:city" v="San Jose"/><tag k="addr:housenumber" v="124"/><tag k="addr:street" v="Rancho Drive"/><tag k="addr:unit" v="114"/><tag k="addr:postcode" v="95111"/></node>
<node visible="true" id="-47" lat="37.282252304000004" lon="-121.835849244"><tag k="addr:city" v="San Jose"/><tag k="addr:housenumber" v="124"/><tag k="addr:street" v="Rancho Drive"/><tag k="addr:unit" v="115"/><tag k="addr:postcode" v="95111"/></node>
<node visible="true" id="-48" lat="37.282286060000004" lon="-121.83577213100001"><tag k="addr:city" v="San Jose"/><tag k="addr:housenumber" v="124"/><tag k="addr:street" v="Rancho Drive"/><tag k="addr:unit" v="116"/><tag k="addr:postcode" v="95111"/></node>
<node visible="true" id="-49" lat="37.282380348000004" lon="-121.83550125900001"><tag k="addr:city" v="San Jose"/><tag k="addr:housenumber" v="124"/><tag k="addr:street" v="Rancho Drive"/><tag k="addr:postcode" v="95111"/></node>
<node visible="true" id="-50" lat="37.282412646000004" lon="-121.83547913100001"><tag k="addr:city" v="San Jose"/><tag k="addr:housenumber" v="124"/><tag k="addr:street" v="Rancho Drive"/><tag k="addr:unit" v="119"/><tag k="addr:postcode" v="95111"/></node>
<node visible="true" id="-51" lat="37.282446401" lon="-121.835402017"><tag k="addr:city" v="San Jose"/><tag k="addr:housenumber" v="124"/><tag k="addr:street" v="Rancho Drive"/><tag k="addr:unit" v="120"/><tag k="addr:postcode" v="95111"/></node>
<node visible="true" id="-52" lat="37.282563453" lon="-121.83620141600001"><tag k="addr:city" v="San Jose"/><tag k="addr:housenumber" v="124"/><tag k="addr:street" v="Rancho Drive"/><tag k="addr:unit" v="203"/><tag k="addr:postcode" v="95111"/></node>
<node visible="true" id="-53" lat="37.28253774" lon="-121.836257637"><tag k="addr:city" v="San Jose"/><tag k="addr:housenumber" v="124"/><tag k="addr:street" v="Rancho Drive"/><tag k="addr:unit" v="204"/><tag k="addr:postcode" v="95111"/></node>
<node visible="true" id="-54" lat="37.282508492000005" lon="-121.83616426500001"><tag k="addr:city" v="San Jose"/><tag k="addr:housenumber" v="124"/><tag k="addr:street" v="Rancho Drive"/><tag k="addr:unit" v="205"/><tag k="addr:postcode" v="95111"/></node>
<node visible="true" id="-55" lat="37.28248278" lon="-121.83622048500001"><tag k="addr:city" v="San Jose"/><tag k="addr:housenumber" v="124"/><tag k="addr:street" v="Rancho Drive"/><tag k="addr:unit" v="206"/><tag k="addr:postcode" v="95111"/></node>
<node visible="true" id="-56" lat="37.282423197" lon="-121.836115593"><tag k="addr:city" v="San Jose"/><tag k="addr:housenumber" v="124"/><tag k="addr:street" v="Rancho Drive"/><tag k="addr:unit" v="207"/><tag k="addr:postcode" v="95111"/></node>
<node visible="true" id="-57" lat="37.282397484" lon="-121.836171813"><tag k="addr:city" v="San Jose"/><tag k="addr:housenumber" v="124"/><tag k="addr:street" v="Rancho Drive"/><tag k="addr:unit" v="208"/><tag k="addr:postcode" v="95111"/></node>
<node visible="true" id="-58" lat="37.282368237" lon="-121.836078442"><tag k="addr:city" v="San Jose"/><tag k="addr:housenumber" v="124"/><tag k="addr:street" v="Rancho Drive"/><tag k="addr:unit" v="209"/><tag k="addr:postcode" v="95111"/></node>
<node visible="true" id="-59" lat="37.282342524" lon="-121.836134662"><tag k="addr:city" v="San Jose"/><tag k="addr:housenumber" v="124"/><tag k="addr:street" v="Rancho Drive"/><tag k="addr:unit" v="210"/><tag k="addr:postcode" v="95111"/></node>
<node visible="true" id="-60" lat="37.282287564" lon="-121.83609751"><tag k="addr:city" v="San Jose"/><tag k="addr:housenumber" v="124"/><tag k="addr:street" v="Rancho Drive"/><tag k="addr:unit" v="212"/><tag k="addr:postcode" v="95111"/></node>
<node visible="true" id="-61" lat="37.282150104" lon="-121.835977071"><tag k="addr:city" v="San Jose"/><tag k="addr:housenumber" v="124"/><tag k="addr:street" v="Rancho Drive"/><tag k="addr:unit" v="213"/><tag k="addr:postcode" v="95111"/></node>
<node visible="true" id="-62" lat="37.28218386" lon="-121.835899959"><tag k="addr:city" v="San Jose"/><tag k="addr:housenumber" v="124"/><tag k="addr:street" v="Rancho Drive"/><tag k="addr:unit" v="214"/><tag k="addr:postcode" v="95111"/></node>
<node visible="true" id="-63" lat="37.282217615" lon="-121.83582284600001"><tag k="addr:city" v="San Jose"/><tag k="addr:housenumber" v="124"/><tag k="addr:street" v="Rancho Drive"/><tag k="addr:unit" v="215"/><tag k="addr:postcode" v="95111"/></node>
<node visible="true" id="-64" lat="37.282251371" lon="-121.83574573300001"><tag k="addr:city" v="San Jose"/><tag k="addr:housenumber" v="124"/><tag k="addr:street" v="Rancho Drive"/><tag k="addr:unit" v="216"/><tag k="addr:postcode" v="95111"/></node>
<node visible="true" id="-65" lat="37.282344201" lon="-121.83552984600001"><tag k="addr:city" v="San Jose"/><tag k="addr:housenumber" v="124"/><tag k="addr:street" v="Rancho Drive"/><tag k="addr:unit" v="218"/><tag k="addr:postcode" v="95111"/></node>
<node visible="true" id="-66" lat="37.282377956000005" lon="-121.83545273200001"><tag k="addr:city" v="San Jose"/><tag k="addr:housenumber" v="124"/><tag k="addr:street" v="Rancho Drive"/><tag k="addr:unit" v="219"/><tag k="addr:postcode" v="95111"/></node>
<node visible="true" id="-67" lat="37.282411712000005" lon="-121.835375619"><tag k="addr:city" v="San Jose"/><tag k="addr:housenumber" v="124"/><tag k="addr:street" v="Rancho Drive"/><tag k="addr:unit" v="220"/><tag k="addr:postcode" v="95111"/></node>
<node visible="true" id="-68" lat="37.282034432" lon="-121.83630557800001"><tag k="addr:city" v="San Jose"/><tag k="addr:housenumber" v="88"/><tag k="addr:street" v="Rancho Drive"/><tag k="addr:unit" v="B"/><tag k="addr:postcode" v="95111"/></node>
<node visible="true" id="-69" lat="37.282020074" lon="-121.83630734900001"><tag k="addr:city" v="San Jose"/><tag k="addr:housenumber" v="88"/><tag k="addr:street" v="Rancho Drive"/><tag k="addr:unit" v="D"/><tag k="addr:postcode" v="95111"/></node>
<node visible="true" id="-70" lat="37.282344401" lon="-121.83652242000001"><tag k="addr:city" v="San Jose"/><tag k="addr:housenumber" v="92"/><tag k="addr:street" v="Rancho Drive"/><tag k="addr:unit" v="A"/><tag k="addr:postcode" v="95111"/></node>
<node visible="true" id="-71" lat="37.282251171000006" lon="-121.836455407"><tag k="addr:city" v="San Jose"/><tag k="addr:housenumber" v="92"/><tag k="addr:street" v="Rancho Drive"/><tag k="addr:unit" v="B"/><tag k="addr:postcode" v="95111"/></node>
<node visible="true" id="-72" lat="37.282319204000004" lon="-121.836508839"><tag k="addr:city" v="San Jose"/><tag k="addr:housenumber" v="92"/><tag k="addr:street" v="Rancho Drive"/><tag k="addr:unit" v="E"/><tag k="addr:postcode" v="95111"/></node>
<node visible="true" id="-73" lat="37.282233351" lon="-121.836447664"><tag k="addr:city" v="San Jose"/><tag k="addr:housenumber" v="92"/><tag k="addr:street" v="Rancho Drive"/><tag k="addr:unit" v="F"/><tag k="addr:postcode" v="95111"/></node>
<node visible="true" id="-74" lat="37.285483807000006" lon="-121.842122505"><tag k="addr:city" v="San Jose"/><tag k="addr:housenumber" v="3382"/><tag k="addr:street" v="Monterey Road"/><tag k="addr:unit" v="4"/><tag k="addr:postcode" v="95111"/></node>
<node visible="true" id="-75" lat="37.285471038000004" lon="-121.84215606500001"><tag k="addr:city" v="San Jose"/><tag k="addr:housenumber" v="3382"/><tag k="addr:street" v="Monterey Road"/><tag k="addr:unit" v="8"/><tag k="addr:postcode" v="95111"/></node>
<node visible="true" id="-76" lat="37.285338236" lon="-121.83733608300001"><tag k="addr:city" v="San Jose"/><tag k="addr:housenumber" v="13098"/><tag k="addr:street" v="Water Street"/><tag k="addr:unit" v="2"/><tag k="addr:postcode" v="95111"/></node>
<node visible="true" id="-77" lat="37.282184249000004" lon="-121.83599930300001"><tag k="addr:city" v="San Jose"/><tag k="addr:housenumber" v="124"/><tag k="addr:street" v="Rancho Drive"/><tag k="addr:unit" v="113"/><tag k="addr:postcode" v="95111"/></node>
<node visible="true" id="-78" lat="37.283253204000005" lon="-121.835519094"><tag k="addr:city" v="San Jose"/><tag k="addr:housenumber" v="142"/><tag k="addr:street" v="Rancho Drive"/><tag k="addr:postcode" v="95111"/></node>
<node visible="true" id="-79" lat="37.283197157000004" lon="-121.834968602"><tag k="addr:city" v="San Jose"/><tag k="addr:housenumber" v="142"/><tag k="addr:street" v="Rancho Drive"/><tag k="addr:postcode" v="95111"/></node>
<node visible="true" id="-80" lat="37.281438085000005" lon="-121.83816597100001"><tag k="addr:city" v="San Jose"/><tag k="addr:housenumber" v="3894"/><tag k="addr:street" v="Monterey Road"/><tag k="addr:postcode" v="95111"/></node>
<node visible="true" id="-81" lat="37.281306135" lon="-121.83816052600001"><tag k="addr:city" v="San Jose"/><tag k="addr:housenumber" v="3930"/><tag k="addr:street" v="Monterey Road"/><tag k="addr:postcode" v="95111"/></node>
<node visible="true" id="-82" lat="37.283547436" lon="-121.83544575200001"><tag k="addr:city" v="San Jose"/><tag k="addr:housenumber" v="3819"/><tag k="addr:street" v="Seven Trees Boulevard"/><tag k="addr:postcode" v="95111"/></node>
<node visible="true" id="-83" lat="37.286987198000006" lon="-121.83734020600001"><tag k="addr:city" v="San Jose"/><tag k="addr:housenumber" v="13000"/><tag k="addr:street" v="Wool Avenue"/><tag k="addr:postcode" v="95111"/></node>
<node visible="true" id="-84" lat="37.286939935" lon="-121.837278533"><tag k="addr:city" v="San Jose"/><tag k="addr:housenumber" v="13000"/><tag k="addr:street" v="Wool Avenue"/><tag k="addr:unit" v="2"/><tag k="addr:postcode" v="95111"/></node>
<node visible="true" id="-85" lat="37.283180533" lon="-121.83476357600001"><tag k="addr:city" v="San Jose"/><tag k="addr:housenumber" v="142"/><tag k="addr:street" v="Rancho Drive"/><tag k="addr:unit" v="167"/><tag k="addr:postcode" v="95111"/></node>
<node visible="true" id="-86" lat="37.283180023" lon="-121.834847616"><tag k="addr:city" v="San Jose"/><tag k="addr:housenumber" v="142"/><tag k="addr:street" v="Rancho Drive"/><tag k="addr:unit" v="168"/><tag k="addr:postcode" v="95111"/></node>
<node visible="true" id="-87" lat="37.283179513" lon="-121.83493165600001"><tag k="addr:city" v="San Jose"/><tag k="addr:housenumber" v="142"/><tag k="addr:street" v="Rancho Drive"/><tag k="addr:unit" v="169"/><tag k="addr:postcode" v="95111"/></node>
<node visible="true" id="-88" lat="37.283179004000004" lon="-121.83501569500001"><tag k="addr:city" v="San Jose"/><tag k="addr:housenumber" v="142"/><tag k="addr:street" v="Rancho Drive"/><tag k="addr:unit" v="170"/><tag k="addr:postcode" v="95111"/></node>
<node visible="true" id="-89" lat="37.283227686000004" lon="-121.835380248"><tag k="addr:city" v="San Jose"/><tag k="addr:housenumber" v="142"/><tag k="addr:street" v="Rancho Drive"/><tag k="addr:unit" v="173"/><tag k="addr:postcode" v="95111"/></node>
<node visible="true" id="-90" lat="37.283227384" lon="-121.83547110800001"><tag k="addr:city" v="San Jose"/><tag k="addr:housenumber" v="142"/><tag k="addr:street" v="Rancho Drive"/><tag k="addr:unit" v="174"/><tag k="addr:postcode" v="95111"/></node>
<node visible="true" id="-91" lat="37.283227085" lon="-121.83556196800001"><tag k="addr:city" v="San Jose"/><tag k="addr:housenumber" v="142"/><tag k="addr:street" v="Rancho Drive"/><tag k="addr:unit" v="175"/><tag k="addr:postcode" v="95111"/></node>
<node visible="true" id="-92" lat="37.283226784" lon="-121.83565282600001"><tag k="addr:city" v="San Jose"/><tag k="addr:housenumber" v="142"/><tag k="addr:street" v="Rancho Drive"/><tag k="addr:unit" v="176"/><tag k="addr:postcode" v="95111"/></node>
<node visible="true" id="-93" lat="37.283212046" lon="-121.834762384"><tag k="addr:city" v="San Jose"/><tag k="addr:housenumber" v="142"/><tag k="addr:street" v="Rancho Drive"/><tag k="addr:unit" v="267"/><tag k="addr:postcode" v="95111"/></node>
<node visible="true" id="-94" lat="37.283211537" lon="-121.834846424"><tag k="addr:city" v="San Jose"/><tag k="addr:housenumber" v="142"/><tag k="addr:street" v="Rancho Drive"/><tag k="addr:unit" v="268"/><tag k="addr:postcode" v="95111"/></node>
<node visible="true" id="-95" lat="37.283211027" lon="-121.834930463"><tag k="addr:city" v="San Jose"/><tag k="addr:housenumber" v="142"/><tag k="addr:street" v="Rancho Drive"/><tag k="addr:unit" v="269"/><tag k="addr:postcode" v="95111"/></node>
<node visible="true" id="-96" lat="37.283210518000004" lon="-121.83501450300001"><tag k="addr:city" v="San Jose"/><tag k="addr:housenumber" v="142"/><tag k="addr:street" v="Rancho Drive"/><tag k="addr:unit" v="270"/><tag k="addr:postcode" v="95111"/></node>
<node visible="true" id="-97" lat="37.283210008000005" lon="-121.83509854200001"><tag k="addr:city" v="San Jose"/><tag k="addr:housenumber" v="142"/><tag k="addr:street" v="Rancho Drive"/><tag k="addr:unit" v="271"/><tag k="addr:postcode" v="95111"/></node>
<node visible="true" id="-98" lat="37.283269587" lon="-121.835382835"><tag k="addr:city" v="San Jose"/><tag k="addr:housenumber" v="142"/><tag k="addr:street" v="Rancho Drive"/><tag k="addr:unit" v="273"/><tag k="addr:postcode" v="95111"/></node>
<node visible="true" id="-99" lat="37.283269287" lon="-121.835473695"><tag k="addr:city" v="San Jose"/><tag k="addr:housenumber" v="142"/><tag k="addr:street" v="Rancho Drive"/><tag k="addr:unit" v="274"/><tag k="addr:postcode" v="95111"/></node>
<node visible="true" id="-100" lat="37.283268987" lon="-121.83556455300001"><tag k="addr:city" v="San Jose"/><tag k="addr:housenumber" v="142"/><tag k="addr:street" v="Rancho Drive"/><tag k="addr:unit" v="275"/><tag k="addr:postcode" v="95111"/></node>
<node visible="true" id="-101" lat="37.283268687" lon="-121.835655414"><tag k="addr:city" v="San Jose"/><tag k="addr:housenumber" v="142"/><tag k="addr:street" v="Rancho Drive"/><tag k="addr:unit" v="276"/><tag k="addr:postcode" v="95111"/></node>
<node visible="true" id="-102" lat="37.28250157" lon="-121.835202104"><tag k="addr:city" v="San Jose"/><tag k="addr:housenumber" v="132"/><tag k="addr:street" v="Rancho Drive"/><tag k="addr:unit" v="159"/><tag k="addr:postcode" v="95111"/></node>
<node visible="true" id="-103" lat="37.282701794000005" lon="-121.83498552500001"><tag k="addr:city" v="San Jose"/><tag k="addr:housenumber" v="132"/><tag k="addr:street" v="Rancho Drive"/><tag k="addr:unit" v="161"/><tag k="addr:postcode" v="95111"/></node>
<node visible="true" id="-104" lat="37.282765603" lon="-121.83495933300001"><tag k="addr:city" v="San Jose"/><tag k="addr:housenumber" v="132"/><tag k="addr:street" v="Rancho Drive"/><tag k="addr:unit" v="162"/><tag k="addr:postcode" v="95111"/></node>
<node visible="true" id="-105" lat="37.282829412000005" lon="-121.83493314100001"><tag k="addr:city" v="San Jose"/><tag k="addr:housenumber" v="132"/><tag k="addr:street" v="Rancho Drive"/><tag k="addr:unit" v="163"/><tag k="addr:postcode" v="95111"/></node>
<node visible="true" id="-106" lat="37.282893220000005" lon="-121.834906949"><tag k="addr:city" v="San Jose"/><tag k="addr:housenumber" v="132"/><tag k="addr:street" v="Rancho Drive"/><tag k="addr:unit" v="164"/><tag k="addr:postcode" v="95111"/></node>
<node visible="true" id="-107" lat="37.282516632000004" lon="-121.835171106"><tag k="addr:city" v="San Jose"/><tag k="addr:housenumber" v="132"/><tag k="addr:street" v="Rancho Drive"/><tag k="addr:unit" v="259"/><tag k="addr:postcode" v="95111"/></node>
<node visible="true" id="-108" lat="37.282690843000005" lon="-121.834948525"><tag k="addr:city" v="San Jose"/><tag k="addr:housenumber" v="132"/><tag k="addr:street" v="Rancho Drive"/><tag k="addr:unit" v="261"/><tag k="addr:postcode" v="95111"/></node>
<node visible="true" id="-109" lat="37.282754652" lon="-121.83492233300001"><tag k="addr:city" v="San Jose"/><tag k="addr:housenumber" v="132"/><tag k="addr:street" v="Rancho Drive"/><tag k="addr:unit" v="262"/><tag k="addr:postcode" v="95111"/></node>
<node visible="true" id="-110" lat="37.282818461000005" lon="-121.834896141"><tag k="addr:city" v="San Jose"/><tag k="addr:housenumber" v="132"/><tag k="addr:street" v="Rancho Drive"/><tag k="addr:unit" v="263"/><tag k="addr:postcode" v="95111"/></node>
<node visible="true" id="-111" lat="37.28288227" lon="-121.83486994900001"><tag k="addr:city" v="San Jose"/><tag k="addr:housenumber" v="132"/><tag k="addr:street" v="Rancho Drive"/><tag k="addr:unit" v="264"/><tag k="addr:postcode" v="95111"/></node>
<node visible="true" id="-112" lat="37.28285862" lon="-121.834901966"><tag k="addr:city" v="San Jose"/><tag k="addr:housenumber" v="142"/><tag k="addr:street" v="Rancho Drive"/><tag k="addr:postcode" v="95111"/></node>
</osm>