<?xml version="1.0"?>
<osm version="0.6" generator="uvmogr2osm" upload="false">
<node visible="true" id="-2" lat="37.337572714000004" lon="-121.85684475000001"/>
<node visible="true" id="-3" lat="37.337667813" lon="-121.85694379700001"/>
<node visible="true" id="-4" lat="37.337676619" lon="-121.85693050500001"/>
<node visible="true" id="-5" lat="37.337727074" lon="-121.85698305800001"/>
<node visible="true" id="-6" lat="37.337805375" lon="-121.85686510900001"/>
<node visible="true" id="-7" lat="37.337754515" lon="-121.85681213800001"/>
<node visible="true" id="-8" lat="37.337765277" lon="-121.85679592400001"/>
<node visible="true" id="-9" lat="37.337701932" lon="-121.856729962"/>
<node visible="true" id="-10" lat="37.337647866000005" lon="-121.85681140400001"/>
<node visible="true" id="-11" lat="37.337616519" lon="-121.856778773"/>
<node visible="true" id="-13" lat="37.339284483" lon="-121.85467538600001"/>
<node visible="true" id="-14" lat="37.339394575" lon="-121.85479169800001"/>
<node visible="true" id="-15" lat="37.339448989000005" lon="-121.854710878"/>
<node visible="true" id="-16" lat="37.339338897000005" lon="-121.854594601"/>
<node visible="true" id="-18" lat="37.339183105000004" lon="-121.85482236700001"/>
<node visible="true" id="-19" lat="37.339293469000005" lon="-121.85493878800001"/>
<node visible="true" id="-20" lat="37.339346655" lon="-121.85485966600001"/>
<node visible="true" id="-21" lat="37.339236317" lon="-121.85474328100001"/>
<node visible="true" id="-23" lat="37.339099047000005" lon="-121.854744611"/>
<node visible="true" id="-24" lat="37.339147442000005" lon="-121.85479464800001"/>
<node visible="true" id="-25" lat="37.339183731000006" lon="-121.854739644"/>
<node visible="true" id="-26" lat="37.339135336000005" lon="-121.854689573"/>
<node visible="true" id="-28" lat="37.337717812" lon="-121.85671539"/>
<node visible="true" id="-29" lat="37.337783868" lon="-121.856786904"/>
<node visible="true" id="-30" lat="37.337789063" lon="-121.85677936100001"/>
<node visible="true" id="-31" lat="37.337844159" lon="-121.856839014"/>
<node visible="true" id="-32" lat="37.337921654000006" lon="-121.856726796"/>
<node visible="true" id="-33" lat="37.337864984" lon="-121.85666542800001"/>
<node visible="true" id="-34" lat="37.337868337" lon="-121.85666057"/>
<node visible="true" id="-35" lat="37.337802553" lon="-121.85658933600001"/>
<node visible="true" id="-36" lat="37.337798139" lon="-121.85659572300001"/>
<node visible="true" id="-37" lat="37.337780424" lon="-121.856576551"/>
<node visible="true" id="-38" lat="37.337745839" lon="-121.85662666300001"/>
<node visible="true" id="-39" lat="37.337764856" lon="-121.856647236"/>
<node visible="true" id="-41" lat="37.337956106" lon="-121.856439041"/>
<node visible="true" id="-42" lat="37.338022379" lon="-121.85650832300001"/>
<node visible="true" id="-43" lat="37.338031828000005" lon="-121.85649411600001"/>
<node visible="true" id="-44" lat="37.338081466000006" lon="-121.856545963"/>
<node visible="true" id="-45" lat="37.338161859" lon="-121.85642530000001"/>
<node visible="true" id="-46" lat="37.338111489" lon="-121.856372647"/>
<node visible="true" id="-47" lat="37.338120238" lon="-121.85635952700001"/>
<node visible="true" id="-48" lat="37.338056107" lon="-121.85629252000001"/>
<node visible="true" id="-49" lat="37.338052250000004" lon="-121.85629833200001"/>
<node visible="true" id="-50" lat="37.338029615" lon="-121.856274701"/>
<node visible="true" id="-51" lat="37.337984918000004" lon="-121.85634179600001"/>
<node visible="true" id="-52" lat="37.338006141" lon="-121.85636399200001"/>
<node visible="true" id="-54" lat="37.337835679" lon="-121.85658453600001"/>
<node visible="true" id="-55" lat="37.337904946" lon="-121.85665868900001"/>
<node visible="true" id="-56" lat="37.337914334000004" lon="-121.856644927"/>
<node visible="true" id="-57" lat="37.337961109000005" lon="-121.85669497"/>
<node visible="true" id="-58" lat="37.338041273" lon="-121.85657750200001"/>
<node visible="true" id="-59" lat="37.337989615000005" lon="-121.85652221100001"/>
<node visible="true" id="-60" lat="37.33799822" lon="-121.85650960400001"/>
<node visible="true" id="-61" lat="37.337933837" lon="-121.85644070100001"/>
<node visible="true" id="-62" lat="37.337928248000004" lon="-121.856448924"/>
<node visible="true" id="-63" lat="37.337897861" lon="-121.85641641400001"/>
<node visible="true" id="-64" lat="37.337855950000005" lon="-121.856477815"/>
<node visible="true" id="-65" lat="37.337886309000005" lon="-121.85651032400001"/>
<node visible="true" id="-67" lat="37.338513057" lon="-121.85647546800001"/>
<node visible="true" id="-68" lat="37.338558586000005" lon="-121.856521567"/>
<node visible="true" id="-69" lat="37.338552628" lon="-121.856530781"/>
<node visible="true" id="-70" lat="37.338619308000006" lon="-121.85659828200001"/>
<node visible="true" id="-71" lat="37.338682826" lon="-121.85649987900001"/>
<node visible="true" id="-72" lat="37.338568852" lon="-121.85638449300001"/>
<node visible="true" id="-73" lat="37.338552937" lon="-121.85640917900001"/>
<node visible="true" id="-74" lat="37.338547237" lon="-121.8564034"/>
<node visible="true" id="-75" lat="37.338527826" lon="-121.856433424"/>
<node visible="true" id="-76" lat="37.338535319" lon="-121.856441024"/>
<node visible="true" id="-77" lat="37.337896013000005" lon="-121.856727315"><tag k="addr:city" v="San Jose"/><tag k="addr:housenumber" v="1170"/><tag k="addr:street" v="Herald Avenue"/><tag k="addr:postcode" v="95116"/></node>
<node visible="true" id="-78" lat="37.337965784000005" lon="-121.856098187"><tag k="addr:city" v="San Jose"/><tag k="addr:housenumber" v="1180"/><tag k="addr:street" v="Herald Avenue"/><tag k="addr:postcode" v="95116"/></node>
<node visible="true" id="-79" lat="37.33767067" lon="-121.85674383000001"><tag k="addr:city" v="San Jose"/><tag k="addr:housenumber" v="1166"/><tag k="addr:street" v="Herald Avenue"/><tag k="addr:postcode" v="95116"/></node>
<node visible="true" id="-80" lat="37.337614018000004" lon="-121.85655762200001"><tag k="addr:city" v="San Jose"/><tag k="addr:housenumber" v="1168"/><tag k="addr:street" v="Herald Avenue"/><tag k="addr:postcode" v="95116"/></node>
<node visible="true" id="-81" lat="37.337858906" lon="-121.85653021300001"><tag k="addr:city" v="San Jose"/><tag k="addr:housenumber" v="1172"/><tag k="addr:street" v="Herald Avenue"/><tag k="addr:postcode" v="95116"/></node>
<node visible="true" id="-82" lat="37.342993886" lon="-121.858031033"><tag k="addr:city" v="San Jose"/><tag k="addr:housenumber" v="445"/><tag k="addr:street" v="Bonita Avenue"/><tag k="addr:unit" v="B"/><tag k="addr:postcode" v="95116"/></node>
<node visible="true" id="-83" lat="37.342963462" lon="-121.857627629"><tag k="addr:city" v="San Jose"/><tag k="addr:housenumber" v="404"/><tag k="addr:street" v="Bonita Avenue"/><tag k="addr:postcode" v="95116"/></node>
<node visible="true" id="-84" lat="37.343264682000004" lon="-121.85703440300001"><tag k="addr:city" v="San Jose"/><tag k="addr:housenumber" v="1451"/><tag k="addr:street" v="Sunny Court"/><tag k="addr:postcode" v="95116"/></node>
<node visible="true" id="-85" lat="37.343341685000006" lon="-121.856947184"><tag k="addr:city" v="San Jose"/><tag k="addr:housenumber" v="1455"/><tag k="addr:street" v="Sunny Court"/><tag k="addr:postcode" v="95116"/></node>
<node visible="true" id="-86" lat="37.337792145" lon="-121.85633209100001"><tag k="addr:city" v="San Jose"/><tag k="addr:housenumber" v="1174"/><tag k="addr:street" v="Herald Avenue"/><tag k="addr:postcode" v="95116"/></node>
<node visible="true" id="-87" lat="37.338046105000004" lon="-121.856465532"><tag k="addr:city" v="San Jose"/><tag k="addr:housenumber" v="1176"/><tag k="addr:street" v="Herald Avenue"/><tag k="addr:postcode" v="95116"/></node>
<node visible="true" id="-88" lat="37.337996744" lon="-121.856280557"><tag k="addr:city" v="San Jose"/><tag k="addr:housenumber" v="1178"/><tag k="addr:street" v="Herald Avenue"/><tag k="addr:postcode" v="95116"/></node>
<node visible="true" id="-89" lat="37.338564803000004" lon="-121.85706978500001"><tag k="addr:city" v="San Jose"/><tag k="addr:housenumber" v="769"/><tag k="addr:street" v="Jasper Street"/><tag k="addr:postcode" v="95116"/></node>
<node visible="true" id="-90" lat="37.346758458000004" lon="-121.85964421000001"><tag k="addr:city" v="San Jose"/><tag k="addr:housenumber" v="1465"/><tag k="addr:street" v="East San Antonio Street"/><tag k="addr:postcode" v="95116"/><tag k="amenity" v="place_of_worship"/></node>
<node visible="true" id="-91" lat="37.339129609000004" lon="-121.855050496"><tag k="addr:city" v="San Jose"/><tag k="addr:housenumber" v="1400"/><tag k="addr:street" v="Herald Avenue"/><tag k="addr:unit" v="2"/><tag k="addr:postcode" v="95116"/></node>
<node visible="true" id="-92" lat="37.339041810000005" lon="-121.85502747900001"><tag k="addr:city" v="San Jose"/><tag k="addr:housenumber" v="1400"/><tag k="addr:street" v="Herald Avenue"/><tag k="addr:postcode" v="95116"/></node>
<node visible="true" id="-93" lat="37.339105270000005" lon="-121.85509335500001"><tag k="addr:city" v="San Jose"/><tag k="addr:housenumber" v="1400"/><tag k="addr:street" v="Herald Avenue"/><tag k="addr:unit" v="1"/><tag k="addr:postcode" v="95116"/></node>
<node visible="true" id="-94" lat="37.33926189" lon="-121.854834209"><tag k="addr:city" v="San Jose"/><tag k="addr:housenumber" v="1414"/><tag k="addr:street" v="Herald Avenue"/><tag k="addr:postcode" v="95116"/></node>
<node visible="true" id="-95" lat="37.339283252" lon="-121.85489354100001"><tag k="addr:city" v="San Jose"/><tag k="addr:housenumber" v="1414"/><tag k="addr:street" v="Herald Avenue"/><tag k="addr:unit" v="1"/><tag k="addr:postcode" v="95116"/></node>
<node visible="true" id="-96" lat="37.339314786" lon="-121.85484708000001"><tag k="addr:city" v="San Jose"/><tag k="addr:housenumber" v="1414"/><tag k="addr:street" v="Herald Avenue"/><tag k="addr:unit" v="2"/><tag k="addr:postcode" v="95116"/></node>
<node visible="true" id="-97" lat="37.339285577000005" lon="-121.85480859100001"><tag k="addr:city" v="San Jose"/><tag k="addr:housenumber" v="1414"/><tag k="addr:street" v="Herald Avenue"/><tag k="addr:unit" v="A"/><tag k="addr:postcode" v="95116"/></node>
<node visible="true" id="-98" lat="37.339283933000004" lon="-121.854841379"><tag k="addr:city" v="San Jose"/><tag k="addr:housenumber" v="1414"/><tag k="addr:street" v="Herald Avenue"/><tag k="addr:unit" v="B"/><tag k="addr:postcode" v="95116"/></node>
<node visible="true" id="-99" lat="37.339363942000006" lon="-121.854688592"><tag k="addr:city" v="San Jose"/><tag k="addr:housenumber" v="1418"/><tag k="addr:street" v="Herald Avenue"/><tag k="addr:postcode" v="95116"/></node>
<node visible="true" id="-100" lat="37.339386875" lon="-121.854747818"><tag k="addr:city" v="San Jose"/><tag k="addr:housenumber" v="1418"/><tag k="addr:street" v="Herald Avenue"/><tag k="addr:unit" v="1"/><tag k="addr:postcode" v="95116"/></node>
<node visible="true" id="-101" lat="37.339418477" lon="-121.85469538400001"><tag k="addr:city" v="San Jose"/><tag k="addr:housenumber" v="1418"/><tag k="addr:street" v="Herald Avenue"/><tag k="addr:unit" v="2"/><tag k="addr:postcode" v="95116"/></node>
<node visible="true" id="-102" lat="37.339072965" lon="-121.85501207200001"><tag k="addr:city" v="San Jose"/><tag k="addr:housenumber" v="1400"/><tag k="addr:street" v="Herald Avenue"/><tag k="addr:unit" v="A;B"/><tag k="addr:postcode" v="95116"/></node>
<node visible="true" id="-103" lat="37.33938623" lon="-121.85467460800001"><tag k="addr:city" v="San Jose"/><tag k="addr:housenumber" v="1418"/><tag k="addr:street" v="Herald Avenue"/><tag k="addr:unit" v="A;B"/><tag k="addr:postcode" v="95116"/></node>
<node visible="true" id="-105" lat="37.338180006" lon="-121.856907758"/>
<node visible="true" id="-106" lat="37.338235829000006" lon="-121.85696395000001"/>
<node visible="true" id="-107" lat="37.33828741" lon="-121.85688356300001"/>
<node visible="true" id="-108" lat="37.338355668000005" lon="-121.85695226300001"/>
<node visible="true" id="-109" lat="37.338416453" lon="-121.85685752600001"/>
<node visible="true" id="-110" lat="37.338351832" lon="-121.85679250400001"/>
<node visible="true" id="-111" lat="37.338344167" lon="-121.85680447400001"/>
<node visible="true" id="-112" lat="37.338284679000004" lon="-121.856744602"/>
<node visible="true" id="-114" lat="37.345182433000005" lon="-121.862358489"/>
<node visible="true" id="-115" lat="37.344085798" lon="-121.861539847"/>
<node visible="true" id="-116" lat="37.343446661" lon="-121.86287220000001"/>
<node visible="true" id="-117" lat="37.343941703000006" lon="-121.86283020900001"/>
<node visible="true" id="-118" lat="37.34458011" lon="-121.862794445"/>
<node visible="true" id="-119" lat="37.344662561" lon="-121.862773794"/>
<node visible="true" id="-120" lat="37.344690077" lon="-121.86282865400001"/>
<node visible="true" id="-121" lat="37.344728485000005" lon="-121.862842083"/>
<node visible="true" id="-122" lat="37.344749113" lon="-121.862790132"/>
<node visible="true" id="-123" lat="37.344960060000005" lon="-121.86283302800001"/>
<node visible="true" id="-125" lat="37.342576927" lon="-121.85748985900001"/>
<node visible="true" id="-126" lat="37.341619161000004" lon="-121.856569187"/>
<node visible="true" id="-127" lat="37.341329091000006" lon="-121.85704008200001"/>
<node visible="true" id="-128" lat="37.342324292" lon="-121.85801995800001"/>
<node visible="true" id="-129" lat="37.342591398" lon="-121.8575866"/>
<node visible="true" id="-130" lat="37.342597429" lon="-121.85753150000001"/>
<node visible="true" id="-132" lat="37.341305901000005" lon="-121.856046261"/>
<node visible="true" id="-133" lat="37.341581684000005" lon="-121.85631145200001"/>
<node visible="true" id="-134" lat="37.342140281" lon="-121.85542684800001"/>
<node visible="true" id="-135" lat="37.341843129000004" lon="-121.855218378"/>
<node visible="true" id="-137" lat="37.340682913" lon="-121.85536676400001"/>
<node visible="true" id="-138" lat="37.340008943" lon="-121.856437365"/>
<node visible="true" id="-139" lat="37.340646160000006" lon="-121.857075945"/>
<node visible="true" id="-140" lat="37.341210267" lon="-121.85618333800001"/>
<node visible="true" id="-141" lat="37.341124300000004" lon="-121.85608439200001"/>
<node visible="true" id="-142" lat="37.341042656" lon="-121.855969927"/>
<node visible="true" id="-143" lat="37.340981804" lon="-121.85586184200001"/>
<node visible="true" id="-144" lat="37.340886601" lon="-121.85564854600001"/>
<node visible="true" id="-145" lat="37.340842565" lon="-121.85557069900001"/>
<node visible="true" id="-146" lat="37.340793728" lon="-121.85549748300001"/>
<way visible="true" id="-1"><nd ref="-2"/><nd ref="-3"/><nd ref="-4"/><nd ref="-5"/><nd ref="-6"/><nd ref="-7"/><nd ref="-8"/><nd ref="-9"/><nd ref="-10"/><nd ref="-11"/><nd ref="-2"/><tag k="building" v="yes"/><tag k="height" v="6.43"/><tag k="ele" v="37.88"/></way>
<way visible="true" id="-12"><nd ref="-13"/><nd ref="-14"/><nd ref="-15"/><nd ref="-16"/><nd ref="-13"/><tag k="building" v="yes"/><tag k="height" v="2.78"/><tag k="ele" v="33.24"/></way>
<way visible="true" id="-17"><nd ref="-18"/><nd ref="-19"/><nd ref="-20"/><nd ref="-21"/><nd ref="-18"/><tag k="building" v="yes"/><tag k="height" v="2.53"/><tag k="ele" v="33.00"/></way>
<way visible="true" id="-22"><nd ref="-23"/><nd ref="-24"/><nd ref="-25"/><nd ref="-26"/><nd ref="-23"/><tag k="building" v="yes"/><tag k="height" v="2.72"/><tag k="ele" v="33.18"/></way>
<way visible="true" id="-27"><nd ref="-28"/><nd ref="-29"/><nd ref="-30"/><nd ref="-31"/><nd ref="-32"/><nd ref="-33"/><nd ref="-34"/><nd ref="-35"/><nd ref="-36"/><nd ref="-37"/><nd ref="-38"/><nd ref="-39"/><nd ref="-28"/><tag k="building" v="yes"/><tag k="height" v="6.04"/><tag k="ele" v="38.18"/></way>
<way visible="true" id="-40"><nd ref="-41"/><nd ref="-42"/><nd ref="-43"/><nd ref="-44"/><nd ref="-45"/><nd ref="-46"/><nd ref="-47"/><nd ref="-48"/><nd ref="-49"/><nd ref="-50"/><nd ref="-51"/><nd ref="-52"/><nd ref="-41"/><tag k="building" v="yes"/><tag k="height" v="5.83"/><tag k="ele" v="37.88"/></way>
<way visible="true" id="-53"><nd ref="-54"/><nd ref="-55"/><nd ref="-56"/><nd ref="-57"/><nd ref="-58"/><nd ref="-59"/><nd ref="-60"/><nd ref="-61"/><nd ref="-62"/><nd ref="-63"/><nd ref="-64"/><nd ref="-65"/><nd ref="-54"/><tag k="building" v="yes"/><tag k="height" v="5.83"/><tag k="ele" v="37.88"/></way>
<way visible="true" id="-66"><nd ref="-67"/><nd ref="-68"/><nd ref="-69"/><nd ref="-70"/><nd ref="-71"/><nd ref="-72"/><nd ref="-73"/><nd ref="-74"/><nd ref="-75"/><nd ref="-76"/><nd ref="-67"/><tag k="building" v="yes"/><tag k="height" v="3.44"/><tag k="ele" v="34.79"/></way>
<way visible="true" id="-104"><nd ref="-105"/><nd ref="-106"/><nd ref="-107"/><nd ref="-108"/><nd ref="-109"/><nd ref="-110"/><nd ref="-111"/><nd ref="-112"/><nd ref="-105"/><tag k="building" v="yes"/><tag k="height" v="3.92"/><tag k="ele" v="34.73"/><tag k="addr:city" v="San Jose"/><tag k="addr:housenumber" v="795"/><tag k="addr:street" v="Jasper Street"/><tag k="addr:postcode" v="95116"/></way>
<way visible="true" id="-113"><nd ref="-114"/><nd ref="-115"/><nd ref="-116"/><nd ref="-117"/><nd ref="-118"/><nd ref="-119"/><nd ref="-120"/><nd ref="-121"/><nd ref="-122"/><nd ref="-123"/><nd ref="-114"/><tag k="landuse" v="residential"/><tag k="name" v="Mobile Home Manor"/></way>
<way visible="true" id="-124"><nd ref="-125"/><nd ref="-126"/><nd ref="-127"/><nd ref="-128"/><nd ref="-129"/><nd ref="-130"/><nd ref="-125"/><tag k="landuse" v="residential"/><tag k="name" v="San Jose Estates Mobile Home P"/></way>
<way visible="true" id="-131"><nd ref="-132"/><nd ref="-133"/><nd ref="-134"/><nd ref="-135"/><nd ref="-132"/><tag k="landuse" v="residential"/><tag k="name" v="San Jose Estates Mobile Home P"/></way>
<way visible="true" id="-136"><nd ref="-137"/><nd ref="-138"/><nd ref="-139"/><nd ref="-140"/><nd ref="-141"/><nd ref="-142"/><nd ref="-143"/><nd ref="-144"/><nd ref="-145"/><nd ref="-146"/><nd ref="-137"/><tag k="landuse" v="residential"/><tag k="name" v="Hilton Mobile Home Park"/></way>
</osm>