<?xml version="1.0"?>
<osm version="0.6" generator="uvmogr2osm" upload="false">
<node visible="true" id="-1" lat="37.402763979" lon="-121.78211200700001"><tag k="addr:city" v="San Jose"/><tag k="addr:housenumber" v="21181"/><tag k="addr:street" v="Alum Rock Falls Road"/></node>
<node visible="true" id="-2" lat="37.395347888" lon="-121.771671681"><tag k="addr:city" v="San Jose"/><tag k="addr:housenumber" v="22331"/><tag k="addr:street" v="Alum Rock Falls Road"/></node>
<node visible="true" id="-3" lat="37.427366791000004" lon="-121.79001778000001"><tag k="addr:city" v="San Jose"/><tag k="addr:housenumber" v="6251"/><tag k="addr:street" v="Felter Road"/><tag k="addr:postcode" v="95132"/></node>
<node visible="true" id="-4" lat="37.398639898" lon="-121.778064846"><tag k="addr:city" v="San Jose"/><tag k="addr:housenumber" v="21731"/><tag k="addr:street" v="Alum Rock Falls Road"/></node>
<node visible="true" id="-5" lat="37.398567886" lon="-121.77798470900001"><tag k="addr:city" v="San Jose"/><tag k="addr:housenumber" v="21739"/><tag k="addr:street" v="Alum Rock Falls Road"/></node>
<node visible="true" id="-6" lat="37.415844396000004" lon="-121.766798437"><tag k="addr:city" v="San Jose"/><tag k="addr:housenumber" v="5550"/><tag k="addr:street" v="Felter Road"/></node>
<node visible="true" id="-7" lat="37.428605509" lon="-121.79332980100001"><tag k="addr:city" v="San Jose"/><tag k="addr:housenumber" v="5950"/><tag k="addr:street" v="Felter Road"/><tag k="addr:postcode" v="95132"/></node>
<node visible="true" id="-8" lat="37.40203324" lon="-121.781781312"><tag k="addr:city" v="San Jose"/><tag k="addr:housenumber" v="21260"/><tag k="addr:street" v="Alum Rock Falls Road"/></node>
<node visible="true" id="-9" lat="37.402333482" lon="-121.781952352"><tag k="addr:city" v="San Jose"/><tag k="addr:housenumber" v="21231"/><tag k="addr:street" v="Alum Rock Falls Road"/></node>
<node visible="true" id="-10" lat="37.398626375" lon="-121.77804360500001"><tag k="addr:city" v="San Jose"/><tag k="addr:housenumber" v="21733"/><tag k="addr:street" v="Alum Rock Falls Road"/></node>
</osm>