<?xml version="1.0"?>
<osm version="0.6" generator="uvmogr2osm" upload="false">
<node visible="true" id="-2" lat="37.330038369" lon="-121.89915749900001"/>
<node visible="true" id="-3" lat="37.330065858000005" lon="-121.89916723200001"/>
<node visible="true" id="-4" lat="37.330078008" lon="-121.89911359300001"/>
<node visible="true" id="-5" lat="37.330050518" lon="-121.89910386000001"/>
<node visible="true" id="-7" lat="37.331949214000005" lon="-121.89777015400001"/>
<node visible="true" id="-8" lat="37.331965931" lon="-121.897782609"/>
<node visible="true" id="-9" lat="37.331965903000004" lon="-121.89780558700001"/>
<node visible="true" id="-10" lat="37.331976337" lon="-121.897829035"/>
<node visible="true" id="-11" lat="37.331993834" lon="-121.897842745"/>
<node visible="true" id="-12" lat="37.332016389" lon="-121.897842409"/>
<node visible="true" id="-13" lat="37.332034477" lon="-121.89782974600001"/>
<node visible="true" id="-14" lat="37.332044408" lon="-121.897805438"/>
<node visible="true" id="-15" lat="37.332044111" lon="-121.897777399"/>
<node visible="true" id="-16" lat="37.332035012000006" lon="-121.89775727800001"/>
<node visible="true" id="-17" lat="37.332013736" lon="-121.89774250100001"/>
<node visible="true" id="-18" lat="37.331999375" lon="-121.89774206000001"/>
<node visible="true" id="-19" lat="37.331985117" lon="-121.89774691900001"/>
<node visible="true" id="-20" lat="37.331978629000005" lon="-121.897754262"/>
<node visible="true" id="-21" lat="37.331962484" lon="-121.89774223100001"/>
<node visible="true" id="-22" lat="37.331230312" lon="-121.89895602400001"><tag k="addr:city" v="San Jose"/><tag k="addr:housenumber" v="35"/><tag k="addr:street" v="Delmas Avenue"/><tag k="addr:postcode" v="95110"/></node>
<node visible="true" id="-23" lat="37.331644318" lon="-121.89908403000001"><tag k="addr:city" v="San Jose"/><tag k="addr:housenumber" v="402"/><tag k="addr:street" v="West Santa Clara Street"/><tag k="addr:postcode" v="95110"/></node>
<node visible="true" id="-24" lat="37.330463453" lon="-121.898418132"><tag k="addr:city" v="San Jose"/><tag k="addr:housenumber" v="415"/><tag k="addr:street" v="West San Fernando Street"/><tag k="addr:postcode" v="95110"/></node>
<node visible="true" id="-25" lat="37.33129649" lon="-121.897906312"><tag k="addr:city" v="San Jose"/><tag k="addr:housenumber" v="384"/><tag k="addr:street" v="West Santa Clara Street"/><tag k="addr:postcode" v="95110"/></node>
<node visible="true" id="-26" lat="37.330931344" lon="-121.89865756500001"><tag k="addr:city" v="San Jose"/><tag k="addr:housenumber" v="55"/><tag k="addr:street" v="Delmas Avenue"/><tag k="addr:postcode" v="95110"/></node>
<node visible="true" id="-27" lat="37.331418445000004" lon="-121.89904306400001"><tag k="addr:city" v="San Jose"/><tag k="addr:housenumber" v="15"/><tag k="addr:street" v="Delmas Avenue"/><tag k="addr:postcode" v="95110"/></node>
<node visible="true" id="-28" lat="37.330667126" lon="-121.89848307400001"><tag k="addr:city" v="San Jose"/><tag k="addr:housenumber" v="73"/><tag k="addr:street" v="Delmas Avenue"/><tag k="addr:postcode" v="95110"/></node>
<node visible="true" id="-29" lat="37.332661298000005" lon="-121.897414029"><tag k="addr:city" v="San Jose"/><tag k="addr:housenumber" v="360"/><tag k="addr:street" v="West Santa Clara Street"/><tag k="addr:postcode" v="95110"/></node>
<node visible="true" id="-30" lat="37.330399597" lon="-121.898617118"><tag k="addr:city" v="San Jose"/><tag k="addr:housenumber" v="419"/><tag k="addr:street" v="West San Fernando Street"/><tag k="addr:postcode" v="95110"/></node>
<node visible="true" id="-31" lat="37.331055058000004" lon="-121.89875433600001"><tag k="addr:city" v="San Jose"/><tag k="addr:housenumber" v="45"/><tag k="addr:street" v="Delmas Avenue"/><tag k="addr:postcode" v="95110"/></node>
<node visible="true" id="-32" lat="37.330771869" lon="-121.89861818700001"><tag k="addr:city" v="San Jose"/><tag k="addr:housenumber" v="63"/><tag k="addr:street" v="Delmas Avenue"/><tag k="addr:postcode" v="95110"/></node>
<node visible="true" id="-34" lat="37.331585804" lon="-121.89749003000001"/>
<node visible="true" id="-35" lat="37.331856599000005" lon="-121.89768903100001"/>
<node visible="true" id="-36" lat="37.331880697" lon="-121.89763760900001"/>
<node visible="true" id="-37" lat="37.331909614000004" lon="-121.89765885800001"/>
<node visible="true" id="-38" lat="37.331913166" lon="-121.89765121900001"/>
<node visible="true" id="-39" lat="37.332064587000005" lon="-121.897762509"/>
<node visible="true" id="-40" lat="37.332063263" lon="-121.897765304"/>
<node visible="true" id="-41" lat="37.332150424000005" lon="-121.897829333"/>
<node visible="true" id="-42" lat="37.332114686000004" lon="-121.89790558000001"/>
<node visible="true" id="-43" lat="37.332212219000006" lon="-121.897977268"/>
<node visible="true" id="-44" lat="37.332215799000004" lon="-121.897969629"/>
<node visible="true" id="-45" lat="37.332311318" lon="-121.898039835"/>
<node visible="true" id="-46" lat="37.332306978000005" lon="-121.898049075"/>
<node visible="true" id="-47" lat="37.332406637000005" lon="-121.89812228100001"/>
<node visible="true" id="-48" lat="37.332506159000005" lon="-121.89790994500001"/>
<node visible="true" id="-49" lat="37.332406908" lon="-121.897837021"/>
<node visible="true" id="-50" lat="37.332402907" lon="-121.89784551100001"/>
<node visible="true" id="-51" lat="37.332306842" lon="-121.89777491800001"/>
<node visible="true" id="-52" lat="37.332312564000006" lon="-121.89776271000001"/>
<node visible="true" id="-53" lat="37.332214757" lon="-121.897690846"/>
<node visible="true" id="-54" lat="37.332165094000004" lon="-121.89779679200001"/>
<node visible="true" id="-55" lat="37.332160983" lon="-121.897793792"/>
<node visible="true" id="-56" lat="37.332199822" lon="-121.89771093"/>
<node visible="true" id="-57" lat="37.332011669" lon="-121.89757263800001"/>
<node visible="true" id="-58" lat="37.331995576000004" lon="-121.897606976"/>
<node visible="true" id="-59" lat="37.332034404000005" lon="-121.897635531"/>
<node visible="true" id="-60" lat="37.332013716000006" lon="-121.89767972400001"/>
<node visible="true" id="-61" lat="37.331928706" lon="-121.897617249"/>
<node visible="true" id="-62" lat="37.331934146" lon="-121.89760569"/>
<node visible="true" id="-63" lat="37.3319052" lon="-121.89758444"/>
<node visible="true" id="-64" lat="37.33192665" lon="-121.89753867900001"/>
<node visible="true" id="-65" lat="37.331656155000005" lon="-121.89733989000001"/>
<node visible="true" id="-67" lat="37.329872862" lon="-121.89957961900001"/>
<node visible="true" id="-68" lat="37.329876585" lon="-121.89965429600001"/>
<node visible="true" id="-69" lat="37.329958625" lon="-121.89964788700001"/>
<node visible="true" id="-70" lat="37.329954902000004" lon="-121.89957324400001"/>
<way visible="true" id="-1"><nd ref="-2"/><nd ref="-3"/><nd ref="-4"/><nd ref="-5"/><nd ref="-2"/><tag k="building" v="yes"/><tag k="height" v="3.06"/><tag k="ele" v="31.29"/></way>
<way visible="true" id="-6"><nd ref="-7"/><nd ref="-8"/><nd ref="-9"/><nd ref="-10"/><nd ref="-11"/><nd ref="-12"/><nd ref="-13"/><nd ref="-14"/><nd ref="-15"/><nd ref="-16"/><nd ref="-17"/><nd ref="-18"/><nd ref="-19"/><nd ref="-20"/><nd ref="-21"/><nd ref="-7"/><tag k="building" v="yes"/><tag k="height" v="3.12"/><tag k="ele" v="29.71"/></way>
<way visible="true" id="-33"><nd ref="-34"/><nd ref="-35"/><nd ref="-36"/><nd ref="-37"/><nd ref="-38"/><nd ref="-39"/><nd ref="-40"/><nd ref="-41"/><nd ref="-42"/><nd ref="-43"/><nd ref="-44"/><nd ref="-45"/><nd ref="-46"/><nd ref="-47"/><nd ref="-48"/><nd ref="-49"/><nd ref="-50"/><nd ref="-51"/><nd ref="-52"/><nd ref="-53"/><nd ref="-54"/><nd ref="-55"/><nd ref="-56"/><nd ref="-57"/><nd ref="-58"/><nd ref="-59"/><nd ref="-60"/><nd ref="-61"/><nd ref="-62"/><nd ref="-63"/><nd ref="-64"/><nd ref="-65"/><nd ref="-34"/><tag k="building" v="yes"/><tag k="height" v="7.14"/><tag k="ele" v="38.31"/><tag k="addr:city" v="San Jose"/><tag k="addr:housenumber" v="374"/><tag k="addr:street" v="West Santa Clara Street"/><tag k="addr:postcode" v="95110"/></way>
<way visible="true" id="-66"><nd ref="-67"/><nd ref="-68"/><nd ref="-69"/><nd ref="-70"/><nd ref="-67"/><tag k="building" v="yes"/><tag k="height" v="3.91"/><tag k="ele" v="30.90"/><tag k="addr:city" v="San Jose"/><tag k="addr:housenumber" v="74"/><tag k="addr:street" v="South Autumn Street"/><tag k="addr:postcode" v="95110"/></way>
</osm>