<?xml version="1.0"?>
<osm version="0.6" generator="uvmogr2osm" upload="false">
<node visible="true" id="-2" lat="37.337960335000005" lon="-121.86265461500001"/>
<node visible="true" id="-3" lat="37.338090001000005" lon="-121.86268371000001"/>
<node visible="true" id="-4" lat="37.338107552000004" lon="-121.862560908"/>
<node visible="true" id="-5" lat="37.337977887" lon="-121.86253181500001"/>
<node visible="true" id="-7" lat="37.337935451" lon="-121.86282936500001"/>
<node visible="true" id="-8" lat="37.338063848000004" lon="-121.86285891700001"/>
<node visible="true" id="-9" lat="37.338081894000005" lon="-121.86273602300001"/>
<node visible="true" id="-10" lat="37.33795347" lon="-121.86270647"/>
<node visible="true" id="-12" lat="37.337198174" lon="-121.862155153"/>
<node visible="true" id="-13" lat="37.337279072" lon="-121.86223970600001"/>
<node visible="true" id="-14" lat="37.337377021" lon="-121.86219732100001"/>
<node visible="true" id="-15" lat="37.337398459" lon="-121.86206616400001"/>
<node visible="true" id="-16" lat="37.337317941" lon="-121.86197955600001"/>
<node visible="true" id="-17" lat="37.337216837" lon="-121.86202411900001"/>
<node visible="true" id="-19" lat="37.338263868000006" lon="-121.862407614"/>
<node visible="true" id="-20" lat="37.338393904" lon="-121.86243795300001"/>
<node visible="true" id="-21" lat="37.338402963" lon="-121.86237698800001"/>
<node visible="true" id="-22" lat="37.338595483" lon="-121.862421917"/>
<node visible="true" id="-23" lat="37.338620602" lon="-121.86225291500001"/>
<node visible="true" id="-24" lat="37.338428439000005" lon="-121.862208061"/>
<node visible="true" id="-25" lat="37.338419349000006" lon="-121.862269233"/>
<node visible="true" id="-26" lat="37.338288957" lon="-121.86223881900001"/>
<node visible="true" id="-28" lat="37.337344976000004" lon="-121.86193883600001"/>
<node visible="true" id="-29" lat="37.337427998" lon="-121.862024907"/>
<node visible="true" id="-30" lat="37.337525661" lon="-121.861983445"/>
<node visible="true" id="-31" lat="37.337544730000005" lon="-121.861852932"/>
<node visible="true" id="-32" lat="37.337465185" lon="-121.861767682"/>
<node visible="true" id="-33" lat="37.337364937000004" lon="-121.86181181500001"/>
<node visible="true" id="-35" lat="37.340303396" lon="-121.86200803700001"/>
<node visible="true" id="-36" lat="37.340492916" lon="-121.862197675"/>
<node visible="true" id="-37" lat="37.340441801000004" lon="-121.862277829"/>
<node visible="true" id="-38" lat="37.340602539" lon="-121.86243866500001"/>
<node visible="true" id="-39" lat="37.340749253000006" lon="-121.86220864500001"/>
<node visible="true" id="-40" lat="37.340452021000004" lon="-121.86191125500001"/>
<node visible="true" id="-41" lat="37.340486826" lon="-121.86185667500001"/>
<node visible="true" id="-42" lat="37.340433771" lon="-121.861803624"/>
<node visible="true" id="-44" lat="37.332500450000005" lon="-121.864647636"/>
<node visible="true" id="-45" lat="37.332537357" lon="-121.864686148"/>
<node visible="true" id="-46" lat="37.332527739" lon="-121.86470062500001"/>
<node visible="true" id="-47" lat="37.332548038000006" lon="-121.86472180800001"/>
<node visible="true" id="-48" lat="37.332558243" lon="-121.86470644600001"/>
<node visible="true" id="-49" lat="37.332595774000005" lon="-121.864745623"/>
<node visible="true" id="-50" lat="37.332664185000006" lon="-121.86464278300001"/>
<node visible="true" id="-51" lat="37.332569447000004" lon="-121.864543912"/>
<node visible="true" id="-53" lat="37.337619143000005" lon="-121.861642208"/>
<node visible="true" id="-54" lat="37.337711194" lon="-121.861740862"/>
<node visible="true" id="-55" lat="37.337826344" lon="-121.86169080900001"/>
<node visible="true" id="-56" lat="37.33784929" lon="-121.86154093100001"/>
<node visible="true" id="-57" lat="37.337756940000006" lon="-121.86144192900001"/>
<node visible="true" id="-58" lat="37.337642568" lon="-121.86149127300001"/>
<node visible="true" id="-60" lat="37.337639026000005" lon="-121.86225947800001"/>
<node visible="true" id="-61" lat="37.337720599" lon="-121.86234507500001"/>
<node visible="true" id="-62" lat="37.337821751" lon="-121.862301098"/>
<node visible="true" id="-63" lat="37.337840189000005" lon="-121.86217047000001"/>
<node visible="true" id="-64" lat="37.337759348000006" lon="-121.86208571200001"/>
<node visible="true" id="-65" lat="37.337660495" lon="-121.862130351"/>
<node visible="true" id="-67" lat="37.33811292" lon="-121.86273480000001"/>
<node visible="true" id="-68" lat="37.338252753" lon="-121.862768242"/>
<node visible="true" id="-69" lat="37.338289474" lon="-121.86252755500001"/>
<node visible="true" id="-70" lat="37.338149669" lon="-121.86249408"/>
<node visible="true" id="-72" lat="37.337555511000005" lon="-121.862059739"/>
<node visible="true" id="-73" lat="37.337595507" lon="-121.86210195500001"/>
<node visible="true" id="-74" lat="37.337797104" lon="-121.86201347100001"/>
<node visible="true" id="-75" lat="37.33780766" lon="-121.86194888600001"/>
<node visible="true" id="-76" lat="37.337644538" lon="-121.86177335900001"/>
<node visible="true" id="-77" lat="37.337596334000004" lon="-121.86179446300001"/>
<node visible="true" id="-79" lat="37.337948319" lon="-121.86346106100001"/>
<node visible="true" id="-80" lat="37.337956142" lon="-121.863525292"/>
<node visible="true" id="-81" lat="37.339473963" lon="-121.86322414700001"/>
<node visible="true" id="-82" lat="37.339446494" lon="-121.86300698400001"/>
<node visible="true" id="-83" lat="37.339456267" lon="-121.86300506600001"/>
<node visible="true" id="-84" lat="37.339449753000004" lon="-121.86295344700001"/>
<node visible="true" id="-85" lat="37.339244729" lon="-121.86299412000001"/>
<node visible="true" id="-86" lat="37.339227649" lon="-121.86285905700001"/>
<node visible="true" id="-87" lat="37.339163116" lon="-121.862871881"/>
<node visible="true" id="-88" lat="37.339149633000005" lon="-121.86276526700001"/>
<node visible="true" id="-89" lat="37.338756626000006" lon="-121.86284324300001"/>
<node visible="true" id="-90" lat="37.338724930000005" lon="-121.86259270500001"/>
<node visible="true" id="-91" lat="37.338910553000005" lon="-121.86232122400001"/>
<node visible="true" id="-92" lat="37.338805153" lon="-121.86221548"/>
<node visible="true" id="-94" lat="37.337493839000004" lon="-121.86247389900001"/>
<node visible="true" id="-95" lat="37.337575559" lon="-121.86255857"/>
<node visible="true" id="-96" lat="37.337675186000006" lon="-121.86251597500001"/>
<node visible="true" id="-97" lat="37.33769309" lon="-121.86238633600001"/>
<node visible="true" id="-98" lat="37.337612186" lon="-121.862300028"/>
<node visible="true" id="-99" lat="37.337513461" lon="-121.86234305200001"/>
<node visible="true" id="-101" lat="37.336690159" lon="-121.86213629500001"/>
<node visible="true" id="-102" lat="37.336793787000005" lon="-121.86224798900001"/>
<node visible="true" id="-103" lat="37.336964251000005" lon="-121.86199987100001"/>
<node visible="true" id="-104" lat="37.336860650000006" lon="-121.86188821200001"/>
<node visible="true" id="-106" lat="37.337741492" lon="-121.86245454"/>
<node visible="true" id="-107" lat="37.337760713" lon="-121.862530676"/>
<node visible="true" id="-108" lat="37.337825556000006" lon="-121.86254792300001"/>
<node visible="true" id="-109" lat="37.337868355000005" lon="-121.86248606000001"/>
<node visible="true" id="-110" lat="37.337847107" lon="-121.862409509"/>
<node visible="true" id="-111" lat="37.337780618000004" lon="-121.86239677200001"/>
<node visible="true" id="-113" lat="37.338026661" lon="-121.862213568"/>
<node visible="true" id="-114" lat="37.338154620000005" lon="-121.86224524400001"/>
<node visible="true" id="-115" lat="37.338174071000005" lon="-121.86212206600001"/>
<node visible="true" id="-116" lat="37.33804611" lon="-121.86209039"/>
<node visible="true" id="-118" lat="37.338008352" lon="-121.86189341000001"/>
<node visible="true" id="-119" lat="37.338133889000005" lon="-121.86192328700001"/>
<node visible="true" id="-120" lat="37.338158488000005" lon="-121.86176122600001"/>
<node visible="true" id="-121" lat="37.338130329" lon="-121.86175452100001"/>
<node visible="true" id="-122" lat="37.338145825000005" lon="-121.86165253"/>
<node visible="true" id="-123" lat="37.338029793000004" lon="-121.86162488900001"/>
<node visible="true" id="-124" lat="37.338014297" lon="-121.86172688"/>
<node visible="true" id="-125" lat="37.338032951" lon="-121.86173131500001"/>
<node visible="true" id="-127" lat="37.337992556" lon="-121.861983459"/>
<node visible="true" id="-128" lat="37.338115785" lon="-121.862010921"/>
<node visible="true" id="-129" lat="37.338127424" lon="-121.861928879"/>
<node visible="true" id="-130" lat="37.338004221000006" lon="-121.861901419"/>
<node visible="true" id="-132" lat="37.337271616" lon="-121.86242041300001"/>
<node visible="true" id="-133" lat="37.337355006" lon="-121.86250566400001"/>
<node visible="true" id="-134" lat="37.337452209000006" lon="-121.862463507"/>
<node visible="true" id="-135" lat="37.337471857000004" lon="-121.86233269700001"/>
<node visible="true" id="-136" lat="37.337391558" lon="-121.862246263"/>
<node visible="true" id="-137" lat="37.33729332" lon="-121.862290086"/>
<node visible="true" id="-139" lat="37.340817397" lon="-121.86259408900001"/>
<node visible="true" id="-140" lat="37.340928711000004" lon="-121.86271332800001"/>
<node visible="true" id="-141" lat="37.340979623" lon="-121.862641186"/>
<node visible="true" id="-142" lat="37.340978480000004" lon="-121.86263793100001"/>
<node visible="true" id="-143" lat="37.341172274" lon="-121.862351145"/>
<node visible="true" id="-144" lat="37.341173250000004" lon="-121.86235226400001"/>
<node visible="true" id="-145" lat="37.341222039" lon="-121.862283144"/>
<node visible="true" id="-146" lat="37.341163246" lon="-121.862218049"/>
<node visible="true" id="-147" lat="37.34115861" lon="-121.86222460500001"/>
<node visible="true" id="-148" lat="37.341107573" lon="-121.862168115"/>
<node visible="true" id="-149" lat="37.341060989" lon="-121.86223414300001"/>
<node visible="true" id="-150" lat="37.341067932" lon="-121.86224180500001"/>
<node visible="true" id="-151" lat="37.340871853" lon="-121.86251963800001"/>
<node visible="true" id="-152" lat="37.340870334" lon="-121.862517959"/>
<node visible="true" id="-154" lat="37.337982085" lon="-121.862515654"/>
<node visible="true" id="-155" lat="37.338109855" lon="-121.86254485100001"/>
<node visible="true" id="-156" lat="37.338121764" lon="-121.86246305600001"/>
<node visible="true" id="-157" lat="37.337994022000004" lon="-121.86243386000001"/>
<node visible="true" id="-159" lat="37.338011828" lon="-121.862412031"/>
<node visible="true" id="-160" lat="37.338202712000005" lon="-121.862455967"/>
<node visible="true" id="-161" lat="37.338227563000004" lon="-121.86228648000001"/>
<node visible="true" id="-162" lat="37.338036679000005" lon="-121.86224254400001"/>
<node visible="true" id="-163" lat="37.333225582000004" lon="-121.864463056"><tag k="addr:city" v="San Jose"/><tag k="addr:housenumber" v="749"/><tag k="addr:street" v="Forestdale Avenue"/><tag k="addr:unit" v="5-8"/><tag k="addr:postcode" v="95116"/></node>
<node visible="true" id="-164" lat="37.333197069" lon="-121.86442524700001"><tag k="addr:city" v="San Jose"/><tag k="addr:housenumber" v="749"/><tag k="addr:street" v="Forestdale Avenue"/><tag k="addr:unit" v="9;10"/><tag k="addr:postcode" v="95116"/></node>
<node visible="true" id="-165" lat="37.337959726" lon="-121.86109697500001"><tag k="addr:city" v="San Jose"/><tag k="addr:housenumber" v="1051"/><tag k="addr:street" v="Appian Lane"/><tag k="addr:unit" v="A"/><tag k="addr:postcode" v="95116"/></node>
<node visible="true" id="-166" lat="37.341084937000005" lon="-121.86300332600001"><tag k="addr:city" v="San Jose"/><tag k="addr:housenumber" v="1105"/><tag k="addr:street" v="East William Street"/><tag k="addr:postcode" v="95116"/></node>
<node visible="true" id="-167" lat="37.33281005" lon="-121.865095877"><tag k="addr:city" v="San Jose"/><tag k="addr:housenumber" v="817"/><tag k="addr:street" v="South 22nd Street"/><tag k="addr:postcode" v="95116"/></node>
<node visible="true" id="-168" lat="37.332546116" lon="-121.86515626200001"><tag k="addr:city" v="San Jose"/><tag k="addr:housenumber" v="825"/><tag k="addr:street" v="South 22nd Street"/><tag k="addr:postcode" v="95116"/></node>
<node visible="true" id="-169" lat="37.332682336000005" lon="-121.86513339000001"><tag k="addr:city" v="San Jose"/><tag k="addr:housenumber" v="821"/><tag k="addr:street" v="South 22nd Street"/><tag k="addr:postcode" v="95116"/></node>
<node visible="true" id="-170" lat="37.332436177000005" lon="-121.86515787500001"><tag k="addr:city" v="San Jose"/><tag k="addr:housenumber" v="829"/><tag k="addr:street" v="South 22nd Street"/><tag k="addr:postcode" v="95116"/></node>
<node visible="true" id="-171" lat="37.334114792" lon="-121.864833524"><tag k="addr:city" v="San Jose"/><tag k="addr:housenumber" v="777"/><tag k="addr:street" v="South 22nd Street"/><tag k="addr:postcode" v="95116"/></node>
<node visible="true" id="-172" lat="37.33258807" lon="-121.86463588400001"><tag k="addr:city" v="San Jose"/><tag k="addr:housenumber" v="777"/><tag k="addr:street" v="Forestdale Avenue"/><tag k="addr:unit" v="1;2"/><tag k="addr:postcode" v="95116"/></node>
<node visible="true" id="-173" lat="37.333989886000005" lon="-121.864878336"><tag k="addr:city" v="San Jose"/><tag k="addr:housenumber" v="781"/><tag k="addr:street" v="South 22nd Street"/><tag k="addr:postcode" v="95116"/></node>
<node visible="true" id="-174" lat="37.333850774000005" lon="-121.86490115500001"><tag k="addr:city" v="San Jose"/><tag k="addr:housenumber" v="785"/><tag k="addr:street" v="South 22nd Street"/><tag k="addr:postcode" v="95116"/></node>
<node visible="true" id="-175" lat="37.333726079" lon="-121.86492785700001"><tag k="addr:city" v="San Jose"/><tag k="addr:housenumber" v="789"/><tag k="addr:street" v="South 22nd Street"/><tag k="addr:postcode" v="95116"/></node>
<node visible="true" id="-176" lat="37.333578418" lon="-121.86493965100001"><tag k="addr:city" v="San Jose"/><tag k="addr:housenumber" v="793"/><tag k="addr:street" v="South 22nd Street"/><tag k="addr:postcode" v="95116"/></node>
<node visible="true" id="-177" lat="37.335168222" lon="-121.864541215"><tag k="addr:city" v="San Jose"/><tag k="addr:housenumber" v="741"/><tag k="addr:street" v="South 22nd Street"/><tag k="addr:postcode" v="95116"/></node>
<node visible="true" id="-178" lat="37.334904542000004" lon="-121.86457987300001"><tag k="addr:city" v="San Jose"/><tag k="addr:housenumber" v="753"/><tag k="addr:street" v="South 22nd Street"/><tag k="addr:postcode" v="95116"/></node>
<node visible="true" id="-179" lat="37.334686671" lon="-121.864659215"><tag k="addr:city" v="San Jose"/><tag k="addr:housenumber" v="761"/><tag k="addr:street" v="South 22nd Street"/><tag k="addr:postcode" v="95116"/></node>
<node visible="true" id="-180" lat="37.3351671" lon="-121.86438904500001"><tag k="addr:city" v="San Jose"/><tag k="addr:housenumber" v="745"/><tag k="addr:street" v="South 22nd Street"/><tag k="addr:postcode" v="95116"/></node>
<node visible="true" id="-181" lat="37.334506016" lon="-121.86477184"><tag k="addr:city" v="San Jose"/><tag k="addr:housenumber" v="765"/><tag k="addr:street" v="South 22nd Street"/><tag k="addr:postcode" v="95116"/></node>
<node visible="true" id="-182" lat="37.336795005" lon="-121.863947811"><tag k="addr:city" v="San Jose"/><tag k="addr:housenumber" v="621"/><tag k="addr:street" v="South 22nd Street"/><tag k="addr:postcode" v="95116"/></node>
<node visible="true" id="-183" lat="37.336287722" lon="-121.864039988"><tag k="addr:city" v="San Jose"/><tag k="addr:housenumber" v="669"/><tag k="addr:street" v="South 22nd Street"/><tag k="addr:postcode" v="95116"/></node>
<node visible="true" id="-184" lat="37.336107598000005" lon="-121.864355496"><tag k="addr:city" v="San Jose"/><tag k="addr:housenumber" v="677"/><tag k="addr:street" v="South 22nd Street"/><tag k="addr:postcode" v="95116"/></node>
<node visible="true" id="-185" lat="37.337088794" lon="-121.864304578"><tag k="addr:city" v="San Jose"/><tag k="addr:housenumber" v="593"/><tag k="addr:street" v="South 22nd Street"/><tag k="addr:postcode" v="95116"/></node>
<node visible="true" id="-186" lat="37.337017859" lon="-121.86393738800001"><tag k="addr:city" v="San Jose"/><tag k="addr:housenumber" v="605"/><tag k="addr:street" v="South 22nd Street"/><tag k="addr:postcode" v="95116"/></node>
<node visible="true" id="-187" lat="37.337558651" lon="-121.864197227"><tag k="addr:city" v="San Jose"/><tag k="addr:housenumber" v="561"/><tag k="addr:street" v="South 22nd Street"/><tag k="addr:postcode" v="95116"/></node>
<node visible="true" id="-188" lat="37.337312155" lon="-121.86425069200001"><tag k="addr:city" v="San Jose"/><tag k="addr:housenumber" v="577"/><tag k="addr:street" v="South 22nd Street"/><tag k="addr:postcode" v="95116"/></node>
<node visible="true" id="-189" lat="37.339234032" lon="-121.863901756"><tag k="addr:city" v="San Jose"/><tag k="addr:housenumber" v="449"/><tag k="addr:street" v="South 22nd Street"/><tag k="addr:postcode" v="95116"/></node>
<node visible="true" id="-190" lat="37.339471811" lon="-121.86385175400001"><tag k="addr:city" v="San Jose"/><tag k="addr:housenumber" v="433"/><tag k="addr:street" v="South 22nd Street"/><tag k="addr:postcode" v="95116"/></node>
<node visible="true" id="-191" lat="37.339724090000004" lon="-121.863798391"><tag k="addr:city" v="San Jose"/><tag k="addr:housenumber" v="425"/><tag k="addr:street" v="South 22nd Street"/><tag k="addr:postcode" v="95116"/></node>
<node visible="true" id="-192" lat="37.339438708" lon="-121.86371348"><tag k="addr:city" v="San Jose"/><tag k="addr:housenumber" v="437"/><tag k="addr:street" v="South 22nd Street"/><tag k="addr:postcode" v="95116"/></node>
<node visible="true" id="-193" lat="37.339626326" lon="-121.86349953400001"><tag k="addr:city" v="San Jose"/><tag k="addr:housenumber" v="431"/><tag k="addr:street" v="South 22nd Street"/><tag k="addr:postcode" v="95116"/></node>
<node visible="true" id="-194" lat="37.339696899" lon="-121.863649358"><tag k="addr:city" v="San Jose"/><tag k="addr:housenumber" v="429"/><tag k="addr:street" v="South 22nd Street"/><tag k="addr:postcode" v="95116"/></node>
<node visible="true" id="-195" lat="37.338988757" lon="-121.86223253400001"><tag k="addr:city" v="San Jose"/><tag k="addr:housenumber" v="527"/><tag k="addr:street" v="McLaughlin Avenue"/><tag k="addr:unit" v="701"/><tag k="addr:postcode" v="95116"/></node>
<node visible="true" id="-196" lat="37.338936599" lon="-121.86204374100001"><tag k="addr:city" v="San Jose"/><tag k="addr:housenumber" v="527"/><tag k="addr:street" v="McLaughlin Avenue"/><tag k="addr:unit" v="615"/><tag k="addr:postcode" v="95116"/></node>
<node visible="true" id="-197" lat="37.338285473" lon="-121.86330027400001"><tag k="addr:city" v="San Jose"/><tag k="addr:housenumber" v="546"/><tag k="addr:street" v="South 22nd Street"/><tag k="addr:postcode" v="95116"/></node>
<node visible="true" id="-198" lat="37.337739785000004" lon="-121.863794784"><tag k="addr:city" v="San Jose"/><tag k="addr:housenumber" v="557"/><tag k="addr:street" v="South 22nd Street"/><tag k="addr:postcode" v="95116"/></node>
<node visible="true" id="-199" lat="37.338879098" lon="-121.86213496500001"><tag k="addr:city" v="San Jose"/><tag k="addr:housenumber" v="527"/><tag k="addr:street" v="McLaughlin Avenue"/><tag k="addr:unit" v="616"/><tag k="addr:postcode" v="95116"/></node>
<node visible="true" id="-200" lat="37.338008969" lon="-121.86104890000001"><tag k="addr:city" v="San Jose"/><tag k="addr:housenumber" v="1063"/><tag k="addr:street" v="Appian Lane"/><tag k="addr:unit" v="C;D"/><tag k="addr:postcode" v="95116"/></node>
<node visible="true" id="-201" lat="37.340995586000005" lon="-121.86241860400001"><tag k="addr:city" v="San Jose"/><tag k="addr:housenumber" v="1110"/><tag k="addr:street" v="East William Street"/><tag k="addr:postcode" v="95116"/></node>
<node visible="true" id="-202" lat="37.339706159" lon="-121.86279666200001"><tag k="addr:city" v="San Jose"/><tag k="addr:housenumber" v="527"/><tag k="addr:street" v="McLaughlin Avenue"/><tag k="addr:unit" v="116"/><tag k="addr:postcode" v="95116"/></node>
<node visible="true" id="-203" lat="37.338964542" lon="-121.863693959"><tag k="addr:city" v="San Jose"/><tag k="addr:housenumber" v="473"/><tag k="addr:street" v="South 22nd Street"/><tag k="addr:postcode" v="95116"/></node>
<node visible="true" id="-204" lat="37.33982893" lon="-121.863080342"><tag k="addr:city" v="San Jose"/><tag k="addr:housenumber" v="428"/><tag k="addr:street" v="South 22nd Street"/><tag k="addr:postcode" v="95116"/></node>
<node visible="true" id="-205" lat="37.339681765" lon="-121.86299926800001"><tag k="addr:city" v="San Jose"/><tag k="addr:housenumber" v="436"/><tag k="addr:street" v="South 22nd Street"/><tag k="addr:postcode" v="95116"/></node>
<node visible="true" id="-206" lat="37.339425638" lon="-121.86359368800001"><tag k="addr:city" v="San Jose"/><tag k="addr:housenumber" v="441"/><tag k="addr:street" v="South 22nd Street"/><tag k="addr:postcode" v="95116"/></node>
<node visible="true" id="-207" lat="37.339415545" lon="-121.86346670500001"><tag k="addr:city" v="San Jose"/><tag k="addr:housenumber" v="445"/><tag k="addr:street" v="South 22nd Street"/><tag k="addr:postcode" v="95116"/></node>
<node visible="true" id="-208" lat="37.339446644" lon="-121.863121363"><tag k="addr:city" v="San Jose"/><tag k="addr:housenumber" v="460"/><tag k="addr:street" v="South 22nd Street"/><tag k="addr:postcode" v="95116"/></node>
<node visible="true" id="-209" lat="37.339298236000005" lon="-121.863060105"><tag k="addr:city" v="San Jose"/><tag k="addr:housenumber" v="470"/><tag k="addr:street" v="South 22nd Street"/><tag k="addr:postcode" v="95116"/></node>
<node visible="true" id="-210" lat="37.339217505" lon="-121.86307996000001"><tag k="addr:city" v="San Jose"/><tag k="addr:housenumber" v="476"/><tag k="addr:street" v="South 22nd Street"/><tag k="addr:postcode" v="95116"/></node>
<node visible="true" id="-211" lat="37.338742979" lon="-121.863842074"><tag k="addr:city" v="San Jose"/><tag k="addr:housenumber" v="485"/><tag k="addr:street" v="South 22nd Street"/><tag k="addr:postcode" v="95116"/></node>
<node visible="true" id="-212" lat="37.339105975" lon="-121.863085682"><tag k="addr:city" v="San Jose"/><tag k="addr:housenumber" v="488"/><tag k="addr:street" v="South 22nd Street"/><tag k="addr:postcode" v="95116"/></node>
<node visible="true" id="-213" lat="37.338705062" lon="-121.86362039100001"><tag k="addr:city" v="San Jose"/><tag k="addr:housenumber" v="493"/><tag k="addr:street" v="South 22nd Street"/><tag k="addr:postcode" v="95116"/></node>
<node visible="true" id="-214" lat="37.340643301" lon="-121.862039194"><tag k="addr:city" v="San Jose"/><tag k="addr:housenumber" v="515"/><tag k="addr:street" v="McLaughlin Avenue"/><tag k="addr:postcode" v="95116"/></node>
<node visible="true" id="-215" lat="37.340226912000006" lon="-121.861728819"><tag k="addr:city" v="San Jose"/><tag k="addr:housenumber" v="527"/><tag k="addr:street" v="McLaughlin Avenue"/><tag k="addr:unit" v="103"/><tag k="addr:postcode" v="95116"/></node>
<node visible="true" id="-216" lat="37.339562134000005" lon="-121.86273376700001"><tag k="addr:city" v="San Jose"/><tag k="addr:housenumber" v="527"/><tag k="addr:street" v="McLaughlin Avenue"/><tag k="addr:unit" v="114"/><tag k="addr:postcode" v="95116"/></node>
<node visible="true" id="-217" lat="37.338659496000005" lon="-121.861720652"><tag k="addr:city" v="San Jose"/><tag k="addr:housenumber" v="555"/><tag k="addr:street" v="McLaughlin Avenue"/><tag k="addr:unit" v="55"/><tag k="addr:postcode" v="95116"/></node>
<node visible="true" id="-218" lat="37.33681783" lon="-121.86422355500001"><tag k="addr:city" v="San Jose"/><tag k="addr:housenumber" v="613"/><tag k="addr:street" v="South 22nd Street"/><tag k="addr:postcode" v="95116"/></node>
<node visible="true" id="-219" lat="37.336528138000006" lon="-121.86401177200001"><tag k="addr:city" v="San Jose"/><tag k="addr:housenumber" v="637"/><tag k="addr:street" v="South 22nd Street"/><tag k="addr:postcode" v="95116"/></node>
<node visible="true" id="-220" lat="37.336329373000005" lon="-121.86418927800001"><tag k="addr:city" v="San Jose"/><tag k="addr:housenumber" v="665"/><tag k="addr:street" v="South 22nd Street"/><tag k="addr:postcode" v="95116"/></node>
<node visible="true" id="-221" lat="37.335869904" lon="-121.864398252"><tag k="addr:city" v="San Jose"/><tag k="addr:housenumber" v="693"/><tag k="addr:street" v="South 22nd Street"/><tag k="addr:postcode" v="95116"/></node>
<node visible="true" id="-222" lat="37.335848244000005" lon="-121.864271063"><tag k="addr:city" v="San Jose"/><tag k="addr:housenumber" v="697"/><tag k="addr:street" v="South 22nd Street"/><tag k="addr:postcode" v="95116"/></node>
<node visible="true" id="-223" lat="37.335613357" lon="-121.86432111500001"><tag k="addr:city" v="San Jose"/><tag k="addr:housenumber" v="713"/><tag k="addr:street" v="South 22nd Street"/><tag k="addr:postcode" v="95116"/></node>
<node visible="true" id="-224" lat="37.334870078" lon="-121.86351223800001"><tag k="addr:city" v="San Jose"/><tag k="addr:housenumber" v="722"/><tag k="addr:street" v="South 22nd Street"/><tag k="addr:postcode" v="95116"/></node>
<node visible="true" id="-225" lat="37.3354003" lon="-121.864483867"><tag k="addr:city" v="San Jose"/><tag k="addr:housenumber" v="725"/><tag k="addr:street" v="South 22nd Street"/><tag k="addr:postcode" v="95116"/></node>
<node visible="true" id="-226" lat="37.339618779000006" lon="-121.86305328700001"><tag k="addr:city" v="San Jose"/><tag k="addr:housenumber" v="442"/><tag k="addr:street" v="South 22nd Street"/><tag k="addr:postcode" v="95116"/></node>
<node visible="true" id="-227" lat="37.339534230000005" lon="-121.86310345700001"><tag k="addr:city" v="San Jose"/><tag k="addr:housenumber" v="452"/><tag k="addr:street" v="South 22nd Street"/><tag k="addr:postcode" v="95116"/></node>
<node visible="true" id="-228" lat="37.339196579" lon="-121.86364022900001"><tag k="addr:city" v="San Jose"/><tag k="addr:housenumber" v="457"/><tag k="addr:street" v="South 22nd Street"/><tag k="addr:postcode" v="95116"/></node>
<node visible="true" id="-229" lat="37.339420608000005" lon="-121.86307654900001"><tag k="addr:city" v="San Jose"/><tag k="addr:housenumber" v="464"/><tag k="addr:street" v="South 22nd Street"/><tag k="addr:postcode" v="95116"/></node>
<node visible="true" id="-230" lat="37.339275598" lon="-121.86314306400001"><tag k="addr:city" v="San Jose"/><tag k="addr:housenumber" v="472"/><tag k="addr:street" v="South 22nd Street"/><tag k="addr:postcode" v="95116"/></node>
<node visible="true" id="-231" lat="37.338723999" lon="-121.86373304400001"><tag k="addr:city" v="San Jose"/><tag k="addr:housenumber" v="489"/><tag k="addr:street" v="South 22nd Street"/><tag k="addr:postcode" v="95116"/></node>
<node visible="true" id="-232" lat="37.339067427" lon="-121.86318225000001"><tag k="addr:city" v="San Jose"/><tag k="addr:housenumber" v="490"/><tag k="addr:street" v="South 22nd Street"/><tag k="addr:postcode" v="95116"/></node>
<node visible="true" id="-233" lat="37.339016537" lon="-121.86315552600001"><tag k="addr:city" v="San Jose"/><tag k="addr:housenumber" v="496"/><tag k="addr:street" v="South 22nd Street"/><tag k="addr:postcode" v="95116"/></node>
<node visible="true" id="-234" lat="37.338783179" lon="-121.86316325000001"><tag k="addr:city" v="San Jose"/><tag k="addr:housenumber" v="502"/><tag k="addr:street" v="South 22nd Street"/><tag k="addr:postcode" v="95116"/></node>
<node visible="true" id="-235" lat="37.340455826" lon="-121.86196617"><tag k="addr:city" v="San Jose"/><tag k="addr:housenumber" v="523"/><tag k="addr:street" v="McLaughlin Avenue"/><tag k="addr:postcode" v="95116"/></node>
<node visible="true" id="-236" lat="37.33961041" lon="-121.862764772"><tag k="addr:city" v="San Jose"/><tag k="addr:housenumber" v="527"/><tag k="addr:street" v="McLaughlin Avenue"/><tag k="addr:unit" v="115"/><tag k="addr:postcode" v="95116"/></node>
<node visible="true" id="-237" lat="37.338249007" lon="-121.863349381"><tag k="addr:city" v="San Jose"/><tag k="addr:housenumber" v="550"/><tag k="addr:street" v="South 22nd Street"/><tag k="addr:postcode" v="95116"/></node>
<node visible="true" id="-238" lat="37.338457981000005" lon="-121.86151217300001"><tag k="addr:city" v="San Jose"/><tag k="addr:housenumber" v="555"/><tag k="addr:street" v="McLaughlin Avenue"/><tag k="addr:unit" v="52"/><tag k="addr:postcode" v="95116"/></node>
<node visible="true" id="-239" lat="37.338536521" lon="-121.861589291"><tag k="addr:city" v="San Jose"/><tag k="addr:housenumber" v="555"/><tag k="addr:street" v="McLaughlin Avenue"/><tag k="addr:unit" v="53"/><tag k="addr:postcode" v="95116"/></node>
<node visible="true" id="-240" lat="37.337069984" lon="-121.86418106100001"><tag k="addr:city" v="San Jose"/><tag k="addr:housenumber" v="597"/><tag k="addr:street" v="South 22nd Street"/><tag k="addr:postcode" v="95116"/></node>
<node visible="true" id="-241" lat="37.336541123" lon="-121.864138803"><tag k="addr:city" v="San Jose"/><tag k="addr:housenumber" v="633"/><tag k="addr:street" v="South 22nd Street"/><tag k="addr:postcode" v="95116"/></node>
<node visible="true" id="-242" lat="37.337502305" lon="-121.86271141300001"><tag k="addr:city" v="San Jose"/><tag k="addr:housenumber" v="651"/><tag k="addr:street" v="Macredes Avenue"/><tag k="addr:postcode" v="95116"/></node>
<node visible="true" id="-243" lat="37.336085811000004" lon="-121.864239174"><tag k="addr:city" v="San Jose"/><tag k="addr:housenumber" v="681"/><tag k="addr:street" v="South 22nd Street"/><tag k="addr:postcode" v="95116"/></node>
<node visible="true" id="-244" lat="37.336081461" lon="-121.86411592300001"><tag k="addr:city" v="San Jose"/><tag k="addr:housenumber" v="685"/><tag k="addr:street" v="South 22nd Street"/><tag k="addr:postcode" v="95116"/></node>
<node visible="true" id="-245" lat="37.335626468" lon="-121.86443728"><tag k="addr:city" v="San Jose"/><tag k="addr:housenumber" v="709"/><tag k="addr:street" v="South 22nd Street"/><tag k="addr:postcode" v="95116"/></node>
<node visible="true" id="-246" lat="37.335371397" lon="-121.864233377"><tag k="addr:city" v="San Jose"/><tag k="addr:housenumber" v="733"/><tag k="addr:street" v="South 22nd Street"/><tag k="addr:postcode" v="95116"/></node>
<node visible="true" id="-247" lat="37.334242251" lon="-121.864817739"><tag k="addr:city" v="San Jose"/><tag k="addr:housenumber" v="773"/><tag k="addr:street" v="South 22nd Street"/><tag k="addr:postcode" v="95116"/></node>
<node visible="true" id="-248" lat="37.333453765" lon="-121.86496273200001"><tag k="addr:city" v="San Jose"/><tag k="addr:housenumber" v="797"/><tag k="addr:street" v="South 22nd Street"/><tag k="addr:postcode" v="95116"/></node>
<node visible="true" id="-249" lat="37.333198466" lon="-121.86502689900001"><tag k="addr:city" v="San Jose"/><tag k="addr:housenumber" v="805"/><tag k="addr:street" v="South 22nd Street"/><tag k="addr:postcode" v="95116"/></node>
<node visible="true" id="-250" lat="37.34094223" lon="-121.86251062000001"><tag k="addr:city" v="San Jose"/><tag k="addr:housenumber" v="1100;1118;1120;1130;1140;1150;1160;1170"/><tag k="addr:street" v="East William Street"/><tag k="addr:postcode" v="95116"/></node>
<node visible="true" id="-251" lat="37.339654924" lon="-121.86306556800001"><tag k="addr:city" v="San Jose"/><tag k="addr:housenumber" v="440"/><tag k="addr:street" v="South 22nd Street"/><tag k="addr:postcode" v="95116"/></node>
<node visible="true" id="-252" lat="37.339574105000004" lon="-121.863096599"><tag k="addr:city" v="San Jose"/><tag k="addr:housenumber" v="448"/><tag k="addr:street" v="South 22nd Street"/><tag k="addr:postcode" v="95116"/></node>
<node visible="true" id="-253" lat="37.33896902" lon="-121.863806349"><tag k="addr:city" v="San Jose"/><tag k="addr:housenumber" v="469"/><tag k="addr:street" v="South 22nd Street"/><tag k="addr:postcode" v="95116"/></node>
<node visible="true" id="-254" lat="37.338960150000005" lon="-121.863574326"><tag k="addr:city" v="San Jose"/><tag k="addr:housenumber" v="477"/><tag k="addr:street" v="South 22nd Street"/><tag k="addr:postcode" v="95116"/></node>
<node visible="true" id="-255" lat="37.338752861" lon="-121.863987167"><tag k="addr:city" v="San Jose"/><tag k="addr:housenumber" v="481"/><tag k="addr:street" v="South 22nd Street"/><tag k="addr:postcode" v="95116"/></node>
<node visible="true" id="-256" lat="37.340176664000005" lon="-121.86180885300001"><tag k="addr:city" v="San Jose"/><tag k="addr:housenumber" v="527"/><tag k="addr:street" v="McLaughlin Avenue"/><tag k="addr:unit" v="104"/><tag k="addr:postcode" v="95116"/></node>
<node visible="true" id="-257" lat="37.340123876" lon="-121.86188426000001"><tag k="addr:city" v="San Jose"/><tag k="addr:housenumber" v="527"/><tag k="addr:street" v="McLaughlin Avenue"/><tag k="addr:unit" v="105"/><tag k="addr:postcode" v="95116"/></node>
<node visible="true" id="-258" lat="37.338166179000005" lon="-121.861392855"><tag k="addr:city" v="San Jose"/><tag k="addr:housenumber" v="555"/><tag k="addr:street" v="McLaughlin Avenue"/><tag k="addr:unit" v="14"/><tag k="addr:postcode" v="95116"/></node>
<node visible="true" id="-259" lat="37.338256315" lon="-121.86153935300001"><tag k="addr:city" v="San Jose"/><tag k="addr:housenumber" v="555"/><tag k="addr:street" v="McLaughlin Avenue"/><tag k="addr:unit" v="14A"/><tag k="addr:postcode" v="95116"/></node>
<node visible="true" id="-260" lat="37.338606957" lon="-121.86163715900001"><tag k="addr:city" v="San Jose"/><tag k="addr:housenumber" v="555"/><tag k="addr:street" v="McLaughlin Avenue"/><tag k="addr:unit" v="54"/><tag k="addr:postcode" v="95116"/></node>
<node visible="true" id="-261" lat="37.336828090000004" lon="-121.864336046"><tag k="addr:city" v="San Jose"/><tag k="addr:housenumber" v="609"/><tag k="addr:street" v="South 22nd Street"/><tag k="addr:postcode" v="95116"/></node>
<node visible="true" id="-262" lat="37.336351118" lon="-121.86430922400001"><tag k="addr:city" v="San Jose"/><tag k="addr:housenumber" v="661"/><tag k="addr:street" v="South 22nd Street"/><tag k="addr:postcode" v="95116"/></node>
<node visible="true" id="-263" lat="37.335843808" lon="-121.864155056"><tag k="addr:city" v="San Jose"/><tag k="addr:housenumber" v="701"/><tag k="addr:street" v="South 22nd Street"/><tag k="addr:postcode" v="95116"/></node>
<node visible="true" id="-264" lat="37.333334813" lon="-121.86499316300001"><tag k="addr:city" v="San Jose"/><tag k="addr:housenumber" v="801"/><tag k="addr:street" v="South 22nd Street"/><tag k="addr:postcode" v="95116"/></node>
<node visible="true" id="-265" lat="37.332940486000005" lon="-121.86507290200001"><tag k="addr:city" v="San Jose"/><tag k="addr:housenumber" v="813"/><tag k="addr:street" v="South 22nd Street"/><tag k="addr:postcode" v="95116"/></node>
<node visible="true" id="-266" lat="37.332544149" lon="-121.86463187700001"><tag k="addr:city" v="San Jose"/><tag k="addr:housenumber" v="777"/><tag k="addr:street" v="Forestdale Avenue"/><tag k="addr:unit" v="3;4"/><tag k="addr:postcode" v="95116"/></node>
<node visible="true" id="-267" lat="37.339215474" lon="-121.86375650500001"><tag k="addr:city" v="San Jose"/><tag k="addr:housenumber" v="453"/><tag k="addr:street" v="South 22nd Street"/><tag k="addr:postcode" v="95116"/></node>
<node visible="true" id="-268" lat="37.339487464" lon="-121.863033258"><tag k="addr:city" v="San Jose"/><tag k="addr:housenumber" v="458"/><tag k="addr:street" v="South 22nd Street"/><tag k="addr:postcode" v="95116"/></node>
<node visible="true" id="-269" lat="37.339174791000005" lon="-121.8635239"><tag k="addr:city" v="San Jose"/><tag k="addr:housenumber" v="461"/><tag k="addr:street" v="South 22nd Street"/><tag k="addr:postcode" v="95116"/></node>
<node visible="true" id="-270" lat="37.338987747000004" lon="-121.86393711100001"><tag k="addr:city" v="San Jose"/><tag k="addr:housenumber" v="465"/><tag k="addr:street" v="South 22nd Street"/><tag k="addr:postcode" v="95116"/></node>
<node visible="true" id="-271" lat="37.339193071000004" lon="-121.86318421400001"><tag k="addr:city" v="San Jose"/><tag k="addr:housenumber" v="478"/><tag k="addr:street" v="South 22nd Street"/><tag k="addr:postcode" v="95116"/></node>
<node visible="true" id="-272" lat="37.339146615000004" lon="-121.863185306"><tag k="addr:city" v="San Jose"/><tag k="addr:housenumber" v="484"/><tag k="addr:street" v="South 22nd Street"/><tag k="addr:postcode" v="95116"/></node>
<node visible="true" id="-273" lat="37.340502291" lon="-121.862025152"><tag k="addr:city" v="San Jose"/><tag k="addr:housenumber" v="517"/><tag k="addr:street" v="McLaughlin Avenue"/><tag k="addr:postcode" v="95116"/></node>
<node visible="true" id="-274" lat="37.340420095" lon="-121.861932339"><tag k="addr:city" v="San Jose"/><tag k="addr:housenumber" v="525"/><tag k="addr:street" v="McLaughlin Avenue"/><tag k="addr:postcode" v="95116"/></node>
<node visible="true" id="-275" lat="37.340338979" lon="-121.861570248"><tag k="addr:city" v="San Jose"/><tag k="addr:housenumber" v="527"/><tag k="addr:street" v="McLaughlin Avenue"/><tag k="addr:unit" v="101"/><tag k="addr:postcode" v="95116"/></node>
<node visible="true" id="-276" lat="37.340277811" lon="-121.861655189"><tag k="addr:city" v="San Jose"/><tag k="addr:housenumber" v="527"/><tag k="addr:street" v="McLaughlin Avenue"/><tag k="addr:unit" v="102"/><tag k="addr:postcode" v="95116"/></node>
<node visible="true" id="-277" lat="37.340076179" lon="-121.861971783"><tag k="addr:city" v="San Jose"/><tag k="addr:housenumber" v="527"/><tag k="addr:street" v="McLaughlin Avenue"/><tag k="addr:unit" v="106"/><tag k="addr:postcode" v="95116"/></node>
<node visible="true" id="-278" lat="37.338229772000005" lon="-121.86130905700001"><tag k="addr:city" v="San Jose"/><tag k="addr:housenumber" v="555"/><tag k="addr:street" v="McLaughlin Avenue"/><tag k="addr:unit" v="12A"/><tag k="addr:postcode" v="95116"/></node>
<node visible="true" id="-279" lat="37.338810971" lon="-121.861940899"><tag k="addr:city" v="San Jose"/><tag k="addr:housenumber" v="555"/><tag k="addr:street" v="McLaughlin Avenue"/><tag k="addr:unit" v="34"/><tag k="addr:postcode" v="95116"/></node>
<node visible="true" id="-280" lat="37.338750661" lon="-121.86200956"><tag k="addr:city" v="San Jose"/><tag k="addr:housenumber" v="555"/><tag k="addr:street" v="McLaughlin Avenue"/><tag k="addr:unit" v="35"/><tag k="addr:postcode" v="95116"/></node>
<node visible="true" id="-281" lat="37.338412603" lon="-121.861440583"><tag k="addr:city" v="San Jose"/><tag k="addr:housenumber" v="555"/><tag k="addr:street" v="McLaughlin Avenue"/><tag k="addr:unit" v="51"/><tag k="addr:postcode" v="95116"/></node>
<node visible="true" id="-282" lat="37.338225513000005" lon="-121.86327509700001"><tag k="addr:city" v="San Jose"/><tag k="addr:housenumber" v="556"/><tag k="addr:street" v="South 22nd Street"/><tag k="addr:postcode" v="95116"/></node>
<node visible="true" id="-283" lat="37.337045262000004" lon="-121.864068305"><tag k="addr:city" v="San Jose"/><tag k="addr:housenumber" v="601"/><tag k="addr:street" v="South 22nd Street"/><tag k="addr:postcode" v="95116"/></node>
<node visible="true" id="-284" lat="37.336801953000005" lon="-121.864096469"><tag k="addr:city" v="San Jose"/><tag k="addr:housenumber" v="617"/><tag k="addr:street" v="South 22nd Street"/><tag k="addr:postcode" v="95116"/></node>
<node visible="true" id="-285" lat="37.33656861" lon="-121.86426247700001"><tag k="addr:city" v="San Jose"/><tag k="addr:housenumber" v="629"/><tag k="addr:street" v="South 22nd Street"/><tag k="addr:postcode" v="95116"/></node>
<node visible="true" id="-286" lat="37.335588594" lon="-121.864211983"><tag k="addr:city" v="San Jose"/><tag k="addr:housenumber" v="717"/><tag k="addr:street" v="South 22nd Street"/><tag k="addr:postcode" v="95116"/></node>
<node visible="true" id="-287" lat="37.335381364" lon="-121.864371219"><tag k="addr:city" v="San Jose"/><tag k="addr:housenumber" v="729"/><tag k="addr:street" v="South 22nd Street"/><tag k="addr:postcode" v="95116"/></node>
<node visible="true" id="-288" lat="37.334369838" lon="-121.864791088"><tag k="addr:city" v="San Jose"/><tag k="addr:housenumber" v="769"/><tag k="addr:street" v="South 22nd Street"/><tag k="addr:postcode" v="95116"/></node>
<node visible="true" id="-289" lat="37.333073729000006" lon="-121.865057222"><tag k="addr:city" v="San Jose"/><tag k="addr:housenumber" v="809"/><tag k="addr:street" v="South 22nd Street"/><tag k="addr:postcode" v="95116"/></node>
<way visible="true" id="-1"><nd ref="-2"/><nd ref="-3"/><nd ref="-4"/><nd ref="-5"/><nd ref="-2"/><tag k="building" v="yes"/><tag k="height" v="3.62"/><tag k="ele" v="32.76"/></way>
<way visible="true" id="-6"><nd ref="-7"/><nd ref="-8"/><nd ref="-9"/><nd ref="-10"/><nd ref="-7"/><tag k="building" v="yes"/><tag k="height" v="3.70"/><tag k="ele" v="32.76"/></way>
<way visible="true" id="-11"><nd ref="-12"/><nd ref="-13"/><nd ref="-14"/><nd ref="-15"/><nd ref="-16"/><nd ref="-17"/><nd ref="-12"/><tag k="building" v="yes"/><tag k="height" v="5.91"/><tag k="ele" v="35.55"/></way>
<way visible="true" id="-18"><nd ref="-19"/><nd ref="-20"/><nd ref="-21"/><nd ref="-22"/><nd ref="-23"/><nd ref="-24"/><nd ref="-25"/><nd ref="-26"/><nd ref="-19"/><tag k="building" v="yes"/><tag k="height" v="3.20"/><tag k="ele" v="32.55"/></way>
<way visible="true" id="-27"><nd ref="-28"/><nd ref="-29"/><nd ref="-30"/><nd ref="-31"/><nd ref="-32"/><nd ref="-33"/><nd ref="-28"/><tag k="building" v="yes"/><tag k="height" v="5.36"/><tag k="ele" v="35.55"/></way>
<way visible="true" id="-34"><nd ref="-35"/><nd ref="-36"/><nd ref="-37"/><nd ref="-38"/><nd ref="-39"/><nd ref="-40"/><nd ref="-41"/><nd ref="-42"/><nd ref="-35"/><tag k="building" v="yes"/><tag k="height" v="4.62"/><tag k="ele" v="36.63"/></way>
<way visible="true" id="-43"><nd ref="-44"/><nd ref="-45"/><nd ref="-46"/><nd ref="-47"/><nd ref="-48"/><nd ref="-49"/><nd ref="-50"/><nd ref="-51"/><nd ref="-44"/><tag k="building" v="yes"/><tag k="height" v="5.96"/><tag k="ele" v="35.91"/></way>
<way visible="true" id="-52"><nd ref="-53"/><nd ref="-54"/><nd ref="-55"/><nd ref="-56"/><nd ref="-57"/><nd ref="-58"/><nd ref="-53"/><tag k="building" v="yes"/><tag k="height" v="5.39"/><tag k="ele" v="35.82"/></way>
<way visible="true" id="-59"><nd ref="-60"/><nd ref="-61"/><nd ref="-62"/><nd ref="-63"/><nd ref="-64"/><nd ref="-65"/><nd ref="-60"/><tag k="building" v="yes"/><tag k="height" v="5.83"/><tag k="ele" v="35.55"/></way>
<way visible="true" id="-66"><nd ref="-67"/><nd ref="-68"/><nd ref="-69"/><nd ref="-70"/><nd ref="-67"/><tag k="building" v="yes"/><tag k="height" v="3.32"/><tag k="ele" v="32.76"/></way>
<way visible="true" id="-71"><nd ref="-72"/><nd ref="-73"/><nd ref="-74"/><nd ref="-75"/><nd ref="-76"/><nd ref="-77"/><nd ref="-72"/><tag k="building" v="yes"/><tag k="height" v="4.96"/><tag k="ele" v="35.69"/></way>
<way visible="true" id="-78"><nd ref="-79"/><nd ref="-80"/><nd ref="-81"/><nd ref="-82"/><nd ref="-83"/><nd ref="-84"/><nd ref="-85"/><nd ref="-86"/><nd ref="-87"/><nd ref="-88"/><nd ref="-89"/><nd ref="-90"/><nd ref="-91"/><nd ref="-92"/><nd ref="-79"/><tag k="building" v="yes"/><tag k="height" v="9.92"/><tag k="ele" v="39.25"/></way>
<way visible="true" id="-93"><nd ref="-94"/><nd ref="-95"/><nd ref="-96"/><nd ref="-97"/><nd ref="-98"/><nd ref="-99"/><nd ref="-94"/><tag k="building" v="yes"/><tag k="height" v="5.95"/><tag k="ele" v="35.55"/></way>
<way visible="true" id="-100"><nd ref="-101"/><nd ref="-102"/><nd ref="-103"/><nd ref="-104"/><nd ref="-101"/><tag k="building" v="yes"/><tag k="height" v="3.26"/><tag k="ele" v="32.53"/></way>
<way visible="true" id="-105"><nd ref="-106"/><nd ref="-107"/><nd ref="-108"/><nd ref="-109"/><nd ref="-110"/><nd ref="-111"/><nd ref="-106"/><tag k="building" v="yes"/><tag k="height" v="4.42"/><tag k="ele" v="33.52"/></way>
<way visible="true" id="-112"><nd ref="-113"/><nd ref="-114"/><nd ref="-115"/><nd ref="-116"/><nd ref="-113"/><tag k="building" v="yes"/><tag k="height" v="3.43"/><tag k="ele" v="32.75"/></way>
<way visible="true" id="-117"><nd ref="-118"/><nd ref="-119"/><nd ref="-120"/><nd ref="-121"/><nd ref="-122"/><nd ref="-123"/><nd ref="-124"/><nd ref="-125"/><nd ref="-118"/><tag k="building" v="yes"/><tag k="height" v="3.33"/><tag k="ele" v="32.65"/></way>
<way visible="true" id="-126"><nd ref="-127"/><nd ref="-128"/><nd ref="-129"/><nd ref="-130"/><nd ref="-127"/><tag k="building" v="yes"/><tag k="height" v="3.50"/><tag k="ele" v="32.65"/></way>
<way visible="true" id="-131"><nd ref="-132"/><nd ref="-133"/><nd ref="-134"/><nd ref="-135"/><nd ref="-136"/><nd ref="-137"/><nd ref="-132"/><tag k="building" v="yes"/><tag k="height" v="5.90"/><tag k="ele" v="35.55"/></way>
<way visible="true" id="-138"><nd ref="-139"/><nd ref="-140"/><nd ref="-141"/><nd ref="-142"/><nd ref="-143"/><nd ref="-144"/><nd ref="-145"/><nd ref="-146"/><nd ref="-147"/><nd ref="-148"/><nd ref="-149"/><nd ref="-150"/><nd ref="-151"/><nd ref="-152"/><nd ref="-139"/><tag k="building" v="yes"/><tag k="height" v="4.36"/><tag k="ele" v="35.41"/></way>
<way visible="true" id="-153"><nd ref="-154"/><nd ref="-155"/><nd ref="-156"/><nd ref="-157"/><nd ref="-154"/><tag k="building" v="yes"/><tag k="height" v="3.74"/><tag k="ele" v="32.76"/></way>
<way visible="true" id="-158"><nd ref="-159"/><nd ref="-160"/><nd ref="-161"/><nd ref="-162"/><nd ref="-159"/><tag k="building" v="yes"/><tag k="height" v="3.26"/><tag k="ele" v="32.55"/></way>
</osm>