<?xml version="1.0"?>
<osm version="0.6" generator="uvmogr2osm" upload="false">
<node visible="true" id="-2" lat="37.381310051" lon="-121.826058641"/>
<node visible="true" id="-3" lat="37.381465433" lon="-121.82614628200001"/>
<node visible="true" id="-4" lat="37.381459562" lon="-121.826162631"/>
<node visible="true" id="-5" lat="37.381655964000004" lon="-121.826273408"/>
<node visible="true" id="-6" lat="37.381731687000006" lon="-121.82606255"/>
<node visible="true" id="-7" lat="37.381379903" lon="-121.82586413300001"/>
<node visible="true" id="-9" lat="37.37834498" lon="-121.82363158400001"/>
<node visible="true" id="-10" lat="37.378377931" lon="-121.823788155"/>
<node visible="true" id="-11" lat="37.378441453" lon="-121.823767184"/>
<node visible="true" id="-12" lat="37.378408502" lon="-121.82361057700001"/>
<node visible="true" id="-14" lat="37.378144546" lon="-121.823266939"/>
<node visible="true" id="-15" lat="37.378173472" lon="-121.82333966300001"/>
<node visible="true" id="-16" lat="37.378290954" lon="-121.823266332"/>
<node visible="true" id="-17" lat="37.378262055" lon="-121.823193609"/>
<node visible="true" id="-19" lat="37.378153095" lon="-121.82341967100001"/>
<node visible="true" id="-20" lat="37.378199079000005" lon="-121.82357261800001"/>
<node visible="true" id="-21" lat="37.378263339" lon="-121.823542298"/>
<node visible="true" id="-22" lat="37.378217326000005" lon="-121.823389351"/>
<node visible="true" id="-24" lat="37.378610550000005" lon="-121.823839468"/>
<node visible="true" id="-25" lat="37.378643502" lon="-121.823998449"/>
<node visible="true" id="-26" lat="37.378707351" lon="-121.82397769100001"/>
<node visible="true" id="-27" lat="37.378674399000005" lon="-121.823818708"/>
<node visible="true" id="-29" lat="37.378073469" lon="-121.823455984"/>
<node visible="true" id="-30" lat="37.378119312" lon="-121.82360934100001"/>
<node visible="true" id="-31" lat="37.378181967" lon="-121.823579921"/>
<node visible="true" id="-32" lat="37.378136124" lon="-121.823426564"/>
<node visible="true" id="-34" lat="37.378548258" lon="-121.82356411100001"/>
<node visible="true" id="-35" lat="37.378581960000005" lon="-121.82372238200001"/>
<node visible="true" id="-36" lat="37.378646422" lon="-121.82370084300001"/>
<node visible="true" id="-37" lat="37.378612721" lon="-121.823542571"/>
<node visible="true" id="-39" lat="37.378542015" lon="-121.82386172700001"/>
<node visible="true" id="-40" lat="37.378576503000005" lon="-121.82402083800001"/>
<node visible="true" id="-41" lat="37.378639425" lon="-121.823999443"/>
<node visible="true" id="-42" lat="37.378604938" lon="-121.823840332"/>
<node visible="true" id="-44" lat="37.378211276" lon="-121.82295181100001"/>
<node visible="true" id="-45" lat="37.378262102" lon="-121.82307744600001"/>
<node visible="true" id="-46" lat="37.378557128000004" lon="-121.822890028"/>
<node visible="true" id="-47" lat="37.378506275" lon="-121.82276439200001"/>
<node visible="true" id="-49" lat="37.382175799" lon="-121.826862222"/>
<node visible="true" id="-50" lat="37.382318068000004" lon="-121.826960337"/>
<node visible="true" id="-51" lat="37.382356582" lon="-121.826872628"/>
<node visible="true" id="-52" lat="37.382344780000004" lon="-121.826864501"/>
<node visible="true" id="-53" lat="37.382485636000006" lon="-121.82654372100001"/>
<node visible="true" id="-54" lat="37.38251082" lon="-121.826561103"/>
<node visible="true" id="-55" lat="37.382532473000005" lon="-121.826511784"/>
<node visible="true" id="-56" lat="37.382529365" lon="-121.82650963"/>
<node visible="true" id="-57" lat="37.382555474" lon="-121.826450131"/>
<node visible="true" id="-58" lat="37.382534187000005" lon="-121.82643546800001"/>
<node visible="true" id="-59" lat="37.382577944000005" lon="-121.82633583900001"/>
<node visible="true" id="-60" lat="37.382447556" lon="-121.82624592200001"/>
<node visible="true" id="-61" lat="37.382428779" lon="-121.826288683"/>
<node visible="true" id="-62" lat="37.382422647000006" lon="-121.826284443"/>
<node visible="true" id="-63" lat="37.382411229" lon="-121.82631043600001"/>
<node visible="true" id="-64" lat="37.382416516" lon="-121.82631407500001"/>
<node visible="true" id="-66" lat="37.378411874" lon="-121.82360874400001"/>
<node visible="true" id="-67" lat="37.378446158" lon="-121.823766476"/>
<node visible="true" id="-68" lat="37.378510818" lon="-121.82374442300001"/>
<node visible="true" id="-69" lat="37.378476534" lon="-121.823586692"/>
<node visible="true" id="-71" lat="37.377726122000006" lon="-121.82313417200001"/>
<node visible="true" id="-72" lat="37.377755008" lon="-121.823249402"/>
<node visible="true" id="-73" lat="37.377776254000004" lon="-121.82324103600001"/>
<node visible="true" id="-74" lat="37.377902600000006" lon="-121.82374510300001"/>
<node visible="true" id="-75" lat="37.377996322" lon="-121.82370821600001"/>
<node visible="true" id="-76" lat="37.377841089" lon="-121.82308891800001"/>
<node visible="true" id="-78" lat="37.38193772" lon="-121.825943566"/>
<node visible="true" id="-79" lat="37.382000049000006" lon="-121.82598666700001"/>
<node visible="true" id="-80" lat="37.381996018" lon="-121.82599585400001"/>
<node visible="true" id="-81" lat="37.382022046" lon="-121.826013871"/>
<node visible="true" id="-82" lat="37.382027007000005" lon="-121.82600263500001"/>
<node visible="true" id="-83" lat="37.382167257" lon="-121.82609964500001"/>
<node visible="true" id="-84" lat="37.382162888" lon="-121.82610958400001"/>
<node visible="true" id="-85" lat="37.38219085" lon="-121.826128909"/>
<node visible="true" id="-86" lat="37.382194939" lon="-121.82611961900001"/>
<node visible="true" id="-87" lat="37.382371219" lon="-121.82624153600001"/>
<node visible="true" id="-88" lat="37.382366821000005" lon="-121.826251509"/>
<node visible="true" id="-89" lat="37.382414516000004" lon="-121.82628450600001"/>
<node visible="true" id="-90" lat="37.382490774000004" lon="-121.826111311"/>
<node visible="true" id="-91" lat="37.382283206000004" lon="-121.82596777200001"/>
<node visible="true" id="-92" lat="37.382294114000004" lon="-121.825943045"/>
<node visible="true" id="-93" lat="37.382147977" lon="-121.825842006"/>
<node visible="true" id="-94" lat="37.382137038" lon="-121.82586687000001"/>
<node visible="true" id="-95" lat="37.382071628000006" lon="-121.825821649"/>
<node visible="true" id="-96" lat="37.382078902" lon="-121.82580511900001"/>
<node visible="true" id="-97" lat="37.382048676000004" lon="-121.82578420600001"/>
<node visible="true" id="-98" lat="37.382041572000006" lon="-121.825800395"/>
<node visible="true" id="-99" lat="37.382010311" lon="-121.825778775"/>
<node visible="true" id="-101" lat="37.381146191" lon="-121.82685174100001"/>
<node visible="true" id="-102" lat="37.381232866000005" lon="-121.82697908700001"/>
<node visible="true" id="-103" lat="37.381284776" lon="-121.826923629"/>
<node visible="true" id="-104" lat="37.3811981" lon="-121.826796282"/>
<node visible="true" id="-106" lat="37.378616454" lon="-121.82354274100001"/>
<node visible="true" id="-107" lat="37.378650968" lon="-121.82369965000001"/>
<node visible="true" id="-108" lat="37.378716154" lon="-121.82367716"/>
<node visible="true" id="-109" lat="37.378681641" lon="-121.82352025"/>
<node visible="true" id="-111" lat="37.380971671000005" lon="-121.827312249"/>
<node visible="true" id="-112" lat="37.381040327" lon="-121.82735952300001"/>
<node visible="true" id="-113" lat="37.381066773" lon="-121.82729924200001"/>
<node visible="true" id="-114" lat="37.381156769" lon="-121.827361214"/>
<node visible="true" id="-115" lat="37.381208112" lon="-121.82724413300001"/>
<node visible="true" id="-116" lat="37.381114901000004" lon="-121.827179935"/>
<node visible="true" id="-117" lat="37.381121724" lon="-121.82716439400001"/>
<node visible="true" id="-118" lat="37.381089999000004" lon="-121.82714255900001"/>
<node visible="true" id="-119" lat="37.381083063000005" lon="-121.82715837200001"/>
<node visible="true" id="-120" lat="37.381050847000004" lon="-121.82713618300001"/>
<node visible="true" id="-121" lat="37.38103627" lon="-121.82716941500001"/>
<node visible="true" id="-122" lat="37.38101125" lon="-121.827152174"/>
<node visible="true" id="-123" lat="37.380988299" lon="-121.82720449700001"/>
<node visible="true" id="-124" lat="37.381011821" lon="-121.82722071500001"/>
<node visible="true" id="-126" lat="37.378479588000005" lon="-121.82358626400001"/>
<node visible="true" id="-127" lat="37.378513147" lon="-121.82374484300001"/>
<node visible="true" id="-128" lat="37.378576616000004" lon="-121.82372373400001"/>
<node visible="true" id="-129" lat="37.378543055" lon="-121.823565189"/>
<node visible="true" id="-131" lat="37.378474781" lon="-121.82388555700001"/>
<node visible="true" id="-132" lat="37.378507230000004" lon="-121.824042774"/>
<node visible="true" id="-133" lat="37.378569755" lon="-121.82402250800001"/>
<node visible="true" id="-134" lat="37.378537305" lon="-121.823865326"/>
<node visible="true" id="-135" lat="37.384346771000004" lon="-121.826563535"><tag k="addr:city" v="San Jose"/><tag k="addr:housenumber" v="496"/><tag k="addr:street" v="Toyon Avenue"/><tag k="addr:unit" v="123-128;223-228"/><tag k="addr:postcode" v="95127"/></node>
<node visible="true" id="-136" lat="37.384811323" lon="-121.82695499900001"><tag k="addr:city" v="San Jose"/><tag k="addr:housenumber" v="520"/><tag k="addr:street" v="Toyon Avenue"/><tag k="addr:unit" v="155-160;255-260"/><tag k="addr:postcode" v="95127"/></node>
<node visible="true" id="-137" lat="37.380478783" lon="-121.82052241000001"><tag k="addr:city" v="San Jose"/><tag k="addr:housenumber" v="267"/><tag k="addr:street" v="Bayview Avenue"/><tag k="addr:postcode" v="95127"/></node>
<node visible="true" id="-138" lat="37.380837098" lon="-121.82073674700001"><tag k="addr:city" v="San Jose"/><tag k="addr:housenumber" v="279"/><tag k="addr:street" v="Bayview Avenue"/><tag k="addr:postcode" v="95127"/></node>
<node visible="true" id="-139" lat="37.381988193000005" lon="-121.82294314"><tag k="addr:city" v="San Jose"/><tag k="addr:housenumber" v="301"/><tag k="addr:street" v="Gordon Avenue"/><tag k="addr:postcode" v="95127"/></node>
<node visible="true" id="-140" lat="37.383782895" lon="-121.82173161600001"><tag k="addr:city" v="San Jose"/><tag k="addr:housenumber" v="312"/><tag k="addr:street" v="Crest Drive"/><tag k="addr:postcode" v="95127"/></node>
<node visible="true" id="-141" lat="37.383672260000004" lon="-121.822778865"><tag k="addr:city" v="San Jose"/><tag k="addr:housenumber" v="323"/><tag k="addr:street" v="Crest Drive"/><tag k="addr:postcode" v="95127"/></node>
<node visible="true" id="-142" lat="37.382563260000005" lon="-121.823786974"><tag k="addr:city" v="San Jose"/><tag k="addr:housenumber" v="326"/><tag k="addr:street" v="Valley View Avenue"/><tag k="addr:postcode" v="95127"/></node>
<node visible="true" id="-143" lat="37.385544991" lon="-121.82014573000001"><tag k="addr:city" v="San Jose"/><tag k="addr:housenumber" v="330"/><tag k="addr:street" v="Rennie Avenue"/><tag k="addr:postcode" v="95127"/></node>
<node visible="true" id="-144" lat="37.38199233" lon="-121.824997593"><tag k="addr:city" v="San Jose"/><tag k="addr:housenumber" v="335"/><tag k="addr:street" v="Titleist Court"/><tag k="addr:postcode" v="95127"/></node>
<node visible="true" id="-145" lat="37.382898591" lon="-121.824202256"><tag k="addr:city" v="San Jose"/><tag k="addr:housenumber" v="338"/><tag k="addr:street" v="Valley View Avenue"/><tag k="addr:postcode" v="95127"/></node>
<node visible="true" id="-146" lat="37.384343496" lon="-121.82303811000001"><tag k="addr:city" v="San Jose"/><tag k="addr:housenumber" v="339"/><tag k="addr:street" v="Crest Drive"/><tag k="addr:postcode" v="95127"/></node>
<node visible="true" id="-147" lat="37.383061644" lon="-121.82509425100001"><tag k="addr:city" v="San Jose"/><tag k="addr:housenumber" v="349"/><tag k="addr:street" v="Valley View Avenue"/><tag k="addr:postcode" v="95127"/></node>
<node visible="true" id="-148" lat="37.385376485" lon="-121.820601432"><tag k="addr:city" v="San Jose"/><tag k="addr:housenumber" v="354"/><tag k="addr:street" v="Rennie Avenue"/><tag k="addr:postcode" v="95127"/></node>
<node visible="true" id="-149" lat="37.383461798" lon="-121.824629086"><tag k="addr:city" v="San Jose"/><tag k="addr:housenumber" v="354"/><tag k="addr:street" v="Valley View Avenue"/><tag k="addr:postcode" v="95127"/></node>
<node visible="true" id="-150" lat="37.383214018000004" lon="-121.82526317700001"><tag k="addr:city" v="San Jose"/><tag k="addr:housenumber" v="355"/><tag k="addr:street" v="Valley View Avenue"/><tag k="addr:postcode" v="95127"/></node>
<node visible="true" id="-151" lat="37.384920608" lon="-121.82225197400001"><tag k="addr:city" v="San Jose"/><tag k="addr:housenumber" v="359"/><tag k="addr:street" v="Crest Drive"/><tag k="addr:postcode" v="95127"/></node>
<node visible="true" id="-152" lat="37.382687211000004" lon="-121.81840372500001"><tag k="addr:city" v="San Jose"/><tag k="addr:housenumber" v="36"/><tag k="addr:street" v="Oakmore Drive"/><tag k="addr:postcode" v="95127"/></node>
<node visible="true" id="-153" lat="37.38468659" lon="-121.825028488"><tag k="addr:city" v="San Jose"/><tag k="addr:housenumber" v="379"/><tag k="addr:street" v="Gordon Avenue"/><tag k="addr:postcode" v="95127"/></node>
<node visible="true" id="-154" lat="37.384083495000006" lon="-121.82506684100001"><tag k="addr:city" v="San Jose"/><tag k="addr:housenumber" v="380"/><tag k="addr:street" v="Valley View Avenue"/><tag k="addr:postcode" v="95127"/></node>
<node visible="true" id="-155" lat="37.383887154" lon="-121.825701468"><tag k="addr:city" v="San Jose"/><tag k="addr:housenumber" v="381"/><tag k="addr:street" v="Valley View Avenue"/><tag k="addr:postcode" v="95127"/></node>
<node visible="true" id="-156" lat="37.385285435" lon="-121.821364482"><tag k="addr:city" v="San Jose"/><tag k="addr:housenumber" v="401"/><tag k="addr:street" v="Rennie Avenue"/><tag k="addr:postcode" v="95127"/></node>
<node visible="true" id="-157" lat="37.384984245000005" lon="-121.824034627"><tag k="addr:city" v="San Jose"/><tag k="addr:housenumber" v="5302"/><tag k="addr:street" v="Greenside Drive"/><tag k="addr:postcode" v="95127"/></node>
<node visible="true" id="-158" lat="37.381750953" lon="-121.82411909100001"><tag k="addr:city" v="San Jose"/><tag k="addr:housenumber" v="5307"/><tag k="addr:street" v="McKee Road"/><tag k="addr:postcode" v="95127"/></node>
<node visible="true" id="-159" lat="37.385462188000005" lon="-121.8248437"><tag k="addr:city" v="San Jose"/><tag k="addr:housenumber" v="5305"/><tag k="addr:street" v="Greenside Drive"/><tag k="addr:postcode" v="95127"/></node>
<node visible="true" id="-160" lat="37.381200230000005" lon="-121.822268929"><tag k="addr:city" v="San Jose"/><tag k="addr:housenumber" v="5306"/><tag k="addr:street" v="McKee Road"/><tag k="addr:postcode" v="95127"/></node>
<node visible="true" id="-161" lat="37.381873115000005" lon="-121.823560541"><tag k="addr:city" v="San Jose"/><tag k="addr:housenumber" v="5309"/><tag k="addr:street" v="McKee Road"/><tag k="addr:postcode" v="95127"/></node>
<node visible="true" id="-162" lat="37.381985557" lon="-121.82225130200001"><tag k="addr:city" v="San Jose"/><tag k="addr:housenumber" v="5313"/><tag k="addr:street" v="Fairway Drive"/><tag k="addr:postcode" v="95127"/></node>
<node visible="true" id="-163" lat="37.381680876000004" lon="-121.82179671700001"><tag k="addr:city" v="San Jose"/><tag k="addr:housenumber" v="5314"/><tag k="addr:street" v="Fairway Drive"/><tag k="addr:postcode" v="95127"/></node>
<node visible="true" id="-164" lat="37.381925016000004" lon="-121.82176427600001"><tag k="addr:city" v="San Jose"/><tag k="addr:housenumber" v="5316"/><tag k="addr:street" v="Fairway Drive"/><tag k="addr:postcode" v="95127"/></node>
<node visible="true" id="-165" lat="37.38225579" lon="-121.822201804"><tag k="addr:city" v="San Jose"/><tag k="addr:housenumber" v="5323"/><tag k="addr:street" v="Fairway Drive"/><tag k="addr:postcode" v="95127"/></node>
<node visible="true" id="-166" lat="37.385788226" lon="-121.824002065"><tag k="addr:city" v="San Jose"/><tag k="addr:housenumber" v="5333"/><tag k="addr:street" v="Greenside Drive"/><tag k="addr:postcode" v="95127"/></node>
<node visible="true" id="-167" lat="37.382477787" lon="-121.82215747500001"><tag k="addr:city" v="San Jose"/><tag k="addr:housenumber" v="5335"/><tag k="addr:street" v="Fairway Drive"/><tag k="addr:postcode" v="95127"/></node>
<node visible="true" id="-168" lat="37.382213132000004" lon="-121.821602467"><tag k="addr:city" v="San Jose"/><tag k="addr:housenumber" v="5340"/><tag k="addr:street" v="Fairway Drive"/><tag k="addr:postcode" v="95127"/></node>
<node visible="true" id="-169" lat="37.382666795000006" lon="-121.82205222200001"><tag k="addr:city" v="San Jose"/><tag k="addr:housenumber" v="5345"/><tag k="addr:street" v="Fairway Drive"/><tag k="addr:postcode" v="95127"/></node>
<node visible="true" id="-170" lat="37.384441744" lon="-121.82096468200001"><tag k="addr:city" v="San Jose"/><tag k="addr:housenumber" v="5418"/><tag k="addr:street" v="Club Drive"/><tag k="addr:postcode" v="95127"/></node>
<node visible="true" id="-171" lat="37.386483776000006" lon="-121.822288736"><tag k="addr:city" v="San Jose"/><tag k="addr:housenumber" v="5421"/><tag k="addr:street" v="Greenside Drive"/><tag k="addr:postcode" v="95127"/></node>
<node visible="true" id="-172" lat="37.383965821000004" lon="-121.82074729000001"><tag k="addr:city" v="San Jose"/><tag k="addr:housenumber" v="5423"/><tag k="addr:street" v="Fairway Drive"/><tag k="addr:postcode" v="95127"/></node>
<node visible="true" id="-173" lat="37.384522735000004" lon="-121.82072901500001"><tag k="addr:city" v="San Jose"/><tag k="addr:housenumber" v="5426"/><tag k="addr:street" v="Club Drive"/><tag k="addr:postcode" v="95127"/></node>
<node visible="true" id="-174" lat="37.38297903" lon="-121.82044438400001"><tag k="addr:city" v="San Jose"/><tag k="addr:housenumber" v="5430"/><tag k="addr:street" v="Fairway Drive"/><tag k="addr:postcode" v="95127"/></node>
<node visible="true" id="-175" lat="37.381523550000004" lon="-121.819842554"><tag k="addr:city" v="San Jose"/><tag k="addr:housenumber" v="5436"/><tag k="addr:street" v="McKee Road"/><tag k="addr:postcode" v="95127"/></node>
<node visible="true" id="-176" lat="37.384693625000004" lon="-121.820283723"><tag k="addr:city" v="San Jose"/><tag k="addr:housenumber" v="5444"/><tag k="addr:street" v="Club Drive"/><tag k="addr:postcode" v="95127"/></node>
<node visible="true" id="-177" lat="37.383934353" lon="-121.81848577100001"><tag k="addr:city" v="San Jose"/><tag k="addr:housenumber" v="67"/><tag k="addr:street" v="Rennie Avenue"/><tag k="addr:postcode" v="95127"/></node>
<node visible="true" id="-178" lat="37.379310033" lon="-121.82085503100001"><tag k="addr:city" v="San Jose"/><tag k="addr:housenumber" v="69"/><tag k="addr:street" v="Valley View Avenue"/><tag k="addr:postcode" v="95127"/></node>
<node visible="true" id="-179" lat="37.379614013" lon="-121.82156715"><tag k="addr:city" v="San Jose"/><tag k="addr:housenumber" v="103"/><tag k="addr:street" v="Valley View Avenue"/><tag k="addr:postcode" v="95127"/></node>
<node visible="true" id="-180" lat="37.379419507" lon="-121.822474454"><tag k="addr:city" v="San Jose"/><tag k="addr:housenumber" v="150"/><tag k="addr:street" v="Mountain View Avenue"/><tag k="addr:postcode" v="95127"/></node>
<node visible="true" id="-181" lat="37.379516493000004" lon="-121.822657186"><tag k="addr:city" v="San Jose"/><tag k="addr:housenumber" v="162"/><tag k="addr:street" v="Mountain View Avenue"/><tag k="addr:postcode" v="95127"/></node>
<node visible="true" id="-182" lat="37.382583913000005" lon="-121.81914089000001"><tag k="addr:city" v="San Jose"/><tag k="addr:housenumber" v="10"/><tag k="addr:street" v="Holmes Lane"/><tag k="addr:postcode" v="95127"/></node>
<node visible="true" id="-183" lat="37.381006833" lon="-121.822125001"><tag k="addr:city" v="San Jose"/><tag k="addr:housenumber" v="201"/><tag k="addr:street" v="Gordon Avenue"/><tag k="addr:postcode" v="95127"/></node>
<node visible="true" id="-184" lat="37.384367264000005" lon="-121.82796796400001"><tag k="addr:city" v="San Jose"/><tag k="addr:housenumber" v="554"/><tag k="addr:street" v="Toyon Avenue"/><tag k="addr:unit" v="5"/><tag k="addr:postcode" v="95127"/></node>
<node visible="true" id="-185" lat="37.384417135" lon="-121.827854192"><tag k="addr:city" v="San Jose"/><tag k="addr:housenumber" v="554"/><tag k="addr:street" v="Toyon Avenue"/><tag k="addr:unit" v="7"/><tag k="addr:postcode" v="95127"/></node>
<node visible="true" id="-186" lat="37.384346025" lon="-121.82804344"><tag k="addr:city" v="San Jose"/><tag k="addr:housenumber" v="554"/><tag k="addr:street" v="Toyon Avenue"/><tag k="addr:unit" v="3"/><tag k="addr:postcode" v="95127"/></node>
<node visible="true" id="-187" lat="37.384449059000005" lon="-121.82777889100001"><tag k="addr:city" v="San Jose"/><tag k="addr:housenumber" v="554"/><tag k="addr:street" v="Toyon Avenue"/><tag k="addr:unit" v="9"/><tag k="addr:postcode" v="95127"/></node>
<node visible="true" id="-188" lat="37.380099274" lon="-121.823504084"><tag k="addr:city" v="San Jose"/><tag k="addr:housenumber" v="214"/><tag k="addr:street" v="Mountain View Avenue"/><tag k="addr:postcode" v="95127"/></node>
<node visible="true" id="-189" lat="37.380243325" lon="-121.82363684900001"><tag k="addr:city" v="San Jose"/><tag k="addr:housenumber" v="222"/><tag k="addr:street" v="Mountain View Avenue"/><tag k="addr:postcode" v="95127"/></node>
<node visible="true" id="-190" lat="37.380327299" lon="-121.82303264500001"><tag k="addr:city" v="San Jose"/><tag k="addr:housenumber" v="215"/><tag k="addr:street" v="Valley View Avenue"/><tag k="addr:postcode" v="95127"/></node>
<node visible="true" id="-191" lat="37.379223528000004" lon="-121.826377925"><tag k="addr:city" v="San Jose"/><tag k="addr:housenumber" v="218"/><tag k="addr:street" v="Kirk Avenue"/><tag k="addr:postcode" v="95127"/></node>
<node visible="true" id="-192" lat="37.380799084" lon="-121.82256720500001"><tag k="addr:city" v="San Jose"/><tag k="addr:housenumber" v="218"/><tag k="addr:street" v="Valley View Avenue"/><tag k="addr:postcode" v="95127"/></node>
<node visible="true" id="-193" lat="37.380767070000005" lon="-121.82348882900001"><tag k="addr:city" v="San Jose"/><tag k="addr:housenumber" v="257"/><tag k="addr:street" v="Valley View Avenue"/><tag k="addr:postcode" v="95127"/></node>
<node visible="true" id="-194" lat="37.380362899000005" lon="-121.82381863900001"><tag k="addr:city" v="San Jose"/><tag k="addr:housenumber" v="234"/><tag k="addr:street" v="Mountain View Avenue"/><tag k="addr:postcode" v="95127"/></node>
<node visible="true" id="-195" lat="37.380540292" lon="-121.82326056100001"><tag k="addr:city" v="San Jose"/><tag k="addr:housenumber" v="239"/><tag k="addr:street" v="Valley View Avenue"/><tag k="addr:postcode" v="95127"/></node>
<node visible="true" id="-196" lat="37.380965907000004" lon="-121.822777853"><tag k="addr:city" v="San Jose"/><tag k="addr:housenumber" v="238"/><tag k="addr:street" v="Valley View Avenue"/><tag k="addr:postcode" v="95127"/></node>
<node visible="true" id="-197" lat="37.380510078" lon="-121.82394206400001"><tag k="addr:city" v="San Jose"/><tag k="addr:housenumber" v="244"/><tag k="addr:street" v="Mountain View Avenue"/><tag k="addr:postcode" v="95127"/></node>
<node visible="true" id="-198" lat="37.380945512000004" lon="-121.823704159"><tag k="addr:city" v="San Jose"/><tag k="addr:housenumber" v="275"/><tag k="addr:street" v="Valley View Avenue"/><tag k="addr:postcode" v="95127"/></node>
<node visible="true" id="-199" lat="37.381781858000004" lon="-121.82277017000001"><tag k="addr:city" v="San Jose"/><tag k="addr:housenumber" v="291"/><tag k="addr:street" v="Gordon Avenue"/><tag k="addr:postcode" v="95127"/></node>
<node visible="true" id="-200" lat="37.381370159" lon="-121.82323196300001"><tag k="addr:city" v="San Jose"/><tag k="addr:housenumber" v="290"/><tag k="addr:street" v="Valley View Avenue"/><tag k="addr:postcode" v="95127"/></node>
<node visible="true" id="-201" lat="37.381222407" lon="-121.823904126"><tag k="addr:city" v="San Jose"/><tag k="addr:housenumber" v="299"/><tag k="addr:street" v="Valley View Avenue"/><tag k="addr:postcode" v="95127"/></node>
<node visible="true" id="-202" lat="37.382152703" lon="-121.82306904100001"><tag k="addr:city" v="San Jose"/><tag k="addr:housenumber" v="303"/><tag k="addr:street" v="Gordon Avenue"/><tag k="addr:postcode" v="95127"/></node>
<node visible="true" id="-203" lat="37.383276999" lon="-121.81810258700001"><tag k="addr:city" v="San Jose"/><tag k="addr:housenumber" v="33"/><tag k="addr:street" v="Rennie Avenue"/><tag k="addr:postcode" v="95127"/></node>
<node visible="true" id="-204" lat="37.38263847" lon="-121.81952362000001"><tag k="addr:city" v="San Jose"/><tag k="addr:housenumber" v="32"/><tag k="addr:street" v="Holmes Lane"/><tag k="addr:postcode" v="95127"/></node>
<node visible="true" id="-205" lat="37.382515364" lon="-121.81889831800001"><tag k="addr:city" v="San Jose"/><tag k="addr:housenumber" v="37"/><tag k="addr:street" v="Oakmore Drive"/><tag k="addr:postcode" v="95127"/></node>
<node visible="true" id="-206" lat="37.382729027" lon="-121.819477511"><tag k="addr:city" v="San Jose"/><tag k="addr:housenumber" v="36"/><tag k="addr:street" v="Holmes Drive"/><tag k="addr:postcode" v="95127"/></node>
<node visible="true" id="-207" lat="37.382207354" lon="-121.819485919"><tag k="addr:city" v="San Jose"/><tag k="addr:housenumber" v="4"/><tag k="addr:street" v="Holmes Drive"/><tag k="addr:postcode" v="95127"/></node>
<node visible="true" id="-208" lat="37.38303983" lon="-121.819552395"><tag k="addr:city" v="San Jose"/><tag k="addr:housenumber" v="48"/><tag k="addr:street" v="Holmes Drive"/><tag k="addr:postcode" v="95127"/></node>
<node visible="true" id="-209" lat="37.38290534" lon="-121.81919430900001"><tag k="addr:city" v="San Jose"/><tag k="addr:housenumber" v="18"/><tag k="addr:street" v="Holmes Lane"/><tag k="addr:postcode" v="95127"/></node>
<node visible="true" id="-210" lat="37.381951136000005" lon="-121.818616671"><tag k="addr:city" v="San Jose"/><tag k="addr:housenumber" v="19"/><tag k="addr:street" v="Oakmore Drive"/><tag k="addr:postcode" v="95127"/></node>
<node visible="true" id="-211" lat="37.379473855" lon="-121.819986041"><tag k="addr:city" v="San Jose"/><tag k="addr:housenumber" v="40"/><tag k="addr:street" v="Valley View Avenue"/><tag k="addr:postcode" v="95127"/></node>
<node visible="true" id="-212" lat="37.37725824" lon="-121.82266299300001"><tag k="addr:city" v="San Jose"/><tag k="addr:housenumber" v="44"/><tag k="addr:street" v="Kirk Avenue"/><tag k="addr:unit" v="A"/><tag k="addr:postcode" v="95127"/></node>
<node visible="true" id="-213" lat="37.378179956000004" lon="-121.82100253"><tag k="addr:city" v="San Jose"/><tag k="addr:housenumber" v="49"/><tag k="addr:street" v="Mountain View Avenue"/><tag k="addr:postcode" v="95127"/></node>
<node visible="true" id="-214" lat="37.377263123000006" lon="-121.82255464200001"><tag k="addr:city" v="San Jose"/><tag k="addr:housenumber" v="44"/><tag k="addr:street" v="Kirk Avenue"/><tag k="addr:postcode" v="95127"/></node>
<node visible="true" id="-215" lat="37.377222692000004" lon="-121.82264369200001"><tag k="addr:city" v="San Jose"/><tag k="addr:housenumber" v="44"/><tag k="addr:street" v="Kirk Avenue"/><tag k="addr:unit" v="B"/><tag k="addr:postcode" v="95127"/></node>
<node visible="true" id="-216" lat="37.378744299000005" lon="-121.820617411"><tag k="addr:city" v="San Jose"/><tag k="addr:housenumber" v="50"/><tag k="addr:street" v="Mountain View Avenue"/><tag k="addr:postcode" v="95127"/></node>
<node visible="true" id="-217" lat="37.379179886" lon="-121.82058983300001"><tag k="addr:city" v="San Jose"/><tag k="addr:housenumber" v="53"/><tag k="addr:street" v="Valley View Avenue"/><tag k="addr:postcode" v="95127"/></node>
<node visible="true" id="-218" lat="37.381800872" lon="-121.824913342"><tag k="addr:city" v="San Jose"/><tag k="addr:housenumber" v="319"/><tag k="addr:street" v="Titleist Court"/><tag k="addr:postcode" v="95127"/></node>
<node visible="true" id="-219" lat="37.379225649000006" lon="-121.82208404200001"><tag k="addr:city" v="San Jose"/><tag k="addr:housenumber" v="126"/><tag k="addr:street" v="Mountain View Avenue"/><tag k="addr:postcode" v="95127"/></node>
<node visible="true" id="-220" lat="37.379606347" lon="-121.82284887700001"><tag k="addr:city" v="San Jose"/><tag k="addr:housenumber" v="174"/><tag k="addr:street" v="Mountain View Avenue"/><tag k="addr:postcode" v="95127"/></node>
<node visible="true" id="-221" lat="37.381876512000005" lon="-121.82454665600001"><tag k="addr:city" v="San Jose"/><tag k="addr:housenumber" v="320"/><tag k="addr:street" v="Titleist Court"/><tag k="addr:postcode" v="95127"/></node>
<node visible="true" id="-222" lat="37.380788052" lon="-121.821913401"><tag k="addr:city" v="San Jose"/><tag k="addr:housenumber" v="185"/><tag k="addr:street" v="Gordon Avenue"/><tag k="addr:postcode" v="95127"/></node>
<node visible="true" id="-223" lat="37.383980133" lon="-121.82181730500001"><tag k="addr:city" v="San Jose"/><tag k="addr:housenumber" v="316"/><tag k="addr:street" v="Crest Drive"/><tag k="addr:postcode" v="95127"/></node>
<node visible="true" id="-224" lat="37.379970749" lon="-121.82335115000001"><tag k="addr:city" v="San Jose"/><tag k="addr:housenumber" v="204"/><tag k="addr:street" v="Mountain View Avenue"/><tag k="addr:postcode" v="95127"/></node>
<node visible="true" id="-225" lat="37.379843821" lon="-121.82318327300001"><tag k="addr:city" v="San Jose"/><tag k="addr:housenumber" v="198"/><tag k="addr:street" v="Mountain View Avenue"/><tag k="addr:postcode" v="95127"/></node>
<node visible="true" id="-226" lat="37.38060963" lon="-121.82228070900001"><tag k="addr:city" v="San Jose"/><tag k="addr:housenumber" v="198"/><tag k="addr:street" v="Valley View Avenue"/><tag k="addr:postcode" v="95127"/></node>
<node visible="true" id="-227" lat="37.380139133" lon="-121.822756361"><tag k="addr:city" v="San Jose"/><tag k="addr:housenumber" v="199"/><tag k="addr:street" v="Valley View Avenue"/><tag k="addr:postcode" v="95127"/></node>
<node visible="true" id="-228" lat="37.379726701" lon="-121.823012817"><tag k="addr:city" v="San Jose"/><tag k="addr:housenumber" v="186"/><tag k="addr:street" v="Mountain View Avenue"/><tag k="addr:postcode" v="95127"/></node>
<node visible="true" id="-229" lat="37.37946688" lon="-121.823755742"><tag k="addr:city" v="San Jose"/><tag k="addr:housenumber" v="197"/><tag k="addr:street" v="Mountain View Avenue"/><tag k="addr:postcode" v="95127"/></node>
<node visible="true" id="-230" lat="37.382244668000006" lon="-121.82468432900001"><tag k="addr:city" v="San Jose"/><tag k="addr:housenumber" v="352"/><tag k="addr:street" v="Titleist Court"/><tag k="addr:postcode" v="95127"/></node>
<node visible="true" id="-231" lat="37.385741341" lon="-121.821527552"><tag k="addr:city" v="San Jose"/><tag k="addr:housenumber" v="441"/><tag k="addr:street" v="Rennie Avenue"/><tag k="addr:postcode" v="95127"/></node>
<node visible="true" id="-232" lat="37.385039742000004" lon="-121.82520817400001"><tag k="addr:city" v="San Jose"/><tag k="addr:housenumber" v="401"/><tag k="addr:street" v="Gordon Avenue"/><tag k="addr:postcode" v="95127"/></node>
<node visible="true" id="-233" lat="37.386291712" lon="-121.82026113"><tag k="addr:city" v="San Jose"/><tag k="addr:housenumber" v="5466"/><tag k="addr:street" v="Greenside Drive"/><tag k="addr:postcode" v="95127"/></node>
<node visible="true" id="-234" lat="37.38456" lon="-121.819658492"><tag k="addr:city" v="San Jose"/><tag k="addr:housenumber" v="5479"/><tag k="addr:street" v="Fairway Drive"/><tag k="addr:postcode" v="95127"/></node>
<node visible="true" id="-235" lat="37.38675627" lon="-121.820078088"><tag k="addr:city" v="San Jose"/><tag k="addr:housenumber" v="5480"/><tag k="addr:street" v="Greenside Drive"/><tag k="addr:postcode" v="95127"/></node>
<node visible="true" id="-236" lat="37.384664828000005" lon="-121.82648355900001"><tag k="addr:city" v="San Jose"/><tag k="addr:housenumber" v="504"/><tag k="addr:street" v="Toyon Avenue"/><tag k="addr:unit" v="165-172;265-272"/><tag k="addr:postcode" v="95127"/></node>
<node visible="true" id="-237" lat="37.384450614" lon="-121.819852318"><tag k="addr:city" v="San Jose"/><tag k="addr:housenumber" v="5471"/><tag k="addr:street" v="Fairway Drive"/><tag k="addr:postcode" v="95127"/></node>
<node visible="true" id="-238" lat="37.384349081" lon="-121.82003650600001"><tag k="addr:city" v="San Jose"/><tag k="addr:housenumber" v="5465"/><tag k="addr:street" v="Fairway Drive"/><tag k="addr:postcode" v="95127"/></node>
<node visible="true" id="-239" lat="37.385270281000004" lon="-121.81977809600001"><tag k="addr:city" v="San Jose"/><tag k="addr:housenumber" v="5471"/><tag k="addr:street" v="Club Drive"/><tag k="addr:postcode" v="95127"/></node>
<node visible="true" id="-240" lat="37.386484116000005" lon="-121.819710114"><tag k="addr:city" v="San Jose"/><tag k="addr:housenumber" v="5490"/><tag k="addr:street" v="Greenside Drive"/><tag k="addr:postcode" v="95127"/></node>
<node visible="true" id="-241" lat="37.385893280000005" lon="-121.82711856600001"><tag k="addr:city" v="San Jose"/><tag k="addr:housenumber" v="15571"/><tag k="addr:street" v="Alum Rock Avenue"/><tag k="addr:postcode" v="95127"/></node>
<node visible="true" id="-242" lat="37.384491866000005" lon="-121.826820901"><tag k="addr:city" v="San Jose"/><tag k="addr:housenumber" v="530"/><tag k="addr:street" v="Toyon Avenue"/><tag k="addr:unit" v="149-154;249-252;254"/><tag k="addr:postcode" v="95127"/></node>
<node visible="true" id="-243" lat="37.386037873" lon="-121.82009647400001"><tag k="addr:city" v="San Jose"/><tag k="addr:housenumber" v="301"/><tag k="addr:street" v="Rennie Avenue"/><tag k="addr:postcode" v="95127"/></node>
<node visible="true" id="-244" lat="37.379847223000006" lon="-121.819751425"><tag k="addr:city" v="San Jose"/><tag k="addr:housenumber" v="226"/><tag k="addr:street" v="Bayview Avenue"/><tag k="addr:postcode" v="95127"/></node>
<node visible="true" id="-245" lat="37.382771857" lon="-121.817776377"><tag k="addr:city" v="San Jose"/><tag k="addr:housenumber" v="11"/><tag k="addr:street" v="Rennie Avenue"/><tag k="addr:postcode" v="95127"/></node>
<node visible="true" id="-246" lat="37.383240571" lon="-121.822626443"><tag k="addr:city" v="San Jose"/><tag k="addr:housenumber" v="315"/><tag k="addr:street" v="Crest Drive"/><tag k="addr:postcode" v="95127"/></node>
<node visible="true" id="-247" lat="37.380227184" lon="-121.827478021"><tag k="addr:city" v="San Jose"/><tag k="addr:housenumber" v="3454"/><tag k="addr:street" v="McKee Road"/><tag k="addr:postcode" v="95127"/></node>
<node visible="true" id="-248" lat="37.38143761" lon="-121.82611189900001"><tag k="addr:city" v="San Jose"/><tag k="addr:housenumber" v="3503"/><tag k="addr:street" v="McKee Road"/><tag k="addr:postcode" v="95127"/></node>
<node visible="true" id="-249" lat="37.385193400000006" lon="-121.820014666"><tag k="addr:city" v="San Jose"/><tag k="addr:housenumber" v="5463"/><tag k="addr:street" v="Club Drive"/><tag k="addr:postcode" v="95127"/></node>
<node visible="true" id="-250" lat="37.384930592" lon="-121.819587556"><tag k="addr:city" v="San Jose"/><tag k="addr:housenumber" v="5472"/><tag k="addr:street" v="Club Drive"/><tag k="addr:postcode" v="95127"/></node>
<node visible="true" id="-251" lat="37.379337442" lon="-121.823596151"><tag k="addr:city" v="San Jose"/><tag k="addr:housenumber" v="191"/><tag k="addr:street" v="Mountain View Avenue"/><tag k="addr:postcode" v="95127"/></node>
<node visible="true" id="-252" lat="37.382306036" lon="-121.818214083"><tag k="addr:city" v="San Jose"/><tag k="addr:housenumber" v="24"/><tag k="addr:street" v="Oakmore Drive"/><tag k="addr:postcode" v="95127"/></node>
<node visible="true" id="-253" lat="37.378968485" lon="-121.820034659"><tag k="addr:city" v="San Jose"/><tag k="addr:housenumber" v="25"/><tag k="addr:street" v="Valley View Avenue"/><tag k="addr:postcode" v="95127"/></node>
<node visible="true" id="-254" lat="37.381189426" lon="-121.821463124"><tag k="addr:city" v="San Jose"/><tag k="addr:housenumber" v="278"/><tag k="addr:street" v="Gordon Avenue"/><tag k="addr:postcode" v="95127"/></node>
<node visible="true" id="-255" lat="37.380998623" lon="-121.82011074100001"><tag k="addr:city" v="San Jose"/><tag k="addr:housenumber" v="282"/><tag k="addr:street" v="Bayview Avenue"/><tag k="addr:postcode" v="95127"/></node>
<node visible="true" id="-256" lat="37.383480439" lon="-121.82204215"><tag k="addr:city" v="San Jose"/><tag k="addr:housenumber" v="311"/><tag k="addr:street" v="Crest Drive"/><tag k="addr:postcode" v="95127"/></node>
<node visible="true" id="-257" lat="37.378720396000006" lon="-121.82238518400001"><tag k="addr:city" v="San Jose"/><tag k="addr:housenumber" v="113"/><tag k="addr:street" v="Mountain View Avenue"/><tag k="addr:postcode" v="95127"/></node>
<node visible="true" id="-258" lat="37.382711581" lon="-121.82277692900001"><tag k="addr:city" v="San Jose"/><tag k="addr:housenumber" v="318"/><tag k="addr:street" v="Gordon Avenue"/><tag k="addr:postcode" v="95127"/></node>
<node visible="true" id="-259" lat="37.382356472000005" lon="-121.823634885"><tag k="addr:city" v="San Jose"/><tag k="addr:housenumber" v="320"/><tag k="addr:street" v="Valley View Avenue"/><tag k="addr:postcode" v="95127"/></node>
<node visible="true" id="-260" lat="37.382161593" lon="-121.82428422400001"><tag k="addr:city" v="San Jose"/><tag k="addr:housenumber" v="321"/><tag k="addr:street" v="Valley View Avenue"/><tag k="addr:postcode" v="95127"/></node>
<node visible="true" id="-261" lat="37.38195876" lon="-121.824577304"><tag k="addr:city" v="San Jose"/><tag k="addr:housenumber" v="328"/><tag k="addr:street" v="Titleist Court"/><tag k="addr:postcode" v="95127"/></node>
<node visible="true" id="-262" lat="37.382715318" lon="-121.82401581600001"><tag k="addr:city" v="San Jose"/><tag k="addr:housenumber" v="332"/><tag k="addr:street" v="Valley View Avenue"/><tag k="addr:postcode" v="95127"/></node>
<node visible="true" id="-263" lat="37.382894322000006" lon="-121.82369474000001"><tag k="addr:city" v="San Jose"/><tag k="addr:housenumber" v="333"/><tag k="addr:street" v="Gordon Avenue"/><tag k="addr:postcode" v="95127"/></node>
<node visible="true" id="-264" lat="37.382539679000004" lon="-121.82456185800001"><tag k="addr:city" v="San Jose"/><tag k="addr:housenumber" v="333"/><tag k="addr:street" v="Valley View Avenue"/><tag k="addr:postcode" v="95127"/></node>
<node visible="true" id="-265" lat="37.383098195" lon="-121.82425357100001"><tag k="addr:city" v="San Jose"/><tag k="addr:housenumber" v="342"/><tag k="addr:street" v="Valley View Avenue"/><tag k="addr:postcode" v="95127"/></node>
<node visible="true" id="-266" lat="37.383450892" lon="-121.82340537700001"><tag k="addr:city" v="San Jose"/><tag k="addr:housenumber" v="344"/><tag k="addr:street" v="Gordon Avenue"/><tag k="addr:postcode" v="95127"/></node>
<node visible="true" id="-267" lat="37.383281977" lon="-121.82402513900001"><tag k="addr:city" v="San Jose"/><tag k="addr:housenumber" v="345"/><tag k="addr:street" v="Gordon Avenue"/><tag k="addr:postcode" v="95127"/></node>
<node visible="true" id="-268" lat="37.384734048000006" lon="-121.82214006900001"><tag k="addr:city" v="San Jose"/><tag k="addr:housenumber" v="353"/><tag k="addr:street" v="Crest Drive"/><tag k="addr:postcode" v="95127"/></node>
<node visible="true" id="-269" lat="37.383640244000006" lon="-121.82428927400001"><tag k="addr:city" v="San Jose"/><tag k="addr:housenumber" v="355"/><tag k="addr:street" v="Gordon Avenue"/><tag k="addr:postcode" v="95127"/></node>
<node visible="true" id="-270" lat="37.382309283000005" lon="-121.82500910200001"><tag k="addr:city" v="San Jose"/><tag k="addr:housenumber" v="359"/><tag k="addr:street" v="Titleist Court"/><tag k="addr:postcode" v="95127"/></node>
<node visible="true" id="-271" lat="37.383638419" lon="-121.824755002"><tag k="addr:city" v="San Jose"/><tag k="addr:housenumber" v="360"/><tag k="addr:street" v="Valley View Avenue"/><tag k="addr:postcode" v="95127"/></node>
<node visible="true" id="-272" lat="37.383960838" lon="-121.82465473600001"><tag k="addr:city" v="San Jose"/><tag k="addr:housenumber" v="367"/><tag k="addr:street" v="Gordon Avenue"/><tag k="addr:postcode" v="95127"/></node>
<node visible="true" id="-273" lat="37.383712668" lon="-121.82556164900001"><tag k="addr:city" v="San Jose"/><tag k="addr:housenumber" v="375"/><tag k="addr:street" v="Valley View Avenue"/><tag k="addr:postcode" v="95127"/></node>
<node visible="true" id="-274" lat="37.380140468" lon="-121.82099538400001"><tag k="addr:city" v="San Jose"/><tag k="addr:housenumber" v="116"/><tag k="addr:street" v="Gordon Avenue"/><tag k="addr:postcode" v="95127"/></node>
<node visible="true" id="-275" lat="37.384243552" lon="-121.825882969"><tag k="addr:city" v="San Jose"/><tag k="addr:housenumber" v="393"/><tag k="addr:street" v="Valley View Avenue"/><tag k="addr:postcode" v="95127"/></node>
<node visible="true" id="-276" lat="37.384421893" lon="-121.82526856800001"><tag k="addr:city" v="San Jose"/><tag k="addr:housenumber" v="394"/><tag k="addr:street" v="Valley View Avenue"/><tag k="addr:postcode" v="95127"/></node>
<node visible="true" id="-277" lat="37.385924356000004" lon="-121.822119764"><tag k="addr:city" v="San Jose"/><tag k="addr:housenumber" v="398"/><tag k="addr:street" v="Crest Drive"/><tag k="addr:postcode" v="95127"/></node>
<node visible="true" id="-278" lat="37.384482125000005" lon="-121.825820632"><tag k="addr:city" v="San Jose"/><tag k="addr:housenumber" v="399"/><tag k="addr:street" v="Valley View Avenue"/><tag k="addr:postcode" v="95127"/></node>
<node visible="true" id="-279" lat="37.384644184" lon="-121.82160545"><tag k="addr:city" v="San Jose"/><tag k="addr:housenumber" v="400"/><tag k="addr:street" v="Crest Drive"/><tag k="addr:postcode" v="95127"/></node>
<node visible="true" id="-280" lat="37.384594741" lon="-121.82546835800001"><tag k="addr:city" v="San Jose"/><tag k="addr:housenumber" v="400"/><tag k="addr:street" v="Valley View Avenue"/><tag k="addr:postcode" v="95127"/></node>
<node visible="true" id="-281" lat="37.385548707000005" lon="-121.82142080700001"><tag k="addr:city" v="San Jose"/><tag k="addr:housenumber" v="421"/><tag k="addr:street" v="Rennie Avenue"/><tag k="addr:postcode" v="95127"/></node>
<node visible="true" id="-282" lat="37.382077138" lon="-121.82633993300001"><tag k="addr:city" v="San Jose"/><tag k="addr:housenumber" v="440"/><tag k="addr:street" v="Toyon Avenue"/><tag k="addr:postcode" v="95127"/></node>
<node visible="true" id="-283" lat="37.386125561" lon="-121.821100348"><tag k="addr:city" v="San Jose"/><tag k="addr:housenumber" v="462"/><tag k="addr:street" v="Rennie Avenue"/><tag k="addr:postcode" v="95127"/></node>
<node visible="true" id="-284" lat="37.383037253000005" lon="-121.819166245"><tag k="addr:city" v="San Jose"/><tag k="addr:housenumber" v="47"/><tag k="addr:street" v="Oakmore Drive"/><tag k="addr:postcode" v="95127"/></node>
<node visible="true" id="-285" lat="37.383368685" lon="-121.81875976500001"><tag k="addr:city" v="San Jose"/><tag k="addr:housenumber" v="50"/><tag k="addr:street" v="Oakmore Drive"/><tag k="addr:postcode" v="95127"/></node>
<node visible="true" id="-286" lat="37.383165798" lon="-121.81943748600001"><tag k="addr:city" v="San Jose"/><tag k="addr:housenumber" v="52"/><tag k="addr:street" v="Holmes Drive"/><tag k="addr:postcode" v="95127"/></node>
<node visible="true" id="-287" lat="37.381848614" lon="-121.82324901000001"><tag k="addr:city" v="San Jose"/><tag k="addr:housenumber" v="5311"/><tag k="addr:street" v="McKee Road"/><tag k="addr:postcode" v="95127"/></node>
<node visible="true" id="-288" lat="37.385229092" lon="-121.82350628"><tag k="addr:city" v="San Jose"/><tag k="addr:housenumber" v="5336"/><tag k="addr:street" v="Greenside Drive"/><tag k="addr:postcode" v="95127"/></node>
<node visible="true" id="-289" lat="37.385360253" lon="-121.82319181400001"><tag k="addr:city" v="San Jose"/><tag k="addr:housenumber" v="5346"/><tag k="addr:street" v="Greenside Drive"/><tag k="addr:postcode" v="95127"/></node>
<node visible="true" id="-290" lat="37.385454605" lon="-121.822970256"><tag k="addr:city" v="San Jose"/><tag k="addr:housenumber" v="5366"/><tag k="addr:street" v="Greenside Drive"/><tag k="addr:postcode" v="95127"/></node>
<node visible="true" id="-291" lat="37.385556427000004" lon="-121.82275832900001"><tag k="addr:city" v="San Jose"/><tag k="addr:housenumber" v="5386"/><tag k="addr:street" v="Greenside Drive"/><tag k="addr:postcode" v="95127"/></node>
<node visible="true" id="-292" lat="37.382480987" lon="-121.820915478"><tag k="addr:city" v="San Jose"/><tag k="addr:housenumber" v="5400"/><tag k="addr:street" v="Fairway Drive"/><tag k="addr:postcode" v="95127"/></node>
<node visible="true" id="-293" lat="37.384805222000004" lon="-121.82115964100001"><tag k="addr:city" v="San Jose"/><tag k="addr:housenumber" v="5419"/><tag k="addr:street" v="Club Drive"/><tag k="addr:postcode" v="95127"/></node>
<node visible="true" id="-294" lat="37.383387939" lon="-121.820861402"><tag k="addr:city" v="San Jose"/><tag k="addr:housenumber" v="5420"/><tag k="addr:street" v="Fairway Drive"/><tag k="addr:postcode" v="95127"/></node>
<node visible="true" id="-295" lat="37.386539611" lon="-121.82203829800001"><tag k="addr:city" v="San Jose"/><tag k="addr:housenumber" v="5431"/><tag k="addr:street" v="Greenside Drive"/><tag k="addr:postcode" v="95127"/></node>
<node visible="true" id="-296" lat="37.386643552" lon="-121.82174306700001"><tag k="addr:city" v="San Jose"/><tag k="addr:housenumber" v="5437"/><tag k="addr:street" v="Greenside Drive"/><tag k="addr:postcode" v="95127"/></node>
<node visible="true" id="-297" lat="37.38343048" lon="-121.820481486"><tag k="addr:city" v="San Jose"/><tag k="addr:housenumber" v="5440"/><tag k="addr:street" v="Fairway Drive"/><tag k="addr:postcode" v="95127"/></node>
<node visible="true" id="-298" lat="37.386702845" lon="-121.821392794"><tag k="addr:city" v="San Jose"/><tag k="addr:housenumber" v="5441"/><tag k="addr:street" v="Greenside Drive"/><tag k="addr:postcode" v="95127"/></node>
<node visible="true" id="-299" lat="37.381366862" lon="-121.81972423500001"><tag k="addr:city" v="San Jose"/><tag k="addr:housenumber" v="5448"/><tag k="addr:street" v="McKee Road"/><tag k="addr:postcode" v="95127"/></node>
<node visible="true" id="-300" lat="37.383664324" lon="-121.820148321"><tag k="addr:city" v="San Jose"/><tag k="addr:housenumber" v="5450"/><tag k="addr:street" v="Fairway Drive"/><tag k="addr:postcode" v="95127"/></node>
<node visible="true" id="-301" lat="37.383734009" lon="-121.819948221"><tag k="addr:city" v="San Jose"/><tag k="addr:housenumber" v="5454"/><tag k="addr:street" v="Fairway Drive"/><tag k="addr:postcode" v="95127"/></node>
<node visible="true" id="-302" lat="37.38511443" lon="-121.820231989"><tag k="addr:city" v="San Jose"/><tag k="addr:housenumber" v="5455"/><tag k="addr:street" v="Club Drive"/><tag k="addr:postcode" v="95127"/></node>
<node visible="true" id="-303" lat="37.383964291000005" lon="-121.819587315"><tag k="addr:city" v="San Jose"/><tag k="addr:housenumber" v="5472"/><tag k="addr:street" v="Fairway Drive"/><tag k="addr:postcode" v="95127"/></node>
<node visible="true" id="-304" lat="37.381058219" lon="-121.818658768"><tag k="addr:city" v="San Jose"/><tag k="addr:housenumber" v="5479"/><tag k="addr:street" v="Saint Laurent Court"/><tag k="addr:postcode" v="95127"/></node>
<node visible="true" id="-305" lat="37.384086076" lon="-121.81940968200001"><tag k="addr:city" v="San Jose"/><tag k="addr:housenumber" v="5480"/><tag k="addr:street" v="Fairway Drive"/><tag k="addr:postcode" v="95127"/></node>
<node visible="true" id="-306" lat="37.380399431" lon="-121.81923355500001"><tag k="addr:city" v="San Jose"/><tag k="addr:housenumber" v="5486"/><tag k="addr:street" v="McKee Road"/><tag k="addr:postcode" v="95127"/></node>
<node visible="true" id="-307" lat="37.384745971" lon="-121.81917615100001"><tag k="addr:city" v="San Jose"/><tag k="addr:housenumber" v="5491"/><tag k="addr:street" v="Fairway Drive"/><tag k="addr:postcode" v="95127"/></node>
<node visible="true" id="-308" lat="37.386235579" lon="-121.81954273100001"><tag k="addr:city" v="San Jose"/><tag k="addr:housenumber" v="5492"/><tag k="addr:street" v="Greenside Drive"/><tag k="addr:postcode" v="95127"/></node>
<node visible="true" id="-309" lat="37.384453453" lon="-121.818789347"><tag k="addr:city" v="San Jose"/><tag k="addr:housenumber" v="5498"/><tag k="addr:street" v="Fairway Drive"/><tag k="addr:postcode" v="95127"/></node>
<node visible="true" id="-310" lat="37.380209314000005" lon="-121.81915433500001"><tag k="addr:city" v="San Jose"/><tag k="addr:housenumber" v="5498"/><tag k="addr:street" v="McKee Road"/><tag k="addr:postcode" v="95127"/></node>
<node visible="true" id="-311" lat="37.385447123000006" lon="-121.81908888100001"><tag k="addr:city" v="San Jose"/><tag k="addr:housenumber" v="5499"/><tag k="addr:street" v="Club Drive"/><tag k="addr:postcode" v="95127"/></node>
<node visible="true" id="-312" lat="37.379372872000005" lon="-121.82167729400001"><tag k="addr:city" v="San Jose"/><tag k="addr:housenumber" v="55"/><tag k="addr:street" v="Gordon Avenue"/><tag k="addr:postcode" v="95127"/></node>
<node visible="true" id="-313" lat="37.383242924" lon="-121.81935210500001"><tag k="addr:city" v="San Jose"/><tag k="addr:housenumber" v="56"/><tag k="addr:street" v="Holmes Drive"/><tag k="addr:postcode" v="95127"/></node>
<node visible="true" id="-314" lat="37.382405381000005" lon="-121.81931128800001"><tag k="addr:city" v="San Jose"/><tag k="addr:housenumber" v="6"/><tag k="addr:street" v="Holmes Lane"/><tag k="addr:postcode" v="95127"/></node>
<node visible="true" id="-315" lat="37.378831850000005" lon="-121.82080169100001"><tag k="addr:city" v="San Jose"/><tag k="addr:housenumber" v="62"/><tag k="addr:street" v="Mountain View Avenue"/><tag k="addr:postcode" v="95127"/></node>
<node visible="true" id="-316" lat="37.383849924" lon="-121.819095989"><tag k="addr:city" v="San Jose"/><tag k="addr:housenumber" v="64"/><tag k="addr:street" v="Oakmore Drive"/><tag k="addr:postcode" v="95127"/></node>
<node visible="true" id="-317" lat="37.378260925" lon="-121.82119068700001"><tag k="addr:city" v="San Jose"/><tag k="addr:housenumber" v="67"/><tag k="addr:street" v="Mountain View Avenue"/><tag k="addr:postcode" v="95127"/></node>
<node visible="true" id="-318" lat="37.384058358000004" lon="-121.818757898"><tag k="addr:city" v="San Jose"/><tag k="addr:housenumber" v="69"/><tag k="addr:street" v="Rennie Avenue"/><tag k="addr:postcode" v="95127"/></node>
<node visible="true" id="-319" lat="37.378883201" lon="-121.821017413"><tag k="addr:city" v="San Jose"/><tag k="addr:housenumber" v="74"/><tag k="addr:street" v="Mountain View Avenue"/><tag k="addr:postcode" v="95127"/></node>
<node visible="true" id="-320" lat="37.378339097" lon="-121.82139807"><tag k="addr:city" v="San Jose"/><tag k="addr:housenumber" v="75"/><tag k="addr:street" v="Mountain View Avenue"/><tag k="addr:postcode" v="95127"/></node>
<node visible="true" id="-321" lat="37.382478951" lon="-121.819234487"><tag k="addr:city" v="San Jose"/><tag k="addr:housenumber" v="8"/><tag k="addr:street" v="Holmes Lane"/><tag k="addr:postcode" v="95127"/></node>
<node visible="true" id="-322" lat="37.378547084000004" lon="-121.82179485300001"><tag k="addr:city" v="San Jose"/><tag k="addr:housenumber" v="91"/><tag k="addr:street" v="Mountain View Avenue"/><tag k="addr:postcode" v="95127"/></node>
<node visible="true" id="-323" lat="37.380276333000005" lon="-121.821869546"><tag k="addr:city" v="San Jose"/><tag k="addr:housenumber" v="140"/><tag k="addr:street" v="Valley View Avenue"/><tag k="addr:postcode" v="95127"/></node>
<node visible="true" id="-324" lat="37.378622612" lon="-121.822207328"><tag k="addr:city" v="San Jose"/><tag k="addr:housenumber" v="103"/><tag k="addr:street" v="Mountain View Avenue"/><tag k="addr:postcode" v="95127"/></node>
<node visible="true" id="-325" lat="37.380608766" lon="-121.82175055200001"><tag k="addr:city" v="San Jose"/><tag k="addr:housenumber" v="161"/><tag k="addr:street" v="Gordon Avenue"/><tag k="addr:postcode" v="95127"/></node>
<node visible="true" id="-326" lat="37.381411714" lon="-121.825989453"><tag k="addr:city" v="San Jose"/><tag k="addr:housenumber" v="302"/><tag k="addr:street" v="Toyon Avenue"/><tag k="addr:unit" v="A-D;F"/><tag k="addr:postcode" v="95127"/></node>
<node visible="true" id="-327" lat="37.382120057" lon="-121.818113596"><tag k="addr:city" v="San Jose"/><tag k="addr:housenumber" v="18"/><tag k="addr:street" v="Oakmore Drive"/><tag k="addr:postcode" v="95127"/></node>
<node visible="true" id="-328" lat="37.382131696" lon="-121.81951642300001"><tag k="addr:city" v="San Jose"/><tag k="addr:housenumber" v="2"/><tag k="addr:street" v="Holmes Drive"/><tag k="addr:postcode" v="95127"/></node>
<node visible="true" id="-329" lat="37.379529699" lon="-121.826662783"><tag k="addr:city" v="San Jose"/><tag k="addr:housenumber" v="242"/><tag k="addr:street" v="Kirk Avenue"/><tag k="addr:postcode" v="95127"/></node>
<node visible="true" id="-330" lat="37.380391536000005" lon="-121.819810848"><tag k="addr:city" v="San Jose"/><tag k="addr:housenumber" v="256"/><tag k="addr:street" v="Bayview Avenue"/><tag k="addr:postcode" v="95127"/></node>
<node visible="true" id="-331" lat="37.380605565" lon="-121.81990081900001"><tag k="addr:city" v="San Jose"/><tag k="addr:housenumber" v="266"/><tag k="addr:street" v="Bayview Avenue"/><tag k="addr:postcode" v="95127"/></node>
<node visible="true" id="-332" lat="37.382496766" lon="-121.818297478"><tag k="addr:city" v="San Jose"/><tag k="addr:housenumber" v="30"/><tag k="addr:street" v="Oakmore Drive"/><tag k="addr:postcode" v="95127"/></node>
<node visible="true" id="-333" lat="37.381617185" lon="-121.82484155300001"><tag k="addr:city" v="San Jose"/><tag k="addr:housenumber" v="303"/><tag k="addr:street" v="Titleist Court"/><tag k="addr:postcode" v="95127"/></node>
<node visible="true" id="-334" lat="37.383664302" lon="-121.82165258500001"><tag k="addr:city" v="San Jose"/><tag k="addr:housenumber" v="308"/><tag k="addr:street" v="Crest Drive"/><tag k="addr:postcode" v="95127"/></node>
<node visible="true" id="-335" lat="37.383912382000005" lon="-121.82228672100001"><tag k="addr:city" v="San Jose"/><tag k="addr:housenumber" v="327"/><tag k="addr:street" v="Crest Drive"/><tag k="addr:postcode" v="95127"/></node>
<node visible="true" id="-336" lat="37.385913302000006" lon="-121.82053860100001"><tag k="addr:city" v="San Jose"/><tag k="addr:housenumber" v="327"/><tag k="addr:street" v="Rennie Avenue"/><tag k="addr:postcode" v="95127"/></node>
<node visible="true" id="-337" lat="37.383958888" lon="-121.822983038"><tag k="addr:city" v="San Jose"/><tag k="addr:housenumber" v="333"/><tag k="addr:street" v="Crest Drive"/><tag k="addr:postcode" v="95127"/></node>
<node visible="true" id="-338" lat="37.385452873000006" lon="-121.82037201400001"><tag k="addr:city" v="San Jose"/><tag k="addr:housenumber" v="336"/><tag k="addr:street" v="Rennie Avenue"/><tag k="addr:postcode" v="95127"/></node>
<node visible="true" id="-339" lat="37.383011838" lon="-121.823053728"><tag k="addr:city" v="San Jose"/><tag k="addr:housenumber" v="338"/><tag k="addr:street" v="Gordon Avenue"/><tag k="addr:postcode" v="95127"/></node>
<node visible="true" id="-340" lat="37.384379249000006" lon="-121.82199400100001"><tag k="addr:city" v="San Jose"/><tag k="addr:housenumber" v="345"/><tag k="addr:street" v="Crest Drive"/><tag k="addr:postcode" v="95127"/></node>
<node visible="true" id="-341" lat="37.383594661000004" lon="-121.82346826400001"><tag k="addr:city" v="San Jose"/><tag k="addr:housenumber" v="346"/><tag k="addr:street" v="Gordon Avenue"/><tag k="addr:postcode" v="95127"/></node>
<node visible="true" id="-342" lat="37.384528872000004" lon="-121.823895062"><tag k="addr:city" v="San Jose"/><tag k="addr:housenumber" v="372"/><tag k="addr:street" v="Gordon Avenue"/><tag k="addr:postcode" v="95127"/></node>
<node visible="true" id="-343" lat="37.385293770000004" lon="-121.82246972700001"><tag k="addr:city" v="San Jose"/><tag k="addr:housenumber" v="375"/><tag k="addr:street" v="Crest Drive"/><tag k="addr:postcode" v="95127"/></node>
<node visible="true" id="-344" lat="37.384884986" lon="-121.82306277800001"><tag k="addr:city" v="San Jose"/><tag k="addr:housenumber" v="378"/><tag k="addr:street" v="Gordon Avenue"/><tag k="addr:postcode" v="95127"/></node>
<node visible="true" id="-345" lat="37.384278306" lon="-121.82515566400001"><tag k="addr:city" v="San Jose"/><tag k="addr:housenumber" v="386"/><tag k="addr:street" v="Valley View Avenue"/><tag k="addr:postcode" v="95127"/></node>
<node visible="true" id="-346" lat="37.382886930000005" lon="-121.818498742"><tag k="addr:city" v="San Jose"/><tag k="addr:housenumber" v="40"/><tag k="addr:street" v="Oakmore Drive"/><tag k="addr:postcode" v="95127"/></node>
<node visible="true" id="-347" lat="37.384944355" lon="-121.821621949"><tag k="addr:city" v="San Jose"/><tag k="addr:housenumber" v="414"/><tag k="addr:street" v="Crest Drive"/><tag k="addr:postcode" v="95127"/></node>
<node visible="true" id="-348" lat="37.385760741000006" lon="-121.820902711"><tag k="addr:city" v="San Jose"/><tag k="addr:housenumber" v="422"/><tag k="addr:street" v="Rennie Avenue"/><tag k="addr:postcode" v="95127"/></node>
<node visible="true" id="-349" lat="37.38512472" lon="-121.82171811600001"><tag k="addr:city" v="San Jose"/><tag k="addr:housenumber" v="428"/><tag k="addr:street" v="Crest Drive"/><tag k="addr:postcode" v="95127"/></node>
<node visible="true" id="-350" lat="37.382950346" lon="-121.819503107"><tag k="addr:city" v="San Jose"/><tag k="addr:housenumber" v="44"/><tag k="addr:street" v="Holmes Drive"/><tag k="addr:postcode" v="95127"/></node>
<node visible="true" id="-351" lat="37.38594099" lon="-121.82100923700001"><tag k="addr:city" v="San Jose"/><tag k="addr:housenumber" v="442"/><tag k="addr:street" v="Rennie Avenue"/><tag k="addr:postcode" v="95127"/></node>
<node visible="true" id="-352" lat="37.383076949" lon="-121.81863568600001"><tag k="addr:city" v="San Jose"/><tag k="addr:housenumber" v="46"/><tag k="addr:street" v="Oakmore Drive"/><tag k="addr:postcode" v="95127"/></node>
<node visible="true" id="-353" lat="37.385715186000006" lon="-121.822017888"><tag k="addr:city" v="San Jose"/><tag k="addr:housenumber" v="470"/><tag k="addr:street" v="Crest Drive"/><tag k="addr:postcode" v="95127"/></node>
<node visible="true" id="-354" lat="37.381925181" lon="-121.817995811"><tag k="addr:city" v="San Jose"/><tag k="addr:housenumber" v="12"/><tag k="addr:street" v="Oakmore Drive"/><tag k="addr:postcode" v="95127"/></node>
<node visible="true" id="-355" lat="37.384941940000004" lon="-121.825895091"><tag k="addr:city" v="San Jose"/><tag k="addr:housenumber" v="501"/><tag k="addr:street" v="Gordon Avenue"/><tag k="addr:postcode" v="95127"/></node>
<node visible="true" id="-356" lat="37.385669899" lon="-121.82432543300001"><tag k="addr:city" v="San Jose"/><tag k="addr:housenumber" v="5313"/><tag k="addr:street" v="Greenside Drive"/><tag k="addr:postcode" v="95127"/></node>
<node visible="true" id="-357" lat="37.384383309" lon="-121.82139247900001"><tag k="addr:city" v="San Jose"/><tag k="addr:housenumber" v="5402"/><tag k="addr:street" v="Club Drive"/><tag k="addr:postcode" v="95127"/></node>
<node visible="true" id="-358" lat="37.386399328" lon="-121.82249219500001"><tag k="addr:city" v="San Jose"/><tag k="addr:housenumber" v="5411"/><tag k="addr:street" v="Greenside Drive"/><tag k="addr:postcode" v="95127"/></node>
<node visible="true" id="-359" lat="37.386130819" lon="-121.82173075700001"><tag k="addr:city" v="San Jose"/><tag k="addr:housenumber" v="5424"/><tag k="addr:street" v="Greenside Drive"/><tag k="addr:postcode" v="95127"/></node>
<node visible="true" id="-360" lat="37.384613141" lon="-121.820515923"><tag k="addr:city" v="San Jose"/><tag k="addr:housenumber" v="5434"/><tag k="addr:street" v="Club Drive"/><tag k="addr:postcode" v="95127"/></node>
<node visible="true" id="-361" lat="37.38354558" lon="-121.820312032"><tag k="addr:city" v="San Jose"/><tag k="addr:housenumber" v="5444"/><tag k="addr:street" v="Fairway Drive"/><tag k="addr:postcode" v="95127"/></node>
<node visible="true" id="-362" lat="37.385064272" lon="-121.820476224"><tag k="addr:city" v="San Jose"/><tag k="addr:housenumber" v="5445"/><tag k="addr:street" v="Club Drive"/><tag k="addr:postcode" v="95127"/></node>
<node visible="true" id="-363" lat="37.386751462" lon="-121.82063920200001"><tag k="addr:city" v="San Jose"/><tag k="addr:housenumber" v="5457"/><tag k="addr:street" v="Greenside Drive"/><tag k="addr:postcode" v="95127"/></node>
<node visible="true" id="-364" lat="37.381170264000005" lon="-121.819652196"><tag k="addr:city" v="San Jose"/><tag k="addr:housenumber" v="5458"/><tag k="addr:street" v="McKee Road"/><tag k="addr:postcode" v="95127"/></node>
<node visible="true" id="-365" lat="37.380992485" lon="-121.81891810200001"><tag k="addr:city" v="San Jose"/><tag k="addr:housenumber" v="5475"/><tag k="addr:street" v="Saint Laurent Court"/><tag k="addr:postcode" v="95127"/></node>
<node visible="true" id="-366" lat="37.385002057" lon="-121.81930235600001"><tag k="addr:city" v="San Jose"/><tag k="addr:housenumber" v="5482"/><tag k="addr:street" v="Club Drive"/><tag k="addr:postcode" v="95127"/></node>
<node visible="true" id="-367" lat="37.385363805000004" lon="-121.81953173400001"><tag k="addr:city" v="San Jose"/><tag k="addr:housenumber" v="5485"/><tag k="addr:street" v="Club Drive"/><tag k="addr:postcode" v="95127"/></node>
<node visible="true" id="-368" lat="37.384315194" lon="-121.82816757200001"><tag k="addr:city" v="San Jose"/><tag k="addr:housenumber" v="554"/><tag k="addr:street" v="Toyon Avenue"/><tag k="addr:unit" v="1"/><tag k="addr:postcode" v="95127"/></node>
<node visible="true" id="-369" lat="37.379129641000006" lon="-121.821838721"><tag k="addr:city" v="San Jose"/><tag k="addr:housenumber" v="101"/><tag k="addr:street" v="Gordon Avenue"/><tag k="addr:postcode" v="95127"/></node>
<node visible="true" id="-370" lat="37.383313159000004" lon="-121.81926657000001"><tag k="addr:city" v="San Jose"/><tag k="addr:housenumber" v="60"/><tag k="addr:street" v="Holmes Drive"/><tag k="addr:postcode" v="95127"/></node>
<node visible="true" id="-371" lat="37.380170887000006" lon="-121.82159163000001"><tag k="addr:city" v="San Jose"/><tag k="addr:housenumber" v="124"/><tag k="addr:street" v="Valley View Avenue"/><tag k="addr:postcode" v="95127"/></node>
<node visible="true" id="-372" lat="37.37881119" lon="-121.82262752000001"><tag k="addr:city" v="San Jose"/><tag k="addr:housenumber" v="125"/><tag k="addr:street" v="Mountain View Avenue"/><tag k="addr:postcode" v="95127"/></node>
<node visible="true" id="-373" lat="37.38154929" lon="-121.818386875"><tag k="addr:city" v="San Jose"/><tag k="addr:housenumber" v="7"/><tag k="addr:street" v="Oakmore Drive"/><tag k="addr:postcode" v="95127"/></node>
<node visible="true" id="-374" lat="37.378463712000006" lon="-121.821581148"><tag k="addr:city" v="San Jose"/><tag k="addr:housenumber" v="85"/><tag k="addr:street" v="Mountain View Avenue"/><tag k="addr:postcode" v="95127"/></node>
<node visible="true" id="-375" lat="37.3790609" lon="-121.821379621"><tag k="addr:city" v="San Jose"/><tag k="addr:housenumber" v="98"/><tag k="addr:street" v="Mountain View Avenue"/><tag k="addr:postcode" v="95127"/></node>
<node visible="true" id="-376" lat="37.378887830000004" lon="-121.82278046"><tag k="addr:city" v="San Jose"/><tag k="addr:housenumber" v="137"/><tag k="addr:street" v="Mountain View Avenue"/><tag k="addr:postcode" v="95127"/></node>
<node visible="true" id="-377" lat="37.379331836000006" lon="-121.82227423200001"><tag k="addr:city" v="San Jose"/><tag k="addr:housenumber" v="138"/><tag k="addr:street" v="Mountain View Avenue"/><tag k="addr:postcode" v="95127"/></node>
<node visible="true" id="-378" lat="37.380417622" lon="-121.82161640700001"><tag k="addr:city" v="San Jose"/><tag k="addr:housenumber" v="141"/><tag k="addr:street" v="Gordon Avenue"/><tag k="addr:postcode" v="95127"/></node>
<node visible="true" id="-379" lat="37.379807650000004" lon="-121.82222834000001"><tag k="addr:city" v="San Jose"/><tag k="addr:housenumber" v="155"/><tag k="addr:street" v="Valley View Avenue"/><tag k="addr:postcode" v="95127"/></node>
<node visible="true" id="-380" lat="37.379901804" lon="-121.822131138"><tag k="addr:city" v="San Jose"/><tag k="addr:housenumber" v="155"/><tag k="addr:street" v="Valley View Avenue"/><tag k="addr:unit" v="A"/><tag k="addr:postcode" v="95127"/></node>
<node visible="true" id="-381" lat="37.379924977" lon="-121.820418136"><tag k="addr:city" v="San Jose"/><tag k="addr:housenumber" v="219"/><tag k="addr:street" v="Bayview Avenue"/><tag k="addr:postcode" v="95127"/></node>
<node visible="true" id="-382" lat="37.379653586" lon="-121.819821524"><tag k="addr:city" v="San Jose"/><tag k="addr:housenumber" v="220"/><tag k="addr:street" v="Bayview Avenue"/><tag k="addr:postcode" v="95127"/></node>
<node visible="true" id="-383" lat="37.380146647000004" lon="-121.82044676900001"><tag k="addr:city" v="San Jose"/><tag k="addr:housenumber" v="231"/><tag k="addr:street" v="Bayview Avenue"/><tag k="addr:postcode" v="95127"/></node>
<node visible="true" id="-384" lat="37.380686616000006" lon="-121.821162482"><tag k="addr:city" v="San Jose"/><tag k="addr:housenumber" v="252"/><tag k="addr:street" v="Gordon Avenue"/><tag k="addr:postcode" v="95127"/></node>
<node visible="true" id="-385" lat="37.380962401000005" lon="-121.821312546"><tag k="addr:city" v="San Jose"/><tag k="addr:housenumber" v="268"/><tag k="addr:street" v="Gordon Avenue"/><tag k="addr:postcode" v="95127"/></node>
<node visible="true" id="-386" lat="37.385842474" lon="-121.819368663"><tag k="addr:city" v="San Jose"/><tag k="addr:housenumber" v="270"/><tag k="addr:street" v="Rennie Avenue"/><tag k="addr:postcode" v="95127"/></node>
<node visible="true" id="-387" lat="37.380678639" lon="-121.82063918700001"><tag k="addr:city" v="San Jose"/><tag k="addr:housenumber" v="273"/><tag k="addr:street" v="Bayview Avenue"/><tag k="addr:postcode" v="95127"/></node>
<node visible="true" id="-388" lat="37.381030391" lon="-121.820819263"><tag k="addr:city" v="San Jose"/><tag k="addr:housenumber" v="284"/><tag k="addr:street" v="Bayview Avenue"/><tag k="addr:postcode" v="95127"/></node>
<node visible="true" id="-389" lat="37.385718229000005" lon="-121.81967462"><tag k="addr:city" v="San Jose"/><tag k="addr:housenumber" v="290"/><tag k="addr:street" v="Rennie Avenue"/><tag k="addr:postcode" v="95127"/></node>
<node visible="true" id="-390" lat="37.385639978" lon="-121.81990862"><tag k="addr:city" v="San Jose"/><tag k="addr:housenumber" v="300"/><tag k="addr:street" v="Rennie Avenue"/><tag k="addr:postcode" v="95127"/></node>
<node visible="true" id="-391" lat="37.381689427000005" lon="-121.82443746000001"><tag k="addr:city" v="San Jose"/><tag k="addr:housenumber" v="304"/><tag k="addr:street" v="Titleist Court"/><tag k="addr:postcode" v="95127"/></node>
<node visible="true" id="-392" lat="37.383297093" lon="-121.82192287000001"><tag k="addr:city" v="San Jose"/><tag k="addr:housenumber" v="307"/><tag k="addr:street" v="Crest Drive"/><tag k="addr:postcode" v="95127"/></node>
<node visible="true" id="-393" lat="37.384001953" lon="-121.821199715"><tag k="addr:city" v="San Jose"/><tag k="addr:housenumber" v="309"/><tag k="addr:street" v="Crest Drive"/><tag k="addr:postcode" v="95127"/></node>
<node visible="true" id="-394" lat="37.38230971" lon="-121.81882309100001"><tag k="addr:city" v="San Jose"/><tag k="addr:housenumber" v="31"/><tag k="addr:street" v="Oakmore Drive"/><tag k="addr:postcode" v="95127"/></node>
<node visible="true" id="-395" lat="37.381805713000006" lon="-121.82452123700001"><tag k="addr:city" v="San Jose"/><tag k="addr:housenumber" v="312"/><tag k="addr:street" v="Titleist Court"/><tag k="addr:postcode" v="95127"/></node>
<node visible="true" id="-396" lat="37.382340499" lon="-121.823237004"><tag k="addr:city" v="San Jose"/><tag k="addr:housenumber" v="315"/><tag k="addr:street" v="Gordon Avenue"/><tag k="addr:postcode" v="95127"/></node>
<node visible="true" id="-397" lat="37.381966053" lon="-121.82421126300001"><tag k="addr:city" v="San Jose"/><tag k="addr:housenumber" v="315"/><tag k="addr:street" v="Valley View Avenue"/><tag k="addr:postcode" v="95127"/></node>
<node visible="true" id="-398" lat="37.383759115000004" lon="-121.82223058500001"><tag k="addr:city" v="San Jose"/><tag k="addr:housenumber" v="321"/><tag k="addr:street" v="Crest Drive"/><tag k="addr:postcode" v="95127"/></node>
<node visible="true" id="-399" lat="37.382533754" lon="-121.823376253"><tag k="addr:city" v="San Jose"/><tag k="addr:housenumber" v="321"/><tag k="addr:street" v="Gordon Avenue"/><tag k="addr:postcode" v="95127"/></node>
<node visible="true" id="-400" lat="37.382348165" lon="-121.82441922900001"><tag k="addr:city" v="San Jose"/><tag k="addr:housenumber" v="327"/><tag k="addr:street" v="Valley View Avenue"/><tag k="addr:postcode" v="95127"/></node>
<node visible="true" id="-401" lat="37.382854399" lon="-121.82292426800001"><tag k="addr:city" v="San Jose"/><tag k="addr:housenumber" v="330"/><tag k="addr:street" v="Gordon Avenue"/><tag k="addr:postcode" v="95127"/></node>
<node visible="true" id="-402" lat="37.384105649000006" lon="-121.822330038"><tag k="addr:city" v="San Jose"/><tag k="addr:housenumber" v="334"/><tag k="addr:street" v="Crest Drive"/><tag k="addr:postcode" v="95127"/></node>
<node visible="true" id="-403" lat="37.38208023" lon="-121.824591126"><tag k="addr:city" v="San Jose"/><tag k="addr:housenumber" v="336"/><tag k="addr:street" v="Titleist Court"/><tag k="addr:postcode" v="95127"/></node>
<node visible="true" id="-404" lat="37.383082035" lon="-121.823906385"><tag k="addr:city" v="San Jose"/><tag k="addr:housenumber" v="339"/><tag k="addr:street" v="Gordon Avenue"/><tag k="addr:postcode" v="95127"/></node>
<node visible="true" id="-405" lat="37.384544408000004" lon="-121.82288343100001"><tag k="addr:city" v="San Jose"/><tag k="addr:housenumber" v="343"/><tag k="addr:street" v="Crest Drive"/><tag k="addr:postcode" v="95127"/></node>
<node visible="true" id="-406" lat="37.384309273" lon="-121.82231705100001"><tag k="addr:city" v="San Jose"/><tag k="addr:housenumber" v="344"/><tag k="addr:street" v="Crest Drive"/><tag k="addr:postcode" v="95127"/></node>
<node visible="true" id="-407" lat="37.382902755" lon="-121.82493051300001"><tag k="addr:city" v="San Jose"/><tag k="addr:housenumber" v="345"/><tag k="addr:street" v="Valley View Avenue"/><tag k="addr:postcode" v="95127"/></node>
<node visible="true" id="-408" lat="37.381081231" lon="-121.82723903300001"><tag k="addr:city" v="San Jose"/><tag k="addr:housenumber" v="3493"/><tag k="addr:street" v="McKee Road"/><tag k="addr:postcode" v="95127"/></node>
<node visible="true" id="-409" lat="37.383752711" lon="-121.823543455"><tag k="addr:city" v="San Jose"/><tag k="addr:housenumber" v="350"/><tag k="addr:street" v="Gordon Avenue"/><tag k="addr:postcode" v="95127"/></node>
<node visible="true" id="-410" lat="37.38400605" lon="-121.82371082700001"><tag k="addr:city" v="San Jose"/><tag k="addr:housenumber" v="358"/><tag k="addr:street" v="Gordon Avenue"/><tag k="addr:postcode" v="95127"/></node>
<node visible="true" id="-411" lat="37.383838431" lon="-121.82443195500001"><tag k="addr:city" v="San Jose"/><tag k="addr:housenumber" v="361"/><tag k="addr:street" v="Gordon Avenue"/><tag k="addr:postcode" v="95127"/></node>
<node visible="true" id="-412" lat="37.384265078000006" lon="-121.82379989100001"><tag k="addr:city" v="San Jose"/><tag k="addr:housenumber" v="364"/><tag k="addr:street" v="Gordon Avenue"/><tag k="addr:postcode" v="95127"/></node>
<node visible="true" id="-413" lat="37.385092832000005" lon="-121.82235154300001"><tag k="addr:city" v="San Jose"/><tag k="addr:housenumber" v="369"/><tag k="addr:street" v="Crest Drive"/><tag k="addr:postcode" v="95127"/></node>
<node visible="true" id="-414" lat="37.383569933000004" lon="-121.82554078300001"><tag k="addr:city" v="San Jose"/><tag k="addr:housenumber" v="369"/><tag k="addr:street" v="Valley View Avenue"/><tag k="addr:postcode" v="95127"/></node>
<node visible="true" id="-415" lat="37.38530497" lon="-121.82182464200001"><tag k="addr:city" v="San Jose"/><tag k="addr:housenumber" v="370"/><tag k="addr:street" v="Crest Drive"/><tag k="addr:postcode" v="95127"/></node>
<node visible="true" id="-416" lat="37.38428626" lon="-121.824748248"><tag k="addr:city" v="San Jose"/><tag k="addr:housenumber" v="373"/><tag k="addr:street" v="Gordon Avenue"/><tag k="addr:postcode" v="95127"/></node>
<node visible="true" id="-417" lat="37.385510253" lon="-121.82190576100001"><tag k="addr:city" v="San Jose"/><tag k="addr:housenumber" v="378"/><tag k="addr:street" v="Crest Drive"/><tag k="addr:postcode" v="95127"/></node>
<node visible="true" id="-418" lat="37.378649335000006" lon="-121.82041090300001"><tag k="addr:city" v="San Jose"/><tag k="addr:housenumber" v="38"/><tag k="addr:street" v="Mountain View Avenue"/><tag k="addr:postcode" v="95127"/></node>
<node visible="true" id="-419" lat="37.385152386" lon="-121.821093461"><tag k="addr:city" v="San Jose"/><tag k="addr:housenumber" v="390"/><tag k="addr:street" v="Rennie Avenue"/><tag k="addr:postcode" v="95127"/></node>
<node visible="true" id="-420" lat="37.382881407" lon="-121.819475866"><tag k="addr:city" v="San Jose"/><tag k="addr:housenumber" v="40"/><tag k="addr:street" v="Holmes Drive"/><tag k="addr:postcode" v="95127"/></node>
<node visible="true" id="-421" lat="37.383452035000005" lon="-121.81815995800001"><tag k="addr:city" v="San Jose"/><tag k="addr:housenumber" v="41"/><tag k="addr:street" v="Rennie Avenue"/><tag k="addr:postcode" v="95127"/></node>
<node visible="true" id="-422" lat="37.385942390000004" lon="-121.82161892200001"><tag k="addr:city" v="San Jose"/><tag k="addr:housenumber" v="461"/><tag k="addr:street" v="Rennie Avenue"/><tag k="addr:postcode" v="95127"/></node>
<node visible="true" id="-423" lat="37.383147887" lon="-121.81918124600001"><tag k="addr:city" v="San Jose"/><tag k="addr:housenumber" v="49"/><tag k="addr:street" v="Oakmore Drive"/><tag k="addr:postcode" v="95127"/></node>
<node visible="true" id="-424" lat="37.382664403" lon="-121.819064245"><tag k="addr:city" v="San Jose"/><tag k="addr:housenumber" v="12"/><tag k="addr:street" v="Holmes Lane"/><tag k="addr:postcode" v="95127"/></node>
<node visible="true" id="-425" lat="37.383610698000005" lon="-121.81825425100001"><tag k="addr:city" v="San Jose"/><tag k="addr:housenumber" v="51"/><tag k="addr:street" v="Rennie Avenue"/><tag k="addr:postcode" v="95127"/></node>
<node visible="true" id="-426" lat="37.381278828" lon="-121.82255511700001"><tag k="addr:city" v="San Jose"/><tag k="addr:housenumber" v="5304"/><tag k="addr:street" v="McKee Road"/><tag k="addr:postcode" v="95127"/></node>
<node visible="true" id="-427" lat="37.381851362" lon="-121.82110729"><tag k="addr:city" v="San Jose"/><tag k="addr:housenumber" v="5320"/><tag k="addr:street" v="Fairway Drive"/><tag k="addr:postcode" v="95127"/></node>
<node visible="true" id="-428" lat="37.385927778" lon="-121.823603961"><tag k="addr:city" v="San Jose"/><tag k="addr:housenumber" v="5343"/><tag k="addr:street" v="Greenside Drive"/><tag k="addr:postcode" v="95127"/></node>
<node visible="true" id="-429" lat="37.386197983" lon="-121.822982323"><tag k="addr:city" v="San Jose"/><tag k="addr:housenumber" v="5389"/><tag k="addr:street" v="Greenside Drive"/><tag k="addr:postcode" v="95127"/></node>
<node visible="true" id="-430" lat="37.38565554" lon="-121.822538128"><tag k="addr:city" v="San Jose"/><tag k="addr:housenumber" v="5390"/><tag k="addr:street" v="Greenside Drive"/><tag k="addr:postcode" v="95127"/></node>
<node visible="true" id="-431" lat="37.386301446000004" lon="-121.822732145"><tag k="addr:city" v="San Jose"/><tag k="addr:housenumber" v="5401"/><tag k="addr:street" v="Greenside Drive"/><tag k="addr:postcode" v="95127"/></node>
<node visible="true" id="-432" lat="37.382560114" lon="-121.820997129"><tag k="addr:city" v="San Jose"/><tag k="addr:housenumber" v="5402"/><tag k="addr:street" v="Fairway Drive"/><tag k="addr:postcode" v="95127"/></node>
<node visible="true" id="-433" lat="37.381295307" lon="-121.82025397700001"><tag k="addr:city" v="San Jose"/><tag k="addr:housenumber" v="5402"/><tag k="addr:street" v="McKee Road"/><tag k="addr:postcode" v="95127"/></node>
<node visible="true" id="-434" lat="37.383797133" lon="-121.82107726800001"><tag k="addr:city" v="San Jose"/><tag k="addr:housenumber" v="5403"/><tag k="addr:street" v="Fairway Drive"/><tag k="addr:postcode" v="95127"/></node>
<node visible="true" id="-435" lat="37.381986006000005" lon="-121.820295031"><tag k="addr:city" v="San Jose"/><tag k="addr:housenumber" v="5405"/><tag k="addr:street" v="McKee Road"/><tag k="addr:postcode" v="95127"/></node>
<node visible="true" id="-436" lat="37.384703716000004" lon="-121.82138517000001"><tag k="addr:city" v="San Jose"/><tag k="addr:housenumber" v="5411"/><tag k="addr:street" v="Club Drive"/><tag k="addr:postcode" v="95127"/></node>
<node visible="true" id="-437" lat="37.384954769000004" lon="-121.820697311"><tag k="addr:city" v="San Jose"/><tag k="addr:housenumber" v="5435"/><tag k="addr:street" v="Club Drive"/><tag k="addr:postcode" v="95127"/></node>
<node visible="true" id="-438" lat="37.384065085" lon="-121.820598656"><tag k="addr:city" v="San Jose"/><tag k="addr:housenumber" v="5445"/><tag k="addr:street" v="Fairway Drive"/><tag k="addr:postcode" v="95127"/></node>
<node visible="true" id="-439" lat="37.386739420000005" lon="-121.821054993"><tag k="addr:city" v="San Jose"/><tag k="addr:housenumber" v="5449"/><tag k="addr:street" v="Greenside Drive"/><tag k="addr:postcode" v="95127"/></node>
<node visible="true" id="-440" lat="37.384770374000006" lon="-121.820061198"><tag k="addr:city" v="San Jose"/><tag k="addr:housenumber" v="5454"/><tag k="addr:street" v="Club Drive"/><tag k="addr:postcode" v="95127"/></node>
<node visible="true" id="-441" lat="37.384260649000005" lon="-121.82024047700001"><tag k="addr:city" v="San Jose"/><tag k="addr:housenumber" v="5455"/><tag k="addr:street" v="Fairway Drive"/><tag k="addr:postcode" v="95127"/></node>
<node visible="true" id="-442" lat="37.380970023" lon="-121.81956956"><tag k="addr:city" v="San Jose"/><tag k="addr:housenumber" v="5466"/><tag k="addr:street" v="McKee Road"/><tag k="addr:postcode" v="95127"/></node>
<node visible="true" id="-443" lat="37.380798399" lon="-121.819409089"><tag k="addr:city" v="San Jose"/><tag k="addr:housenumber" v="5474"/><tag k="addr:street" v="McKee Road"/><tag k="addr:postcode" v="95127"/></node>
<node visible="true" id="-444" lat="37.385148677000004" lon="-121.818977727"><tag k="addr:city" v="San Jose"/><tag k="addr:housenumber" v="5488"/><tag k="addr:street" v="Club Drive"/><tag k="addr:postcode" v="95127"/></node>
<node visible="true" id="-445" lat="37.384215978" lon="-121.819196496"><tag k="addr:city" v="San Jose"/><tag k="addr:housenumber" v="5490"/><tag k="addr:street" v="Fairway Drive"/><tag k="addr:postcode" v="95127"/></node>
<node visible="true" id="-446" lat="37.384657186000005" lon="-121.82741127700001"><tag k="addr:city" v="San Jose"/><tag k="addr:housenumber" v="552"/><tag k="addr:street" v="Toyon Avenue"/><tag k="addr:unit" v="2"/><tag k="addr:postcode" v="95127"/></node>
<node visible="true" id="-447" lat="37.384533765" lon="-121.827691254"><tag k="addr:city" v="San Jose"/><tag k="addr:housenumber" v="554"/><tag k="addr:street" v="Toyon Avenue"/><tag k="addr:unit" v="11"/><tag k="addr:postcode" v="95127"/></node>
<node visible="true" id="-448" lat="37.383785092000004" lon="-121.81836878600001"><tag k="addr:city" v="San Jose"/><tag k="addr:housenumber" v="65"/><tag k="addr:street" v="Rennie Avenue"/><tag k="addr:postcode" v="95127"/></node>
<node visible="true" id="-449" lat="37.379677958" lon="-121.82188642300001"><tag k="addr:city" v="San Jose"/><tag k="addr:housenumber" v="125"/><tag k="addr:street" v="Valley View Avenue"/><tag k="addr:postcode" v="95127"/></node>
<node visible="true" id="-450" lat="37.379736357000006" lon="-121.820535375"><tag k="addr:city" v="San Jose"/><tag k="addr:housenumber" v="70"/><tag k="addr:street" v="Valley View Avenue"/><tag k="addr:postcode" v="95127"/></node>
<node visible="true" id="-451" lat="37.378968495" lon="-121.82117281100001"><tag k="addr:city" v="San Jose"/><tag k="addr:housenumber" v="86"/><tag k="addr:street" v="Mountain View Avenue"/><tag k="addr:postcode" v="95127"/></node>
<node visible="true" id="-452" lat="37.379498664" lon="-121.82110760100001"><tag k="addr:city" v="San Jose"/><tag k="addr:housenumber" v="97"/><tag k="addr:street" v="Valley View Avenue"/><tag k="addr:postcode" v="95127"/></node>
<node visible="true" id="-453" lat="37.379856483000005" lon="-121.820956355"><tag k="addr:city" v="San Jose"/><tag k="addr:housenumber" v="98"/><tag k="addr:street" v="Valley View Avenue"/><tag k="addr:postcode" v="95127"/></node>
<node visible="true" id="-454" lat="37.380417406" lon="-121.821043204"><tag k="addr:city" v="San Jose"/><tag k="addr:housenumber" v="136"/><tag k="addr:street" v="Gordon Avenue"/><tag k="addr:postcode" v="95127"/></node>
<node visible="true" id="-455" lat="37.378990654" lon="-121.822961883"><tag k="addr:city" v="San Jose"/><tag k="addr:housenumber" v="149"/><tag k="addr:street" v="Mountain View Avenue"/><tag k="addr:postcode" v="95127"/></node>
<node visible="true" id="-456" lat="37.382817881" lon="-121.81927517000001"><tag k="addr:city" v="San Jose"/><tag k="addr:housenumber" v="16"/><tag k="addr:street" v="Holmes Lane"/><tag k="addr:postcode" v="95127"/></node>
<node visible="true" id="-457" lat="37.378568545" lon="-121.82021886000001"><tag k="addr:city" v="San Jose"/><tag k="addr:housenumber" v="16"/><tag k="addr:street" v="Mountain View Avenue"/><tag k="addr:postcode" v="95127"/></node>
<node visible="true" id="-458" lat="37.379245192" lon="-121.823097046"><tag k="addr:city" v="San Jose"/><tag k="addr:housenumber" v="167"/><tag k="addr:street" v="Mountain View Avenue"/><tag k="addr:postcode" v="95127"/></node>
<node visible="true" id="-459" lat="37.380434095000005" lon="-121.822072766"><tag k="addr:city" v="San Jose"/><tag k="addr:housenumber" v="170"/><tag k="addr:street" v="Valley View Avenue"/><tag k="addr:postcode" v="95127"/></node>
<node visible="true" id="-460" lat="37.379944894000005" lon="-121.82250702300001"><tag k="addr:city" v="San Jose"/><tag k="addr:housenumber" v="171"/><tag k="addr:street" v="Valley View Avenue"/><tag k="addr:postcode" v="95127"/></node>
<node visible="true" id="-461" lat="37.382939639" lon="-121.817870794"><tag k="addr:city" v="San Jose"/><tag k="addr:housenumber" v="19"/><tag k="addr:street" v="Rennie Avenue"/><tag k="addr:postcode" v="95127"/></node>
<node visible="true" id="-462" lat="37.379196931" lon="-121.82632246400001"><tag k="addr:city" v="San Jose"/><tag k="addr:housenumber" v="202"/><tag k="addr:street" v="Kirk Avenue"/><tag k="addr:postcode" v="95127"/></node>
<node visible="true" id="-463" lat="37.380059211" lon="-121.81975196900001"><tag k="addr:city" v="San Jose"/><tag k="addr:housenumber" v="230"/><tag k="addr:street" v="Bayview Avenue"/><tag k="addr:postcode" v="95127"/></node>
<node visible="true" id="-464" lat="37.380225843000005" lon="-121.819738426"><tag k="addr:city" v="San Jose"/><tag k="addr:housenumber" v="240"/><tag k="addr:street" v="Bayview Avenue"/><tag k="addr:postcode" v="95127"/></node>
<node visible="true" id="-465" lat="37.382140689" lon="-121.81869732700001"><tag k="addr:city" v="San Jose"/><tag k="addr:housenumber" v="25"/><tag k="addr:street" v="Oakmore Drive"/><tag k="addr:postcode" v="95127"/></node>
<node visible="true" id="-466" lat="37.383109090000005" lon="-121.818019559"><tag k="addr:city" v="San Jose"/><tag k="addr:housenumber" v="25"/><tag k="addr:street" v="Rennie Avenue"/><tag k="addr:postcode" v="95127"/></node>
<node visible="true" id="-467" lat="37.380319853" lon="-121.82046655900001"><tag k="addr:city" v="San Jose"/><tag k="addr:housenumber" v="251"/><tag k="addr:street" v="Bayview Avenue"/><tag k="addr:postcode" v="95127"/></node>
<node visible="true" id="-468" lat="37.380790951" lon="-121.820070896"><tag k="addr:city" v="San Jose"/><tag k="addr:housenumber" v="276"/><tag k="addr:street" v="Bayview Avenue"/><tag k="addr:postcode" v="95127"/></node>
<node visible="true" id="-469" lat="37.381191375" lon="-121.820960963"><tag k="addr:city" v="San Jose"/><tag k="addr:housenumber" v="299"/><tag k="addr:street" v="Bayview Avenue"/><tag k="addr:postcode" v="95127"/></node>
<node visible="true" id="-470" lat="37.383443413" lon="-121.82161566500001"><tag k="addr:city" v="San Jose"/><tag k="addr:housenumber" v="300"/><tag k="addr:street" v="Crest Drive"/><tag k="addr:postcode" v="95127"/></node>
<node visible="true" id="-471" lat="37.382911039" lon="-121.82195699900001"><tag k="addr:city" v="San Jose"/><tag k="addr:housenumber" v="303"/><tag k="addr:street" v="Crest Drive"/><tag k="addr:postcode" v="95127"/></node>
<node visible="true" id="-472" lat="37.383017824" lon="-121.82242058300001"><tag k="addr:city" v="San Jose"/><tag k="addr:housenumber" v="310"/><tag k="addr:street" v="Crest Drive"/><tag k="addr:postcode" v="95127"/></node>
<node visible="true" id="-473" lat="37.382524368000006" lon="-121.82272535400001"><tag k="addr:city" v="San Jose"/><tag k="addr:housenumber" v="310"/><tag k="addr:street" v="Gordon Avenue"/><tag k="addr:postcode" v="95127"/></node>
<node visible="true" id="-474" lat="37.382121125000005" lon="-121.82349419900001"><tag k="addr:city" v="San Jose"/><tag k="addr:housenumber" v="314"/><tag k="addr:street" v="Valley View Avenue"/><tag k="addr:postcode" v="95127"/></node>
<node visible="true" id="-475" lat="37.383485388000004" lon="-121.82269714300001"><tag k="addr:city" v="San Jose"/><tag k="addr:housenumber" v="317"/><tag k="addr:street" v="Crest Drive"/><tag k="addr:postcode" v="95127"/></node>
<node visible="true" id="-476" lat="37.384138107000005" lon="-121.821894693"><tag k="addr:city" v="San Jose"/><tag k="addr:housenumber" v="324"/><tag k="addr:street" v="Crest Drive"/><tag k="addr:postcode" v="95127"/></node>
<node visible="true" id="-477" lat="37.384186670000005" lon="-121.821275338"><tag k="addr:city" v="San Jose"/><tag k="addr:housenumber" v="325"/><tag k="addr:street" v="Crest Drive"/><tag k="addr:postcode" v="95127"/></node>
<node visible="true" id="-478" lat="37.382705926" lon="-121.82352163600001"><tag k="addr:city" v="San Jose"/><tag k="addr:housenumber" v="327"/><tag k="addr:street" v="Gordon Avenue"/><tag k="addr:postcode" v="95127"/></node>
<node visible="true" id="-479" lat="37.382714935" lon="-121.82473332"><tag k="addr:city" v="San Jose"/><tag k="addr:housenumber" v="339"/><tag k="addr:street" v="Valley View Avenue"/><tag k="addr:postcode" v="95127"/></node>
<node visible="true" id="-480" lat="37.383236626000006" lon="-121.823190439"><tag k="addr:city" v="San Jose"/><tag k="addr:housenumber" v="342"/><tag k="addr:street" v="Gordon Avenue"/><tag k="addr:postcode" v="95127"/></node>
<node visible="true" id="-481" lat="37.382163977000005" lon="-121.82466172900001"><tag k="addr:city" v="San Jose"/><tag k="addr:housenumber" v="344"/><tag k="addr:street" v="Titleist Court"/><tag k="addr:postcode" v="95127"/></node>
<node visible="true" id="-482" lat="37.384691065000005" lon="-121.822568449"><tag k="addr:city" v="San Jose"/><tag k="addr:housenumber" v="347"/><tag k="addr:street" v="Crest Drive"/><tag k="addr:postcode" v="95127"/></node>
<node visible="true" id="-483" lat="37.383268304000005" lon="-121.82450366500001"><tag k="addr:city" v="San Jose"/><tag k="addr:housenumber" v="348"/><tag k="addr:street" v="Valley View Avenue"/><tag k="addr:postcode" v="95127"/></node>
<node visible="true" id="-484" lat="37.38347413" lon="-121.824145165"><tag k="addr:city" v="San Jose"/><tag k="addr:housenumber" v="349"/><tag k="addr:street" v="Gordon Avenue"/><tag k="addr:postcode" v="95127"/></node>
<node visible="true" id="-485" lat="37.383412844000006" lon="-121.825405183"><tag k="addr:city" v="San Jose"/><tag k="addr:housenumber" v="361"/><tag k="addr:street" v="Valley View Avenue"/><tag k="addr:postcode" v="95127"/></node>
<node visible="true" id="-486" lat="37.378100733000004" lon="-121.82076897300001"><tag k="addr:city" v="San Jose"/><tag k="addr:housenumber" v="37"/><tag k="addr:street" v="Mountain View Avenue"/><tag k="addr:postcode" v="95127"/></node>
<node visible="true" id="-487" lat="37.379067931" lon="-121.820299313"><tag k="addr:city" v="San Jose"/><tag k="addr:housenumber" v="37"/><tag k="addr:street" v="Valley View Avenue"/><tag k="addr:postcode" v="95127"/></node>
<node visible="true" id="-488" lat="37.385305338" lon="-121.82085817000001"><tag k="addr:city" v="San Jose"/><tag k="addr:housenumber" v="372"/><tag k="addr:street" v="Rennie Avenue"/><tag k="addr:postcode" v="95127"/></node>
<node visible="true" id="-489" lat="37.384074546" lon="-121.82578083300001"><tag k="addr:city" v="San Jose"/><tag k="addr:housenumber" v="387"/><tag k="addr:street" v="Valley View Avenue"/><tag k="addr:postcode" v="95127"/></node>
<node visible="true" id="-490" lat="37.382099446000005" lon="-121.82589540400001"><tag k="addr:city" v="San Jose"/><tag k="addr:housenumber" v="402"/><tag k="addr:street" v="Toyon Avenue"/><tag k="addr:postcode" v="95127"/></node>
<node visible="true" id="-491" lat="37.382153982000005" lon="-121.82593079300001"><tag k="addr:city" v="San Jose"/><tag k="addr:housenumber" v="420"/><tag k="addr:street" v="Toyon Avenue"/><tag k="addr:postcode" v="95127"/></node>
<node visible="true" id="-492" lat="37.385268954000004" lon="-121.825473439"><tag k="addr:city" v="San Jose"/><tag k="addr:housenumber" v="505"/><tag k="addr:street" v="Gordon Avenue"/><tag k="addr:postcode" v="95127"/></node>
<node visible="true" id="-493" lat="37.381672482" lon="-121.82136190300001"><tag k="addr:city" v="San Jose"/><tag k="addr:housenumber" v="5318"/><tag k="addr:street" v="Fairway Drive"/><tag k="addr:postcode" v="95127"/></node>
<node visible="true" id="-494" lat="37.386115589" lon="-121.823227606"><tag k="addr:city" v="San Jose"/><tag k="addr:housenumber" v="5347"/><tag k="addr:street" v="Greenside Drive"/><tag k="addr:postcode" v="95127"/></node>
<node visible="true" id="-495" lat="37.383053016000005" lon="-121.82117714700001"><tag k="addr:city" v="San Jose"/><tag k="addr:housenumber" v="5410"/><tag k="addr:street" v="Fairway Drive"/><tag k="addr:postcode" v="95127"/></node>
<node visible="true" id="-496" lat="37.384865448" lon="-121.820938545"><tag k="addr:city" v="San Jose"/><tag k="addr:housenumber" v="5427"/><tag k="addr:street" v="Club Drive"/><tag k="addr:postcode" v="95127"/></node>
<node visible="true" id="-497" lat="37.382064223" lon="-121.819224511"><tag k="addr:city" v="San Jose"/><tag k="addr:housenumber" v="5435"/><tag k="addr:street" v="McKee Road"/><tag k="addr:postcode" v="95127"/></node>
<node visible="true" id="-498" lat="37.386326610000005" lon="-121.821191716"><tag k="addr:city" v="San Jose"/><tag k="addr:housenumber" v="5440"/><tag k="addr:street" v="Greenside Drive"/><tag k="addr:postcode" v="95127"/></node>
<node visible="true" id="-499" lat="37.386278530000006" lon="-121.82070006500001"><tag k="addr:city" v="San Jose"/><tag k="addr:housenumber" v="5444"/><tag k="addr:street" v="Greenside Drive"/><tag k="addr:postcode" v="95127"/></node>
<node visible="true" id="-500" lat="37.384176089" lon="-121.82042723500001"><tag k="addr:city" v="San Jose"/><tag k="addr:housenumber" v="5449"/><tag k="addr:street" v="Fairway Drive"/><tag k="addr:postcode" v="95127"/></node>
<node visible="true" id="-501" lat="37.383824102000005" lon="-121.819735917"><tag k="addr:city" v="San Jose"/><tag k="addr:housenumber" v="5464"/><tag k="addr:street" v="Fairway Drive"/><tag k="addr:postcode" v="95127"/></node>
<node visible="true" id="-502" lat="37.380596709" lon="-121.819340369"><tag k="addr:city" v="San Jose"/><tag k="addr:housenumber" v="5480"/><tag k="addr:street" v="McKee Road"/><tag k="addr:postcode" v="95127"/></node>
<node visible="true" id="-503" lat="37.382203075" lon="-121.81779484200001"><tag k="addr:city" v="San Jose"/><tag k="addr:housenumber" v="5485"/><tag k="addr:street" v="Alum Rock Avenue"/><tag k="addr:postcode" v="95127"/></node>
<node visible="true" id="-504" lat="37.382384508" lon="-121.817642323"><tag k="addr:city" v="San Jose"/><tag k="addr:housenumber" v="5491"/><tag k="addr:street" v="Alum Rock Avenue"/><tag k="addr:postcode" v="95127"/></node>
<node visible="true" id="-505" lat="37.38488007" lon="-121.818741047"><tag k="addr:city" v="San Jose"/><tag k="addr:housenumber" v="5495"/><tag k="addr:street" v="Fairway Drive"/><tag k="addr:postcode" v="95127"/></node>
<node visible="true" id="-506" lat="37.384259386000004" lon="-121.81839433500001"><tag k="addr:city" v="San Jose"/><tag k="addr:housenumber" v="79"/><tag k="addr:street" v="Rennie Avenue"/><tag k="addr:postcode" v="95127"/></node>
<node visible="true" id="-507" lat="37.379311414" lon="-121.82118847900001"><tag k="addr:city" v="San Jose"/><tag k="addr:housenumber" v="98"/><tag k="addr:street" v="Gordon Avenue"/><tag k="addr:postcode" v="95127"/></node>
<node visible="true" id="-508" lat="37.381751627" lon="-121.81850303600001"><tag k="addr:city" v="San Jose"/><tag k="addr:housenumber" v="13"/><tag k="addr:street" v="Oakmore Drive"/><tag k="addr:postcode" v="95127"/></node>
<node visible="true" id="-509" lat="37.382741558" lon="-121.81897883"><tag k="addr:city" v="San Jose"/><tag k="addr:housenumber" v="14"/><tag k="addr:street" v="Holmes Lane"/><tag k="addr:postcode" v="95127"/></node>
<node visible="true" id="-510" lat="37.385590507" lon="-121.81917409600001"><tag k="addr:city" v="San Jose"/><tag k="addr:housenumber" v="143"/><tag k="addr:street" v="Rennie Avenue"/><tag k="addr:postcode" v="95127"/></node>
<node visible="true" id="-511" lat="37.378002172" lon="-121.82061606200001"><tag k="addr:city" v="San Jose"/><tag k="addr:housenumber" v="15"/><tag k="addr:street" v="Mountain View Avenue"/><tag k="addr:postcode" v="95127"/></node>
<node visible="true" id="-512" lat="37.379078667" lon="-121.82322899"><tag k="addr:city" v="San Jose"/><tag k="addr:housenumber" v="165"/><tag k="addr:street" v="Mountain View Avenue"/><tag k="addr:postcode" v="95127"/></node>
<node visible="true" id="-513" lat="37.379183936000004" lon="-121.823493029"><tag k="addr:city" v="San Jose"/><tag k="addr:housenumber" v="173"/><tag k="addr:street" v="Mountain View Avenue"/><tag k="addr:postcode" v="95127"/></node>
<node visible="true" id="-514" lat="37.384963467000006" lon="-121.826610298"><tag k="addr:city" v="San Jose"/><tag k="addr:housenumber" v="512"/><tag k="addr:street" v="Toyon Avenue"/><tag k="addr:unit" v="161-164;261-264"/><tag k="addr:postcode" v="95127"/></node>
<node visible="true" id="-515" lat="37.382394473000005" lon="-121.82656516200001"><tag k="addr:city" v="San Jose"/><tag k="addr:housenumber" v="424;428;430;434;438"/><tag k="addr:street" v="Toyon Avenue"/><tag k="addr:postcode" v="95127"/></node>
<node visible="true" id="-517" lat="37.377205265" lon="-121.82358863200001"/>
<node visible="true" id="-518" lat="37.377243253" lon="-121.82366399400001"/>
<node visible="true" id="-519" lat="37.377229091000004" lon="-121.82367520400001"/>
<node visible="true" id="-520" lat="37.377240644000004" lon="-121.823698159"/>
<node visible="true" id="-521" lat="37.377234435000005" lon="-121.82370307400001"/>
<node visible="true" id="-522" lat="37.377362182" lon="-121.82395645800001"/>
<node visible="true" id="-523" lat="37.377445798000004" lon="-121.823890273"/>
<node visible="true" id="-524" lat="37.377403645" lon="-121.82380668100001"/>
<node visible="true" id="-525" lat="37.377467889" lon="-121.823755812"/>
<node visible="true" id="-526" lat="37.377493331000004" lon="-121.823806308"/>
<node visible="true" id="-527" lat="37.37747163" lon="-121.823823477"/>
<node visible="true" id="-528" lat="37.377512682" lon="-121.823904814"/>
<node visible="true" id="-529" lat="37.377685149" lon="-121.82459566400001"/>
<node visible="true" id="-530" lat="37.377702310000004" lon="-121.82458891200001"/>
<node visible="true" id="-531" lat="37.377704386000005" lon="-121.824597209"/>
<node visible="true" id="-532" lat="37.377802191" lon="-121.824558846"/>
<node visible="true" id="-533" lat="37.377645063" lon="-121.82392774200001"/>
<node visible="true" id="-534" lat="37.377721872" lon="-121.82389771400001"/>
<node visible="true" id="-535" lat="37.377879026" lon="-121.82452892200001"/>
<node visible="true" id="-536" lat="37.377993632" lon="-121.82448411000001"/>
<node visible="true" id="-537" lat="37.377836687000006" lon="-121.823853732"/>
<node visible="true" id="-538" lat="37.377919014" lon="-121.82382156300001"/>
<node visible="true" id="-539" lat="37.378128928" lon="-121.824664767"/>
<node visible="true" id="-540" lat="37.378144654" lon="-121.82465861000001"/>
<node visible="true" id="-541" lat="37.378147543000004" lon="-121.824670294"/>
<node visible="true" id="-542" lat="37.378242230000005" lon="-121.82463328600001"/>
<node visible="true" id="-543" lat="37.378024063000005" lon="-121.82375706600001"/>
<node visible="true" id="-544" lat="37.378006185000004" lon="-121.82376404600001"/>
<node visible="true" id="-545" lat="37.377998748" lon="-121.82373421000001"/>
<node visible="true" id="-546" lat="37.37755928" lon="-121.823906018"/>
<node visible="true" id="-547" lat="37.377544453000006" lon="-121.823876396"/>
<node visible="true" id="-548" lat="37.377647735000004" lon="-121.82379328100001"/>
<node visible="true" id="-549" lat="37.377511443" lon="-121.82352298400001"/>
<node visible="true" id="-550" lat="37.377396454" lon="-121.82361401400001"/>
<node visible="true" id="-551" lat="37.377416308" lon="-121.823653362"/>
<node visible="true" id="-552" lat="37.377379697" lon="-121.823682348"/>
<node visible="true" id="-553" lat="37.377354094000005" lon="-121.82363157500001"/>
<node visible="true" id="-554" lat="37.377367785000004" lon="-121.823620699"/>
<node visible="true" id="-555" lat="37.377313354" lon="-121.82351272700001"/>
<node visible="true" id="-556" lat="37.377289188" lon="-121.823531849"/>
<node visible="true" id="-557" lat="37.377285695000005" lon="-121.823524937"/>
<node visible="true" id="-559" lat="37.381241446000004" lon="-121.82701700000001"/>
<node visible="true" id="-560" lat="37.381299839" lon="-121.82710467300001"/>
<node visible="true" id="-561" lat="37.381446297000004" lon="-121.826951557"/>
<node visible="true" id="-562" lat="37.381387878000005" lon="-121.826863849"/>
<way visible="true" id="-1"><nd ref="-2"/><nd ref="-3"/><nd ref="-4"/><nd ref="-5"/><nd ref="-6"/><nd ref="-7"/><nd ref="-2"/><tag k="building" v="yes"/><tag k="height" v="4.80"/><tag k="ele" v="76.70"/></way>
<way visible="true" id="-8"><nd ref="-9"/><nd ref="-10"/><nd ref="-11"/><nd ref="-12"/><nd ref="-9"/><tag k="building" v="yes"/><tag k="height" v="3.28"/><tag k="ele" v="76.38"/></way>
<way visible="true" id="-13"><nd ref="-14"/><nd ref="-15"/><nd ref="-16"/><nd ref="-17"/><nd ref="-14"/><tag k="building" v="yes"/><tag k="height" v="3.64"/><tag k="ele" v="76.50"/></way>
<way visible="true" id="-18"><nd ref="-19"/><nd ref="-20"/><nd ref="-21"/><nd ref="-22"/><nd ref="-19"/><tag k="building" v="yes"/><tag k="height" v="3.68"/><tag k="ele" v="76.25"/></way>
<way visible="true" id="-23"><nd ref="-24"/><nd ref="-25"/><nd ref="-26"/><nd ref="-27"/><nd ref="-24"/><tag k="building" v="yes"/><tag k="height" v="3.57"/><tag k="ele" v="77.28"/></way>
<way visible="true" id="-28"><nd ref="-29"/><nd ref="-30"/><nd ref="-31"/><nd ref="-32"/><nd ref="-29"/><tag k="building" v="yes"/><tag k="height" v="3.68"/><tag k="ele" v="76.38"/></way>
<way visible="true" id="-33"><nd ref="-34"/><nd ref="-35"/><nd ref="-36"/><nd ref="-37"/><nd ref="-34"/><tag k="building" v="yes"/><tag k="height" v="3.20"/><tag k="ele" v="77.02"/></way>
<way visible="true" id="-38"><nd ref="-39"/><nd ref="-40"/><nd ref="-41"/><nd ref="-42"/><nd ref="-39"/><tag k="building" v="yes"/><tag k="height" v="3.64"/><tag k="ele" v="77.02"/></way>
<way visible="true" id="-43"><nd ref="-44"/><nd ref="-45"/><nd ref="-46"/><nd ref="-47"/><nd ref="-44"/><tag k="building" v="yes"/><tag k="height" v="3.70"/><tag k="ele" v="77.40"/></way>
<way visible="true" id="-48"><nd ref="-49"/><nd ref="-50"/><nd ref="-51"/><nd ref="-52"/><nd ref="-53"/><nd ref="-54"/><nd ref="-55"/><nd ref="-56"/><nd ref="-57"/><nd ref="-58"/><nd ref="-59"/><nd ref="-60"/><nd ref="-61"/><nd ref="-62"/><nd ref="-63"/><nd ref="-64"/><nd ref="-49"/><tag k="building" v="yes"/><tag k="height" v="3.81"/><tag k="ele" v="74.30"/></way>
<way visible="true" id="-65"><nd ref="-66"/><nd ref="-67"/><nd ref="-68"/><nd ref="-69"/><nd ref="-66"/><tag k="building" v="yes"/><tag k="height" v="3.22"/><tag k="ele" v="76.38"/></way>
<way visible="true" id="-70"><nd ref="-71"/><nd ref="-72"/><nd ref="-73"/><nd ref="-74"/><nd ref="-75"/><nd ref="-76"/><nd ref="-71"/><tag k="building" v="yes"/><tag k="height" v="3.66"/><tag k="ele" v="73.67"/></way>
<way visible="true" id="-77"><nd ref="-78"/><nd ref="-79"/><nd ref="-80"/><nd ref="-81"/><nd ref="-82"/><nd ref="-83"/><nd ref="-84"/><nd ref="-85"/><nd ref="-86"/><nd ref="-87"/><nd ref="-88"/><nd ref="-89"/><nd ref="-90"/><nd ref="-91"/><nd ref="-92"/><nd ref="-93"/><nd ref="-94"/><nd ref="-95"/><nd ref="-96"/><nd ref="-97"/><nd ref="-98"/><nd ref="-99"/><nd ref="-78"/><tag k="building" v="yes"/><tag k="height" v="3.98"/><tag k="ele" v="74.99"/></way>
<way visible="true" id="-100"><nd ref="-101"/><nd ref="-102"/><nd ref="-103"/><nd ref="-104"/><nd ref="-101"/><tag k="building" v="yes"/><tag k="height" v="4.97"/><tag k="ele" v="76.13"/></way>
<way visible="true" id="-105"><nd ref="-106"/><nd ref="-107"/><nd ref="-108"/><nd ref="-109"/><nd ref="-106"/><tag k="building" v="yes"/><tag k="height" v="3.22"/><tag k="ele" v="77.40"/></way>
<way visible="true" id="-110"><nd ref="-111"/><nd ref="-112"/><nd ref="-113"/><nd ref="-114"/><nd ref="-115"/><nd ref="-116"/><nd ref="-117"/><nd ref="-118"/><nd ref="-119"/><nd ref="-120"/><nd ref="-121"/><nd ref="-122"/><nd ref="-123"/><nd ref="-124"/><nd ref="-111"/><tag k="building" v="yes"/><tag k="height" v="4.12"/><tag k="ele" v="75.59"/></way>
<way visible="true" id="-125"><nd ref="-126"/><nd ref="-127"/><nd ref="-128"/><nd ref="-129"/><nd ref="-126"/><tag k="building" v="yes"/><tag k="height" v="3.18"/><tag k="ele" v="76.76"/></way>
<way visible="true" id="-130"><nd ref="-131"/><nd ref="-132"/><nd ref="-133"/><nd ref="-134"/><nd ref="-131"/><tag k="building" v="yes"/><tag k="height" v="3.83"/><tag k="ele" v="76.76"/></way>
<way visible="true" id="-516"><nd ref="-517"/><nd ref="-518"/><nd ref="-519"/><nd ref="-520"/><nd ref="-521"/><nd ref="-522"/><nd ref="-523"/><nd ref="-524"/><nd ref="-525"/><nd ref="-526"/><nd ref="-527"/><nd ref="-528"/><nd ref="-529"/><nd ref="-530"/><nd ref="-531"/><nd ref="-532"/><nd ref="-533"/><nd ref="-534"/><nd ref="-535"/><nd ref="-536"/><nd ref="-537"/><nd ref="-538"/><nd ref="-539"/><nd ref="-540"/><nd ref="-541"/><nd ref="-542"/><nd ref="-543"/><nd ref="-544"/><nd ref="-545"/><nd ref="-546"/><nd ref="-547"/><nd ref="-548"/><nd ref="-549"/><nd ref="-550"/><nd ref="-551"/><nd ref="-552"/><nd ref="-553"/><nd ref="-554"/><nd ref="-555"/><nd ref="-556"/><nd ref="-557"/><nd ref="-517"/><tag k="building" v="yes"/><tag k="height" v="4.63"/><tag k="ele" v="74.44"/><tag k="addr:city" v="San Jose"/><tag k="addr:housenumber" v="100"/><tag k="addr:street" v="Kirk Avenue"/><tag k="addr:postcode" v="95127"/></way>
<way visible="true" id="-558"><nd ref="-559"/><nd ref="-560"/><nd ref="-561"/><nd ref="-562"/><nd ref="-559"/><tag k="building" v="yes"/><tag k="height" v="4.76"/><tag k="ele" v="75.86"/><tag k="addr:city" v="San Jose"/><tag k="addr:housenumber" v="3495"/><tag k="addr:street" v="McKee Road"/><tag k="addr:postcode" v="95127"/></way>
</osm>