<?xml version="1.0"?>
<osm version="0.6" generator="uvmogr2osm" upload="false">
<node visible="true" id="-2" lat="37.302762194" lon="-121.86166737200001"/>
<node visible="true" id="-3" lat="37.302791378" lon="-121.861685131"/>
<node visible="true" id="-4" lat="37.302789340000004" lon="-121.861690354"/>
<node visible="true" id="-5" lat="37.302825042" lon="-121.86171208200001"/>
<node visible="true" id="-6" lat="37.302841351000005" lon="-121.861670086"/>
<node visible="true" id="-7" lat="37.302896011" lon="-121.86170333400001"/>
<node visible="true" id="-8" lat="37.302928885" lon="-121.86161866"/>
<node visible="true" id="-9" lat="37.302932567" lon="-121.861620927"/>
<node visible="true" id="-10" lat="37.302950292000006" lon="-121.861575243"/>
<node visible="true" id="-11" lat="37.302919308" lon="-121.861556421"/>
<node visible="true" id="-12" lat="37.302919873" lon="-121.861554987"/>
<node visible="true" id="-13" lat="37.302908118000005" lon="-121.86154782700001"/>
<node visible="true" id="-14" lat="37.302915339" lon="-121.861529219"/>
<node visible="true" id="-15" lat="37.30287448" lon="-121.86150437100001"/>
<node visible="true" id="-16" lat="37.302867176" lon="-121.86152318500001"/>
<node visible="true" id="-17" lat="37.302823563000004" lon="-121.86149663600001"/>
<node visible="true" id="-18" lat="37.302805356" lon="-121.861543549"/>
<node visible="true" id="-19" lat="37.302809311000004" lon="-121.86154595900001"/>
<node visible="true" id="-20" lat="37.294619402" lon="-121.85333830900001"><tag k="addr:city" v="San Jose"/><tag k="addr:housenumber" v="120"/><tag k="addr:street" v="Chateau La Salle Drive"/><tag k="addr:postcode" v="95111"/></node>
<node visible="true" id="-21" lat="37.29404705" lon="-121.85282135800001"><tag k="addr:city" v="San Jose"/><tag k="addr:housenumber" v="527"/><tag k="addr:street" v="Chateau La Salle Drive"/><tag k="addr:postcode" v="95111"/></node>
<node visible="true" id="-22" lat="37.295279473" lon="-121.85349794300001"><tag k="addr:city" v="San Jose"/><tag k="addr:housenumber" v="107"/><tag k="addr:street" v="Chateau La Salle Drive"/><tag k="addr:postcode" v="95111"/></node>
<node visible="true" id="-23" lat="37.296436579" lon="-121.870164188"><tag k="addr:city" v="San Jose"/><tag k="addr:housenumber" v="2107"/><tag k="addr:street" v="Winepol Loop"/><tag k="addr:postcode" v="95125"/></node>
<node visible="true" id="-24" lat="37.296362591000005" lon="-121.86942420800001"><tag k="addr:city" v="San Jose"/><tag k="addr:housenumber" v="2109"/><tag k="addr:street" v="Sunstruck Court"/><tag k="addr:postcode" v="95125"/></node>
<node visible="true" id="-25" lat="37.296217655" lon="-121.86957022600001"><tag k="addr:city" v="San Jose"/><tag k="addr:housenumber" v="2114"/><tag k="addr:street" v="Sunstruck Court"/><tag k="addr:postcode" v="95125"/></node>
<node visible="true" id="-26" lat="37.296052876000005" lon="-121.869745588"><tag k="addr:city" v="San Jose"/><tag k="addr:housenumber" v="2129"/><tag k="addr:street" v="Pomme Court"/><tag k="addr:postcode" v="95125"/></node>
<node visible="true" id="-27" lat="37.295949296" lon="-121.86921691500001"><tag k="addr:city" v="San Jose"/><tag k="addr:housenumber" v="2156"/><tag k="addr:street" v="Sunstruck Court"/><tag k="addr:postcode" v="95125"/></node>
<node visible="true" id="-28" lat="37.295915685000004" lon="-121.86916349900001"><tag k="addr:city" v="San Jose"/><tag k="addr:housenumber" v="2162"/><tag k="addr:street" v="Sunstruck Court"/><tag k="addr:postcode" v="95125"/></node>
<node visible="true" id="-29" lat="37.295855346" lon="-121.86944522"><tag k="addr:city" v="San Jose"/><tag k="addr:housenumber" v="2171"/><tag k="addr:street" v="Pomme Court"/><tag k="addr:postcode" v="95125"/></node>
<node visible="true" id="-30" lat="37.295804880000006" lon="-121.869280844"><tag k="addr:city" v="San Jose"/><tag k="addr:housenumber" v="2183"/><tag k="addr:street" v="Pomme Court"/><tag k="addr:postcode" v="95125"/></node>
<node visible="true" id="-31" lat="37.295736218" lon="-121.86913044"><tag k="addr:city" v="San Jose"/><tag k="addr:housenumber" v="2197"/><tag k="addr:street" v="Pomme Court"/><tag k="addr:postcode" v="95125"/></node>
<node visible="true" id="-32" lat="37.29764535" lon="-121.868941108"><tag k="addr:city" v="San Jose"/><tag k="addr:housenumber" v="2246"/><tag k="addr:street" v="Winepol Loop"/><tag k="addr:postcode" v="95125"/></node>
<node visible="true" id="-33" lat="37.295519797000004" lon="-121.853676035"><tag k="addr:city" v="San Jose"/><tag k="addr:housenumber" v="109"/><tag k="addr:street" v="Chateau La Salle Drive"/><tag k="addr:postcode" v="95111"/></node>
<node visible="true" id="-34" lat="37.297664567000005" lon="-121.86937108100001"><tag k="addr:city" v="San Jose"/><tag k="addr:housenumber" v="2288"/><tag k="addr:street" v="Winepol Loop"/><tag k="addr:postcode" v="95125"/></node>
<node visible="true" id="-35" lat="37.296570014000004" lon="-121.86716813800001"><tag k="addr:city" v="San Jose"/><tag k="addr:housenumber" v="2303"/><tag k="addr:street" v="Plateau Drive"/><tag k="addr:postcode" v="95125"/></node>
<node visible="true" id="-36" lat="37.297478317" lon="-121.86931522900001"><tag k="addr:city" v="San Jose"/><tag k="addr:housenumber" v="2305"/><tag k="addr:street" v="Winepol Loop"/><tag k="addr:postcode" v="95125"/></node>
<node visible="true" id="-37" lat="37.295219970000005" lon="-121.864471488"><tag k="addr:city" v="San Jose"/><tag k="addr:housenumber" v="2401"/><tag k="addr:street" v="Plateau Drive"/><tag k="addr:postcode" v="95125"/></node>
<node visible="true" id="-38" lat="37.290844727" lon="-121.856086949"><tag k="addr:city" v="San Jose"/><tag k="addr:housenumber" v="2717"/><tag k="addr:street" v="Ferrara Circle"/><tag k="addr:postcode" v="95111"/></node>
<node visible="true" id="-39" lat="37.296504245" lon="-121.869697156"><tag k="addr:city" v="San Jose"/><tag k="addr:housenumber" v="378"/><tag k="addr:street" v="Olive Hill Drive"/><tag k="addr:postcode" v="95125"/></node>
<node visible="true" id="-40" lat="37.296259323" lon="-121.86994267700001"><tag k="addr:city" v="San Jose"/><tag k="addr:housenumber" v="398"/><tag k="addr:street" v="Olive Hill Drive"/><tag k="addr:postcode" v="95125"/></node>
<node visible="true" id="-41" lat="37.292555844" lon="-121.85671668"><tag k="addr:city" v="San Jose"/><tag k="addr:housenumber" v="400"/><tag k="addr:street" v="Chateau La Salle Drive"/><tag k="addr:postcode" v="95111"/></node>
<node visible="true" id="-42" lat="37.292439481" lon="-121.856623865"><tag k="addr:city" v="San Jose"/><tag k="addr:housenumber" v="401"/><tag k="addr:street" v="Chateau La Salle Drive"/><tag k="addr:postcode" v="95111"/></node>
<node visible="true" id="-43" lat="37.29194152" lon="-121.854967525"><tag k="addr:city" v="San Jose"/><tag k="addr:housenumber" v="429"/><tag k="addr:street" v="Chateau La Salle Drive"/><tag k="addr:postcode" v="95111"/></node>
<node visible="true" id="-44" lat="37.292037488000005" lon="-121.855061168"><tag k="addr:city" v="San Jose"/><tag k="addr:housenumber" v="430"/><tag k="addr:street" v="Chateau La Salle Drive"/><tag k="addr:postcode" v="95111"/></node>
<node visible="true" id="-45" lat="37.292627912" lon="-121.854539786"><tag k="addr:city" v="San Jose"/><tag k="addr:housenumber" v="467"/><tag k="addr:street" v="Chateau La Salle Drive"/><tag k="addr:postcode" v="95111"/></node>
<node visible="true" id="-46" lat="37.292424948000004" lon="-121.85432276300001"><tag k="addr:city" v="San Jose"/><tag k="addr:housenumber" v="469"/><tag k="addr:street" v="Chateau La Salle Drive"/><tag k="addr:postcode" v="95111"/></node>
<node visible="true" id="-47" lat="37.29393756" lon="-121.85271798000001"><tag k="addr:city" v="San Jose"/><tag k="addr:housenumber" v="528"/><tag k="addr:street" v="Chateau La Salle Drive"/><tag k="addr:postcode" v="95111"/></node>
<node visible="true" id="-48" lat="37.295199957" lon="-121.85340729900001"><tag k="addr:city" v="San Jose"/><tag k="addr:housenumber" v="106"/><tag k="addr:street" v="Chateau La Salle Drive"/><tag k="addr:postcode" v="95111"/></node>
<node visible="true" id="-49" lat="37.295398932000005" lon="-121.853599329"><tag k="addr:city" v="San Jose"/><tag k="addr:housenumber" v="108"/><tag k="addr:street" v="Chateau La Salle Drive"/><tag k="addr:postcode" v="95111"/></node>
<node visible="true" id="-50" lat="37.295582735" lon="-121.85378292700001"><tag k="addr:city" v="San Jose"/><tag k="addr:housenumber" v="110"/><tag k="addr:street" v="Chateau La Salle Drive"/><tag k="addr:postcode" v="95111"/></node>
<node visible="true" id="-51" lat="37.295696115000005" lon="-121.85385955400001"><tag k="addr:city" v="San Jose"/><tag k="addr:housenumber" v="111"/><tag k="addr:street" v="Chateau La Salle Drive"/><tag k="addr:postcode" v="95111"/></node>
<node visible="true" id="-52" lat="37.294631138" lon="-121.85518742900001"><tag k="addr:city" v="San Jose"/><tag k="addr:housenumber" v="174"/><tag k="addr:street" v="Chateau La Salle Drive"/><tag k="addr:postcode" v="95111"/></node>
<node visible="true" id="-53" lat="37.294763808" lon="-121.855309512"><tag k="addr:city" v="San Jose"/><tag k="addr:housenumber" v="175"/><tag k="addr:street" v="Chateau La Salle Drive"/><tag k="addr:postcode" v="95111"/></node>
<node visible="true" id="-54" lat="37.294869692" lon="-121.855401693"><tag k="addr:city" v="San Jose"/><tag k="addr:housenumber" v="176"/><tag k="addr:street" v="Chateau La Salle Drive"/><tag k="addr:postcode" v="95111"/></node>
<node visible="true" id="-55" lat="37.294973059" lon="-121.85549245000001"><tag k="addr:city" v="San Jose"/><tag k="addr:housenumber" v="177"/><tag k="addr:street" v="Chateau La Salle Drive"/><tag k="addr:postcode" v="95111"/></node>
<node visible="true" id="-56" lat="37.294973502000005" lon="-121.855939469"><tag k="addr:city" v="San Jose"/><tag k="addr:housenumber" v="178"/><tag k="addr:street" v="Chateau La Salle Drive"/><tag k="addr:postcode" v="95111"/></node>
<node visible="true" id="-57" lat="37.294862394" lon="-121.85584141000001"><tag k="addr:city" v="San Jose"/><tag k="addr:housenumber" v="179"/><tag k="addr:street" v="Chateau La Salle Drive"/><tag k="addr:postcode" v="95111"/></node>
<node visible="true" id="-58" lat="37.294751507" lon="-121.85573465"><tag k="addr:city" v="San Jose"/><tag k="addr:housenumber" v="180"/><tag k="addr:street" v="Chateau La Salle Drive"/><tag k="addr:postcode" v="95111"/></node>
<node visible="true" id="-59" lat="37.294632299" lon="-121.85563376300001"><tag k="addr:city" v="San Jose"/><tag k="addr:housenumber" v="181"/><tag k="addr:street" v="Chateau La Salle Drive"/><tag k="addr:postcode" v="95111"/></node>
<node visible="true" id="-60" lat="37.294538636000006" lon="-121.85553565800001"><tag k="addr:city" v="San Jose"/><tag k="addr:housenumber" v="182"/><tag k="addr:street" v="Chateau La Salle Drive"/><tag k="addr:postcode" v="95111"/></node>
<node visible="true" id="-61" lat="37.294436219000005" lon="-121.855446181"><tag k="addr:city" v="San Jose"/><tag k="addr:housenumber" v="183"/><tag k="addr:street" v="Chateau La Salle Drive"/><tag k="addr:postcode" v="95111"/></node>
<node visible="true" id="-62" lat="37.294320176" lon="-121.855335608"><tag k="addr:city" v="San Jose"/><tag k="addr:housenumber" v="184"/><tag k="addr:street" v="Chateau La Salle Drive"/><tag k="addr:postcode" v="95111"/></node>
<node visible="true" id="-63" lat="37.294204134000005" lon="-121.85523738900001"><tag k="addr:city" v="San Jose"/><tag k="addr:housenumber" v="185"/><tag k="addr:street" v="Chateau La Salle Drive"/><tag k="addr:postcode" v="95111"/></node>
<node visible="true" id="-64" lat="37.294093926" lon="-121.85545106200001"><tag k="addr:city" v="San Jose"/><tag k="addr:housenumber" v="186"/><tag k="addr:street" v="Chateau La Salle Drive"/><tag k="addr:postcode" v="95111"/></node>
<node visible="true" id="-65" lat="37.294223282000004" lon="-121.855557957"><tag k="addr:city" v="San Jose"/><tag k="addr:housenumber" v="187"/><tag k="addr:street" v="Chateau La Salle Drive"/><tag k="addr:postcode" v="95111"/></node>
<node visible="true" id="-66" lat="37.29432743" lon="-121.85566179800001"><tag k="addr:city" v="San Jose"/><tag k="addr:housenumber" v="188"/><tag k="addr:street" v="Chateau La Salle Drive"/><tag k="addr:postcode" v="95111"/></node>
<node visible="true" id="-67" lat="37.294433326000004" lon="-121.85577363"><tag k="addr:city" v="San Jose"/><tag k="addr:housenumber" v="189"/><tag k="addr:street" v="Chateau La Salle Drive"/><tag k="addr:postcode" v="95111"/></node>
<node visible="true" id="-68" lat="37.294540448" lon="-121.855855953"><tag k="addr:city" v="San Jose"/><tag k="addr:housenumber" v="190"/><tag k="addr:street" v="Chateau La Salle Drive"/><tag k="addr:postcode" v="95111"/></node>
<node visible="true" id="-69" lat="37.294654218000005" lon="-121.855962751"><tag k="addr:city" v="San Jose"/><tag k="addr:housenumber" v="191"/><tag k="addr:street" v="Chateau La Salle Drive"/><tag k="addr:postcode" v="95111"/></node>
<node visible="true" id="-70" lat="37.294769295" lon="-121.85606445500001"><tag k="addr:city" v="San Jose"/><tag k="addr:housenumber" v="192"/><tag k="addr:street" v="Chateau La Salle Drive"/><tag k="addr:postcode" v="95111"/></node>
<node visible="true" id="-71" lat="37.294544909" lon="-121.85629589700001"><tag k="addr:city" v="San Jose"/><tag k="addr:housenumber" v="193"/><tag k="addr:street" v="Chateau La Salle Drive"/><tag k="addr:postcode" v="95111"/></node>
<node visible="true" id="-72" lat="37.294428137000004" lon="-121.85618891700001"><tag k="addr:city" v="San Jose"/><tag k="addr:housenumber" v="194"/><tag k="addr:street" v="Chateau La Salle Drive"/><tag k="addr:postcode" v="95111"/></node>
<node visible="true" id="-73" lat="37.294315343" lon="-121.856101307"><tag k="addr:city" v="San Jose"/><tag k="addr:housenumber" v="195"/><tag k="addr:street" v="Chateau La Salle Drive"/><tag k="addr:postcode" v="95111"/></node>
<node visible="true" id="-74" lat="37.294210312000004" lon="-121.856001964"><tag k="addr:city" v="San Jose"/><tag k="addr:housenumber" v="196"/><tag k="addr:street" v="Chateau La Salle Drive"/><tag k="addr:postcode" v="95111"/></node>
<node visible="true" id="-75" lat="37.294097104" lon="-121.85589525500001"><tag k="addr:city" v="San Jose"/><tag k="addr:housenumber" v="197"/><tag k="addr:street" v="Chateau La Salle Drive"/><tag k="addr:postcode" v="95111"/></node>
<node visible="true" id="-76" lat="37.293996504" lon="-121.855796107"><tag k="addr:city" v="San Jose"/><tag k="addr:housenumber" v="198"/><tag k="addr:street" v="Chateau La Salle Drive"/><tag k="addr:postcode" v="95111"/></node>
<node visible="true" id="-77" lat="37.293882012000005" lon="-121.855696432"><tag k="addr:city" v="San Jose"/><tag k="addr:housenumber" v="199"/><tag k="addr:street" v="Chateau La Salle Drive"/><tag k="addr:postcode" v="95111"/></node>
<node visible="true" id="-78" lat="37.293749276" lon="-121.85588298900001"><tag k="addr:city" v="San Jose"/><tag k="addr:housenumber" v="200"/><tag k="addr:street" v="Chateau La Salle Drive"/><tag k="addr:postcode" v="95111"/></node>
<node visible="true" id="-79" lat="37.29759759" lon="-121.867019209"><tag k="addr:city" v="San Jose"/><tag k="addr:housenumber" v="200"/><tag k="addr:street" v="Olive Hill Drive"/><tag k="addr:postcode" v="95125"/></node>
<node visible="true" id="-80" lat="37.298598489" lon="-121.86785416800001"><tag k="addr:city" v="San Jose"/><tag k="addr:housenumber" v="201"/><tag k="addr:street" v="Azevedo Circle"/><tag k="addr:postcode" v="95125"/></node>
<node visible="true" id="-81" lat="37.293858978" lon="-121.855987322"><tag k="addr:city" v="San Jose"/><tag k="addr:housenumber" v="201"/><tag k="addr:street" v="Chateau La Salle Drive"/><tag k="addr:postcode" v="95111"/></node>
<node visible="true" id="-82" lat="37.296831340000004" lon="-121.866730594"><tag k="addr:city" v="San Jose"/><tag k="addr:housenumber" v="201"/><tag k="addr:street" v="Meadow Pine Place"/><tag k="addr:postcode" v="95125"/></node>
<node visible="true" id="-83" lat="37.293972788000005" lon="-121.85609313900001"><tag k="addr:city" v="San Jose"/><tag k="addr:housenumber" v="202"/><tag k="addr:street" v="Chateau La Salle Drive"/><tag k="addr:postcode" v="95111"/></node>
<node visible="true" id="-84" lat="37.297224204" lon="-121.866676987"><tag k="addr:city" v="San Jose"/><tag k="addr:housenumber" v="202"/><tag k="addr:street" v="Meadow Pine Place"/><tag k="addr:postcode" v="95125"/></node>
<node visible="true" id="-85" lat="37.296278157" lon="-121.86618048300001"><tag k="addr:city" v="San Jose"/><tag k="addr:housenumber" v="202"/><tag k="addr:street" v="Monte Vista Drive"/><tag k="addr:postcode" v="95125"/></node>
<node visible="true" id="-86" lat="37.29407708" lon="-121.856186859"><tag k="addr:city" v="San Jose"/><tag k="addr:housenumber" v="203"/><tag k="addr:street" v="Chateau La Salle Drive"/><tag k="addr:postcode" v="95111"/></node>
<node visible="true" id="-87" lat="37.297351006" lon="-121.866824328"><tag k="addr:city" v="San Jose"/><tag k="addr:housenumber" v="203"/><tag k="addr:street" v="Olive Hill Drive"/><tag k="addr:postcode" v="95125"/></node>
<node visible="true" id="-88" lat="37.294177901000005" lon="-121.856290662"><tag k="addr:city" v="San Jose"/><tag k="addr:housenumber" v="204"/><tag k="addr:street" v="Chateau La Salle Drive"/><tag k="addr:postcode" v="95111"/></node>
<node visible="true" id="-89" lat="37.294298696000006" lon="-121.85638605400001"><tag k="addr:city" v="San Jose"/><tag k="addr:housenumber" v="205"/><tag k="addr:street" v="Chateau La Salle Drive"/><tag k="addr:postcode" v="95111"/></node>
<node visible="true" id="-90" lat="37.296757582000005" lon="-121.866655909"><tag k="addr:city" v="San Jose"/><tag k="addr:housenumber" v="205"/><tag k="addr:street" v="Meadow Pine Place"/><tag k="addr:postcode" v="95125"/></node>
<node visible="true" id="-91" lat="37.294449206" lon="-121.85703285900001"><tag k="addr:city" v="San Jose"/><tag k="addr:housenumber" v="206"/><tag k="addr:street" v="Chateau La Salle Drive"/><tag k="addr:postcode" v="95111"/></node>
<node visible="true" id="-92" lat="37.296193809" lon="-121.866102271"><tag k="addr:city" v="San Jose"/><tag k="addr:housenumber" v="206"/><tag k="addr:street" v="Monte Vista Drive"/><tag k="addr:postcode" v="95125"/></node>
<node visible="true" id="-93" lat="37.297532175" lon="-121.86711930400001"><tag k="addr:city" v="San Jose"/><tag k="addr:housenumber" v="206"/><tag k="addr:street" v="Olive Hill Drive"/><tag k="addr:postcode" v="95125"/></node>
<node visible="true" id="-94" lat="37.298538886" lon="-121.867955194"><tag k="addr:city" v="San Jose"/><tag k="addr:housenumber" v="207"/><tag k="addr:street" v="Azevedo Circle"/><tag k="addr:postcode" v="95125"/></node>
<node visible="true" id="-95" lat="37.294344015" lon="-121.85691209900001"><tag k="addr:city" v="San Jose"/><tag k="addr:housenumber" v="207"/><tag k="addr:street" v="Chateau La Salle Drive"/><tag k="addr:postcode" v="95111"/></node>
<node visible="true" id="-96" lat="37.294231487000005" lon="-121.856755057"><tag k="addr:city" v="San Jose"/><tag k="addr:housenumber" v="208"/><tag k="addr:street" v="Chateau La Salle Drive"/><tag k="addr:postcode" v="95111"/></node>
<node visible="true" id="-97" lat="37.297164612" lon="-121.866777153"><tag k="addr:city" v="San Jose"/><tag k="addr:housenumber" v="208"/><tag k="addr:street" v="Meadow Pine Place"/><tag k="addr:postcode" v="95125"/></node>
<node visible="true" id="-98" lat="37.294108062" lon="-121.856658073"><tag k="addr:city" v="San Jose"/><tag k="addr:housenumber" v="209"/><tag k="addr:street" v="Chateau La Salle Drive"/><tag k="addr:postcode" v="95111"/></node>
<node visible="true" id="-99" lat="37.296683928" lon="-121.86657458900001"><tag k="addr:city" v="San Jose"/><tag k="addr:housenumber" v="209"/><tag k="addr:street" v="Meadow Pine Place"/><tag k="addr:postcode" v="95125"/></node>
<node visible="true" id="-100" lat="37.297303330000005" lon="-121.86690367000001"><tag k="addr:city" v="San Jose"/><tag k="addr:housenumber" v="209"/><tag k="addr:street" v="Olive Hill Drive"/><tag k="addr:postcode" v="95125"/></node>
<node visible="true" id="-101" lat="37.293986037" lon="-121.856546854"><tag k="addr:city" v="San Jose"/><tag k="addr:housenumber" v="210"/><tag k="addr:street" v="Chateau La Salle Drive"/><tag k="addr:postcode" v="95111"/></node>
<node visible="true" id="-102" lat="37.296128108000005" lon="-121.8660244"><tag k="addr:city" v="San Jose"/><tag k="addr:housenumber" v="210"/><tag k="addr:street" v="Monte Vista Drive"/><tag k="addr:postcode" v="95125"/></node>
<node visible="true" id="-103" lat="37.296405218000004" lon="-121.87011971800001"><tag k="addr:city" v="San Jose"/><tag k="addr:housenumber" v="2101"/><tag k="addr:street" v="Winepol Loop"/><tag k="addr:postcode" v="95125"/></node>
<node visible="true" id="-104" lat="37.296191782" lon="-121.869601676"><tag k="addr:city" v="San Jose"/><tag k="addr:housenumber" v="2108"/><tag k="addr:street" v="Sunstruck Court"/><tag k="addr:postcode" v="95125"/></node>
<node visible="true" id="-105" lat="37.293877604" lon="-121.85643209800001"><tag k="addr:city" v="San Jose"/><tag k="addr:housenumber" v="211"/><tag k="addr:street" v="Chateau La Salle Drive"/><tag k="addr:postcode" v="95111"/></node>
<node visible="true" id="-106" lat="37.296478801" lon="-121.87004694500001"><tag k="addr:city" v="San Jose"/><tag k="addr:housenumber" v="2113"/><tag k="addr:street" v="Winepol Loop"/><tag k="addr:postcode" v="95125"/></node>
<node visible="true" id="-107" lat="37.296332438" lon="-121.869458241"><tag k="addr:city" v="San Jose"/><tag k="addr:housenumber" v="2115"/><tag k="addr:street" v="Sunstruck Court"/><tag k="addr:postcode" v="95125"/></node>
<node visible="true" id="-108" lat="37.296525144" lon="-121.870004941"><tag k="addr:city" v="San Jose"/><tag k="addr:housenumber" v="2119"/><tag k="addr:street" v="Winepol Loop"/><tag k="addr:postcode" v="95125"/></node>
<node visible="true" id="-109" lat="37.29829117" lon="-121.86769977200001"><tag k="addr:city" v="San Jose"/><tag k="addr:housenumber" v="212"/><tag k="addr:street" v="Azevedo Circle"/><tag k="addr:postcode" v="95125"/></node>
<node visible="true" id="-110" lat="37.293766149" lon="-121.856340165"><tag k="addr:city" v="San Jose"/><tag k="addr:housenumber" v="212"/><tag k="addr:street" v="Chateau La Salle Drive"/><tag k="addr:postcode" v="95111"/></node>
<node visible="true" id="-111" lat="37.297490335" lon="-121.867199819"><tag k="addr:city" v="San Jose"/><tag k="addr:housenumber" v="212"/><tag k="addr:street" v="Olive Hill Drive"/><tag k="addr:postcode" v="95125"/></node>
<node visible="true" id="-112" lat="37.296138846000005" lon="-121.869528009"><tag k="addr:city" v="San Jose"/><tag k="addr:housenumber" v="2120"/><tag k="addr:street" v="Sunstruck Court"/><tag k="addr:postcode" v="95125"/></node>
<node visible="true" id="-113" lat="37.296317095" lon="-121.86934149500001"><tag k="addr:city" v="San Jose"/><tag k="addr:housenumber" v="2121"/><tag k="addr:street" v="Sunstruck Court"/><tag k="addr:postcode" v="95125"/></node>
<node visible="true" id="-114" lat="37.296568502" lon="-121.86995676000001"><tag k="addr:city" v="San Jose"/><tag k="addr:housenumber" v="2125"/><tag k="addr:street" v="Winepol Loop"/><tag k="addr:postcode" v="95125"/></node>
<node visible="true" id="-115" lat="37.296100291" lon="-121.86947909300001"><tag k="addr:city" v="San Jose"/><tag k="addr:housenumber" v="2126"/><tag k="addr:street" v="Sunstruck Court"/><tag k="addr:postcode" v="95125"/></node>
<node visible="true" id="-116" lat="37.296279161" lon="-121.86929182600001"><tag k="addr:city" v="San Jose"/><tag k="addr:housenumber" v="2127"/><tag k="addr:street" v="Sunstruck Court"/><tag k="addr:postcode" v="95125"/></node>
<node visible="true" id="-117" lat="37.298491236000004" lon="-121.86803453700001"><tag k="addr:city" v="San Jose"/><tag k="addr:housenumber" v="213"/><tag k="addr:street" v="Azevedo Circle"/><tag k="addr:postcode" v="95125"/></node>
<node visible="true" id="-118" lat="37.293647964" lon="-121.85622802500001"><tag k="addr:city" v="San Jose"/><tag k="addr:housenumber" v="213"/><tag k="addr:street" v="Chateau La Salle Drive"/><tag k="addr:postcode" v="95111"/></node>
<node visible="true" id="-119" lat="37.29661286" lon="-121.86649995500001"><tag k="addr:city" v="San Jose"/><tag k="addr:housenumber" v="213"/><tag k="addr:street" v="Meadow Pine Place"/><tag k="addr:postcode" v="95125"/></node>
<node visible="true" id="-120" lat="37.296634671" lon="-121.86989216100001"><tag k="addr:city" v="San Jose"/><tag k="addr:housenumber" v="2131"/><tag k="addr:street" v="Winepol Loop"/><tag k="addr:postcode" v="95125"/></node>
<node visible="true" id="-121" lat="37.296086997" lon="-121.869357629"><tag k="addr:city" v="San Jose"/><tag k="addr:housenumber" v="2132"/><tag k="addr:street" v="Sunstruck Court"/><tag k="addr:postcode" v="95125"/></node>
<node visible="true" id="-122" lat="37.296203327" lon="-121.86924773300001"><tag k="addr:city" v="San Jose"/><tag k="addr:housenumber" v="2133"/><tag k="addr:street" v="Sunstruck Court"/><tag k="addr:postcode" v="95125"/></node>
<node visible="true" id="-123" lat="37.296086232" lon="-121.86971028600001"><tag k="addr:city" v="San Jose"/><tag k="addr:housenumber" v="2135"/><tag k="addr:street" v="Pomme Court"/><tag k="addr:postcode" v="95125"/></node>
<node visible="true" id="-124" lat="37.296663032000005" lon="-121.86992061500001"><tag k="addr:city" v="San Jose"/><tag k="addr:housenumber" v="2137"/><tag k="addr:street" v="Winepol Loop"/><tag k="addr:postcode" v="95125"/></node>
<node visible="true" id="-125" lat="37.296057860000005" lon="-121.86939567"><tag k="addr:city" v="San Jose"/><tag k="addr:housenumber" v="2138"/><tag k="addr:street" v="Sunstruck Court"/><tag k="addr:postcode" v="95125"/></node>
<node visible="true" id="-126" lat="37.296236668" lon="-121.869213759"><tag k="addr:city" v="San Jose"/><tag k="addr:housenumber" v="2139"/><tag k="addr:street" v="Sunstruck Court"/><tag k="addr:postcode" v="95125"/></node>
<node visible="true" id="-127" lat="37.293572301000005" lon="-121.85646180500001"><tag k="addr:city" v="San Jose"/><tag k="addr:housenumber" v="214"/><tag k="addr:street" v="Chateau La Salle Drive"/><tag k="addr:postcode" v="95111"/></node>
<node visible="true" id="-128" lat="37.297111293" lon="-121.86684098900001"><tag k="addr:city" v="San Jose"/><tag k="addr:housenumber" v="214"/><tag k="addr:street" v="Meadow Pine Place"/><tag k="addr:postcode" v="95125"/></node>
<node visible="true" id="-129" lat="37.296049061000005" lon="-121.865946285"><tag k="addr:city" v="San Jose"/><tag k="addr:housenumber" v="214"/><tag k="addr:street" v="Monte Vista Drive"/><tag k="addr:postcode" v="95125"/></node>
<node visible="true" id="-130" lat="37.296026711" lon="-121.869654514"><tag k="addr:city" v="San Jose"/><tag k="addr:housenumber" v="2141"/><tag k="addr:street" v="Pomme Court"/><tag k="addr:postcode" v="95125"/></node>
<node visible="true" id="-131" lat="37.296773863000006" lon="-121.869667358"><tag k="addr:city" v="San Jose"/><tag k="addr:housenumber" v="2143"/><tag k="addr:street" v="Winepol Loop"/><tag k="addr:postcode" v="95125"/></node>
<node visible="true" id="-132" lat="37.295995438000006" lon="-121.869296578"><tag k="addr:city" v="San Jose"/><tag k="addr:housenumber" v="2144"/><tag k="addr:street" v="Sunstruck Court"/><tag k="addr:postcode" v="95125"/></node>
<node visible="true" id="-133" lat="37.296168133" lon="-121.86911455500001"><tag k="addr:city" v="San Jose"/><tag k="addr:housenumber" v="2145"/><tag k="addr:street" v="Sunstruck Court"/><tag k="addr:postcode" v="95125"/></node>
<node visible="true" id="-134" lat="37.295990062" lon="-121.86959951300001"><tag k="addr:city" v="San Jose"/><tag k="addr:housenumber" v="2147"/><tag k="addr:street" v="Pomme Court"/><tag k="addr:postcode" v="95125"/></node>
<node visible="true" id="-135" lat="37.296807333000004" lon="-121.86971319700001"><tag k="addr:city" v="San Jose"/><tag k="addr:housenumber" v="2149"/><tag k="addr:street" v="Winepol Loop"/><tag k="addr:postcode" v="95125"/></node>
<node visible="true" id="-136" lat="37.293683066" lon="-121.856562185"><tag k="addr:city" v="San Jose"/><tag k="addr:housenumber" v="215"/><tag k="addr:street" v="Chateau La Salle Drive"/><tag k="addr:postcode" v="95111"/></node>
<node visible="true" id="-137" lat="37.297244096" lon="-121.86697547700001"><tag k="addr:city" v="San Jose"/><tag k="addr:housenumber" v="215"/><tag k="addr:street" v="Olive Hill Drive"/><tag k="addr:postcode" v="95125"/></node>
<node visible="true" id="-138" lat="37.296025622" lon="-121.869259888"><tag k="addr:city" v="San Jose"/><tag k="addr:housenumber" v="2150"/><tag k="addr:street" v="Sunstruck Court"/><tag k="addr:postcode" v="95125"/></node>
<node visible="true" id="-139" lat="37.296135809" lon="-121.86915253800001"><tag k="addr:city" v="San Jose"/><tag k="addr:housenumber" v="2151"/><tag k="addr:street" v="Sunstruck Court"/><tag k="addr:postcode" v="95125"/></node>
<node visible="true" id="-140" lat="37.295932163" lon="-121.869525088"><tag k="addr:city" v="San Jose"/><tag k="addr:housenumber" v="2153"/><tag k="addr:street" v="Pomme Court"/><tag k="addr:postcode" v="95125"/></node>
<node visible="true" id="-141" lat="37.296865646" lon="-121.869640802"><tag k="addr:city" v="San Jose"/><tag k="addr:housenumber" v="2155"/><tag k="addr:street" v="Winepol Loop"/><tag k="addr:postcode" v="95125"/></node>
<node visible="true" id="-142" lat="37.296108191" lon="-121.86901244500001"><tag k="addr:city" v="San Jose"/><tag k="addr:housenumber" v="2157"/><tag k="addr:street" v="Sunstruck Court"/><tag k="addr:postcode" v="95125"/></node>
<node visible="true" id="-143" lat="37.295971924" lon="-121.869487242"><tag k="addr:city" v="San Jose"/><tag k="addr:housenumber" v="2159"/><tag k="addr:street" v="Pomme Court"/><tag k="addr:postcode" v="95125"/></node>
<node visible="true" id="-144" lat="37.293791070000005" lon="-121.85667320200001"><tag k="addr:city" v="San Jose"/><tag k="addr:housenumber" v="216"/><tag k="addr:street" v="Chateau La Salle Drive"/><tag k="addr:postcode" v="95111"/></node>
<node visible="true" id="-145" lat="37.296910674" lon="-121.869529068"><tag k="addr:city" v="San Jose"/><tag k="addr:housenumber" v="2161"/><tag k="addr:street" v="Winepol Loop"/><tag k="addr:postcode" v="95125"/></node>
<node visible="true" id="-146" lat="37.296068554" lon="-121.869039653"><tag k="addr:city" v="San Jose"/><tag k="addr:housenumber" v="2163"/><tag k="addr:street" v="Sunstruck Court"/><tag k="addr:postcode" v="95125"/></node>
<node visible="true" id="-147" lat="37.295902779" lon="-121.86938756"><tag k="addr:city" v="San Jose"/><tag k="addr:housenumber" v="2165"/><tag k="addr:street" v="Pomme Court"/><tag k="addr:postcode" v="95125"/></node>
<node visible="true" id="-148" lat="37.296941064" lon="-121.86956554000001"><tag k="addr:city" v="San Jose"/><tag k="addr:housenumber" v="2167"/><tag k="addr:street" v="Winepol Loop"/><tag k="addr:postcode" v="95125"/></node>
<node visible="true" id="-149" lat="37.295882161" lon="-121.86910243000001"><tag k="addr:city" v="San Jose"/><tag k="addr:housenumber" v="2168"/><tag k="addr:street" v="Sunstruck Court"/><tag k="addr:postcode" v="95125"/></node>
<node visible="true" id="-150" lat="37.293900094" lon="-121.85677135600001"><tag k="addr:city" v="San Jose"/><tag k="addr:housenumber" v="217"/><tag k="addr:street" v="Chateau La Salle Drive"/><tag k="addr:postcode" v="95111"/></node>
<node visible="true" id="-151" lat="37.296541726" lon="-121.86642865300001"><tag k="addr:city" v="San Jose"/><tag k="addr:housenumber" v="217"/><tag k="addr:street" v="Meadow Pine Place"/><tag k="addr:postcode" v="95125"/></node>
<node visible="true" id="-152" lat="37.296983734" lon="-121.86944050100001"><tag k="addr:city" v="San Jose"/><tag k="addr:housenumber" v="2173"/><tag k="addr:street" v="Winepol Loop"/><tag k="addr:postcode" v="95125"/></node>
<node visible="true" id="-153" lat="37.295808523000005" lon="-121.869047502"><tag k="addr:city" v="San Jose"/><tag k="addr:housenumber" v="2174"/><tag k="addr:street" v="Sunstruck Court"/><tag k="addr:postcode" v="95125"/></node>
<node visible="true" id="-154" lat="37.295834178" lon="-121.869337243"><tag k="addr:city" v="San Jose"/><tag k="addr:housenumber" v="2177"/><tag k="addr:street" v="Pomme Court"/><tag k="addr:postcode" v="95125"/></node>
<node visible="true" id="-155" lat="37.297012923000004" lon="-121.86948892100001"><tag k="addr:city" v="San Jose"/><tag k="addr:housenumber" v="2179"/><tag k="addr:street" v="Winepol Loop"/><tag k="addr:postcode" v="95125"/></node>
<node visible="true" id="-156" lat="37.298234705000006" lon="-121.867783801"><tag k="addr:city" v="San Jose"/><tag k="addr:housenumber" v="218"/><tag k="addr:street" v="Azevedo Circle"/><tag k="addr:postcode" v="95125"/></node>
<node visible="true" id="-157" lat="37.294013721" lon="-121.856868972"><tag k="addr:city" v="San Jose"/><tag k="addr:housenumber" v="218"/><tag k="addr:street" v="Chateau La Salle Drive"/><tag k="addr:postcode" v="95111"/></node>
<node visible="true" id="-158" lat="37.29598054" lon="-121.86588170300001"><tag k="addr:city" v="San Jose"/><tag k="addr:housenumber" v="218"/><tag k="addr:street" v="Monte Vista Drive"/><tag k="addr:postcode" v="95125"/></node>
<node visible="true" id="-159" lat="37.297442748" lon="-121.867271599"><tag k="addr:city" v="San Jose"/><tag k="addr:housenumber" v="218"/><tag k="addr:street" v="Olive Hill Drive"/><tag k="addr:postcode" v="95125"/></node>
<node visible="true" id="-160" lat="37.295856893" lon="-121.869000501"><tag k="addr:city" v="San Jose"/><tag k="addr:housenumber" v="2180"/><tag k="addr:street" v="Sunstruck Court"/><tag k="addr:postcode" v="95125"/></node>
<node visible="true" id="-161" lat="37.297081492000004" lon="-121.869428193"><tag k="addr:city" v="San Jose"/><tag k="addr:housenumber" v="2185"/><tag k="addr:street" v="Winepol Loop"/><tag k="addr:postcode" v="95125"/></node>
<node visible="true" id="-162" lat="37.295768258" lon="-121.86922354800001"><tag k="addr:city" v="San Jose"/><tag k="addr:housenumber" v="2189"/><tag k="addr:street" v="Pomme Court"/><tag k="addr:postcode" v="95125"/></node>
<node visible="true" id="-163" lat="37.29844355" lon="-121.868114671"><tag k="addr:city" v="San Jose"/><tag k="addr:housenumber" v="219"/><tag k="addr:street" v="Azevedo Circle"/><tag k="addr:postcode" v="95125"/></node>
<node visible="true" id="-164" lat="37.294117148000005" lon="-121.856971943"><tag k="addr:city" v="San Jose"/><tag k="addr:housenumber" v="219"/><tag k="addr:street" v="Chateau La Salle Drive"/><tag k="addr:postcode" v="95111"/></node>
<node visible="true" id="-165" lat="37.297122247000004" lon="-121.869300029"><tag k="addr:city" v="San Jose"/><tag k="addr:housenumber" v="2191"/><tag k="addr:street" v="Winepol Loop"/><tag k="addr:postcode" v="95125"/></node>
<node visible="true" id="-166" lat="37.295693208" lon="-121.869173548"><tag k="addr:city" v="San Jose"/><tag k="addr:housenumber" v="2193"/><tag k="addr:street" v="Pomme Court"/><tag k="addr:postcode" v="95125"/></node>
<node visible="true" id="-167" lat="37.297152639000004" lon="-121.86933649900001"><tag k="addr:city" v="San Jose"/><tag k="addr:housenumber" v="2197"/><tag k="addr:street" v="Winepol Loop"/><tag k="addr:postcode" v="95125"/></node>
<node visible="true" id="-168" lat="37.29421819" lon="-121.85710230400001"><tag k="addr:city" v="San Jose"/><tag k="addr:housenumber" v="220"/><tag k="addr:street" v="Chateau La Salle Drive"/><tag k="addr:postcode" v="95111"/></node>
<node visible="true" id="-169" lat="37.297057357" lon="-121.86695776100001"><tag k="addr:city" v="San Jose"/><tag k="addr:housenumber" v="220"/><tag k="addr:street" v="Meadow Pine Place"/><tag k="addr:postcode" v="95125"/></node>
<node visible="true" id="-170" lat="37.29813527" lon="-121.867579297"><tag k="addr:city" v="San Jose"/><tag k="addr:housenumber" v="2200"/><tag k="addr:street" v="Golden Crest Commons"/><tag k="addr:postcode" v="95125"/></node>
<node visible="true" id="-171" lat="37.298080783" lon="-121.867663226"><tag k="addr:city" v="San Jose"/><tag k="addr:housenumber" v="2202"/><tag k="addr:street" v="Golden Crest Commons"/><tag k="addr:postcode" v="95125"/></node>
<node visible="true" id="-172" lat="37.297194354000005" lon="-121.86921808100001"><tag k="addr:city" v="San Jose"/><tag k="addr:housenumber" v="2203"/><tag k="addr:street" v="Winepol Loop"/><tag k="addr:postcode" v="95125"/></node>
<node visible="true" id="-173" lat="37.298033228" lon="-121.86773445700001"><tag k="addr:city" v="San Jose"/><tag k="addr:housenumber" v="2206"/><tag k="addr:street" v="Golden Crest Commons"/><tag k="addr:postcode" v="95125"/></node>
<node visible="true" id="-174" lat="37.297985675" lon="-121.867805687"><tag k="addr:city" v="San Jose"/><tag k="addr:housenumber" v="2208"/><tag k="addr:street" v="Golden Crest Commons"/><tag k="addr:postcode" v="95125"/></node>
<node visible="true" id="-175" lat="37.297224528" lon="-121.869273172"><tag k="addr:city" v="San Jose"/><tag k="addr:housenumber" v="2209"/><tag k="addr:street" v="Winepol Loop"/><tag k="addr:postcode" v="95125"/></node>
<node visible="true" id="-176" lat="37.294311915" lon="-121.857218062"><tag k="addr:city" v="San Jose"/><tag k="addr:housenumber" v="221"/><tag k="addr:street" v="Chateau La Salle Drive"/><tag k="addr:postcode" v="95111"/></node>
<node visible="true" id="-177" lat="37.29646537" lon="-121.866350585"><tag k="addr:city" v="San Jose"/><tag k="addr:housenumber" v="221"/><tag k="addr:street" v="Meadow Pine Place"/><tag k="addr:postcode" v="95125"/></node>
<node visible="true" id="-178" lat="37.29719642" lon="-121.867054819"><tag k="addr:city" v="San Jose"/><tag k="addr:housenumber" v="221"/><tag k="addr:street" v="Olive Hill Drive"/><tag k="addr:postcode" v="95125"/></node>
<node visible="true" id="-179" lat="37.297943749000005" lon="-121.86789352400001"><tag k="addr:city" v="San Jose"/><tag k="addr:housenumber" v="2210"/><tag k="addr:street" v="Golden Crest Commons"/><tag k="addr:postcode" v="95125"/></node>
<node visible="true" id="-180" lat="37.2972896" lon="-121.869197838"><tag k="addr:city" v="San Jose"/><tag k="addr:housenumber" v="2215"/><tag k="addr:street" v="Winepol Loop"/><tag k="addr:postcode" v="95125"/></node>
<node visible="true" id="-181" lat="37.294403558" lon="-121.85733507600001"><tag k="addr:city" v="San Jose"/><tag k="addr:housenumber" v="222"/><tag k="addr:street" v="Chateau La Salle Drive"/><tag k="addr:postcode" v="95111"/></node>
<node visible="true" id="-182" lat="37.295896115000005" lon="-121.86581016000001"><tag k="addr:city" v="San Jose"/><tag k="addr:housenumber" v="222"/><tag k="addr:street" v="Monte Vista Drive"/><tag k="addr:postcode" v="95125"/></node>
<node visible="true" id="-183" lat="37.29800727" lon="-121.86745692800001"><tag k="addr:city" v="San Jose"/><tag k="addr:housenumber" v="2221"/><tag k="addr:street" v="Golden Crest Commons"/><tag k="addr:postcode" v="95125"/></node>
<node visible="true" id="-184" lat="37.297353954" lon="-121.86913167600001"><tag k="addr:city" v="San Jose"/><tag k="addr:housenumber" v="2221"/><tag k="addr:street" v="Winepol Loop"/><tag k="addr:postcode" v="95125"/></node>
<node visible="true" id="-185" lat="37.297959509" lon="-121.86754352300001"><tag k="addr:city" v="San Jose"/><tag k="addr:housenumber" v="2223"/><tag k="addr:street" v="Golden Crest Commons"/><tag k="addr:postcode" v="95125"/></node>
<node visible="true" id="-186" lat="37.297917682000005" lon="-121.86762297300001"><tag k="addr:city" v="San Jose"/><tag k="addr:housenumber" v="2227"/><tag k="addr:street" v="Golden Crest Commons"/><tag k="addr:postcode" v="95125"/></node>
<node visible="true" id="-187" lat="37.297323764000005" lon="-121.869077914"><tag k="addr:city" v="San Jose"/><tag k="addr:housenumber" v="2227"/><tag k="addr:street" v="Winepol Loop"/><tag k="addr:postcode" v="95125"/></node>
<node visible="true" id="-188" lat="37.297501577000006" lon="-121.868897918"><tag k="addr:city" v="San Jose"/><tag k="addr:housenumber" v="2228"/><tag k="addr:street" v="Winepol Loop"/><tag k="addr:postcode" v="95125"/></node>
<node visible="true" id="-189" lat="37.297870383" lon="-121.867672341"><tag k="addr:city" v="San Jose"/><tag k="addr:housenumber" v="2229"/><tag k="addr:street" v="Golden Crest Commons"/><tag k="addr:postcode" v="95125"/></node>
<node visible="true" id="-190" lat="37.29456441" lon="-121.857151587"><tag k="addr:city" v="San Jose"/><tag k="addr:housenumber" v="223"/><tag k="addr:street" v="Chateau La Salle Drive"/><tag k="addr:postcode" v="95111"/></node>
<node visible="true" id="-191" lat="37.297810942000005" lon="-121.86775954800001"><tag k="addr:city" v="San Jose"/><tag k="addr:housenumber" v="2231"/><tag k="addr:street" v="Golden Crest Commons"/><tag k="addr:postcode" v="95125"/></node>
<node visible="true" id="-192" lat="37.297493502" lon="-121.86895230600001"><tag k="addr:city" v="San Jose"/><tag k="addr:housenumber" v="2234"/><tag k="addr:street" v="Winepol Loop"/><tag k="addr:postcode" v="95125"/></node>
<node visible="true" id="-193" lat="37.294639494" lon="-121.857291329"><tag k="addr:city" v="San Jose"/><tag k="addr:housenumber" v="224"/><tag k="addr:street" v="Chateau La Salle Drive"/><tag k="addr:postcode" v="95111"/></node>
<node visible="true" id="-194" lat="37.297395193" lon="-121.867342827"><tag k="addr:city" v="San Jose"/><tag k="addr:housenumber" v="224"/><tag k="addr:street" v="Olive Hill Drive"/><tag k="addr:postcode" v="95125"/></node>
<node visible="true" id="-195" lat="37.297588677" lon="-121.86892553000001"><tag k="addr:city" v="San Jose"/><tag k="addr:housenumber" v="2240"/><tag k="addr:street" v="Winepol Loop"/><tag k="addr:postcode" v="95125"/></node>
<node visible="true" id="-196" lat="37.298390148" lon="-121.86818579300001"><tag k="addr:city" v="San Jose"/><tag k="addr:housenumber" v="225"/><tag k="addr:street" v="Azevedo Circle"/><tag k="addr:postcode" v="95125"/></node>
<node visible="true" id="-197" lat="37.294763136" lon="-121.85740611300001"><tag k="addr:city" v="San Jose"/><tag k="addr:housenumber" v="225"/><tag k="addr:street" v="Chateau La Salle Drive"/><tag k="addr:postcode" v="95111"/></node>
<node visible="true" id="-198" lat="37.296707067" lon="-121.866938395"><tag k="addr:city" v="San Jose"/><tag k="addr:housenumber" v="225"/><tag k="addr:street" v="Meadow Pine Place"/><tag k="addr:postcode" v="95125"/></node>
<node visible="true" id="-199" lat="37.297862958" lon="-121.86730843900001"><tag k="addr:city" v="San Jose"/><tag k="addr:housenumber" v="2250"/><tag k="addr:street" v="Golden Crest Commons"/><tag k="addr:postcode" v="95125"/></node>
<node visible="true" id="-200" lat="37.297815273000005" lon="-121.867388606"><tag k="addr:city" v="San Jose"/><tag k="addr:housenumber" v="2252"/><tag k="addr:street" v="Golden Crest Commons"/><tag k="addr:postcode" v="95125"/></node>
<node visible="true" id="-201" lat="37.297704468" lon="-121.868956728"><tag k="addr:city" v="San Jose"/><tag k="addr:housenumber" v="2252"/><tag k="addr:street" v="Winepol Loop"/><tag k="addr:postcode" v="95125"/></node>
<node visible="true" id="-202" lat="37.297767717" lon="-121.86745983600001"><tag k="addr:city" v="San Jose"/><tag k="addr:housenumber" v="2256"/><tag k="addr:street" v="Golden Crest Commons"/><tag k="addr:postcode" v="95125"/></node>
<node visible="true" id="-203" lat="37.297725816" lon="-121.86754574800001"><tag k="addr:city" v="San Jose"/><tag k="addr:housenumber" v="2258"/><tag k="addr:street" v="Golden Crest Commons"/><tag k="addr:postcode" v="95125"/></node>
<node visible="true" id="-204" lat="37.297781835" lon="-121.868980339"><tag k="addr:city" v="San Jose"/><tag k="addr:housenumber" v="2258"/><tag k="addr:street" v="Winepol Loop"/><tag k="addr:postcode" v="95125"/></node>
<node visible="true" id="-205" lat="37.29818375" lon="-121.867868688"><tag k="addr:city" v="San Jose"/><tag k="addr:housenumber" v="226"/><tag k="addr:street" v="Azevedo Circle"/><tag k="addr:postcode" v="95125"/></node>
<node visible="true" id="-206" lat="37.294858157" lon="-121.85751345300001"><tag k="addr:city" v="San Jose"/><tag k="addr:housenumber" v="226"/><tag k="addr:street" v="Chateau La Salle Drive"/><tag k="addr:postcode" v="95111"/></node>
<node visible="true" id="-207" lat="37.297015789" lon="-121.86701507100001"><tag k="addr:city" v="San Jose"/><tag k="addr:housenumber" v="226"/><tag k="addr:street" v="Meadow Pine Place"/><tag k="addr:postcode" v="95125"/></node>
<node visible="true" id="-208" lat="37.296153187" lon="-121.866344642"><tag k="addr:city" v="San Jose"/><tag k="addr:housenumber" v="226"/><tag k="addr:street" v="Monte Vista Drive"/><tag k="addr:postcode" v="95125"/></node>
<node visible="true" id="-209" lat="37.29767239" lon="-121.867618761"><tag k="addr:city" v="San Jose"/><tag k="addr:housenumber" v="2260"/><tag k="addr:street" v="Golden Crest Commons"/><tag k="addr:postcode" v="95125"/></node>
<node visible="true" id="-210" lat="37.297612874" lon="-121.867712189"><tag k="addr:city" v="San Jose"/><tag k="addr:housenumber" v="2262"/><tag k="addr:street" v="Golden Crest Commons"/><tag k="addr:postcode" v="95125"/></node>
<node visible="true" id="-211" lat="37.297774915000005" lon="-121.86902676800001"><tag k="addr:city" v="San Jose"/><tag k="addr:housenumber" v="2264"/><tag k="addr:street" v="Winepol Loop"/><tag k="addr:postcode" v="95125"/></node>
<node visible="true" id="-212" lat="37.294996548" lon="-121.857617493"><tag k="addr:city" v="San Jose"/><tag k="addr:housenumber" v="227"/><tag k="addr:street" v="Chateau La Salle Drive"/><tag k="addr:postcode" v="95111"/></node>
<node visible="true" id="-213" lat="37.297148686" lon="-121.86714145"><tag k="addr:city" v="San Jose"/><tag k="addr:housenumber" v="227"/><tag k="addr:street" v="Olive Hill Drive"/><tag k="addr:postcode" v="95125"/></node>
<node visible="true" id="-214" lat="37.297771083" lon="-121.869260159"><tag k="addr:city" v="San Jose"/><tag k="addr:housenumber" v="2270"/><tag k="addr:street" v="Winepol Loop"/><tag k="addr:postcode" v="95125"/></node>
<node visible="true" id="-215" lat="37.297741893" lon="-121.86716848900001"><tag k="addr:city" v="San Jose"/><tag k="addr:housenumber" v="2271"/><tag k="addr:street" v="Golden Crest Commons"/><tag k="addr:postcode" v="95125"/></node>
<node visible="true" id="-216" lat="37.297682215" lon="-121.867275977"><tag k="addr:city" v="San Jose"/><tag k="addr:housenumber" v="2273"/><tag k="addr:street" v="Golden Crest Commons"/><tag k="addr:postcode" v="95125"/></node>
<node visible="true" id="-217" lat="37.297746067000006" lon="-121.869218465"><tag k="addr:city" v="San Jose"/><tag k="addr:housenumber" v="2276"/><tag k="addr:street" v="Winepol Loop"/><tag k="addr:postcode" v="95125"/></node>
<node visible="true" id="-218" lat="37.297628802000006" lon="-121.86734792600001"><tag k="addr:city" v="San Jose"/><tag k="addr:housenumber" v="2277"/><tag k="addr:street" v="Golden Crest Commons"/><tag k="addr:postcode" v="95125"/></node>
<node visible="true" id="-219" lat="37.297575473" lon="-121.867412552"><tag k="addr:city" v="San Jose"/><tag k="addr:housenumber" v="2279"/><tag k="addr:street" v="Golden Crest Commons"/><tag k="addr:postcode" v="95125"/></node>
<node visible="true" id="-220" lat="37.29752774" lon="-121.86749918100001"><tag k="addr:city" v="San Jose"/><tag k="addr:housenumber" v="2281"/><tag k="addr:street" v="Golden Crest Commons"/><tag k="addr:postcode" v="95125"/></node>
<node visible="true" id="-221" lat="37.297706971000004" lon="-121.869316588"><tag k="addr:city" v="San Jose"/><tag k="addr:housenumber" v="2282"/><tag k="addr:street" v="Winepol Loop"/><tag k="addr:postcode" v="95125"/></node>
<node visible="true" id="-222" lat="37.297480019000005" lon="-121.867582303"><tag k="addr:city" v="San Jose"/><tag k="addr:housenumber" v="2283"/><tag k="addr:street" v="Golden Crest Commons"/><tag k="addr:postcode" v="95125"/></node>
<node visible="true" id="-223" lat="37.297185725000006" lon="-121.86825779"><tag k="addr:city" v="San Jose"/><tag k="addr:housenumber" v="2289"/><tag k="addr:street" v="Azevedo Parkway"/><tag k="addr:postcode" v="95125"/></node>
<node visible="true" id="-224" lat="37.294640963" lon="-121.857629153"><tag k="addr:city" v="San Jose"/><tag k="addr:housenumber" v="229"/><tag k="addr:street" v="Chateau La Salle Drive"/><tag k="addr:postcode" v="95111"/></node>
<node visible="true" id="-225" lat="37.29663217" lon="-121.86684842300001"><tag k="addr:city" v="San Jose"/><tag k="addr:housenumber" v="229"/><tag k="addr:street" v="Meadow Pine Place"/><tag k="addr:postcode" v="95125"/></node>
<node visible="true" id="-226" lat="37.297575386000005" lon="-121.869396597"><tag k="addr:city" v="San Jose"/><tag k="addr:housenumber" v="2294"/><tag k="addr:street" v="Winepol Loop"/><tag k="addr:postcode" v="95125"/></node>
<node visible="true" id="-227" lat="37.29759937" lon="-121.86943561400001"><tag k="addr:city" v="San Jose"/><tag k="addr:housenumber" v="2298"/><tag k="addr:street" v="Winepol Loop"/><tag k="addr:postcode" v="95125"/></node>
<node visible="true" id="-228" lat="37.297450113000004" lon="-121.86927347700001"><tag k="addr:city" v="San Jose"/><tag k="addr:housenumber" v="2299"/><tag k="addr:street" v="Winepol Loop"/><tag k="addr:postcode" v="95125"/></node>
<node visible="true" id="-229" lat="37.298121603000006" lon="-121.867964064"><tag k="addr:city" v="San Jose"/><tag k="addr:housenumber" v="230"/><tag k="addr:street" v="Azevedo Circle"/><tag k="addr:postcode" v="95125"/></node>
<node visible="true" id="-230" lat="37.294547825" lon="-121.857638945"><tag k="addr:city" v="San Jose"/><tag k="addr:housenumber" v="230"/><tag k="addr:street" v="Chateau La Salle Drive"/><tag k="addr:postcode" v="95111"/></node>
<node visible="true" id="-231" lat="37.29607785" lon="-121.86629224200001"><tag k="addr:city" v="San Jose"/><tag k="addr:housenumber" v="230"/><tag k="addr:street" v="Monte Vista Drive"/><tag k="addr:postcode" v="95125"/></node>
<node visible="true" id="-232" lat="37.29734744" lon="-121.86743107400001"><tag k="addr:city" v="San Jose"/><tag k="addr:housenumber" v="230"/><tag k="addr:street" v="Olive Hill Drive"/><tag k="addr:postcode" v="95125"/></node>
<node visible="true" id="-233" lat="37.29698057" lon="-121.866500005"><tag k="addr:city" v="San Jose"/><tag k="addr:housenumber" v="2300"/><tag k="addr:street" v="Azevedo Parkway"/><tag k="addr:postcode" v="95125"/></node>
<node visible="true" id="-234" lat="37.296367939" lon="-121.86746418400001"><tag k="addr:city" v="San Jose"/><tag k="addr:housenumber" v="2302"/><tag k="addr:street" v="Plateau Drive"/><tag k="addr:postcode" v="95125"/></node>
<node visible="true" id="-235" lat="37.296898886" lon="-121.866421841"><tag k="addr:city" v="San Jose"/><tag k="addr:housenumber" v="2304"/><tag k="addr:street" v="Azevedo Parkway"/><tag k="addr:postcode" v="95125"/></node>
<node visible="true" id="-236" lat="37.296281026" lon="-121.86740345800001"><tag k="addr:city" v="San Jose"/><tag k="addr:housenumber" v="2306"/><tag k="addr:street" v="Plateau Drive"/><tag k="addr:postcode" v="95125"/></node>
<node visible="true" id="-237" lat="37.296483356" lon="-121.867085516"><tag k="addr:city" v="San Jose"/><tag k="addr:housenumber" v="2307"/><tag k="addr:street" v="Plateau Drive"/><tag k="addr:postcode" v="95125"/></node>
<node visible="true" id="-238" lat="37.296833107000005" lon="-121.866350636"><tag k="addr:city" v="San Jose"/><tag k="addr:housenumber" v="2308"/><tag k="addr:street" v="Azevedo Parkway"/><tag k="addr:postcode" v="95125"/></node>
<node visible="true" id="-239" lat="37.298342423" lon="-121.868271598"><tag k="addr:city" v="San Jose"/><tag k="addr:housenumber" v="231"/><tag k="addr:street" v="Azevedo Circle"/><tag k="addr:postcode" v="95125"/></node>
<node visible="true" id="-240" lat="37.294437024000004" lon="-121.85770328500001"><tag k="addr:city" v="San Jose"/><tag k="addr:housenumber" v="231"/><tag k="addr:street" v="Chateau La Salle Drive"/><tag k="addr:postcode" v="95111"/></node>
<node visible="true" id="-241" lat="37.296211624" lon="-121.867343844"><tag k="addr:city" v="San Jose"/><tag k="addr:housenumber" v="2310"/><tag k="addr:street" v="Plateau Drive"/><tag k="addr:postcode" v="95125"/></node>
<node visible="true" id="-242" lat="37.297526859" lon="-121.869513455"><tag k="addr:city" v="San Jose"/><tag k="addr:housenumber" v="2310"/><tag k="addr:street" v="Winepol Loop"/><tag k="addr:postcode" v="95125"/></node>
<node visible="true" id="-243" lat="37.296414197000004" lon="-121.86700513900001"><tag k="addr:city" v="San Jose"/><tag k="addr:housenumber" v="2311"/><tag k="addr:street" v="Plateau Drive"/><tag k="addr:postcode" v="95125"/></node>
<node visible="true" id="-244" lat="37.297386342" lon="-121.869341945"><tag k="addr:city" v="San Jose"/><tag k="addr:housenumber" v="2311"/><tag k="addr:street" v="Winepol Loop"/><tag k="addr:postcode" v="95125"/></node>
<node visible="true" id="-245" lat="37.296743406000004" lon="-121.866272326"><tag k="addr:city" v="San Jose"/><tag k="addr:housenumber" v="2312"/><tag k="addr:street" v="Azevedo Parkway"/><tag k="addr:postcode" v="95125"/></node>
<node visible="true" id="-246" lat="37.296685657000005" lon="-121.86619793300001"><tag k="addr:city" v="San Jose"/><tag k="addr:housenumber" v="2316"/><tag k="addr:street" v="Azevedo Parkway"/><tag k="addr:postcode" v="95125"/></node>
<node visible="true" id="-247" lat="37.296142563000004" lon="-121.867255079"><tag k="addr:city" v="San Jose"/><tag k="addr:housenumber" v="2316"/><tag k="addr:street" v="Plateau Drive"/><tag k="addr:postcode" v="95125"/></node>
<node visible="true" id="-248" lat="37.297472471" lon="-121.86957220900001"><tag k="addr:city" v="San Jose"/><tag k="addr:housenumber" v="2316"/><tag k="addr:street" v="Winepol Loop"/><tag k="addr:postcode" v="95125"/></node>
<node visible="true" id="-249" lat="37.296339204" lon="-121.86692328000001"><tag k="addr:city" v="San Jose"/><tag k="addr:housenumber" v="2317"/><tag k="addr:street" v="Plateau Drive"/><tag k="addr:postcode" v="95125"/></node>
<node visible="true" id="-250" lat="37.297318304" lon="-121.86940957200001"><tag k="addr:city" v="San Jose"/><tag k="addr:housenumber" v="2317"/><tag k="addr:street" v="Winepol Loop"/><tag k="addr:postcode" v="95125"/></node>
<node visible="true" id="-251" lat="37.294145317" lon="-121.85751612300001"><tag k="addr:city" v="San Jose"/><tag k="addr:housenumber" v="232"/><tag k="addr:street" v="Chateau La Salle Drive"/><tag k="addr:postcode" v="95111"/></node>
<node visible="true" id="-252" lat="37.296973802000004" lon="-121.86710827"><tag k="addr:city" v="San Jose"/><tag k="addr:housenumber" v="232"/><tag k="addr:street" v="Meadow Pine Place"/><tag k="addr:postcode" v="95125"/></node>
<node visible="true" id="-253" lat="37.296601193" lon="-121.86612972500001"><tag k="addr:city" v="San Jose"/><tag k="addr:housenumber" v="2320"/><tag k="addr:street" v="Azevedo Parkway"/><tag k="addr:postcode" v="95125"/></node>
<node visible="true" id="-254" lat="37.296055868" lon="-121.867173316"><tag k="addr:city" v="San Jose"/><tag k="addr:housenumber" v="2320"/><tag k="addr:street" v="Plateau Drive"/><tag k="addr:postcode" v="95125"/></node>
<node visible="true" id="-255" lat="37.296258224" lon="-121.86685537500001"><tag k="addr:city" v="San Jose"/><tag k="addr:housenumber" v="2321"/><tag k="addr:street" v="Plateau Drive"/><tag k="addr:postcode" v="95125"/></node>
<node visible="true" id="-256" lat="37.297410941" lon="-121.86962933900001"><tag k="addr:city" v="San Jose"/><tag k="addr:housenumber" v="2322"/><tag k="addr:street" v="Winepol Loop"/><tag k="addr:postcode" v="95125"/></node>
<node visible="true" id="-257" lat="37.29734218" lon="-121.86945789600001"><tag k="addr:city" v="San Jose"/><tag k="addr:housenumber" v="2323"/><tag k="addr:street" v="Winepol Loop"/><tag k="addr:postcode" v="95125"/></node>
<node visible="true" id="-258" lat="37.296416759" lon="-121.86594966700001"><tag k="addr:city" v="San Jose"/><tag k="addr:housenumber" v="2324"/><tag k="addr:street" v="Azevedo Parkway"/><tag k="addr:postcode" v="95125"/></node>
<node visible="true" id="-259" lat="37.295980542" lon="-121.86712002300001"><tag k="addr:city" v="San Jose"/><tag k="addr:housenumber" v="2326"/><tag k="addr:street" v="Plateau Drive"/><tag k="addr:postcode" v="95125"/></node>
<node visible="true" id="-260" lat="37.296183304" lon="-121.86676732900001"><tag k="addr:city" v="San Jose"/><tag k="addr:housenumber" v="2327"/><tag k="addr:street" v="Plateau Drive"/><tag k="addr:postcode" v="95125"/></node>
<node visible="true" id="-261" lat="37.296340208000004" lon="-121.86588827300001"><tag k="addr:city" v="San Jose"/><tag k="addr:housenumber" v="2328"/><tag k="addr:street" v="Azevedo Parkway"/><tag k="addr:postcode" v="95125"/></node>
<node visible="true" id="-262" lat="37.297234715" lon="-121.86949987000001"><tag k="addr:city" v="San Jose"/><tag k="addr:housenumber" v="2329"/><tag k="addr:street" v="Winepol Loop"/><tag k="addr:postcode" v="95125"/></node>
<node visible="true" id="-263" lat="37.294051134" lon="-121.85738710300001"><tag k="addr:city" v="San Jose"/><tag k="addr:housenumber" v="233"/><tag k="addr:street" v="Chateau La Salle Drive"/><tag k="addr:postcode" v="95111"/></node>
<node visible="true" id="-264" lat="37.296545578" lon="-121.86676016400001"><tag k="addr:city" v="San Jose"/><tag k="addr:housenumber" v="233"/><tag k="addr:street" v="Meadow Pine Place"/><tag k="addr:postcode" v="95125"/></node>
<node visible="true" id="-265" lat="37.297106849" lon="-121.86722172200001"><tag k="addr:city" v="San Jose"/><tag k="addr:housenumber" v="233"/><tag k="addr:street" v="Olive Hill Drive"/><tag k="addr:postcode" v="95125"/></node>
<node visible="true" id="-266" lat="37.295795950000006" lon="-121.86692063800001"><tag k="addr:city" v="San Jose"/><tag k="addr:housenumber" v="2330"/><tag k="addr:street" v="Plateau Drive"/><tag k="addr:postcode" v="95125"/></node>
<node visible="true" id="-267" lat="37.296027888000005" lon="-121.86656758500001"><tag k="addr:city" v="San Jose"/><tag k="addr:housenumber" v="2331"/><tag k="addr:street" v="Plateau Drive"/><tag k="addr:postcode" v="95125"/></node>
<node visible="true" id="-268" lat="37.296269191" lon="-121.865806969"><tag k="addr:city" v="San Jose"/><tag k="addr:housenumber" v="2332"/><tag k="addr:street" v="Azevedo Parkway"/><tag k="addr:postcode" v="95125"/></node>
<node visible="true" id="-269" lat="37.295709167000005" lon="-121.86684640400001"><tag k="addr:city" v="San Jose"/><tag k="addr:housenumber" v="2334"/><tag k="addr:street" v="Plateau Drive"/><tag k="addr:postcode" v="95125"/></node>
<node visible="true" id="-270" lat="37.295921128" lon="-121.86651987200001"><tag k="addr:city" v="San Jose"/><tag k="addr:housenumber" v="2335"/><tag k="addr:street" v="Plateau Drive"/><tag k="addr:postcode" v="95125"/></node>
<node visible="true" id="-271" lat="37.297263998000005" lon="-121.869540313"><tag k="addr:city" v="San Jose"/><tag k="addr:housenumber" v="2335"/><tag k="addr:street" v="Winepol Loop"/><tag k="addr:postcode" v="95125"/></node>
<node visible="true" id="-272" lat="37.296192795" lon="-121.865732272"><tag k="addr:city" v="San Jose"/><tag k="addr:housenumber" v="2336"/><tag k="addr:street" v="Azevedo Parkway"/><tag k="addr:postcode" v="95125"/></node>
<node visible="true" id="-273" lat="37.297344447" lon="-121.86970281"><tag k="addr:city" v="San Jose"/><tag k="addr:housenumber" v="2336"/><tag k="addr:street" v="Winepol Loop"/><tag k="addr:postcode" v="95125"/></node>
<node visible="true" id="-274" lat="37.295634211" lon="-121.866763723"><tag k="addr:city" v="San Jose"/><tag k="addr:housenumber" v="2338"/><tag k="addr:street" v="Plateau Drive"/><tag k="addr:postcode" v="95125"/></node>
<node visible="true" id="-275" lat="37.295838578" lon="-121.86644764200001"><tag k="addr:city" v="San Jose"/><tag k="addr:housenumber" v="2339"/><tag k="addr:street" v="Plateau Drive"/><tag k="addr:postcode" v="95125"/></node>
<node visible="true" id="-276" lat="37.293951836000005" lon="-121.857257496"><tag k="addr:city" v="San Jose"/><tag k="addr:housenumber" v="234"/><tag k="addr:street" v="Chateau La Salle Drive"/><tag k="addr:postcode" v="95111"/></node>
<node visible="true" id="-277" lat="37.296124392" lon="-121.86565768800001"><tag k="addr:city" v="San Jose"/><tag k="addr:housenumber" v="2340"/><tag k="addr:street" v="Azevedo Parkway"/><tag k="addr:postcode" v="95125"/></node>
<node visible="true" id="-278" lat="37.295022777" lon="-121.86597990000001"><tag k="addr:city" v="San Jose"/><tag k="addr:housenumber" v="2340"/><tag k="addr:street" v="Plateau Drive"/><tag k="addr:postcode" v="95125"/></node>
<node visible="true" id="-279" lat="37.297173453" lon="-121.869563029"><tag k="addr:city" v="San Jose"/><tag k="addr:housenumber" v="2341"/><tag k="addr:street" v="Winepol Loop"/><tag k="addr:postcode" v="95125"/></node>
<node visible="true" id="-280" lat="37.297285252" lon="-121.86976446400001"><tag k="addr:city" v="San Jose"/><tag k="addr:housenumber" v="2342"/><tag k="addr:street" v="Winepol Loop"/><tag k="addr:postcode" v="95125"/></node>
<node visible="true" id="-281" lat="37.296042641" lon="-121.865582857"><tag k="addr:city" v="San Jose"/><tag k="addr:housenumber" v="2346"/><tag k="addr:street" v="Azevedo Parkway"/><tag k="addr:postcode" v="95125"/></node>
<node visible="true" id="-282" lat="37.295570877" lon="-121.866683179"><tag k="addr:city" v="San Jose"/><tag k="addr:housenumber" v="2346"/><tag k="addr:street" v="Plateau Drive"/><tag k="addr:postcode" v="95125"/></node>
<node visible="true" id="-283" lat="37.295762219000004" lon="-121.866374594"><tag k="addr:city" v="San Jose"/><tag k="addr:housenumber" v="2347"/><tag k="addr:street" v="Plateau Drive"/><tag k="addr:postcode" v="95125"/></node>
<node visible="true" id="-284" lat="37.2971122" lon="-121.86962542100001"><tag k="addr:city" v="San Jose"/><tag k="addr:housenumber" v="2347"/><tag k="addr:street" v="Winepol Loop"/><tag k="addr:postcode" v="95125"/></node>
<node visible="true" id="-285" lat="37.29722609" lon="-121.869823131"><tag k="addr:city" v="San Jose"/><tag k="addr:housenumber" v="2348"/><tag k="addr:street" v="Winepol Loop"/><tag k="addr:postcode" v="95125"/></node>
<node visible="true" id="-286" lat="37.298300497" lon="-121.868359436"><tag k="addr:city" v="San Jose"/><tag k="addr:housenumber" v="235"/><tag k="addr:street" v="Azevedo Circle"/><tag k="addr:postcode" v="95125"/></node>
<node visible="true" id="-287" lat="37.293847165" lon="-121.85715957900001"><tag k="addr:city" v="San Jose"/><tag k="addr:housenumber" v="235"/><tag k="addr:street" v="Chateau La Salle Drive"/><tag k="addr:postcode" v="95111"/></node>
<node visible="true" id="-288" lat="37.295860051000005" lon="-121.86533651600001"><tag k="addr:city" v="San Jose"/><tag k="addr:housenumber" v="2350"/><tag k="addr:street" v="Azevedo Parkway"/><tag k="addr:postcode" v="95125"/></node>
<node visible="true" id="-289" lat="37.295495785" lon="-121.86660970800001"><tag k="addr:city" v="San Jose"/><tag k="addr:housenumber" v="2350"/><tag k="addr:street" v="Plateau Drive"/><tag k="addr:postcode" v="95125"/></node>
<node visible="true" id="-290" lat="37.295698915" lon="-121.866305568"><tag k="addr:city" v="San Jose"/><tag k="addr:housenumber" v="2351"/><tag k="addr:street" v="Plateau Drive"/><tag k="addr:postcode" v="95125"/></node>
<node visible="true" id="-291" lat="37.297160808" lon="-121.86989512900001"><tag k="addr:city" v="San Jose"/><tag k="addr:housenumber" v="2352"/><tag k="addr:street" v="Winepol Loop"/><tag k="addr:postcode" v="95125"/></node>
<node visible="true" id="-292" lat="37.295365526000005" lon="-121.86592747300001"><tag k="addr:city" v="San Jose"/><tag k="addr:housenumber" v="2353"/><tag k="addr:street" v="Plateau Drive"/><tag k="addr:postcode" v="95125"/></node>
<node visible="true" id="-293" lat="37.297141358000005" lon="-121.86967650400001"><tag k="addr:city" v="San Jose"/><tag k="addr:housenumber" v="2353"/><tag k="addr:street" v="Winepol Loop"/><tag k="addr:postcode" v="95125"/></node>
<node visible="true" id="-294" lat="37.295858631" lon="-121.86522980400001"><tag k="addr:city" v="San Jose"/><tag k="addr:housenumber" v="2354"/><tag k="addr:street" v="Azevedo Parkway"/><tag k="addr:postcode" v="95125"/></node>
<node visible="true" id="-295" lat="37.296562914" lon="-121.865718919"><tag k="addr:city" v="San Jose"/><tag k="addr:housenumber" v="2355"/><tag k="addr:street" v="Azevedo Parkway"/><tag k="addr:postcode" v="95125"/></node>
<node visible="true" id="-296" lat="37.295358661" lon="-121.86583070200001"><tag k="addr:city" v="San Jose"/><tag k="addr:housenumber" v="2357"/><tag k="addr:street" v="Plateau Drive"/><tag k="addr:postcode" v="95125"/></node>
<node visible="true" id="-297" lat="37.29584389" lon="-121.86512288200001"><tag k="addr:city" v="San Jose"/><tag k="addr:housenumber" v="2358"/><tag k="addr:street" v="Azevedo Parkway"/><tag k="addr:postcode" v="95125"/></node>
<node visible="true" id="-298" lat="37.297100453000006" lon="-121.869953773"><tag k="addr:city" v="San Jose"/><tag k="addr:housenumber" v="2358"/><tag k="addr:street" v="Winepol Loop"/><tag k="addr:postcode" v="95125"/></node>
<node visible="true" id="-299" lat="37.297026733" lon="-121.869719512"><tag k="addr:city" v="San Jose"/><tag k="addr:housenumber" v="2359"/><tag k="addr:street" v="Winepol Loop"/><tag k="addr:postcode" v="95125"/></node>
<node visible="true" id="-300" lat="37.293756483" lon="-121.85706974400001"><tag k="addr:city" v="San Jose"/><tag k="addr:housenumber" v="236"/><tag k="addr:street" v="Chateau La Salle Drive"/><tag k="addr:postcode" v="95111"/></node>
<node visible="true" id="-301" lat="37.295996682" lon="-121.86623812200001"><tag k="addr:city" v="San Jose"/><tag k="addr:housenumber" v="236"/><tag k="addr:street" v="Monte Vista Drive"/><tag k="addr:postcode" v="95125"/></node>
<node visible="true" id="-302" lat="37.297305784" lon="-121.86749591300001"><tag k="addr:city" v="San Jose"/><tag k="addr:housenumber" v="236"/><tag k="addr:street" v="Olive Hill Drive"/><tag k="addr:postcode" v="95125"/></node>
<node visible="true" id="-303" lat="37.295057002" lon="-121.86567360400001"><tag k="addr:city" v="San Jose"/><tag k="addr:housenumber" v="2360"/><tag k="addr:street" v="Plateau Drive"/><tag k="addr:postcode" v="95125"/></node>
<node visible="true" id="-304" lat="37.29534925" lon="-121.865723844"><tag k="addr:city" v="San Jose"/><tag k="addr:housenumber" v="2361"/><tag k="addr:street" v="Plateau Drive"/><tag k="addr:postcode" v="95125"/></node>
<node visible="true" id="-305" lat="37.295821625" lon="-121.86497580400001"><tag k="addr:city" v="San Jose"/><tag k="addr:housenumber" v="2362"/><tag k="addr:street" v="Azevedo Parkway"/><tag k="addr:postcode" v="95125"/></node>
<node visible="true" id="-306" lat="37.295046595" lon="-121.865572024"><tag k="addr:city" v="San Jose"/><tag k="addr:housenumber" v="2364"/><tag k="addr:street" v="Plateau Drive"/><tag k="addr:postcode" v="95125"/></node>
<node visible="true" id="-307" lat="37.2961186" lon="-121.864787762"><tag k="addr:city" v="San Jose"/><tag k="addr:housenumber" v="2365"/><tag k="addr:street" v="Azevedo Parkway"/><tag k="addr:postcode" v="95125"/></node>
<node visible="true" id="-308" lat="37.295322358" lon="-121.86551668800001"><tag k="addr:city" v="San Jose"/><tag k="addr:housenumber" v="2365"/><tag k="addr:street" v="Plateau Drive"/><tag k="addr:postcode" v="95125"/></node>
<node visible="true" id="-309" lat="37.297053906" lon="-121.86975858500001"><tag k="addr:city" v="San Jose"/><tag k="addr:housenumber" v="2365"/><tag k="addr:street" v="Winepol Loop"/><tag k="addr:postcode" v="95125"/></node>
<node visible="true" id="-310" lat="37.295809432000006" lon="-121.864878902"><tag k="addr:city" v="San Jose"/><tag k="addr:housenumber" v="2366"/><tag k="addr:street" v="Azevedo Parkway"/><tag k="addr:postcode" v="95125"/></node>
<node visible="true" id="-311" lat="37.295036046" lon="-121.86548495100001"><tag k="addr:city" v="San Jose"/><tag k="addr:housenumber" v="2368"/><tag k="addr:street" v="Plateau Drive"/><tag k="addr:postcode" v="95125"/></node>
<node visible="true" id="-312" lat="37.296114182000004" lon="-121.86467181500001"><tag k="addr:city" v="San Jose"/><tag k="addr:housenumber" v="2369"/><tag k="addr:street" v="Azevedo Parkway"/><tag k="addr:postcode" v="95125"/></node>
<node visible="true" id="-313" lat="37.295312867" lon="-121.865416533"><tag k="addr:city" v="San Jose"/><tag k="addr:housenumber" v="2369"/><tag k="addr:street" v="Plateau Drive"/><tag k="addr:postcode" v="95125"/></node>
<node visible="true" id="-314" lat="37.293640211" lon="-121.85697029900001"><tag k="addr:city" v="San Jose"/><tag k="addr:housenumber" v="237"/><tag k="addr:street" v="Chateau La Salle Drive"/><tag k="addr:postcode" v="95111"/></node>
<node visible="true" id="-315" lat="37.296475824000005" lon="-121.866730524"><tag k="addr:city" v="San Jose"/><tag k="addr:housenumber" v="237"/><tag k="addr:street" v="Meadow Pine Place"/><tag k="addr:postcode" v="95125"/></node>
<node visible="true" id="-316" lat="37.295802645" lon="-121.86477546100001"><tag k="addr:city" v="San Jose"/><tag k="addr:housenumber" v="2370"/><tag k="addr:street" v="Azevedo Parkway"/><tag k="addr:postcode" v="95125"/></node>
<node visible="true" id="-317" lat="37.297057011" lon="-121.86999480200001"><tag k="addr:city" v="San Jose"/><tag k="addr:housenumber" v="2370"/><tag k="addr:street" v="Winepol Loop"/><tag k="addr:postcode" v="95125"/></node>
<node visible="true" id="-318" lat="37.296961184000004" lon="-121.869783357"><tag k="addr:city" v="San Jose"/><tag k="addr:housenumber" v="2371"/><tag k="addr:street" v="Winepol Loop"/><tag k="addr:postcode" v="95125"/></node>
<node visible="true" id="-319" lat="37.295019957" lon="-121.865376014"><tag k="addr:city" v="San Jose"/><tag k="addr:housenumber" v="2372"/><tag k="addr:street" v="Plateau Drive"/><tag k="addr:postcode" v="95125"/></node>
<node visible="true" id="-320" lat="37.296109569" lon="-121.86457033900001"><tag k="addr:city" v="San Jose"/><tag k="addr:housenumber" v="2373"/><tag k="addr:street" v="Azevedo Parkway"/><tag k="addr:postcode" v="95125"/></node>
<node visible="true" id="-321" lat="37.295300636" lon="-121.865322965"><tag k="addr:city" v="San Jose"/><tag k="addr:housenumber" v="2373"/><tag k="addr:street" v="Plateau Drive"/><tag k="addr:postcode" v="95125"/></node>
<node visible="true" id="-322" lat="37.295787632" lon="-121.864691848"><tag k="addr:city" v="San Jose"/><tag k="addr:housenumber" v="2374"/><tag k="addr:street" v="Azevedo Parkway"/><tag k="addr:postcode" v="95125"/></node>
<node visible="true" id="-323" lat="37.295021054" lon="-121.865281898"><tag k="addr:city" v="San Jose"/><tag k="addr:housenumber" v="2376"/><tag k="addr:street" v="Plateau Drive"/><tag k="addr:postcode" v="95125"/></node>
<node visible="true" id="-324" lat="37.297013502000006" lon="-121.870041806"><tag k="addr:city" v="San Jose"/><tag k="addr:housenumber" v="2376"/><tag k="addr:street" v="Winepol Loop"/><tag k="addr:postcode" v="95125"/></node>
<node visible="true" id="-325" lat="37.296099161" lon="-121.86446879300001"><tag k="addr:city" v="San Jose"/><tag k="addr:housenumber" v="2377"/><tag k="addr:street" v="Azevedo Parkway"/><tag k="addr:postcode" v="95125"/></node>
<node visible="true" id="-326" lat="37.295293772" lon="-121.865226159"><tag k="addr:city" v="San Jose"/><tag k="addr:housenumber" v="2377"/><tag k="addr:street" v="Plateau Drive"/><tag k="addr:postcode" v="95125"/></node>
<node visible="true" id="-327" lat="37.296931498" lon="-121.86989744"><tag k="addr:city" v="San Jose"/><tag k="addr:housenumber" v="2377"/><tag k="addr:street" v="Winepol Loop"/><tag k="addr:postcode" v="95125"/></node>
<node visible="true" id="-328" lat="37.295780845" lon="-121.86458840700001"><tag k="addr:city" v="San Jose"/><tag k="addr:housenumber" v="2378"/><tag k="addr:street" v="Azevedo Parkway"/><tag k="addr:postcode" v="95125"/></node>
<node visible="true" id="-329" lat="37.293538874" lon="-121.85687627300001"><tag k="addr:city" v="San Jose"/><tag k="addr:housenumber" v="238"/><tag k="addr:street" v="Chateau La Salle Drive"/><tag k="addr:postcode" v="95111"/></node>
<node visible="true" id="-330" lat="37.296902847000005" lon="-121.86718178800001"><tag k="addr:city" v="San Jose"/><tag k="addr:housenumber" v="238"/><tag k="addr:street" v="Meadow Pine Place"/><tag k="addr:postcode" v="95125"/></node>
<node visible="true" id="-331" lat="37.295939367" lon="-121.86614307500001"><tag k="addr:city" v="San Jose"/><tag k="addr:housenumber" v="238"/><tag k="addr:street" v="Monte Vista Drive"/><tag k="addr:postcode" v="95125"/></node>
<node visible="true" id="-332" lat="37.295005021" lon="-121.86516574000001"><tag k="addr:city" v="San Jose"/><tag k="addr:housenumber" v="2380"/><tag k="addr:street" v="Plateau Drive"/><tag k="addr:postcode" v="95125"/></node>
<node visible="true" id="-333" lat="37.296094491000005" lon="-121.86437453600001"><tag k="addr:city" v="San Jose"/><tag k="addr:housenumber" v="2381"/><tag k="addr:street" v="Azevedo Parkway"/><tag k="addr:postcode" v="95125"/></node>
<node visible="true" id="-334" lat="37.295279847" lon="-121.865049256"><tag k="addr:city" v="San Jose"/><tag k="addr:housenumber" v="2381"/><tag k="addr:street" v="Plateau Drive"/><tag k="addr:postcode" v="95125"/></node>
<node visible="true" id="-335" lat="37.295761825" lon="-121.86439136300001"><tag k="addr:city" v="San Jose"/><tag k="addr:housenumber" v="2382"/><tag k="addr:street" v="Azevedo Parkway"/><tag k="addr:postcode" v="95125"/></node>
<node visible="true" id="-336" lat="37.296969922" lon="-121.87009478300001"><tag k="addr:city" v="San Jose"/><tag k="addr:housenumber" v="2382"/><tag k="addr:street" v="Winepol Loop"/><tag k="addr:postcode" v="95125"/></node>
<node visible="true" id="-337" lat="37.296898105000004" lon="-121.86984495200001"><tag k="addr:city" v="San Jose"/><tag k="addr:housenumber" v="2383"/><tag k="addr:street" v="Winepol Loop"/><tag k="addr:postcode" v="95125"/></node>
<node visible="true" id="-338" lat="37.294994472" lon="-121.86507863400001"><tag k="addr:city" v="San Jose"/><tag k="addr:housenumber" v="2384"/><tag k="addr:street" v="Plateau Drive"/><tag k="addr:postcode" v="95125"/></node>
<node visible="true" id="-339" lat="37.296084166" lon="-121.864265735"><tag k="addr:city" v="San Jose"/><tag k="addr:housenumber" v="2385"/><tag k="addr:street" v="Azevedo Parkway"/><tag k="addr:postcode" v="95125"/></node>
<node visible="true" id="-340" lat="37.295270241000004" lon="-121.864959071"><tag k="addr:city" v="San Jose"/><tag k="addr:housenumber" v="2385"/><tag k="addr:street" v="Plateau Drive"/><tag k="addr:postcode" v="95125"/></node>
<node visible="true" id="-341" lat="37.295744498000005" lon="-121.86427772600001"><tag k="addr:city" v="San Jose"/><tag k="addr:housenumber" v="2386"/><tag k="addr:street" v="Azevedo Parkway"/><tag k="addr:postcode" v="95125"/></node>
<node visible="true" id="-342" lat="37.294972587000004" lon="-121.86496962400001"><tag k="addr:city" v="San Jose"/><tag k="addr:housenumber" v="2388"/><tag k="addr:street" v="Plateau Drive"/><tag k="addr:postcode" v="95125"/></node>
<node visible="true" id="-343" lat="37.296911971" lon="-121.87015197800001"><tag k="addr:city" v="San Jose"/><tag k="addr:housenumber" v="2388"/><tag k="addr:street" v="Winepol Loop"/><tag k="addr:postcode" v="95125"/></node>
<node visible="true" id="-344" lat="37.296079553000006" lon="-121.86416426100001"><tag k="addr:city" v="San Jose"/><tag k="addr:housenumber" v="2389"/><tag k="addr:street" v="Azevedo Parkway"/><tag k="addr:postcode" v="95125"/></node>
<node visible="true" id="-345" lat="37.295263336000005" lon="-121.86486559900001"><tag k="addr:city" v="San Jose"/><tag k="addr:housenumber" v="2389"/><tag k="addr:street" v="Plateau Drive"/><tag k="addr:postcode" v="95125"/></node>
<node visible="true" id="-346" lat="37.296723495" lon="-121.870033828"><tag k="addr:city" v="San Jose"/><tag k="addr:housenumber" v="2389"/><tag k="addr:street" v="Winepol Loop"/><tag k="addr:postcode" v="95125"/></node>
<node visible="true" id="-347" lat="37.293431668000004" lon="-121.85677879"><tag k="addr:city" v="San Jose"/><tag k="addr:housenumber" v="239"/><tag k="addr:street" v="Chateau La Salle Drive"/><tag k="addr:postcode" v="95111"/></node>
<node visible="true" id="-348" lat="37.297053263" lon="-121.86730848600001"><tag k="addr:city" v="San Jose"/><tag k="addr:housenumber" v="239"/><tag k="addr:street" v="Olive Hill Drive"/><tag k="addr:postcode" v="95125"/></node>
<node visible="true" id="-349" lat="37.295740258" lon="-121.864184304"><tag k="addr:city" v="San Jose"/><tag k="addr:housenumber" v="2390"/><tag k="addr:street" v="Azevedo Parkway"/><tag k="addr:postcode" v="95125"/></node>
<node visible="true" id="-350" lat="37.294956385" lon="-121.86486793700001"><tag k="addr:city" v="San Jose"/><tag k="addr:housenumber" v="2392"/><tag k="addr:street" v="Plateau Drive"/><tag k="addr:postcode" v="95125"/></node>
<node visible="true" id="-351" lat="37.296063292" lon="-121.86406982700001"><tag k="addr:city" v="San Jose"/><tag k="addr:housenumber" v="2393"/><tag k="addr:street" v="Azevedo Parkway"/><tag k="addr:postcode" v="95125"/></node>
<node visible="true" id="-352" lat="37.295251144000005" lon="-121.86476873100001"><tag k="addr:city" v="San Jose"/><tag k="addr:housenumber" v="2393"/><tag k="addr:street" v="Plateau Drive"/><tag k="addr:postcode" v="95125"/></node>
<node visible="true" id="-353" lat="37.295730767" lon="-121.86408415000001"><tag k="addr:city" v="San Jose"/><tag k="addr:housenumber" v="2394"/><tag k="addr:street" v="Azevedo Parkway"/><tag k="addr:postcode" v="95125"/></node>
<node visible="true" id="-354" lat="37.296749435" lon="-121.87008751"><tag k="addr:city" v="San Jose"/><tag k="addr:housenumber" v="2395"/><tag k="addr:street" v="Winepol Loop"/><tag k="addr:postcode" v="95125"/></node>
<node visible="true" id="-355" lat="37.294951799" lon="-121.864766465"><tag k="addr:city" v="San Jose"/><tag k="addr:housenumber" v="2396"/><tag k="addr:street" v="Plateau Drive"/><tag k="addr:postcode" v="95125"/></node>
<node visible="true" id="-356" lat="37.296058763000005" lon="-121.86396109900001"><tag k="addr:city" v="San Jose"/><tag k="addr:housenumber" v="2397"/><tag k="addr:street" v="Azevedo Parkway"/><tag k="addr:postcode" v="95125"/></node>
<node visible="true" id="-357" lat="37.295247136" lon="-121.864655303"><tag k="addr:city" v="San Jose"/><tag k="addr:housenumber" v="2397"/><tag k="addr:street" v="Plateau Drive"/><tag k="addr:postcode" v="95125"/></node>
<node visible="true" id="-358" lat="37.29572394" lon="-121.863984009"><tag k="addr:city" v="San Jose"/><tag k="addr:housenumber" v="2398"/><tag k="addr:street" v="Azevedo Parkway"/><tag k="addr:postcode" v="95125"/></node>
<node visible="true" id="-359" lat="37.296036708" lon="-121.86386656"><tag k="addr:city" v="San Jose"/><tag k="addr:housenumber" v="2399"/><tag k="addr:street" v="Azevedo Parkway"/><tag k="addr:postcode" v="95125"/></node>
<node visible="true" id="-360" lat="37.293319753000006" lon="-121.85697549700001"><tag k="addr:city" v="San Jose"/><tag k="addr:housenumber" v="240"/><tag k="addr:street" v="Chateau La Salle Drive"/><tag k="addr:postcode" v="95111"/></node>
<node visible="true" id="-361" lat="37.297263957000006" lon="-121.867575396"><tag k="addr:city" v="San Jose"/><tag k="addr:housenumber" v="240"/><tag k="addr:street" v="Olive Hill Drive"/><tag k="addr:postcode" v="95125"/></node>
<node visible="true" id="-362" lat="37.294941393" lon="-121.86466488600001"><tag k="addr:city" v="San Jose"/><tag k="addr:housenumber" v="2400"/><tag k="addr:street" v="Plateau Drive"/><tag k="addr:postcode" v="95125"/></node>
<node visible="true" id="-363" lat="37.296661531000005" lon="-121.87010462600001"><tag k="addr:city" v="San Jose"/><tag k="addr:housenumber" v="2401"/><tag k="addr:street" v="Winepol Loop"/><tag k="addr:postcode" v="95125"/></node>
<node visible="true" id="-364" lat="37.294925385" lon="-121.864548729"><tag k="addr:city" v="San Jose"/><tag k="addr:housenumber" v="2402"/><tag k="addr:street" v="Plateau Drive"/><tag k="addr:postcode" v="95125"/></node>
<node visible="true" id="-365" lat="37.296003767" lon="-121.86371389000001"><tag k="addr:city" v="San Jose"/><tag k="addr:housenumber" v="2403"/><tag k="addr:street" v="Azevedo Parkway"/><tag k="addr:postcode" v="95125"/></node>
<node visible="true" id="-366" lat="37.295221328000004" lon="-121.864354856"><tag k="addr:city" v="San Jose"/><tag k="addr:housenumber" v="2405"/><tag k="addr:street" v="Plateau Drive"/><tag k="addr:postcode" v="95125"/></node>
<node visible="true" id="-367" lat="37.29492665" lon="-121.864440142"><tag k="addr:city" v="San Jose"/><tag k="addr:housenumber" v="2406"/><tag k="addr:street" v="Plateau Drive"/><tag k="addr:postcode" v="95125"/></node>
<node visible="true" id="-368" lat="37.295912009000006" lon="-121.863639809"><tag k="addr:city" v="San Jose"/><tag k="addr:housenumber" v="2407"/><tag k="addr:street" v="Azevedo Parkway"/><tag k="addr:postcode" v="95125"/></node>
<node visible="true" id="-369" lat="37.296619432" lon="-121.87014976900001"><tag k="addr:city" v="San Jose"/><tag k="addr:housenumber" v="2407"/><tag k="addr:street" v="Winepol Loop"/><tag k="addr:postcode" v="95125"/></node>
<node visible="true" id="-370" lat="37.295211644000005" lon="-121.86427134"><tag k="addr:city" v="San Jose"/><tag k="addr:housenumber" v="2409"/><tag k="addr:street" v="Plateau Drive"/><tag k="addr:postcode" v="95125"/></node>
<node visible="true" id="-371" lat="37.293423455" lon="-121.85708041900001"><tag k="addr:city" v="San Jose"/><tag k="addr:housenumber" v="241"/><tag k="addr:street" v="Chateau La Salle Drive"/><tag k="addr:postcode" v="95111"/></node>
<node visible="true" id="-372" lat="37.296406943" lon="-121.86662639400001"><tag k="addr:city" v="San Jose"/><tag k="addr:housenumber" v="241"/><tag k="addr:street" v="Meadow Pine Place"/><tag k="addr:postcode" v="95125"/></node>
<node visible="true" id="-373" lat="37.294916327" lon="-121.864331311"><tag k="addr:city" v="San Jose"/><tag k="addr:housenumber" v="2410"/><tag k="addr:street" v="Plateau Drive"/><tag k="addr:postcode" v="95125"/></node>
<node visible="true" id="-374" lat="37.295796172" lon="-121.86364491600001"><tag k="addr:city" v="San Jose"/><tag k="addr:housenumber" v="2411"/><tag k="addr:street" v="Azevedo Parkway"/><tag k="addr:postcode" v="95125"/></node>
<node visible="true" id="-375" lat="37.295199528000005" lon="-121.864167769"><tag k="addr:city" v="San Jose"/><tag k="addr:housenumber" v="2413"/><tag k="addr:street" v="Plateau Drive"/><tag k="addr:postcode" v="95125"/></node>
<node visible="true" id="-376" lat="37.296568676" lon="-121.870203169"><tag k="addr:city" v="San Jose"/><tag k="addr:housenumber" v="2413"/><tag k="addr:street" v="Winepol Loop"/><tag k="addr:postcode" v="95125"/></node>
<node visible="true" id="-377" lat="37.295714795" lon="-121.86367241600001"><tag k="addr:city" v="San Jose"/><tag k="addr:housenumber" v="2415"/><tag k="addr:street" v="Azevedo Parkway"/><tag k="addr:postcode" v="95125"/></node>
<node visible="true" id="-378" lat="37.295189843" lon="-121.86408428700001"><tag k="addr:city" v="San Jose"/><tag k="addr:housenumber" v="2417"/><tag k="addr:street" v="Plateau Drive"/><tag k="addr:postcode" v="95125"/></node>
<node visible="true" id="-379" lat="37.295639465" lon="-121.863678296"><tag k="addr:city" v="San Jose"/><tag k="addr:housenumber" v="2419"/><tag k="addr:street" v="Azevedo Parkway"/><tag k="addr:postcode" v="95125"/></node>
<node visible="true" id="-380" lat="37.293543436" lon="-121.857172821"><tag k="addr:city" v="San Jose"/><tag k="addr:housenumber" v="242"/><tag k="addr:street" v="Chateau La Salle Drive"/><tag k="addr:postcode" v="95111"/></node>
<node visible="true" id="-381" lat="37.296855198" lon="-121.86726109600001"><tag k="addr:city" v="San Jose"/><tag k="addr:housenumber" v="242"/><tag k="addr:street" v="Meadow Pine Place"/><tag k="addr:postcode" v="95125"/></node>
<node visible="true" id="-382" lat="37.295858035" lon="-121.86610542000001"><tag k="addr:city" v="San Jose"/><tag k="addr:housenumber" v="242"/><tag k="addr:street" v="Monte Vista Drive"/><tag k="addr:postcode" v="95125"/></node>
<node visible="true" id="-383" lat="37.296653323" lon="-121.870440414"><tag k="addr:city" v="San Jose"/><tag k="addr:housenumber" v="2420"/><tag k="addr:street" v="Winepol Loop"/><tag k="addr:postcode" v="95125"/></node>
<node visible="true" id="-384" lat="37.295552658000005" lon="-121.86367671200001"><tag k="addr:city" v="San Jose"/><tag k="addr:housenumber" v="2423"/><tag k="addr:street" v="Azevedo Parkway"/><tag k="addr:postcode" v="95125"/></node>
<node visible="true" id="-385" lat="37.296597644" lon="-121.87049678700001"><tag k="addr:city" v="San Jose"/><tag k="addr:housenumber" v="2426"/><tag k="addr:street" v="Winepol Loop"/><tag k="addr:postcode" v="95125"/></node>
<node visible="true" id="-386" lat="37.295471618" lon="-121.863675235"><tag k="addr:city" v="San Jose"/><tag k="addr:housenumber" v="2427"/><tag k="addr:street" v="Azevedo Parkway"/><tag k="addr:postcode" v="95125"/></node>
<node visible="true" id="-387" lat="37.298241067" lon="-121.86844557600001"><tag k="addr:city" v="San Jose"/><tag k="addr:housenumber" v="243"/><tag k="addr:street" v="Azevedo Circle"/><tag k="addr:postcode" v="95125"/></node>
<node visible="true" id="-388" lat="37.293634474" lon="-121.857273061"><tag k="addr:city" v="San Jose"/><tag k="addr:housenumber" v="243"/><tag k="addr:street" v="Chateau La Salle Drive"/><tag k="addr:postcode" v="95111"/></node>
<node visible="true" id="-389" lat="37.295384643000006" lon="-121.86368812500001"><tag k="addr:city" v="San Jose"/><tag k="addr:housenumber" v="2431"/><tag k="addr:street" v="Azevedo Parkway"/><tag k="addr:postcode" v="95125"/></node>
<node visible="true" id="-390" lat="37.296543751" lon="-121.87055701800001"><tag k="addr:city" v="San Jose"/><tag k="addr:housenumber" v="2432"/><tag k="addr:street" v="Winepol Loop"/><tag k="addr:postcode" v="95125"/></node>
<node visible="true" id="-391" lat="37.295303434000004" lon="-121.863701117"><tag k="addr:city" v="San Jose"/><tag k="addr:housenumber" v="2435"/><tag k="addr:street" v="Azevedo Parkway"/><tag k="addr:postcode" v="95125"/></node>
<node visible="true" id="-392" lat="37.295222084" lon="-121.863728617"><tag k="addr:city" v="San Jose"/><tag k="addr:housenumber" v="2439"/><tag k="addr:street" v="Azevedo Parkway"/><tag k="addr:postcode" v="95125"/></node>
<node visible="true" id="-393" lat="37.293727626" lon="-121.857359692"><tag k="addr:city" v="San Jose"/><tag k="addr:housenumber" v="244"/><tag k="addr:street" v="Chateau La Salle Drive"/><tag k="addr:postcode" v="95111"/></node>
<node visible="true" id="-394" lat="37.29514667" lon="-121.863741716"><tag k="addr:city" v="San Jose"/><tag k="addr:housenumber" v="2443"/><tag k="addr:street" v="Azevedo Parkway"/><tag k="addr:postcode" v="95125"/></node>
<node visible="true" id="-395" lat="37.295067768" lon="-121.863754752"><tag k="addr:city" v="San Jose"/><tag k="addr:housenumber" v="2447"/><tag k="addr:street" v="Azevedo Parkway"/><tag k="addr:postcode" v="95125"/></node>
<node visible="true" id="-396" lat="37.293821446" lon="-121.857449184"><tag k="addr:city" v="San Jose"/><tag k="addr:housenumber" v="245"/><tag k="addr:street" v="Chateau La Salle Drive"/><tag k="addr:postcode" v="95111"/></node>
<node visible="true" id="-397" lat="37.296343703000005" lon="-121.86653773900001"><tag k="addr:city" v="San Jose"/><tag k="addr:housenumber" v="245"/><tag k="addr:street" v="Meadow Pine Place"/><tag k="addr:postcode" v="95125"/></node>
<node visible="true" id="-398" lat="37.296999693000004" lon="-121.867393942"><tag k="addr:city" v="San Jose"/><tag k="addr:housenumber" v="245"/><tag k="addr:street" v="Olive Hill Drive"/><tag k="addr:postcode" v="95125"/></node>
<node visible="true" id="-399" lat="37.294974998" lon="-121.86376753500001"><tag k="addr:city" v="San Jose"/><tag k="addr:housenumber" v="2451"/><tag k="addr:street" v="Azevedo Court"/><tag k="addr:postcode" v="95125"/></node>
<node visible="true" id="-400" lat="37.294899584" lon="-121.86378066700001"><tag k="addr:city" v="San Jose"/><tag k="addr:housenumber" v="2455"/><tag k="addr:street" v="Azevedo Court"/><tag k="addr:postcode" v="95125"/></node>
<node visible="true" id="-401" lat="37.294946873" lon="-121.86419430800001"><tag k="addr:city" v="San Jose"/><tag k="addr:housenumber" v="2458"/><tag k="addr:street" v="Azevedo Court"/><tag k="addr:postcode" v="95125"/></node>
<node visible="true" id="-402" lat="37.294812609000004" lon="-121.863793556"><tag k="addr:city" v="San Jose"/><tag k="addr:housenumber" v="2459"/><tag k="addr:street" v="Azevedo Court"/><tag k="addr:postcode" v="95125"/></node>
<node visible="true" id="-403" lat="37.293920017000005" lon="-121.85757589900001"><tag k="addr:city" v="San Jose"/><tag k="addr:housenumber" v="246"/><tag k="addr:street" v="Chateau La Salle Drive"/><tag k="addr:postcode" v="95111"/></node>
<node visible="true" id="-404" lat="37.297216138" lon="-121.86766931300001"><tag k="addr:city" v="San Jose"/><tag k="addr:housenumber" v="246"/><tag k="addr:street" v="Olive Hill Drive"/><tag k="addr:postcode" v="95125"/></node>
<node visible="true" id="-405" lat="37.294865777000005" lon="-121.86420005000001"><tag k="addr:city" v="San Jose"/><tag k="addr:housenumber" v="2462"/><tag k="addr:street" v="Azevedo Court"/><tag k="addr:postcode" v="95125"/></node>
<node visible="true" id="-406" lat="37.294743073" lon="-121.86379954200001"><tag k="addr:city" v="San Jose"/><tag k="addr:housenumber" v="2463"/><tag k="addr:street" v="Azevedo Court"/><tag k="addr:postcode" v="95125"/></node>
<node visible="true" id="-407" lat="37.294779026" lon="-121.86419124700001"><tag k="addr:city" v="San Jose"/><tag k="addr:housenumber" v="2466"/><tag k="addr:street" v="Azevedo Court"/><tag k="addr:postcode" v="95125"/></node>
<node visible="true" id="-408" lat="37.294655929" lon="-121.86382690200001"><tag k="addr:city" v="San Jose"/><tag k="addr:housenumber" v="2467"/><tag k="addr:street" v="Azevedo Court"/><tag k="addr:postcode" v="95125"/></node>
<node visible="true" id="-409" lat="37.294313401000004" lon="-121.85777910200001"><tag k="addr:city" v="San Jose"/><tag k="addr:housenumber" v="247"/><tag k="addr:street" v="Chateau La Salle Drive"/><tag k="addr:postcode" v="95111"/></node>
<node visible="true" id="-410" lat="37.294692136" lon="-121.864196882"><tag k="addr:city" v="San Jose"/><tag k="addr:housenumber" v="2470"/><tag k="addr:street" v="Azevedo Court"/><tag k="addr:postcode" v="95125"/></node>
<node visible="true" id="-411" lat="37.294574805" lon="-121.863832676"><tag k="addr:city" v="San Jose"/><tag k="addr:housenumber" v="2471"/><tag k="addr:street" v="Azevedo Court"/><tag k="addr:postcode" v="95125"/></node>
<node visible="true" id="-412" lat="37.294186978" lon="-121.85786139100001"><tag k="addr:city" v="San Jose"/><tag k="addr:housenumber" v="248"/><tag k="addr:street" v="Chateau La Salle Drive"/><tag k="addr:postcode" v="95111"/></node>
<node visible="true" id="-413" lat="37.295771634000005" lon="-121.86600066400001"><tag k="addr:city" v="San Jose"/><tag k="addr:housenumber" v="248"/><tag k="addr:street" v="Monte Vista Drive"/><tag k="addr:postcode" v="95125"/></node>
<node visible="true" id="-414" lat="37.294086409" lon="-121.85794214100001"><tag k="addr:city" v="San Jose"/><tag k="addr:housenumber" v="249"/><tag k="addr:street" v="Chateau La Salle Drive"/><tag k="addr:postcode" v="95111"/></node>
<node visible="true" id="-415" lat="37.296224974000005" lon="-121.867701382"><tag k="addr:city" v="San Jose"/><tag k="addr:housenumber" v="250"/><tag k="addr:street" v="Ascente Commons"/><tag k="addr:postcode" v="95125"/></node>
<node visible="true" id="-416" lat="37.29803363" lon="-121.86820113600001"><tag k="addr:city" v="San Jose"/><tag k="addr:housenumber" v="250"/><tag k="addr:street" v="Azevedo Circle"/><tag k="addr:postcode" v="95125"/></node>
<node visible="true" id="-417" lat="37.293974234000004" lon="-121.858041454"><tag k="addr:city" v="San Jose"/><tag k="addr:housenumber" v="250"/><tag k="addr:street" v="Chateau La Salle Drive"/><tag k="addr:postcode" v="95111"/></node>
<node visible="true" id="-418" lat="37.296801529" lon="-121.86735493900001"><tag k="addr:city" v="San Jose"/><tag k="addr:housenumber" v="250"/><tag k="addr:street" v="Meadow Pine Place"/><tag k="addr:postcode" v="95125"/></node>
<node visible="true" id="-419" lat="37.293866761000004" lon="-121.858163868"><tag k="addr:city" v="San Jose"/><tag k="addr:housenumber" v="251"/><tag k="addr:street" v="Chateau La Salle Drive"/><tag k="addr:postcode" v="95111"/></node>
<node visible="true" id="-420" lat="37.296940336000006" lon="-121.86747386100001"><tag k="addr:city" v="San Jose"/><tag k="addr:housenumber" v="251"/><tag k="addr:street" v="Olive Hill Drive"/><tag k="addr:postcode" v="95125"/></node>
<node visible="true" id="-421" lat="37.293768308000004" lon="-121.85829580100001"><tag k="addr:city" v="San Jose"/><tag k="addr:housenumber" v="252"/><tag k="addr:street" v="Chateau La Salle Drive"/><tag k="addr:postcode" v="95111"/></node>
<node visible="true" id="-422" lat="37.293699098000005" lon="-121.85846455500001"><tag k="addr:city" v="San Jose"/><tag k="addr:housenumber" v="253"/><tag k="addr:street" v="Chateau La Salle Drive"/><tag k="addr:postcode" v="95111"/></node>
<node visible="true" id="-423" lat="37.296155733" lon="-121.867628017"><tag k="addr:city" v="San Jose"/><tag k="addr:housenumber" v="254"/><tag k="addr:street" v="Ascente Commons"/><tag k="addr:postcode" v="95125"/></node>
<node visible="true" id="-424" lat="37.293629582" lon="-121.85863000200001"><tag k="addr:city" v="San Jose"/><tag k="addr:housenumber" v="254"/><tag k="addr:street" v="Chateau La Salle Drive"/><tag k="addr:postcode" v="95111"/></node>
<node visible="true" id="-425" lat="37.293567993" lon="-121.85880433400001"><tag k="addr:city" v="San Jose"/><tag k="addr:housenumber" v="255"/><tag k="addr:street" v="Chateau La Salle Drive"/><tag k="addr:postcode" v="95111"/></node>
<node visible="true" id="-426" lat="37.297946594" lon="-121.86814852200001"><tag k="addr:city" v="San Jose"/><tag k="addr:housenumber" v="256"/><tag k="addr:street" v="Azevedo Circle"/><tag k="addr:postcode" v="95125"/></node>
<node visible="true" id="-427" lat="37.293539508" lon="-121.85898807400001"><tag k="addr:city" v="San Jose"/><tag k="addr:housenumber" v="256"/><tag k="addr:street" v="Chateau La Salle Drive"/><tag k="addr:postcode" v="95111"/></node>
<node visible="true" id="-428" lat="37.296754023000005" lon="-121.86741967100001"><tag k="addr:city" v="San Jose"/><tag k="addr:housenumber" v="256"/><tag k="addr:street" v="Meadow Pine Place"/><tag k="addr:postcode" v="95125"/></node>
<node visible="true" id="-429" lat="37.293510996" lon="-121.859156564"><tag k="addr:city" v="San Jose"/><tag k="addr:housenumber" v="257"/><tag k="addr:street" v="Chateau La Salle Drive"/><tag k="addr:postcode" v="95111"/></node>
<node visible="true" id="-430" lat="37.296886829" lon="-121.86755392200001"><tag k="addr:city" v="San Jose"/><tag k="addr:housenumber" v="257"/><tag k="addr:street" v="Olive Hill Drive"/><tag k="addr:postcode" v="95125"/></node>
<node visible="true" id="-431" lat="37.296068963" lon="-121.867552716"><tag k="addr:city" v="San Jose"/><tag k="addr:housenumber" v="258"/><tag k="addr:street" v="Ascente Commons"/><tag k="addr:postcode" v="95125"/></node>
<node visible="true" id="-432" lat="37.293470354" lon="-121.85933004600001"><tag k="addr:city" v="San Jose"/><tag k="addr:housenumber" v="258"/><tag k="addr:street" v="Chateau La Salle Drive"/><tag k="addr:postcode" v="95111"/></node>
<node visible="true" id="-433" lat="37.293407995" lon="-121.85948287900001"><tag k="addr:city" v="San Jose"/><tag k="addr:housenumber" v="259"/><tag k="addr:street" v="Chateau La Salle Drive"/><tag k="addr:postcode" v="95111"/></node>
<node visible="true" id="-434" lat="37.293346500000006" lon="-121.85964021100001"><tag k="addr:city" v="San Jose"/><tag k="addr:housenumber" v="260"/><tag k="addr:street" v="Chateau La Salle Drive"/><tag k="addr:postcode" v="95111"/></node>
<node visible="true" id="-435" lat="37.293256304" lon="-121.859805562"><tag k="addr:city" v="San Jose"/><tag k="addr:housenumber" v="261"/><tag k="addr:street" v="Chateau La Salle Drive"/><tag k="addr:postcode" v="95111"/></node>
<node visible="true" id="-436" lat="37.295976201" lon="-121.86749184800001"><tag k="addr:city" v="San Jose"/><tag k="addr:housenumber" v="262"/><tag k="addr:street" v="Ascente Commons"/><tag k="addr:postcode" v="95125"/></node>
<node visible="true" id="-437" lat="37.297882617" lon="-121.868125449"><tag k="addr:city" v="San Jose"/><tag k="addr:housenumber" v="262"/><tag k="addr:street" v="Azevedo Circle"/><tag k="addr:postcode" v="95125"/></node>
<node visible="true" id="-438" lat="37.293166018" lon="-121.859938661"><tag k="addr:city" v="San Jose"/><tag k="addr:housenumber" v="262"/><tag k="addr:street" v="Chateau La Salle Drive"/><tag k="addr:postcode" v="95111"/></node>
<node visible="true" id="-439" lat="37.296640742" lon="-121.867615294"><tag k="addr:city" v="San Jose"/><tag k="addr:housenumber" v="262"/><tag k="addr:street" v="Meadow Pine Place"/><tag k="addr:postcode" v="95125"/></node>
<node visible="true" id="-440" lat="37.293070975" lon="-121.86004923600001"><tag k="addr:city" v="San Jose"/><tag k="addr:housenumber" v="263"/><tag k="addr:street" v="Chateau La Salle Drive"/><tag k="addr:postcode" v="95111"/></node>
<node visible="true" id="-441" lat="37.292966807" lon="-121.860184828"><tag k="addr:city" v="San Jose"/><tag k="addr:housenumber" v="264"/><tag k="addr:street" v="Chateau La Salle Drive"/><tag k="addr:postcode" v="95111"/></node>
<node visible="true" id="-442" lat="37.292857251" lon="-121.860276827"><tag k="addr:city" v="San Jose"/><tag k="addr:housenumber" v="265"/><tag k="addr:street" v="Chateau La Salle Drive"/><tag k="addr:postcode" v="95111"/></node>
<node visible="true" id="-443" lat="37.295912636000004" lon="-121.867433441"><tag k="addr:city" v="San Jose"/><tag k="addr:housenumber" v="266"/><tag k="addr:street" v="Ascente Commons"/><tag k="addr:postcode" v="95125"/></node>
<node visible="true" id="-444" lat="37.292754104000004" lon="-121.860385323"><tag k="addr:city" v="San Jose"/><tag k="addr:housenumber" v="266"/><tag k="addr:street" v="Chateau La Salle Drive"/><tag k="addr:postcode" v="95111"/></node>
<node visible="true" id="-445" lat="37.296592933" lon="-121.867708386"><tag k="addr:city" v="San Jose"/><tag k="addr:housenumber" v="266"/><tag k="addr:street" v="Meadow Pine Place"/><tag k="addr:postcode" v="95125"/></node>
<node visible="true" id="-446" lat="37.292643854000005" lon="-121.860498913"><tag k="addr:city" v="San Jose"/><tag k="addr:housenumber" v="267"/><tag k="addr:street" v="Chateau La Salle Drive"/><tag k="addr:postcode" v="95111"/></node>
<node visible="true" id="-447" lat="37.297795695000005" lon="-121.868065547"><tag k="addr:city" v="San Jose"/><tag k="addr:housenumber" v="268"/><tag k="addr:street" v="Azevedo Circle"/><tag k="addr:postcode" v="95125"/></node>
<node visible="true" id="-448" lat="37.292536908" lon="-121.860625845"><tag k="addr:city" v="San Jose"/><tag k="addr:housenumber" v="268"/><tag k="addr:street" v="Chateau La Salle Drive"/><tag k="addr:postcode" v="95111"/></node>
<node visible="true" id="-449" lat="37.293595912" lon="-121.85525448000001"><tag k="addr:city" v="San Jose"/><tag k="addr:housenumber" v="2681"/><tag k="addr:street" v="Monterey Road"/><tag k="addr:postcode" v="95111"/></node>
<node visible="true" id="-450" lat="37.292427073" lon="-121.860699514"><tag k="addr:city" v="San Jose"/><tag k="addr:housenumber" v="269"/><tag k="addr:street" v="Chateau La Salle Drive"/><tag k="addr:postcode" v="95111"/></node>
<node visible="true" id="-451" lat="37.295861183" lon="-121.86733743500001"><tag k="addr:city" v="San Jose"/><tag k="addr:housenumber" v="270"/><tag k="addr:street" v="Ascente Commons"/><tag k="addr:postcode" v="95125"/></node>
<node visible="true" id="-452" lat="37.297708404000005" lon="-121.86803479400001"><tag k="addr:city" v="San Jose"/><tag k="addr:housenumber" v="270"/><tag k="addr:street" v="Azevedo Circle"/><tag k="addr:postcode" v="95125"/></node>
<node visible="true" id="-453" lat="37.292376999000005" lon="-121.86032294200001"><tag k="addr:city" v="San Jose"/><tag k="addr:housenumber" v="270"/><tag k="addr:street" v="Chateau La Salle Drive"/><tag k="addr:postcode" v="95111"/></node>
<node visible="true" id="-454" lat="37.296533595" lon="-121.867786722"><tag k="addr:city" v="San Jose"/><tag k="addr:housenumber" v="270"/><tag k="addr:street" v="Meadow Pine Place"/><tag k="addr:postcode" v="95125"/></node>
<node visible="true" id="-455" lat="37.290949152" lon="-121.85610371000001"><tag k="addr:city" v="San Jose"/><tag k="addr:housenumber" v="2703"/><tag k="addr:street" v="Ferrara Circle"/><tag k="addr:postcode" v="95111"/></node>
<node visible="true" id="-456" lat="37.290972027" lon="-121.85584447400001"><tag k="addr:city" v="San Jose"/><tag k="addr:housenumber" v="2706"/><tag k="addr:street" v="Ferrara Circle"/><tag k="addr:postcode" v="95111"/></node>
<node visible="true" id="-457" lat="37.290896048" lon="-121.85610226400001"><tag k="addr:city" v="San Jose"/><tag k="addr:housenumber" v="2709"/><tag k="addr:street" v="Ferrara Circle"/><tag k="addr:postcode" v="95111"/></node>
<node visible="true" id="-458" lat="37.292481262" lon="-121.860213692"><tag k="addr:city" v="San Jose"/><tag k="addr:housenumber" v="271"/><tag k="addr:street" v="Chateau La Salle Drive"/><tag k="addr:postcode" v="95111"/></node>
<node visible="true" id="-459" lat="37.290923604" lon="-121.855836745"><tag k="addr:city" v="San Jose"/><tag k="addr:housenumber" v="2712"/><tag k="addr:street" v="Ferrara Circle"/><tag k="addr:postcode" v="95111"/></node>
<node visible="true" id="-460" lat="37.290865615" lon="-121.85582102800001"><tag k="addr:city" v="San Jose"/><tag k="addr:housenumber" v="2718"/><tag k="addr:street" v="Ferrara Circle"/><tag k="addr:postcode" v="95111"/></node>
<node visible="true" id="-461" lat="37.292591047" lon="-121.860095833"><tag k="addr:city" v="San Jose"/><tag k="addr:housenumber" v="272"/><tag k="addr:street" v="Chateau La Salle Drive"/><tag k="addr:postcode" v="95111"/></node>
<node visible="true" id="-462" lat="37.290797984" lon="-121.85608326200001"><tag k="addr:city" v="San Jose"/><tag k="addr:housenumber" v="2723"/><tag k="addr:street" v="Ferrara Circle"/><tag k="addr:postcode" v="95111"/></node>
<node visible="true" id="-463" lat="37.290751557" lon="-121.856072053"><tag k="addr:city" v="San Jose"/><tag k="addr:housenumber" v="2729"/><tag k="addr:street" v="Ferrara Circle"/><tag k="addr:postcode" v="95111"/></node>
<node visible="true" id="-464" lat="37.292703496" lon="-121.859986203"><tag k="addr:city" v="San Jose"/><tag k="addr:housenumber" v="273"/><tag k="addr:street" v="Chateau La Salle Drive"/><tag k="addr:postcode" v="95111"/></node>
<node visible="true" id="-465" lat="37.290692299" lon="-121.856068949"><tag k="addr:city" v="San Jose"/><tag k="addr:housenumber" v="2733"/><tag k="addr:street" v="Ferrara Circle"/><tag k="addr:postcode" v="95111"/></node>
<node visible="true" id="-466" lat="37.292812834" lon="-121.85986673100001"><tag k="addr:city" v="San Jose"/><tag k="addr:housenumber" v="274"/><tag k="addr:street" v="Chateau La Salle Drive"/><tag k="addr:postcode" v="95111"/></node>
<node visible="true" id="-467" lat="37.29649184" lon="-121.867859949"><tag k="addr:city" v="San Jose"/><tag k="addr:housenumber" v="274"/><tag k="addr:street" v="Meadow Pine Place"/><tag k="addr:postcode" v="95125"/></node>
<node visible="true" id="-468" lat="37.292915725" lon="-121.85974733100001"><tag k="addr:city" v="San Jose"/><tag k="addr:housenumber" v="275"/><tag k="addr:street" v="Chateau La Salle Drive"/><tag k="addr:postcode" v="95111"/></node>
<node visible="true" id="-469" lat="37.297638907" lon="-121.86798328900001"><tag k="addr:city" v="San Jose"/><tag k="addr:housenumber" v="276"/><tag k="addr:street" v="Azevedo Circle"/><tag k="addr:postcode" v="95125"/></node>
<node visible="true" id="-470" lat="37.2930166" lon="-121.859611713"><tag k="addr:city" v="San Jose"/><tag k="addr:housenumber" v="276"/><tag k="addr:street" v="Chateau La Salle Drive"/><tag k="addr:postcode" v="95111"/></node>
<node visible="true" id="-471" lat="37.293099339" lon="-121.85944940200001"><tag k="addr:city" v="San Jose"/><tag k="addr:housenumber" v="277"/><tag k="addr:street" v="Chateau La Salle Drive"/><tag k="addr:postcode" v="95111"/></node>
<node visible="true" id="-472" lat="37.293161453" lon="-121.85929025700001"><tag k="addr:city" v="San Jose"/><tag k="addr:housenumber" v="278"/><tag k="addr:street" v="Chateau La Salle Drive"/><tag k="addr:postcode" v="95111"/></node>
<node visible="true" id="-473" lat="37.296449931000005" lon="-121.86794640800001"><tag k="addr:city" v="San Jose"/><tag k="addr:housenumber" v="278"/><tag k="addr:street" v="Meadow Pine Place"/><tag k="addr:postcode" v="95125"/></node>
<node visible="true" id="-474" lat="37.293210034000005" lon="-121.859111931"><tag k="addr:city" v="San Jose"/><tag k="addr:housenumber" v="279"/><tag k="addr:street" v="Chateau La Salle Drive"/><tag k="addr:postcode" v="95111"/></node>
<node visible="true" id="-475" lat="37.293244808000004" lon="-121.858932554"><tag k="addr:city" v="San Jose"/><tag k="addr:housenumber" v="280"/><tag k="addr:street" v="Chateau La Salle Drive"/><tag k="addr:postcode" v="95111"/></node>
<node visible="true" id="-476" lat="37.295653043" lon="-121.86715054800001"><tag k="addr:city" v="San Jose"/><tag k="addr:housenumber" v="281"/><tag k="addr:street" v="Ascente Commons"/><tag k="addr:postcode" v="95125"/></node>
<node visible="true" id="-477" lat="37.293279623000004" lon="-121.85875698500001"><tag k="addr:city" v="San Jose"/><tag k="addr:housenumber" v="281"/><tag k="addr:street" v="Chateau La Salle Drive"/><tag k="addr:postcode" v="95111"/></node>
<node visible="true" id="-478" lat="37.297569247000006" lon="-121.86794581000001"><tag k="addr:city" v="San Jose"/><tag k="addr:housenumber" v="282"/><tag k="addr:street" v="Azevedo Circle"/><tag k="addr:postcode" v="95125"/></node>
<node visible="true" id="-479" lat="37.293324006" lon="-121.858576248"><tag k="addr:city" v="San Jose"/><tag k="addr:housenumber" v="282"/><tag k="addr:street" v="Chateau La Salle Drive"/><tag k="addr:postcode" v="95111"/></node>
<node visible="true" id="-480" lat="37.29638494" lon="-121.86801003000001"><tag k="addr:city" v="San Jose"/><tag k="addr:housenumber" v="282"/><tag k="addr:street" v="Meadow Pine Place"/><tag k="addr:postcode" v="95125"/></node>
<node visible="true" id="-481" lat="37.293391706" lon="-121.858397647"><tag k="addr:city" v="San Jose"/><tag k="addr:housenumber" v="283"/><tag k="addr:street" v="Chateau La Salle Drive"/><tag k="addr:postcode" v="95111"/></node>
<node visible="true" id="-482" lat="37.293463598" lon="-121.858246308"><tag k="addr:city" v="San Jose"/><tag k="addr:housenumber" v="284"/><tag k="addr:street" v="Chateau La Salle Drive"/><tag k="addr:postcode" v="95111"/></node>
<node visible="true" id="-483" lat="37.295572302000004" lon="-121.86706236100001"><tag k="addr:city" v="San Jose"/><tag k="addr:housenumber" v="285"/><tag k="addr:street" v="Ascente Commons"/><tag k="addr:postcode" v="95125"/></node>
<node visible="true" id="-484" lat="37.293539341" lon="-121.858109814"><tag k="addr:city" v="San Jose"/><tag k="addr:housenumber" v="285"/><tag k="addr:street" v="Chateau La Salle Drive"/><tag k="addr:postcode" v="95111"/></node>
<node visible="true" id="-485" lat="37.297494008" lon="-121.867885021"><tag k="addr:city" v="San Jose"/><tag k="addr:housenumber" v="286"/><tag k="addr:street" v="Azevedo Circle"/><tag k="addr:postcode" v="95125"/></node>
<node visible="true" id="-486" lat="37.293624473" lon="-121.85796909700001"><tag k="addr:city" v="San Jose"/><tag k="addr:housenumber" v="286"/><tag k="addr:street" v="Chateau La Salle Drive"/><tag k="addr:postcode" v="95111"/></node>
<node visible="true" id="-487" lat="37.296337172" lon="-121.868097207"><tag k="addr:city" v="San Jose"/><tag k="addr:housenumber" v="286"/><tag k="addr:street" v="Meadow Pine Place"/><tag k="addr:postcode" v="95125"/></node>
<node visible="true" id="-488" lat="37.293714332" lon="-121.857853472"><tag k="addr:city" v="San Jose"/><tag k="addr:housenumber" v="287"/><tag k="addr:street" v="Chateau La Salle Drive"/><tag k="addr:postcode" v="95111"/></node>
<node visible="true" id="-489" lat="37.293574451000005" lon="-121.857620951"><tag k="addr:city" v="San Jose"/><tag k="addr:housenumber" v="288"/><tag k="addr:street" v="Chateau La Salle Drive"/><tag k="addr:postcode" v="95111"/></node>
<node visible="true" id="-490" lat="37.295497222" lon="-121.866988065"><tag k="addr:city" v="San Jose"/><tag k="addr:housenumber" v="289"/><tag k="addr:street" v="Ascente Commons"/><tag k="addr:postcode" v="95125"/></node>
<node visible="true" id="-491" lat="37.293494367" lon="-121.85776167700001"><tag k="addr:city" v="San Jose"/><tag k="addr:housenumber" v="289"/><tag k="addr:street" v="Chateau La Salle Drive"/><tag k="addr:postcode" v="95111"/></node>
<node visible="true" id="-492" lat="37.293408271000004" lon="-121.85788673100001"><tag k="addr:city" v="San Jose"/><tag k="addr:housenumber" v="290"/><tag k="addr:street" v="Chateau La Salle Drive"/><tag k="addr:postcode" v="95111"/></node>
<node visible="true" id="-493" lat="37.296283759000005" lon="-121.868169119"><tag k="addr:city" v="San Jose"/><tag k="addr:housenumber" v="290"/><tag k="addr:street" v="Meadow Pine Place"/><tag k="addr:postcode" v="95125"/></node>
<node visible="true" id="-494" lat="37.297406652" lon="-121.86786238200001"><tag k="addr:city" v="San Jose"/><tag k="addr:housenumber" v="292"/><tag k="addr:street" v="Azevedo Circle"/><tag k="addr:postcode" v="95125"/></node>
<node visible="true" id="-495" lat="37.293338845" lon="-121.85802997600001"><tag k="addr:city" v="San Jose"/><tag k="addr:housenumber" v="291"/><tag k="addr:street" v="Chateau La Salle Drive"/><tag k="addr:postcode" v="95111"/></node>
<node visible="true" id="-496" lat="37.293256026" lon="-121.85818574500001"><tag k="addr:city" v="San Jose"/><tag k="addr:housenumber" v="292"/><tag k="addr:street" v="Chateau La Salle Drive"/><tag k="addr:postcode" v="95111"/></node>
<node visible="true" id="-497" lat="37.295427819000004" lon="-121.86692848700001"><tag k="addr:city" v="San Jose"/><tag k="addr:housenumber" v="293"/><tag k="addr:street" v="Ascente Commons"/><tag k="addr:postcode" v="95125"/></node>
<node visible="true" id="-498" lat="37.293185919" lon="-121.85835954400001"><tag k="addr:city" v="San Jose"/><tag k="addr:housenumber" v="293"/><tag k="addr:street" v="Chateau La Salle Drive"/><tag k="addr:postcode" v="95111"/></node>
<node visible="true" id="-499" lat="37.293126276" lon="-121.85853336100001"><tag k="addr:city" v="San Jose"/><tag k="addr:housenumber" v="294"/><tag k="addr:street" v="Chateau La Salle Drive"/><tag k="addr:postcode" v="95111"/></node>
<node visible="true" id="-500" lat="37.296241676" lon="-121.868270428"><tag k="addr:city" v="San Jose"/><tag k="addr:housenumber" v="294"/><tag k="addr:street" v="Meadow Pine Place"/><tag k="addr:postcode" v="95125"/></node>
<node visible="true" id="-501" lat="37.293080393000004" lon="-121.85871253900001"><tag k="addr:city" v="San Jose"/><tag k="addr:housenumber" v="295"/><tag k="addr:street" v="Chateau La Salle Drive"/><tag k="addr:postcode" v="95111"/></node>
<node visible="true" id="-502" lat="37.29305448" lon="-121.85888822400001"><tag k="addr:city" v="San Jose"/><tag k="addr:housenumber" v="296"/><tag k="addr:street" v="Chateau La Salle Drive"/><tag k="addr:postcode" v="95111"/></node>
<node visible="true" id="-503" lat="37.295353163" lon="-121.86681775500001"><tag k="addr:city" v="San Jose"/><tag k="addr:housenumber" v="297"/><tag k="addr:street" v="Ascente Commons"/><tag k="addr:postcode" v="95125"/></node>
<node visible="true" id="-504" lat="37.293016925" lon="-121.859063331"><tag k="addr:city" v="San Jose"/><tag k="addr:housenumber" v="297"/><tag k="addr:street" v="Chateau La Salle Drive"/><tag k="addr:postcode" v="95111"/></node>
<node visible="true" id="-505" lat="37.297307596" lon="-121.867839493"><tag k="addr:city" v="San Jose"/><tag k="addr:housenumber" v="298"/><tag k="addr:street" v="Azevedo Circle"/><tag k="addr:postcode" v="95125"/></node>
<node visible="true" id="-506" lat="37.292951896000005" lon="-121.85923777900001"><tag k="addr:city" v="San Jose"/><tag k="addr:housenumber" v="298"/><tag k="addr:street" v="Chateau La Salle Drive"/><tag k="addr:postcode" v="95111"/></node>
<node visible="true" id="-507" lat="37.29618227" lon="-121.86835684100001"><tag k="addr:city" v="San Jose"/><tag k="addr:housenumber" v="298"/><tag k="addr:street" v="Meadow Pine Place"/><tag k="addr:postcode" v="95125"/></node>
<node visible="true" id="-508" lat="37.295505288" lon="-121.85415263600001"><tag k="addr:city" v="San Jose"/><tag k="addr:housenumber" v="112"/><tag k="addr:street" v="Chateau La Salle Drive"/><tag k="addr:postcode" v="95111"/></node>
<node visible="true" id="-509" lat="37.292882146000004" lon="-121.85940333900001"><tag k="addr:city" v="San Jose"/><tag k="addr:housenumber" v="299"/><tag k="addr:street" v="Chateau La Salle Drive"/><tag k="addr:postcode" v="95111"/></node>
<node visible="true" id="-510" lat="37.296093755" lon="-121.86793232900001"><tag k="addr:city" v="San Jose"/><tag k="addr:housenumber" v="300"/><tag k="addr:street" v="Ascente Commons"/><tag k="addr:postcode" v="95125"/></node>
<node visible="true" id="-511" lat="37.292787165" lon="-121.85953614900001"><tag k="addr:city" v="San Jose"/><tag k="addr:housenumber" v="300"/><tag k="addr:street" v="Chateau La Salle Drive"/><tag k="addr:postcode" v="95111"/></node>
<node visible="true" id="-512" lat="37.292674226" lon="-121.85966878100001"><tag k="addr:city" v="San Jose"/><tag k="addr:housenumber" v="301"/><tag k="addr:street" v="Chateau La Salle Drive"/><tag k="addr:postcode" v="95111"/></node>
<node visible="true" id="-513" lat="37.292576751000006" lon="-121.859767977"><tag k="addr:city" v="San Jose"/><tag k="addr:housenumber" v="302"/><tag k="addr:street" v="Chateau La Salle Drive"/><tag k="addr:postcode" v="95111"/></node>
<node visible="true" id="-514" lat="37.292472214" lon="-121.85989127100001"><tag k="addr:city" v="San Jose"/><tag k="addr:housenumber" v="303"/><tag k="addr:street" v="Chateau La Salle Drive"/><tag k="addr:postcode" v="95111"/></node>
<node visible="true" id="-515" lat="37.296019187" lon="-121.86781427300001"><tag k="addr:city" v="San Jose"/><tag k="addr:housenumber" v="304"/><tag k="addr:street" v="Ascente Commons"/><tag k="addr:postcode" v="95125"/></node>
<node visible="true" id="-516" lat="37.292368502" lon="-121.85999985500001"><tag k="addr:city" v="San Jose"/><tag k="addr:housenumber" v="304"/><tag k="addr:street" v="Chateau La Salle Drive"/><tag k="addr:postcode" v="95111"/></node>
<node visible="true" id="-517" lat="37.292270572" lon="-121.860120261"><tag k="addr:city" v="San Jose"/><tag k="addr:housenumber" v="305"/><tag k="addr:street" v="Chateau La Salle Drive"/><tag k="addr:postcode" v="95111"/></node>
<node visible="true" id="-518" lat="37.292008427" lon="-121.859895597"><tag k="addr:city" v="San Jose"/><tag k="addr:housenumber" v="306"/><tag k="addr:street" v="Chateau La Salle Drive"/><tag k="addr:postcode" v="95111"/></node>
<node visible="true" id="-519" lat="37.292137267" lon="-121.85979441600001"><tag k="addr:city" v="San Jose"/><tag k="addr:housenumber" v="307"/><tag k="addr:street" v="Chateau La Salle Drive"/><tag k="addr:postcode" v="95111"/></node>
<node visible="true" id="-520" lat="37.295932092" lon="-121.867768947"><tag k="addr:city" v="San Jose"/><tag k="addr:housenumber" v="308"/><tag k="addr:street" v="Ascente Commons"/><tag k="addr:postcode" v="95125"/></node>
<node visible="true" id="-521" lat="37.292219304" lon="-121.85969692100001"><tag k="addr:city" v="San Jose"/><tag k="addr:housenumber" v="308"/><tag k="addr:street" v="Chateau La Salle Drive"/><tag k="addr:postcode" v="95111"/></node>
<node visible="true" id="-522" lat="37.292309319000005" lon="-121.859597049"><tag k="addr:city" v="San Jose"/><tag k="addr:housenumber" v="309"/><tag k="addr:street" v="Chateau La Salle Drive"/><tag k="addr:postcode" v="95111"/></node>
<node visible="true" id="-523" lat="37.292417219" lon="-121.859465356"><tag k="addr:city" v="San Jose"/><tag k="addr:housenumber" v="310"/><tag k="addr:street" v="Chateau La Salle Drive"/><tag k="addr:postcode" v="95111"/></node>
<node visible="true" id="-524" lat="37.292530062000004" lon="-121.85936738000001"><tag k="addr:city" v="San Jose"/><tag k="addr:housenumber" v="311"/><tag k="addr:street" v="Chateau La Salle Drive"/><tag k="addr:postcode" v="95111"/></node>
<node visible="true" id="-525" lat="37.295856861000004" lon="-121.867707644"><tag k="addr:city" v="San Jose"/><tag k="addr:housenumber" v="312"/><tag k="addr:street" v="Ascente Commons"/><tag k="addr:postcode" v="95125"/></node>
<node visible="true" id="-526" lat="37.29262835" lon="-121.85921983600001"><tag k="addr:city" v="San Jose"/><tag k="addr:housenumber" v="312"/><tag k="addr:street" v="Chateau La Salle Drive"/><tag k="addr:postcode" v="95111"/></node>
<node visible="true" id="-527" lat="37.292709722000005" lon="-121.859064379"><tag k="addr:city" v="San Jose"/><tag k="addr:housenumber" v="313"/><tag k="addr:street" v="Chateau La Salle Drive"/><tag k="addr:postcode" v="95111"/></node>
<node visible="true" id="-528" lat="37.29275251" lon="-121.858879078"><tag k="addr:city" v="San Jose"/><tag k="addr:housenumber" v="314"/><tag k="addr:street" v="Chateau La Salle Drive"/><tag k="addr:postcode" v="95111"/></node>
<node visible="true" id="-529" lat="37.292782196000005" lon="-121.85868975700001"><tag k="addr:city" v="San Jose"/><tag k="addr:housenumber" v="315"/><tag k="addr:street" v="Chateau La Salle Drive"/><tag k="addr:postcode" v="95111"/></node>
<node visible="true" id="-530" lat="37.295781857" lon="-121.86762685100001"><tag k="addr:city" v="San Jose"/><tag k="addr:housenumber" v="316"/><tag k="addr:street" v="Ascente Commons"/><tag k="addr:postcode" v="95125"/></node>
<node visible="true" id="-531" lat="37.292825838" lon="-121.85852799400001"><tag k="addr:city" v="San Jose"/><tag k="addr:housenumber" v="316"/><tag k="addr:street" v="Chateau La Salle Drive"/><tag k="addr:postcode" v="95111"/></node>
<node visible="true" id="-532" lat="37.292875346" lon="-121.85835301300001"><tag k="addr:city" v="San Jose"/><tag k="addr:housenumber" v="317"/><tag k="addr:street" v="Chateau La Salle Drive"/><tag k="addr:postcode" v="95111"/></node>
<node visible="true" id="-533" lat="37.295395721000006" lon="-121.85405688"><tag k="addr:city" v="San Jose"/><tag k="addr:housenumber" v="113"/><tag k="addr:street" v="Chateau La Salle Drive"/><tag k="addr:postcode" v="95111"/></node>
<node visible="true" id="-534" lat="37.292929398000005" lon="-121.85819472700001"><tag k="addr:city" v="San Jose"/><tag k="addr:housenumber" v="318"/><tag k="addr:street" v="Chateau La Salle Drive"/><tag k="addr:postcode" v="95111"/></node>
<node visible="true" id="-535" lat="37.292999903" lon="-121.85802181800001"><tag k="addr:city" v="San Jose"/><tag k="addr:housenumber" v="319"/><tag k="addr:street" v="Chateau La Salle Drive"/><tag k="addr:postcode" v="95111"/></node>
<node visible="true" id="-536" lat="37.295706942" lon="-121.86753825500001"><tag k="addr:city" v="San Jose"/><tag k="addr:housenumber" v="320"/><tag k="addr:street" v="Ascente Commons"/><tag k="addr:postcode" v="95125"/></node>
<node visible="true" id="-537" lat="37.293083224" lon="-121.85787627200001"><tag k="addr:city" v="San Jose"/><tag k="addr:housenumber" v="320"/><tag k="addr:street" v="Chateau La Salle Drive"/><tag k="addr:postcode" v="95111"/></node>
<node visible="true" id="-538" lat="37.293159854" lon="-121.857726584"><tag k="addr:city" v="San Jose"/><tag k="addr:housenumber" v="321"/><tag k="addr:street" v="Chateau La Salle Drive"/><tag k="addr:postcode" v="95111"/></node>
<node visible="true" id="-539" lat="37.293237047000005" lon="-121.857591056"><tag k="addr:city" v="San Jose"/><tag k="addr:housenumber" v="322"/><tag k="addr:street" v="Chateau La Salle Drive"/><tag k="addr:postcode" v="95111"/></node>
<node visible="true" id="-540" lat="37.297229244" lon="-121.86899259200001"><tag k="addr:city" v="San Jose"/><tag k="addr:housenumber" v="322"/><tag k="addr:street" v="Olive Hill Drive"/><tag k="addr:postcode" v="95125"/></node>
<node visible="true" id="-541" lat="37.295521922" lon="-121.86737338200001"><tag k="addr:city" v="San Jose"/><tag k="addr:housenumber" v="323"/><tag k="addr:street" v="Ascente Commons"/><tag k="addr:postcode" v="95125"/></node>
<node visible="true" id="-542" lat="37.293312050000004" lon="-121.857456251"><tag k="addr:city" v="San Jose"/><tag k="addr:housenumber" v="323"/><tag k="addr:street" v="Chateau La Salle Drive"/><tag k="addr:postcode" v="95111"/></node>
<node visible="true" id="-543" lat="37.293192911000006" lon="-121.85724914000001"><tag k="addr:city" v="San Jose"/><tag k="addr:housenumber" v="324"/><tag k="addr:street" v="Chateau La Salle Drive"/><tag k="addr:postcode" v="95111"/></node>
<node visible="true" id="-544" lat="37.293103536000004" lon="-121.85741685400001"><tag k="addr:city" v="San Jose"/><tag k="addr:housenumber" v="325"/><tag k="addr:street" v="Chateau La Salle Drive"/><tag k="addr:postcode" v="95111"/></node>
<node visible="true" id="-545" lat="37.293020435" lon="-121.85755542400001"><tag k="addr:city" v="San Jose"/><tag k="addr:housenumber" v="326"/><tag k="addr:street" v="Chateau La Salle Drive"/><tag k="addr:postcode" v="95111"/></node>
<node visible="true" id="-546" lat="37.297199962" lon="-121.868952152"><tag k="addr:city" v="San Jose"/><tag k="addr:housenumber" v="326"/><tag k="addr:street" v="Olive Hill Drive"/><tag k="addr:postcode" v="95125"/></node>
<node visible="true" id="-547" lat="37.295452851" lon="-121.86728544300001"><tag k="addr:city" v="San Jose"/><tag k="addr:housenumber" v="327"/><tag k="addr:street" v="Ascente Commons"/><tag k="addr:postcode" v="95125"/></node>
<node visible="true" id="-548" lat="37.292936708" lon="-121.857688198"><tag k="addr:city" v="San Jose"/><tag k="addr:housenumber" v="327"/><tag k="addr:street" v="Chateau La Salle Drive"/><tag k="addr:postcode" v="95111"/></node>
<node visible="true" id="-549" lat="37.292850578" lon="-121.857836074"><tag k="addr:city" v="San Jose"/><tag k="addr:housenumber" v="328"/><tag k="addr:street" v="Chateau La Salle Drive"/><tag k="addr:postcode" v="95111"/></node>
<node visible="true" id="-550" lat="37.292775062000004" lon="-121.858015468"><tag k="addr:city" v="San Jose"/><tag k="addr:housenumber" v="329"/><tag k="addr:street" v="Chateau La Salle Drive"/><tag k="addr:postcode" v="95111"/></node>
<node visible="true" id="-551" lat="37.292713817" lon="-121.85817994000001"><tag k="addr:city" v="San Jose"/><tag k="addr:housenumber" v="330"/><tag k="addr:street" v="Chateau La Salle Drive"/><tag k="addr:postcode" v="95111"/></node>
<node visible="true" id="-552" lat="37.297148074" lon="-121.86901464900001"><tag k="addr:city" v="San Jose"/><tag k="addr:housenumber" v="330"/><tag k="addr:street" v="Olive Hill Drive"/><tag k="addr:postcode" v="95125"/></node>
<node visible="true" id="-553" lat="37.295366087000005" lon="-121.86721175900001"><tag k="addr:city" v="San Jose"/><tag k="addr:housenumber" v="331"/><tag k="addr:street" v="Ascente Commons"/><tag k="addr:postcode" v="95125"/></node>
<node visible="true" id="-554" lat="37.292653061" lon="-121.85833886900001"><tag k="addr:city" v="San Jose"/><tag k="addr:housenumber" v="331"/><tag k="addr:street" v="Chateau La Salle Drive"/><tag k="addr:postcode" v="95111"/></node>
<node visible="true" id="-555" lat="37.292610964000005" lon="-121.85852054600001"><tag k="addr:city" v="San Jose"/><tag k="addr:housenumber" v="332"/><tag k="addr:street" v="Chateau La Salle Drive"/><tag k="addr:postcode" v="95111"/></node>
<node visible="true" id="-556" lat="37.295302774" lon="-121.867129566"><tag k="addr:city" v="San Jose"/><tag k="addr:housenumber" v="333"/><tag k="addr:street" v="Ascente Commons"/><tag k="addr:postcode" v="95125"/></node>
<node visible="true" id="-557" lat="37.292579635" lon="-121.85870424400001"><tag k="addr:city" v="San Jose"/><tag k="addr:housenumber" v="333"/><tag k="addr:street" v="Chateau La Salle Drive"/><tag k="addr:postcode" v="95111"/></node>
<node visible="true" id="-558" lat="37.292546362" lon="-121.85888030800001"><tag k="addr:city" v="San Jose"/><tag k="addr:housenumber" v="334"/><tag k="addr:street" v="Chateau La Salle Drive"/><tag k="addr:postcode" v="95111"/></node>
<node visible="true" id="-559" lat="37.297101668" lon="-121.86906201100001"><tag k="addr:city" v="San Jose"/><tag k="addr:housenumber" v="334"/><tag k="addr:street" v="Olive Hill Drive"/><tag k="addr:postcode" v="95125"/></node>
<node visible="true" id="-560" lat="37.295216021" lon="-121.867055092"><tag k="addr:city" v="San Jose"/><tag k="addr:housenumber" v="335"/><tag k="addr:street" v="Ascente Commons"/><tag k="addr:postcode" v="95125"/></node>
<node visible="true" id="-561" lat="37.292485920000004" lon="-121.859054688"><tag k="addr:city" v="San Jose"/><tag k="addr:housenumber" v="335"/><tag k="addr:street" v="Chateau La Salle Drive"/><tag k="addr:postcode" v="95111"/></node>
<node visible="true" id="-562" lat="37.295278998" lon="-121.853950896"><tag k="addr:city" v="San Jose"/><tag k="addr:housenumber" v="114"/><tag k="addr:street" v="Chateau La Salle Drive"/><tag k="addr:postcode" v="95111"/></node>
<node visible="true" id="-563" lat="37.295945178000004" lon="-121.86814917000001"><tag k="addr:city" v="San Jose"/><tag k="addr:housenumber" v="336"/><tag k="addr:street" v="Ascente Commons"/><tag k="addr:postcode" v="95125"/></node>
<node visible="true" id="-564" lat="37.292364857" lon="-121.85920595600001"><tag k="addr:city" v="San Jose"/><tag k="addr:housenumber" v="336"/><tag k="addr:street" v="Chateau La Salle Drive"/><tag k="addr:postcode" v="95111"/></node>
<node visible="true" id="-565" lat="37.292257242000005" lon="-121.85932215000001"><tag k="addr:city" v="San Jose"/><tag k="addr:housenumber" v="337"/><tag k="addr:street" v="Chateau La Salle Drive"/><tag k="addr:postcode" v="95111"/></node>
<node visible="true" id="-566" lat="37.292152638000005" lon="-121.859430958"><tag k="addr:city" v="San Jose"/><tag k="addr:housenumber" v="338"/><tag k="addr:street" v="Chateau La Salle Drive"/><tag k="addr:postcode" v="95111"/></node>
<node visible="true" id="-567" lat="37.297057734" lon="-121.86910712000001"><tag k="addr:city" v="San Jose"/><tag k="addr:housenumber" v="338"/><tag k="addr:street" v="Olive Hill Drive"/><tag k="addr:postcode" v="95125"/></node>
<node visible="true" id="-568" lat="37.292045458000004" lon="-121.85954293500001"><tag k="addr:city" v="San Jose"/><tag k="addr:housenumber" v="339"/><tag k="addr:street" v="Chateau La Salle Drive"/><tag k="addr:postcode" v="95111"/></node>
<node visible="true" id="-569" lat="37.295870021" lon="-121.868081371"><tag k="addr:city" v="San Jose"/><tag k="addr:housenumber" v="340"/><tag k="addr:street" v="Ascente Commons"/><tag k="addr:postcode" v="95125"/></node>
<node visible="true" id="-570" lat="37.291892966" lon="-121.85963446500001"><tag k="addr:city" v="San Jose"/><tag k="addr:housenumber" v="340"/><tag k="addr:street" v="Chateau La Salle Drive"/><tag k="addr:postcode" v="95111"/></node>
<node visible="true" id="-571" lat="37.291894643" lon="-121.85922912100001"><tag k="addr:city" v="San Jose"/><tag k="addr:housenumber" v="341"/><tag k="addr:street" v="Chateau La Salle Drive"/><tag k="addr:postcode" v="95111"/></node>
<node visible="true" id="-572" lat="37.292000185" lon="-121.859122251"><tag k="addr:city" v="San Jose"/><tag k="addr:housenumber" v="342"/><tag k="addr:street" v="Chateau La Salle Drive"/><tag k="addr:postcode" v="95111"/></node>
<node visible="true" id="-573" lat="37.296990911" lon="-121.86917553400001"><tag k="addr:city" v="San Jose"/><tag k="addr:housenumber" v="342"/><tag k="addr:street" v="Olive Hill Drive"/><tag k="addr:postcode" v="95125"/></node>
<node visible="true" id="-574" lat="37.292112734" lon="-121.858990679"><tag k="addr:city" v="San Jose"/><tag k="addr:housenumber" v="343"/><tag k="addr:street" v="Chateau La Salle Drive"/><tag k="addr:postcode" v="95111"/></node>
<node visible="true" id="-575" lat="37.292212997" lon="-121.858870624"><tag k="addr:city" v="San Jose"/><tag k="addr:housenumber" v="344"/><tag k="addr:street" v="Chateau La Salle Drive"/><tag k="addr:postcode" v="95111"/></node>
<node visible="true" id="-576" lat="37.292281588" lon="-121.85865504700001"><tag k="addr:city" v="San Jose"/><tag k="addr:housenumber" v="345"/><tag k="addr:street" v="Chateau La Salle Drive"/><tag k="addr:postcode" v="95111"/></node>
<node visible="true" id="-577" lat="37.295800799000006" lon="-121.86800635600001"><tag k="addr:city" v="San Jose"/><tag k="addr:housenumber" v="346"/><tag k="addr:street" v="Ascente Commons"/><tag k="addr:postcode" v="95125"/></node>
<node visible="true" id="-578" lat="37.292318503000004" lon="-121.858490387"><tag k="addr:city" v="San Jose"/><tag k="addr:housenumber" v="346"/><tag k="addr:street" v="Chateau La Salle Drive"/><tag k="addr:postcode" v="95111"/></node>
<node visible="true" id="-579" lat="37.297014927" lon="-121.86921189"><tag k="addr:city" v="San Jose"/><tag k="addr:housenumber" v="346"/><tag k="addr:street" v="Olive Hill Drive"/><tag k="addr:postcode" v="95125"/></node>
<node visible="true" id="-580" lat="37.29236108" lon="-121.85830824400001"><tag k="addr:city" v="San Jose"/><tag k="addr:housenumber" v="347"/><tag k="addr:street" v="Chateau La Salle Drive"/><tag k="addr:postcode" v="95111"/></node>
<node visible="true" id="-581" lat="37.292415795000004" lon="-121.858130934"><tag k="addr:city" v="San Jose"/><tag k="addr:housenumber" v="348"/><tag k="addr:street" v="Chateau La Salle Drive"/><tag k="addr:postcode" v="95111"/></node>
<node visible="true" id="-582" lat="37.292475643" lon="-121.85796287500001"><tag k="addr:city" v="San Jose"/><tag k="addr:housenumber" v="349"/><tag k="addr:street" v="Chateau La Salle Drive"/><tag k="addr:postcode" v="95111"/></node>
<node visible="true" id="-583" lat="37.295713667" lon="-121.86796209500001"><tag k="addr:city" v="San Jose"/><tag k="addr:housenumber" v="350"/><tag k="addr:street" v="Ascente Commons"/><tag k="addr:postcode" v="95125"/></node>
<node visible="true" id="-584" lat="37.292539529" lon="-121.857786289"><tag k="addr:city" v="San Jose"/><tag k="addr:housenumber" v="350"/><tag k="addr:street" v="Chateau La Salle Drive"/><tag k="addr:postcode" v="95111"/></node>
<node visible="true" id="-585" lat="37.296917740000005" lon="-121.869263728"><tag k="addr:city" v="San Jose"/><tag k="addr:housenumber" v="350"/><tag k="addr:street" v="Olive Hill Drive"/><tag k="addr:postcode" v="95125"/></node>
<node visible="true" id="-586" lat="37.292617686" lon="-121.85762478400001"><tag k="addr:city" v="San Jose"/><tag k="addr:housenumber" v="351"/><tag k="addr:street" v="Chateau La Salle Drive"/><tag k="addr:postcode" v="95111"/></node>
<node visible="true" id="-587" lat="37.29269746" lon="-121.857481515"><tag k="addr:city" v="San Jose"/><tag k="addr:housenumber" v="352"/><tag k="addr:street" v="Chateau La Salle Drive"/><tag k="addr:postcode" v="95111"/></node>
<node visible="true" id="-588" lat="37.292781496" lon="-121.85733020400001"><tag k="addr:city" v="San Jose"/><tag k="addr:housenumber" v="353"/><tag k="addr:street" v="Chateau La Salle Drive"/><tag k="addr:postcode" v="95111"/></node>
<node visible="true" id="-589" lat="37.292864442" lon="-121.85717528"><tag k="addr:city" v="San Jose"/><tag k="addr:housenumber" v="354"/><tag k="addr:street" v="Chateau La Salle Drive"/><tag k="addr:postcode" v="95111"/></node>
<node visible="true" id="-590" lat="37.296865159" lon="-121.86931633100001"><tag k="addr:city" v="San Jose"/><tag k="addr:housenumber" v="354"/><tag k="addr:street" v="Olive Hill Drive"/><tag k="addr:postcode" v="95125"/></node>
<node visible="true" id="-591" lat="37.29294749" lon="-121.85703812400001"><tag k="addr:city" v="San Jose"/><tag k="addr:housenumber" v="355"/><tag k="addr:street" v="Chateau La Salle Drive"/><tag k="addr:postcode" v="95111"/></node>
<node visible="true" id="-592" lat="37.295662129" lon="-121.86787341"><tag k="addr:city" v="San Jose"/><tag k="addr:housenumber" v="356"/><tag k="addr:street" v="Ascente Commons"/><tag k="addr:postcode" v="95125"/></node>
<node visible="true" id="-593" lat="37.292711189" lon="-121.857025608"><tag k="addr:city" v="San Jose"/><tag k="addr:housenumber" v="356"/><tag k="addr:street" v="Chateau La Salle Drive"/><tag k="addr:postcode" v="95111"/></node>
<node visible="true" id="-594" lat="37.295170653" lon="-121.85383164100001"><tag k="addr:city" v="San Jose"/><tag k="addr:housenumber" v="115"/><tag k="addr:street" v="Chateau La Salle Drive"/><tag k="addr:postcode" v="95111"/></node>
<node visible="true" id="-595" lat="37.292620495" lon="-121.85716122400001"><tag k="addr:city" v="San Jose"/><tag k="addr:housenumber" v="357"/><tag k="addr:street" v="Chateau La Salle Drive"/><tag k="addr:postcode" v="95111"/></node>
<node visible="true" id="-596" lat="37.292541937" lon="-121.857309231"><tag k="addr:city" v="San Jose"/><tag k="addr:housenumber" v="358"/><tag k="addr:street" v="Chateau La Salle Drive"/><tag k="addr:postcode" v="95111"/></node>
<node visible="true" id="-597" lat="37.296818153000004" lon="-121.86936291500001"><tag k="addr:city" v="San Jose"/><tag k="addr:housenumber" v="358"/><tag k="addr:street" v="Olive Hill Drive"/><tag k="addr:postcode" v="95125"/></node>
<node visible="true" id="-598" lat="37.292464344" lon="-121.85746171800001"><tag k="addr:city" v="San Jose"/><tag k="addr:housenumber" v="359"/><tag k="addr:street" v="Chateau La Salle Drive"/><tag k="addr:postcode" v="95111"/></node>
<node visible="true" id="-599" lat="37.295563545" lon="-121.86781243600001"><tag k="addr:city" v="San Jose"/><tag k="addr:housenumber" v="360"/><tag k="addr:street" v="Ascente Commons"/><tag k="addr:postcode" v="95125"/></node>
<node visible="true" id="-600" lat="37.292380366" lon="-121.857610854"><tag k="addr:city" v="San Jose"/><tag k="addr:housenumber" v="360"/><tag k="addr:street" v="Chateau La Salle Drive"/><tag k="addr:postcode" v="95111"/></node>
<node visible="true" id="-601" lat="37.292334035" lon="-121.85777615500001"><tag k="addr:city" v="San Jose"/><tag k="addr:housenumber" v="361"/><tag k="addr:street" v="Chateau La Salle Drive"/><tag k="addr:postcode" v="95111"/></node>
<node visible="true" id="-602" lat="37.292259487" lon="-121.85793388"><tag k="addr:city" v="San Jose"/><tag k="addr:housenumber" v="362"/><tag k="addr:street" v="Chateau La Salle Drive"/><tag k="addr:postcode" v="95111"/></node>
<node visible="true" id="-603" lat="37.296772394" lon="-121.86940722700001"><tag k="addr:city" v="San Jose"/><tag k="addr:housenumber" v="362"/><tag k="addr:street" v="Olive Hill Drive"/><tag k="addr:postcode" v="95125"/></node>
<node visible="true" id="-604" lat="37.292216822" lon="-121.85808662500001"><tag k="addr:city" v="San Jose"/><tag k="addr:housenumber" v="363"/><tag k="addr:street" v="Chateau La Salle Drive"/><tag k="addr:postcode" v="95111"/></node>
<node visible="true" id="-605" lat="37.292161037" lon="-121.85826219600001"><tag k="addr:city" v="San Jose"/><tag k="addr:housenumber" v="364"/><tag k="addr:street" v="Chateau La Salle Drive"/><tag k="addr:postcode" v="95111"/></node>
<node visible="true" id="-606" lat="37.292123331" lon="-121.85841209600001"><tag k="addr:city" v="San Jose"/><tag k="addr:housenumber" v="365"/><tag k="addr:street" v="Chateau La Salle Drive"/><tag k="addr:postcode" v="95111"/></node>
<node visible="true" id="-607" lat="37.292098808000006" lon="-121.858575959"><tag k="addr:city" v="San Jose"/><tag k="addr:housenumber" v="366"/><tag k="addr:street" v="Chateau La Salle Drive"/><tag k="addr:postcode" v="95111"/></node>
<node visible="true" id="-608" lat="37.296728346" lon="-121.869462282"><tag k="addr:city" v="San Jose"/><tag k="addr:housenumber" v="366"/><tag k="addr:street" v="Olive Hill Drive"/><tag k="addr:postcode" v="95125"/></node>
<node visible="true" id="-609" lat="37.292023230000005" lon="-121.85875394700001"><tag k="addr:city" v="San Jose"/><tag k="addr:housenumber" v="367"/><tag k="addr:street" v="Chateau La Salle Drive"/><tag k="addr:postcode" v="95111"/></node>
<node visible="true" id="-610" lat="37.291909037" lon="-121.85889356400001"><tag k="addr:city" v="San Jose"/><tag k="addr:housenumber" v="368"/><tag k="addr:street" v="Chateau La Salle Drive"/><tag k="addr:postcode" v="95111"/></node>
<node visible="true" id="-611" lat="37.291821131" lon="-121.85898316000001"><tag k="addr:city" v="San Jose"/><tag k="addr:housenumber" v="369"/><tag k="addr:street" v="Chateau La Salle Drive"/><tag k="addr:postcode" v="95111"/></node>
<node visible="true" id="-612" lat="37.295379364000006" lon="-121.86757575700001"><tag k="addr:city" v="San Jose"/><tag k="addr:housenumber" v="370"/><tag k="addr:street" v="Ascente Commons"/><tag k="addr:postcode" v="95125"/></node>
<node visible="true" id="-613" lat="37.291848261000005" lon="-121.858391177"><tag k="addr:city" v="San Jose"/><tag k="addr:housenumber" v="370"/><tag k="addr:street" v="Chateau La Salle Drive"/><tag k="addr:postcode" v="95111"/></node>
<node visible="true" id="-614" lat="37.29668008" lon="-121.869511904"><tag k="addr:city" v="San Jose"/><tag k="addr:housenumber" v="370"/><tag k="addr:street" v="Olive Hill Drive"/><tag k="addr:postcode" v="95125"/></node>
<node visible="true" id="-615" lat="37.291684967" lon="-121.85825738700001"><tag k="addr:city" v="San Jose"/><tag k="addr:housenumber" v="371"/><tag k="addr:street" v="Chateau La Salle Drive"/><tag k="addr:postcode" v="95111"/></node>
<node visible="true" id="-616" lat="37.291569333000005" lon="-121.85813996200001"><tag k="addr:city" v="San Jose"/><tag k="addr:housenumber" v="372"/><tag k="addr:street" v="Chateau La Salle Drive"/><tag k="addr:postcode" v="95111"/></node>
<node visible="true" id="-617" lat="37.291617899" lon="-121.85770800200001"><tag k="addr:city" v="San Jose"/><tag k="addr:housenumber" v="373"/><tag k="addr:street" v="Chateau La Salle Drive"/><tag k="addr:postcode" v="95111"/></node>
<node visible="true" id="-618" lat="37.291736231" lon="-121.857826814"><tag k="addr:city" v="San Jose"/><tag k="addr:housenumber" v="374"/><tag k="addr:street" v="Chateau La Salle Drive"/><tag k="addr:postcode" v="95111"/></node>
<node visible="true" id="-619" lat="37.291832812" lon="-121.857927887"><tag k="addr:city" v="San Jose"/><tag k="addr:housenumber" v="375"/><tag k="addr:street" v="Chateau La Salle Drive"/><tag k="addr:postcode" v="95111"/></node>
<node visible="true" id="-620" lat="37.295304283" lon="-121.867501461"><tag k="addr:city" v="San Jose"/><tag k="addr:housenumber" v="376"/><tag k="addr:street" v="Ascente Commons"/><tag k="addr:postcode" v="95125"/></node>
<node visible="true" id="-621" lat="37.291942823" lon="-121.85800797300001"><tag k="addr:city" v="San Jose"/><tag k="addr:housenumber" v="376"/><tag k="addr:street" v="Chateau La Salle Drive"/><tag k="addr:postcode" v="95111"/></node>
<node visible="true" id="-622" lat="37.291997749000004" lon="-121.85774419100001"><tag k="addr:city" v="San Jose"/><tag k="addr:housenumber" v="377"/><tag k="addr:street" v="Chateau La Salle Drive"/><tag k="addr:postcode" v="95111"/></node>
<node visible="true" id="-623" lat="37.291866702" lon="-121.857639996"><tag k="addr:city" v="San Jose"/><tag k="addr:housenumber" v="378"/><tag k="addr:street" v="Chateau La Salle Drive"/><tag k="addr:postcode" v="95111"/></node>
<node visible="true" id="-624" lat="37.291749943" lon="-121.85751462200001"><tag k="addr:city" v="San Jose"/><tag k="addr:housenumber" v="379"/><tag k="addr:street" v="Chateau La Salle Drive"/><tag k="addr:postcode" v="95111"/></node>
<node visible="true" id="-625" lat="37.291622119" lon="-121.85740938"><tag k="addr:city" v="San Jose"/><tag k="addr:housenumber" v="380"/><tag k="addr:street" v="Chateau La Salle Drive"/><tag k="addr:postcode" v="95111"/></node>
<node visible="true" id="-626" lat="37.291660658000005" lon="-121.857004802"><tag k="addr:city" v="San Jose"/><tag k="addr:housenumber" v="381"/><tag k="addr:street" v="Chateau La Salle Drive"/><tag k="addr:postcode" v="95111"/></node>
<node visible="true" id="-627" lat="37.291795225" lon="-121.857116145"><tag k="addr:city" v="San Jose"/><tag k="addr:housenumber" v="382"/><tag k="addr:street" v="Chateau La Salle Drive"/><tag k="addr:postcode" v="95111"/></node>
<node visible="true" id="-628" lat="37.296452323000004" lon="-121.86974954700001"><tag k="addr:city" v="San Jose"/><tag k="addr:housenumber" v="382"/><tag k="addr:street" v="Olive Hill Drive"/><tag k="addr:postcode" v="95125"/></node>
<node visible="true" id="-629" lat="37.291912473000004" lon="-121.857239542"><tag k="addr:city" v="San Jose"/><tag k="addr:housenumber" v="383"/><tag k="addr:street" v="Chateau La Salle Drive"/><tag k="addr:postcode" v="95111"/></node>
<node visible="true" id="-630" lat="37.292037808" lon="-121.85734591900001"><tag k="addr:city" v="San Jose"/><tag k="addr:housenumber" v="384"/><tag k="addr:street" v="Chateau La Salle Drive"/><tag k="addr:postcode" v="95111"/></node>
<node visible="true" id="-631" lat="37.292163964000004" lon="-121.85744624"><tag k="addr:city" v="San Jose"/><tag k="addr:housenumber" v="385"/><tag k="addr:street" v="Chateau La Salle Drive"/><tag k="addr:postcode" v="95111"/></node>
<node visible="true" id="-632" lat="37.295066005" lon="-121.85375815"><tag k="addr:city" v="San Jose"/><tag k="addr:housenumber" v="116"/><tag k="addr:street" v="Chateau La Salle Drive"/><tag k="addr:postcode" v="95111"/></node>
<node visible="true" id="-633" lat="37.292273402" lon="-121.857231803"><tag k="addr:city" v="San Jose"/><tag k="addr:housenumber" v="386"/><tag k="addr:street" v="Chateau La Salle Drive"/><tag k="addr:postcode" v="95111"/></node>
<node visible="true" id="-634" lat="37.296411967000004" lon="-121.869802375"><tag k="addr:city" v="San Jose"/><tag k="addr:housenumber" v="386"/><tag k="addr:street" v="Olive Hill Drive"/><tag k="addr:postcode" v="95125"/></node>
<node visible="true" id="-635" lat="37.292153719000005" lon="-121.85713766100001"><tag k="addr:city" v="San Jose"/><tag k="addr:housenumber" v="387"/><tag k="addr:street" v="Chateau La Salle Drive"/><tag k="addr:postcode" v="95111"/></node>
<node visible="true" id="-636" lat="37.292025465" lon="-121.857026051"><tag k="addr:city" v="San Jose"/><tag k="addr:housenumber" v="388"/><tag k="addr:street" v="Chateau La Salle Drive"/><tag k="addr:postcode" v="95111"/></node>
<node visible="true" id="-637" lat="37.291913608" lon="-121.85692005300001"><tag k="addr:city" v="San Jose"/><tag k="addr:housenumber" v="389"/><tag k="addr:street" v="Chateau La Salle Drive"/><tag k="addr:postcode" v="95111"/></node>
<node visible="true" id="-638" lat="37.291797183" lon="-121.85682314200001"><tag k="addr:city" v="San Jose"/><tag k="addr:housenumber" v="390"/><tag k="addr:street" v="Chateau La Salle Drive"/><tag k="addr:postcode" v="95111"/></node>
<node visible="true" id="-639" lat="37.296360718" lon="-121.86984582000001"><tag k="addr:city" v="San Jose"/><tag k="addr:housenumber" v="390"/><tag k="addr:street" v="Olive Hill Drive"/><tag k="addr:postcode" v="95125"/></node>
<node visible="true" id="-640" lat="37.291694889000006" lon="-121.8567225"><tag k="addr:city" v="San Jose"/><tag k="addr:housenumber" v="391"/><tag k="addr:street" v="Chateau La Salle Drive"/><tag k="addr:postcode" v="95111"/></node>
<node visible="true" id="-641" lat="37.291712823000005" lon="-121.85628763000001"><tag k="addr:city" v="San Jose"/><tag k="addr:housenumber" v="392"/><tag k="addr:street" v="Chateau La Salle Drive"/><tag k="addr:postcode" v="95111"/></node>
<node visible="true" id="-642" lat="37.291828962000004" lon="-121.85637691400001"><tag k="addr:city" v="San Jose"/><tag k="addr:housenumber" v="393"/><tag k="addr:street" v="Chateau La Salle Drive"/><tag k="addr:postcode" v="95111"/></node>
<node visible="true" id="-643" lat="37.291921472000006" lon="-121.85647335300001"><tag k="addr:city" v="San Jose"/><tag k="addr:housenumber" v="394"/><tag k="addr:street" v="Chateau La Salle Drive"/><tag k="addr:postcode" v="95111"/></node>
<node visible="true" id="-644" lat="37.296317953" lon="-121.86989554200001"><tag k="addr:city" v="San Jose"/><tag k="addr:housenumber" v="394"/><tag k="addr:street" v="Olive Hill Drive"/><tag k="addr:postcode" v="95125"/></node>
<node visible="true" id="-645" lat="37.292026138000004" lon="-121.85657321900001"><tag k="addr:city" v="San Jose"/><tag k="addr:housenumber" v="395"/><tag k="addr:street" v="Chateau La Salle Drive"/><tag k="addr:postcode" v="95111"/></node>
<node visible="true" id="-646" lat="37.292121853000005" lon="-121.85666335100001"><tag k="addr:city" v="San Jose"/><tag k="addr:housenumber" v="396"/><tag k="addr:street" v="Chateau La Salle Drive"/><tag k="addr:postcode" v="95111"/></node>
<node visible="true" id="-647" lat="37.292232518000006" lon="-121.85674352900001"><tag k="addr:city" v="San Jose"/><tag k="addr:housenumber" v="397"/><tag k="addr:street" v="Chateau La Salle Drive"/><tag k="addr:postcode" v="95111"/></node>
<node visible="true" id="-648" lat="37.292329369" lon="-121.856835645"><tag k="addr:city" v="San Jose"/><tag k="addr:housenumber" v="398"/><tag k="addr:street" v="Chateau La Salle Drive"/><tag k="addr:postcode" v="95111"/></node>
<node visible="true" id="-649" lat="37.292443555000006" lon="-121.856931857"><tag k="addr:city" v="San Jose"/><tag k="addr:housenumber" v="399"/><tag k="addr:street" v="Chateau La Salle Drive"/><tag k="addr:postcode" v="95111"/></node>
<node visible="true" id="-650" lat="37.292339989000006" lon="-121.856532419"><tag k="addr:city" v="San Jose"/><tag k="addr:housenumber" v="402"/><tag k="addr:street" v="Chateau La Salle Drive"/><tag k="addr:postcode" v="95111"/></node>
<node visible="true" id="-651" lat="37.292237509" lon="-121.856442412"><tag k="addr:city" v="San Jose"/><tag k="addr:housenumber" v="403"/><tag k="addr:street" v="Chateau La Salle Drive"/><tag k="addr:postcode" v="95111"/></node>
<node visible="true" id="-652" lat="37.292147206" lon="-121.85635810900001"><tag k="addr:city" v="San Jose"/><tag k="addr:housenumber" v="404"/><tag k="addr:street" v="Chateau La Salle Drive"/><tag k="addr:postcode" v="95111"/></node>
<node visible="true" id="-653" lat="37.292033236" lon="-121.856260863"><tag k="addr:city" v="San Jose"/><tag k="addr:housenumber" v="405"/><tag k="addr:street" v="Chateau La Salle Drive"/><tag k="addr:postcode" v="95111"/></node>
<node visible="true" id="-654" lat="37.291936262" lon="-121.85617404400001"><tag k="addr:city" v="San Jose"/><tag k="addr:housenumber" v="406"/><tag k="addr:street" v="Chateau La Salle Drive"/><tag k="addr:postcode" v="95111"/></node>
<node visible="true" id="-655" lat="37.291820668" lon="-121.85607721800001"><tag k="addr:city" v="San Jose"/><tag k="addr:housenumber" v="407"/><tag k="addr:street" v="Chateau La Salle Drive"/><tag k="addr:postcode" v="95111"/></node>
<node visible="true" id="-656" lat="37.291731782" lon="-121.855999885"><tag k="addr:city" v="San Jose"/><tag k="addr:housenumber" v="408"/><tag k="addr:street" v="Chateau La Salle Drive"/><tag k="addr:postcode" v="95111"/></node>
<node visible="true" id="-657" lat="37.291845784" lon="-121.85565726200001"><tag k="addr:city" v="San Jose"/><tag k="addr:housenumber" v="409"/><tag k="addr:street" v="Chateau La Salle Drive"/><tag k="addr:postcode" v="95111"/></node>
<node visible="true" id="-658" lat="37.294960182000004" lon="-121.85363973400001"><tag k="addr:city" v="San Jose"/><tag k="addr:housenumber" v="117"/><tag k="addr:street" v="Chateau La Salle Drive"/><tag k="addr:postcode" v="95111"/></node>
<node visible="true" id="-659" lat="37.291958803" lon="-121.85575341600001"><tag k="addr:city" v="San Jose"/><tag k="addr:housenumber" v="410"/><tag k="addr:street" v="Chateau La Salle Drive"/><tag k="addr:postcode" v="95111"/></node>
<node visible="true" id="-660" lat="37.292078970000006" lon="-121.85585314900001"><tag k="addr:city" v="San Jose"/><tag k="addr:housenumber" v="411"/><tag k="addr:street" v="Chateau La Salle Drive"/><tag k="addr:postcode" v="95111"/></node>
<node visible="true" id="-661" lat="37.292186310000005" lon="-121.855939965"><tag k="addr:city" v="San Jose"/><tag k="addr:housenumber" v="412"/><tag k="addr:street" v="Chateau La Salle Drive"/><tag k="addr:postcode" v="95111"/></node>
<node visible="true" id="-662" lat="37.292298653" lon="-121.85603812800001"><tag k="addr:city" v="San Jose"/><tag k="addr:housenumber" v="413"/><tag k="addr:street" v="Chateau La Salle Drive"/><tag k="addr:postcode" v="95111"/></node>
<node visible="true" id="-663" lat="37.292391367" lon="-121.85614390200001"><tag k="addr:city" v="San Jose"/><tag k="addr:housenumber" v="414"/><tag k="addr:street" v="Chateau La Salle Drive"/><tag k="addr:postcode" v="95111"/></node>
<node visible="true" id="-664" lat="37.292504295" lon="-121.856243938"><tag k="addr:city" v="San Jose"/><tag k="addr:housenumber" v="415"/><tag k="addr:street" v="Chateau La Salle Drive"/><tag k="addr:postcode" v="95111"/></node>
<node visible="true" id="-665" lat="37.292623318000004" lon="-121.85634114300001"><tag k="addr:city" v="San Jose"/><tag k="addr:housenumber" v="416"/><tag k="addr:street" v="Chateau La Salle Drive"/><tag k="addr:postcode" v="95111"/></node>
<node visible="true" id="-666" lat="37.292737614" lon="-121.85643562800001"><tag k="addr:city" v="San Jose"/><tag k="addr:housenumber" v="417"/><tag k="addr:street" v="Chateau La Salle Drive"/><tag k="addr:postcode" v="95111"/></node>
<node visible="true" id="-667" lat="37.292852028000006" lon="-121.85623038600001"><tag k="addr:city" v="San Jose"/><tag k="addr:housenumber" v="418"/><tag k="addr:street" v="Chateau La Salle Drive"/><tag k="addr:postcode" v="95111"/></node>
<node visible="true" id="-668" lat="37.292741521" lon="-121.856133102"><tag k="addr:city" v="San Jose"/><tag k="addr:housenumber" v="419"/><tag k="addr:street" v="Chateau La Salle Drive"/><tag k="addr:postcode" v="95111"/></node>
<node visible="true" id="-669" lat="37.292623389" lon="-121.856031"><tag k="addr:city" v="San Jose"/><tag k="addr:housenumber" v="420"/><tag k="addr:street" v="Chateau La Salle Drive"/><tag k="addr:postcode" v="95111"/></node>
<node visible="true" id="-670" lat="37.292514954000005" lon="-121.85592894400001"><tag k="addr:city" v="San Jose"/><tag k="addr:housenumber" v="421"/><tag k="addr:street" v="Chateau La Salle Drive"/><tag k="addr:postcode" v="95111"/></node>
<node visible="true" id="-671" lat="37.292398410000004" lon="-121.85583742300001"><tag k="addr:city" v="San Jose"/><tag k="addr:housenumber" v="422"/><tag k="addr:street" v="Chateau La Salle Drive"/><tag k="addr:postcode" v="95111"/></node>
<node visible="true" id="-672" lat="37.292292003" lon="-121.85573184600001"><tag k="addr:city" v="San Jose"/><tag k="addr:housenumber" v="423"/><tag k="addr:street" v="Chateau La Salle Drive"/><tag k="addr:postcode" v="95111"/></node>
<node visible="true" id="-673" lat="37.292186274" lon="-121.85562920800001"><tag k="addr:city" v="San Jose"/><tag k="addr:housenumber" v="424"/><tag k="addr:street" v="Chateau La Salle Drive"/><tag k="addr:postcode" v="95111"/></node>
<node visible="true" id="-674" lat="37.292078147000005" lon="-121.855557809"><tag k="addr:city" v="San Jose"/><tag k="addr:housenumber" v="425"/><tag k="addr:street" v="Chateau La Salle Drive"/><tag k="addr:postcode" v="95111"/></node>
<node visible="true" id="-675" lat="37.291976929" lon="-121.855459373"><tag k="addr:city" v="San Jose"/><tag k="addr:housenumber" v="426"/><tag k="addr:street" v="Chateau La Salle Drive"/><tag k="addr:postcode" v="95111"/></node>
<node visible="true" id="-676" lat="37.291879283" lon="-121.855361743"><tag k="addr:city" v="San Jose"/><tag k="addr:housenumber" v="427"/><tag k="addr:street" v="Chateau La Salle Drive"/><tag k="addr:postcode" v="95111"/></node>
<node visible="true" id="-677" lat="37.291834093000006" lon="-121.85485568200001"><tag k="addr:city" v="San Jose"/><tag k="addr:housenumber" v="428"/><tag k="addr:street" v="Chateau La Salle Drive"/><tag k="addr:postcode" v="95111"/></node>
<node visible="true" id="-678" lat="37.292146494" lon="-121.855159477"><tag k="addr:city" v="San Jose"/><tag k="addr:housenumber" v="431"/><tag k="addr:street" v="Chateau La Salle Drive"/><tag k="addr:postcode" v="95111"/></node>
<node visible="true" id="-679" lat="37.29224923" lon="-121.85525891200001"><tag k="addr:city" v="San Jose"/><tag k="addr:housenumber" v="432"/><tag k="addr:street" v="Chateau La Salle Drive"/><tag k="addr:postcode" v="95111"/></node>
<node visible="true" id="-680" lat="37.294847726" lon="-121.853546128"><tag k="addr:city" v="San Jose"/><tag k="addr:housenumber" v="118"/><tag k="addr:street" v="Chateau La Salle Drive"/><tag k="addr:postcode" v="95111"/></node>
<node visible="true" id="-681" lat="37.292367407" lon="-121.85536162300001"><tag k="addr:city" v="San Jose"/><tag k="addr:housenumber" v="433"/><tag k="addr:street" v="Chateau La Salle Drive"/><tag k="addr:postcode" v="95111"/></node>
<node visible="true" id="-682" lat="37.292470086" lon="-121.855455499"><tag k="addr:city" v="San Jose"/><tag k="addr:housenumber" v="434"/><tag k="addr:street" v="Chateau La Salle Drive"/><tag k="addr:postcode" v="95111"/></node>
<node visible="true" id="-683" lat="37.29257405" lon="-121.85555916400001"><tag k="addr:city" v="San Jose"/><tag k="addr:housenumber" v="435"/><tag k="addr:street" v="Chateau La Salle Drive"/><tag k="addr:postcode" v="95111"/></node>
<node visible="true" id="-684" lat="37.292681832" lon="-121.85565471000001"><tag k="addr:city" v="San Jose"/><tag k="addr:housenumber" v="436"/><tag k="addr:street" v="Chateau La Salle Drive"/><tag k="addr:postcode" v="95111"/></node>
<node visible="true" id="-685" lat="37.292798243" lon="-121.85573536300001"><tag k="addr:city" v="San Jose"/><tag k="addr:housenumber" v="437"/><tag k="addr:street" v="Chateau La Salle Drive"/><tag k="addr:postcode" v="95111"/></node>
<node visible="true" id="-686" lat="37.292915448" lon="-121.85585341800001"><tag k="addr:city" v="San Jose"/><tag k="addr:housenumber" v="438"/><tag k="addr:street" v="Chateau La Salle Drive"/><tag k="addr:postcode" v="95111"/></node>
<node visible="true" id="-687" lat="37.293021968000005" lon="-121.85594284000001"><tag k="addr:city" v="San Jose"/><tag k="addr:housenumber" v="439"/><tag k="addr:street" v="Chateau La Salle Drive"/><tag k="addr:postcode" v="95111"/></node>
<node visible="true" id="-688" lat="37.293129265000005" lon="-121.855737715"><tag k="addr:city" v="San Jose"/><tag k="addr:housenumber" v="440"/><tag k="addr:street" v="Chateau La Salle Drive"/><tag k="addr:postcode" v="95111"/></node>
<node visible="true" id="-689" lat="37.293019569" lon="-121.855639448"><tag k="addr:city" v="San Jose"/><tag k="addr:housenumber" v="441"/><tag k="addr:street" v="Chateau La Salle Drive"/><tag k="addr:postcode" v="95111"/></node>
<node visible="true" id="-690" lat="37.292898322" lon="-121.8555333"><tag k="addr:city" v="San Jose"/><tag k="addr:housenumber" v="442"/><tag k="addr:street" v="Chateau La Salle Drive"/><tag k="addr:postcode" v="95111"/></node>
<node visible="true" id="-691" lat="37.292786461000006" lon="-121.85542221200001"><tag k="addr:city" v="San Jose"/><tag k="addr:housenumber" v="443"/><tag k="addr:street" v="Chateau La Salle Drive"/><tag k="addr:postcode" v="95111"/></node>
<node visible="true" id="-692" lat="37.292665027000005" lon="-121.855325425"><tag k="addr:city" v="San Jose"/><tag k="addr:housenumber" v="444"/><tag k="addr:street" v="Chateau La Salle Drive"/><tag k="addr:postcode" v="95111"/></node>
<node visible="true" id="-693" lat="37.292553671" lon="-121.85522358"><tag k="addr:city" v="San Jose"/><tag k="addr:housenumber" v="445"/><tag k="addr:street" v="Chateau La Salle Drive"/><tag k="addr:postcode" v="95111"/></node>
<node visible="true" id="-694" lat="37.292434949000004" lon="-121.855112922"><tag k="addr:city" v="San Jose"/><tag k="addr:housenumber" v="446"/><tag k="addr:street" v="Chateau La Salle Drive"/><tag k="addr:postcode" v="95111"/></node>
<node visible="true" id="-695" lat="37.292320352000004" lon="-121.855014447"><tag k="addr:city" v="San Jose"/><tag k="addr:housenumber" v="447"/><tag k="addr:street" v="Chateau La Salle Drive"/><tag k="addr:postcode" v="95111"/></node>
<node visible="true" id="-696" lat="37.292212903" lon="-121.854908906"><tag k="addr:city" v="San Jose"/><tag k="addr:housenumber" v="448"/><tag k="addr:street" v="Chateau La Salle Drive"/><tag k="addr:postcode" v="95111"/></node>
<node visible="true" id="-697" lat="37.292109171" lon="-121.85477747200001"><tag k="addr:city" v="San Jose"/><tag k="addr:housenumber" v="449"/><tag k="addr:street" v="Chateau La Salle Drive"/><tag k="addr:postcode" v="95111"/></node>
<node visible="true" id="-698" lat="37.29199517" lon="-121.854664033"><tag k="addr:city" v="San Jose"/><tag k="addr:housenumber" v="450"/><tag k="addr:street" v="Chateau La Salle Drive"/><tag k="addr:postcode" v="95111"/></node>
<node visible="true" id="-699" lat="37.292274744000004" lon="-121.854494364"><tag k="addr:city" v="San Jose"/><tag k="addr:housenumber" v="451"/><tag k="addr:street" v="Chateau La Salle Drive"/><tag k="addr:postcode" v="95111"/></node>
<node visible="true" id="-700" lat="37.292368848" lon="-121.85461548500001"><tag k="addr:city" v="San Jose"/><tag k="addr:housenumber" v="452"/><tag k="addr:street" v="Chateau La Salle Drive"/><tag k="addr:postcode" v="95111"/></node>
<node visible="true" id="-701" lat="37.292494373000004" lon="-121.85473513400001"><tag k="addr:city" v="San Jose"/><tag k="addr:housenumber" v="453"/><tag k="addr:street" v="Chateau La Salle Drive"/><tag k="addr:postcode" v="95111"/></node>
<node visible="true" id="-702" lat="37.292617799000006" lon="-121.85483549700001"><tag k="addr:city" v="San Jose"/><tag k="addr:housenumber" v="454"/><tag k="addr:street" v="Chateau La Salle Drive"/><tag k="addr:postcode" v="95111"/></node>
<node visible="true" id="-703" lat="37.292715864" lon="-121.854943472"><tag k="addr:city" v="San Jose"/><tag k="addr:housenumber" v="455"/><tag k="addr:street" v="Chateau La Salle Drive"/><tag k="addr:postcode" v="95111"/></node>
<node visible="true" id="-704" lat="37.292829964" lon="-121.855050446"><tag k="addr:city" v="San Jose"/><tag k="addr:housenumber" v="456"/><tag k="addr:street" v="Chateau La Salle Drive"/><tag k="addr:postcode" v="95111"/></node>
<node visible="true" id="-705" lat="37.292936279" lon="-121.85513743700001"><tag k="addr:city" v="San Jose"/><tag k="addr:housenumber" v="457"/><tag k="addr:street" v="Chateau La Salle Drive"/><tag k="addr:postcode" v="95111"/></node>
<node visible="true" id="-706" lat="37.293056126" lon="-121.855238407"><tag k="addr:city" v="San Jose"/><tag k="addr:housenumber" v="458"/><tag k="addr:street" v="Chateau La Salle Drive"/><tag k="addr:postcode" v="95111"/></node>
<node visible="true" id="-707" lat="37.293170591" lon="-121.85534361500001"><tag k="addr:city" v="San Jose"/><tag k="addr:housenumber" v="459"/><tag k="addr:street" v="Chateau La Salle Drive"/><tag k="addr:postcode" v="95111"/></node>
<node visible="true" id="-708" lat="37.29327279" lon="-121.85544072200001"><tag k="addr:city" v="San Jose"/><tag k="addr:housenumber" v="460"/><tag k="addr:street" v="Chateau La Salle Drive"/><tag k="addr:postcode" v="95111"/></node>
<node visible="true" id="-709" lat="37.293297696" lon="-121.85516122400001"><tag k="addr:city" v="San Jose"/><tag k="addr:housenumber" v="461"/><tag k="addr:street" v="Chateau La Salle Drive"/><tag k="addr:postcode" v="95111"/></node>
<node visible="true" id="-710" lat="37.29319349" lon="-121.85506209"><tag k="addr:city" v="San Jose"/><tag k="addr:housenumber" v="462"/><tag k="addr:street" v="Chateau La Salle Drive"/><tag k="addr:postcode" v="95111"/></node>
<node visible="true" id="-711" lat="37.293082588000004" lon="-121.85496430100001"><tag k="addr:city" v="San Jose"/><tag k="addr:housenumber" v="463"/><tag k="addr:street" v="Chateau La Salle Drive"/><tag k="addr:postcode" v="95111"/></node>
<node visible="true" id="-712" lat="37.294743243" lon="-121.85344271000001"><tag k="addr:city" v="San Jose"/><tag k="addr:housenumber" v="119"/><tag k="addr:street" v="Chateau La Salle Drive"/><tag k="addr:postcode" v="95111"/></node>
<node visible="true" id="-713" lat="37.294667612000005" lon="-121.852926323"><tag k="addr:city" v="San Jose"/><tag k="addr:housenumber" v="101"/><tag k="addr:street" v="Chateau La Salle Drive"/><tag k="addr:postcode" v="95111"/></node>
<node visible="true" id="-714" lat="37.292967756" lon="-121.85484816200001"><tag k="addr:city" v="San Jose"/><tag k="addr:housenumber" v="464"/><tag k="addr:street" v="Chateau La Salle Drive"/><tag k="addr:postcode" v="95111"/></node>
<node visible="true" id="-715" lat="37.292848353000004" lon="-121.854745862"><tag k="addr:city" v="San Jose"/><tag k="addr:housenumber" v="465"/><tag k="addr:street" v="Chateau La Salle Drive"/><tag k="addr:postcode" v="95111"/></node>
<node visible="true" id="-716" lat="37.292724082" lon="-121.854620736"><tag k="addr:city" v="San Jose"/><tag k="addr:housenumber" v="466"/><tag k="addr:street" v="Chateau La Salle Drive"/><tag k="addr:postcode" v="95111"/></node>
<node visible="true" id="-717" lat="37.292529656" lon="-121.854442246"><tag k="addr:city" v="San Jose"/><tag k="addr:housenumber" v="468"/><tag k="addr:street" v="Chateau La Salle Drive"/><tag k="addr:postcode" v="95111"/></node>
<node visible="true" id="-718" lat="37.292543648000006" lon="-121.85397456800001"><tag k="addr:city" v="San Jose"/><tag k="addr:housenumber" v="470"/><tag k="addr:street" v="Chateau La Salle Drive"/><tag k="addr:postcode" v="95111"/></node>
<node visible="true" id="-719" lat="37.292645414" lon="-121.854090181"><tag k="addr:city" v="San Jose"/><tag k="addr:housenumber" v="471"/><tag k="addr:street" v="Chateau La Salle Drive"/><tag k="addr:postcode" v="95111"/></node>
<node visible="true" id="-720" lat="37.292736525" lon="-121.85421056800001"><tag k="addr:city" v="San Jose"/><tag k="addr:housenumber" v="472"/><tag k="addr:street" v="Chateau La Salle Drive"/><tag k="addr:postcode" v="95111"/></node>
<node visible="true" id="-721" lat="37.292860623" lon="-121.85431178200001"><tag k="addr:city" v="San Jose"/><tag k="addr:housenumber" v="473"/><tag k="addr:street" v="Chateau La Salle Drive"/><tag k="addr:postcode" v="95111"/></node>
<node visible="true" id="-722" lat="37.292967389000005" lon="-121.854422412"><tag k="addr:city" v="San Jose"/><tag k="addr:housenumber" v="474"/><tag k="addr:street" v="Chateau La Salle Drive"/><tag k="addr:postcode" v="95111"/></node>
<node visible="true" id="-723" lat="37.293076961000004" lon="-121.85451400400001"><tag k="addr:city" v="San Jose"/><tag k="addr:housenumber" v="475"/><tag k="addr:street" v="Chateau La Salle Drive"/><tag k="addr:postcode" v="95111"/></node>
<node visible="true" id="-724" lat="37.293183297" lon="-121.85462280700001"><tag k="addr:city" v="San Jose"/><tag k="addr:housenumber" v="476"/><tag k="addr:street" v="Chateau La Salle Drive"/><tag k="addr:postcode" v="95111"/></node>
<node visible="true" id="-725" lat="37.293291402" lon="-121.854717366"><tag k="addr:city" v="San Jose"/><tag k="addr:housenumber" v="477"/><tag k="addr:street" v="Chateau La Salle Drive"/><tag k="addr:postcode" v="95111"/></node>
<node visible="true" id="-726" lat="37.293396278" lon="-121.85481044000001"><tag k="addr:city" v="San Jose"/><tag k="addr:housenumber" v="478"/><tag k="addr:street" v="Chateau La Salle Drive"/><tag k="addr:postcode" v="95111"/></node>
<node visible="true" id="-727" lat="37.293534044000005" lon="-121.85461906900001"><tag k="addr:city" v="San Jose"/><tag k="addr:housenumber" v="479"/><tag k="addr:street" v="Chateau La Salle Drive"/><tag k="addr:postcode" v="95111"/></node>
<node visible="true" id="-728" lat="37.293421894000005" lon="-121.85452172100001"><tag k="addr:city" v="San Jose"/><tag k="addr:housenumber" v="480"/><tag k="addr:street" v="Chateau La Salle Drive"/><tag k="addr:postcode" v="95111"/></node>
<node visible="true" id="-729" lat="37.293316217000005" lon="-121.85441722700001"><tag k="addr:city" v="San Jose"/><tag k="addr:housenumber" v="481"/><tag k="addr:street" v="Chateau La Salle Drive"/><tag k="addr:postcode" v="95111"/></node>
<node visible="true" id="-730" lat="37.293199902000005" lon="-121.854316146"><tag k="addr:city" v="San Jose"/><tag k="addr:housenumber" v="482"/><tag k="addr:street" v="Chateau La Salle Drive"/><tag k="addr:postcode" v="95111"/></node>
<node visible="true" id="-731" lat="37.293096692" lon="-121.85422219"><tag k="addr:city" v="San Jose"/><tag k="addr:housenumber" v="483"/><tag k="addr:street" v="Chateau La Salle Drive"/><tag k="addr:postcode" v="95111"/></node>
<node visible="true" id="-732" lat="37.292982727" lon="-121.85411088800001"><tag k="addr:city" v="San Jose"/><tag k="addr:housenumber" v="484"/><tag k="addr:street" v="Chateau La Salle Drive"/><tag k="addr:postcode" v="95111"/></node>
<node visible="true" id="-733" lat="37.292875879" lon="-121.854023964"><tag k="addr:city" v="San Jose"/><tag k="addr:housenumber" v="485"/><tag k="addr:street" v="Chateau La Salle Drive"/><tag k="addr:postcode" v="95111"/></node>
<node visible="true" id="-734" lat="37.292774624" lon="-121.853890367"><tag k="addr:city" v="San Jose"/><tag k="addr:housenumber" v="486"/><tag k="addr:street" v="Chateau La Salle Drive"/><tag k="addr:postcode" v="95111"/></node>
<node visible="true" id="-735" lat="37.292671055" lon="-121.853775255"><tag k="addr:city" v="San Jose"/><tag k="addr:housenumber" v="487"/><tag k="addr:street" v="Chateau La Salle Drive"/><tag k="addr:postcode" v="95111"/></node>
<node visible="true" id="-736" lat="37.293006760000004" lon="-121.85366336400001"><tag k="addr:city" v="San Jose"/><tag k="addr:housenumber" v="488"/><tag k="addr:street" v="Chateau La Salle Drive"/><tag k="addr:postcode" v="95111"/></node>
<node visible="true" id="-737" lat="37.293111182000004" lon="-121.85378685900001"><tag k="addr:city" v="San Jose"/><tag k="addr:housenumber" v="489"/><tag k="addr:street" v="Chateau La Salle Drive"/><tag k="addr:postcode" v="95111"/></node>
<node visible="true" id="-738" lat="37.293207605" lon="-121.853893372"><tag k="addr:city" v="San Jose"/><tag k="addr:housenumber" v="490"/><tag k="addr:street" v="Chateau La Salle Drive"/><tag k="addr:postcode" v="95111"/></node>
<node visible="true" id="-739" lat="37.293316724" lon="-121.853983106"><tag k="addr:city" v="San Jose"/><tag k="addr:housenumber" v="491"/><tag k="addr:street" v="Chateau La Salle Drive"/><tag k="addr:postcode" v="95111"/></node>
<node visible="true" id="-740" lat="37.29342184" lon="-121.854074311"><tag k="addr:city" v="San Jose"/><tag k="addr:housenumber" v="492"/><tag k="addr:street" v="Chateau La Salle Drive"/><tag k="addr:postcode" v="95111"/></node>
<node visible="true" id="-741" lat="37.293520954" lon="-121.85416583300001"><tag k="addr:city" v="San Jose"/><tag k="addr:housenumber" v="493"/><tag k="addr:street" v="Chateau La Salle Drive"/><tag k="addr:postcode" v="95111"/></node>
<node visible="true" id="-742" lat="37.293631846000004" lon="-121.854265182"><tag k="addr:city" v="San Jose"/><tag k="addr:housenumber" v="494"/><tag k="addr:street" v="Chateau La Salle Drive"/><tag k="addr:postcode" v="95111"/></node>
<node visible="true" id="-743" lat="37.293746763" lon="-121.85437664300001"><tag k="addr:city" v="San Jose"/><tag k="addr:housenumber" v="495"/><tag k="addr:street" v="Chateau La Salle Drive"/><tag k="addr:postcode" v="95111"/></node>
<node visible="true" id="-744" lat="37.293860682" lon="-121.85447467600001"><tag k="addr:city" v="San Jose"/><tag k="addr:housenumber" v="496"/><tag k="addr:street" v="Chateau La Salle Drive"/><tag k="addr:postcode" v="95111"/></node>
<node visible="true" id="-745" lat="37.293926906" lon="-121.854217726"><tag k="addr:city" v="San Jose"/><tag k="addr:housenumber" v="497"/><tag k="addr:street" v="Chateau La Salle Drive"/><tag k="addr:postcode" v="95111"/></node>
<node visible="true" id="-746" lat="37.293822112" lon="-121.854122324"><tag k="addr:city" v="San Jose"/><tag k="addr:housenumber" v="498"/><tag k="addr:street" v="Chateau La Salle Drive"/><tag k="addr:postcode" v="95111"/></node>
<node visible="true" id="-747" lat="37.293713875" lon="-121.85402351200001"><tag k="addr:city" v="San Jose"/><tag k="addr:housenumber" v="499"/><tag k="addr:street" v="Chateau La Salle Drive"/><tag k="addr:postcode" v="95111"/></node>
<node visible="true" id="-748" lat="37.293606484" lon="-121.85392307100001"><tag k="addr:city" v="San Jose"/><tag k="addr:housenumber" v="500"/><tag k="addr:street" v="Chateau La Salle Drive"/><tag k="addr:postcode" v="95111"/></node>
<node visible="true" id="-749" lat="37.293508695" lon="-121.85383132400001"><tag k="addr:city" v="San Jose"/><tag k="addr:housenumber" v="501"/><tag k="addr:street" v="Chateau La Salle Drive"/><tag k="addr:postcode" v="95111"/></node>
<node visible="true" id="-750" lat="37.29339797" lon="-121.853744042"><tag k="addr:city" v="San Jose"/><tag k="addr:housenumber" v="502"/><tag k="addr:street" v="Chateau La Salle Drive"/><tag k="addr:postcode" v="95111"/></node>
<node visible="true" id="-751" lat="37.293291568" lon="-121.85364740000001"><tag k="addr:city" v="San Jose"/><tag k="addr:housenumber" v="503"/><tag k="addr:street" v="Chateau La Salle Drive"/><tag k="addr:postcode" v="95111"/></node>
<node visible="true" id="-752" lat="37.293200169" lon="-121.85356075300001"><tag k="addr:city" v="San Jose"/><tag k="addr:housenumber" v="504"/><tag k="addr:street" v="Chateau La Salle Drive"/><tag k="addr:postcode" v="95111"/></node>
<node visible="true" id="-753" lat="37.293082567" lon="-121.85343621300001"><tag k="addr:city" v="San Jose"/><tag k="addr:housenumber" v="505"/><tag k="addr:street" v="Chateau La Salle Drive"/><tag k="addr:postcode" v="95111"/></node>
<node visible="true" id="-754" lat="37.293319428000004" lon="-121.853232773"><tag k="addr:city" v="San Jose"/><tag k="addr:housenumber" v="507"/><tag k="addr:street" v="Chateau La Salle Drive"/><tag k="addr:postcode" v="95111"/></node>
<node visible="true" id="-755" lat="37.293436437000004" lon="-121.853322894"><tag k="addr:city" v="San Jose"/><tag k="addr:housenumber" v="508"/><tag k="addr:street" v="Chateau La Salle Drive"/><tag k="addr:postcode" v="95111"/></node>
<node visible="true" id="-756" lat="37.293549882" lon="-121.853428421"><tag k="addr:city" v="San Jose"/><tag k="addr:housenumber" v="509"/><tag k="addr:street" v="Chateau La Salle Drive"/><tag k="addr:postcode" v="95111"/></node>
<node visible="true" id="-757" lat="37.293652987" lon="-121.85352490500001"><tag k="addr:city" v="San Jose"/><tag k="addr:housenumber" v="510"/><tag k="addr:street" v="Chateau La Salle Drive"/><tag k="addr:postcode" v="95111"/></node>
<node visible="true" id="-758" lat="37.293764462000006" lon="-121.85362803900001"><tag k="addr:city" v="San Jose"/><tag k="addr:housenumber" v="511"/><tag k="addr:street" v="Chateau La Salle Drive"/><tag k="addr:postcode" v="95111"/></node>
<node visible="true" id="-759" lat="37.293871338" lon="-121.853734965"><tag k="addr:city" v="San Jose"/><tag k="addr:housenumber" v="512"/><tag k="addr:street" v="Chateau La Salle Drive"/><tag k="addr:postcode" v="95111"/></node>
<node visible="true" id="-760" lat="37.293980758000004" lon="-121.85382537000001"><tag k="addr:city" v="San Jose"/><tag k="addr:housenumber" v="513"/><tag k="addr:street" v="Chateau La Salle Drive"/><tag k="addr:postcode" v="95111"/></node>
<node visible="true" id="-761" lat="37.294011135000005" lon="-121.85354461400001"><tag k="addr:city" v="San Jose"/><tag k="addr:housenumber" v="514"/><tag k="addr:street" v="Chateau La Salle Drive"/><tag k="addr:postcode" v="95111"/></node>
<node visible="true" id="-762" lat="37.293902245000005" lon="-121.85345945600001"><tag k="addr:city" v="San Jose"/><tag k="addr:housenumber" v="515"/><tag k="addr:street" v="Chateau La Salle Drive"/><tag k="addr:postcode" v="95111"/></node>
<node visible="true" id="-763" lat="37.293798499000005" lon="-121.853352353"><tag k="addr:city" v="San Jose"/><tag k="addr:housenumber" v="516"/><tag k="addr:street" v="Chateau La Salle Drive"/><tag k="addr:postcode" v="95111"/></node>
<node visible="true" id="-764" lat="37.293685557" lon="-121.85324550000001"><tag k="addr:city" v="San Jose"/><tag k="addr:housenumber" v="517"/><tag k="addr:street" v="Chateau La Salle Drive"/><tag k="addr:postcode" v="95111"/></node>
<node visible="true" id="-765" lat="37.293569584000004" lon="-121.85314075000001"><tag k="addr:city" v="San Jose"/><tag k="addr:housenumber" v="518"/><tag k="addr:street" v="Chateau La Salle Drive"/><tag k="addr:postcode" v="95111"/></node>
<node visible="true" id="-766" lat="37.293468202" lon="-121.853042603"><tag k="addr:city" v="San Jose"/><tag k="addr:housenumber" v="519"/><tag k="addr:street" v="Chateau La Salle Drive"/><tag k="addr:postcode" v="95111"/></node>
<node visible="true" id="-767" lat="37.293358171" lon="-121.852926807"><tag k="addr:city" v="San Jose"/><tag k="addr:housenumber" v="520"/><tag k="addr:street" v="Chateau La Salle Drive"/><tag k="addr:postcode" v="95111"/></node>
<node visible="true" id="-768" lat="37.293627565" lon="-121.8527399"><tag k="addr:city" v="San Jose"/><tag k="addr:housenumber" v="521"/><tag k="addr:street" v="Chateau La Salle Drive"/><tag k="addr:postcode" v="95111"/></node>
<node visible="true" id="-769" lat="37.293739192000004" lon="-121.85284123900001"><tag k="addr:city" v="San Jose"/><tag k="addr:housenumber" v="522"/><tag k="addr:street" v="Chateau La Salle Drive"/><tag k="addr:postcode" v="95111"/></node>
<node visible="true" id="-770" lat="37.293852493" lon="-121.852948642"><tag k="addr:city" v="San Jose"/><tag k="addr:housenumber" v="523"/><tag k="addr:street" v="Chateau La Salle Drive"/><tag k="addr:postcode" v="95111"/></node>
<node visible="true" id="-771" lat="37.293962314000005" lon="-121.853049595"><tag k="addr:city" v="San Jose"/><tag k="addr:housenumber" v="524"/><tag k="addr:street" v="Chateau La Salle Drive"/><tag k="addr:postcode" v="95111"/></node>
<node visible="true" id="-772" lat="37.294080959000006" lon="-121.85315889600001"><tag k="addr:city" v="San Jose"/><tag k="addr:housenumber" v="525"/><tag k="addr:street" v="Chateau La Salle Drive"/><tag k="addr:postcode" v="95111"/></node>
<node visible="true" id="-773" lat="37.294165509" lon="-121.85291636800001"><tag k="addr:city" v="San Jose"/><tag k="addr:housenumber" v="526"/><tag k="addr:street" v="Chateau La Salle Drive"/><tag k="addr:postcode" v="95111"/></node>
<node visible="true" id="-774" lat="37.293803647000004" lon="-121.85260112600001"><tag k="addr:city" v="San Jose"/><tag k="addr:housenumber" v="529"/><tag k="addr:street" v="Chateau La Salle Drive"/><tag k="addr:postcode" v="95111"/></node>
<node visible="true" id="-775" lat="37.294501703" lon="-121.85324263700001"><tag k="addr:city" v="San Jose"/><tag k="addr:housenumber" v="121"/><tag k="addr:street" v="Chateau La Salle Drive"/><tag k="addr:postcode" v="95111"/></node>
<node visible="true" id="-776" lat="37.294006337" lon="-121.85232222600001"><tag k="addr:city" v="San Jose"/><tag k="addr:housenumber" v="531"/><tag k="addr:street" v="Chateau La Salle Drive"/><tag k="addr:postcode" v="95111"/></node>
<node visible="true" id="-777" lat="37.294100652000004" lon="-121.852408913"><tag k="addr:city" v="San Jose"/><tag k="addr:housenumber" v="532"/><tag k="addr:street" v="Chateau La Salle Drive"/><tag k="addr:postcode" v="95111"/></node>
<node visible="true" id="-778" lat="37.294198047" lon="-121.85251253000001"><tag k="addr:city" v="San Jose"/><tag k="addr:housenumber" v="533"/><tag k="addr:street" v="Chateau La Salle Drive"/><tag k="addr:postcode" v="95111"/></node>
<node visible="true" id="-779" lat="37.294319663" lon="-121.85259656100001"><tag k="addr:city" v="San Jose"/><tag k="addr:housenumber" v="534"/><tag k="addr:street" v="Chateau La Salle Drive"/><tag k="addr:postcode" v="95111"/></node>
<node visible="true" id="-780" lat="37.294461392" lon="-121.85352092000001"><tag k="addr:city" v="San Jose"/><tag k="addr:housenumber" v="122"/><tag k="addr:street" v="Chateau La Salle Drive"/><tag k="addr:postcode" v="95111"/></node>
<node visible="true" id="-781" lat="37.294578001000005" lon="-121.85362883100001"><tag k="addr:city" v="San Jose"/><tag k="addr:housenumber" v="123"/><tag k="addr:street" v="Chateau La Salle Drive"/><tag k="addr:postcode" v="95111"/></node>
<node visible="true" id="-782" lat="37.294695408" lon="-121.85372851800001"><tag k="addr:city" v="San Jose"/><tag k="addr:housenumber" v="124"/><tag k="addr:street" v="Chateau La Salle Drive"/><tag k="addr:postcode" v="95111"/></node>
<node visible="true" id="-783" lat="37.294808198000005" lon="-121.85382974800001"><tag k="addr:city" v="San Jose"/><tag k="addr:housenumber" v="125"/><tag k="addr:street" v="Chateau La Salle Drive"/><tag k="addr:postcode" v="95111"/></node>
<node visible="true" id="-784" lat="37.294911583" lon="-121.85393343000001"><tag k="addr:city" v="San Jose"/><tag k="addr:housenumber" v="126"/><tag k="addr:street" v="Chateau La Salle Drive"/><tag k="addr:postcode" v="95111"/></node>
<node visible="true" id="-785" lat="37.295027238" lon="-121.85402439500001"><tag k="addr:city" v="San Jose"/><tag k="addr:housenumber" v="127"/><tag k="addr:street" v="Chateau La Salle Drive"/><tag k="addr:postcode" v="95111"/></node>
<node visible="true" id="-786" lat="37.295140953" lon="-121.854132159"><tag k="addr:city" v="San Jose"/><tag k="addr:housenumber" v="128"/><tag k="addr:street" v="Chateau La Salle Drive"/><tag k="addr:postcode" v="95111"/></node>
<node visible="true" id="-787" lat="37.295258326" lon="-121.85422702100001"><tag k="addr:city" v="San Jose"/><tag k="addr:housenumber" v="129"/><tag k="addr:street" v="Chateau La Salle Drive"/><tag k="addr:postcode" v="95111"/></node>
<node visible="true" id="-788" lat="37.295338388000005" lon="-121.85431842400001"><tag k="addr:city" v="San Jose"/><tag k="addr:housenumber" v="130"/><tag k="addr:street" v="Chateau La Salle Drive"/><tag k="addr:postcode" v="95111"/></node>
<node visible="true" id="-789" lat="37.295007216" lon="-121.86721885200001"><tag k="addr:city" v="San Jose"/><tag k="addr:housenumber" v="2315"/><tag k="addr:street" v="Communications Hill Boulevard"/><tag k="addr:postcode" v="95125"/></node>
<node visible="true" id="-790" lat="37.297423729" lon="-121.86846123000001"><tag k="addr:city" v="San Jose"/><tag k="addr:housenumber" v="2330"/><tag k="addr:street" v="Communications Hill Boulevard"/><tag k="addr:postcode" v="95125"/></node>
<node visible="true" id="-791" lat="37.295371756" lon="-121.85479573500001"><tag k="addr:city" v="San Jose"/><tag k="addr:housenumber" v="131"/><tag k="addr:street" v="Chateau La Salle Drive"/><tag k="addr:postcode" v="95111"/></node>
<node visible="true" id="-792" lat="37.295262132000005" lon="-121.85469161300001"><tag k="addr:city" v="San Jose"/><tag k="addr:housenumber" v="132"/><tag k="addr:street" v="Chateau La Salle Drive"/><tag k="addr:postcode" v="95111"/></node>
<node visible="true" id="-793" lat="37.294781574000005" lon="-121.853025779"><tag k="addr:city" v="San Jose"/><tag k="addr:housenumber" v="102"/><tag k="addr:street" v="Chateau La Salle Drive"/><tag k="addr:postcode" v="95111"/></node>
<node visible="true" id="-794" lat="37.295150221" lon="-121.85458918900001"><tag k="addr:city" v="San Jose"/><tag k="addr:housenumber" v="133"/><tag k="addr:street" v="Chateau La Salle Drive"/><tag k="addr:postcode" v="95111"/></node>
<node visible="true" id="-795" lat="37.295041974" lon="-121.85449643000001"><tag k="addr:city" v="San Jose"/><tag k="addr:housenumber" v="134"/><tag k="addr:street" v="Chateau La Salle Drive"/><tag k="addr:postcode" v="95111"/></node>
<node visible="true" id="-796" lat="37.294944473" lon="-121.854396316"><tag k="addr:city" v="San Jose"/><tag k="addr:housenumber" v="135"/><tag k="addr:street" v="Chateau La Salle Drive"/><tag k="addr:postcode" v="95111"/></node>
<node visible="true" id="-797" lat="37.294844308" lon="-121.854313899"><tag k="addr:city" v="San Jose"/><tag k="addr:housenumber" v="136"/><tag k="addr:street" v="Chateau La Salle Drive"/><tag k="addr:postcode" v="95111"/></node>
<node visible="true" id="-798" lat="37.294734444" lon="-121.854206532"><tag k="addr:city" v="San Jose"/><tag k="addr:housenumber" v="137"/><tag k="addr:street" v="Chateau La Salle Drive"/><tag k="addr:postcode" v="95111"/></node>
<node visible="true" id="-799" lat="37.294627521" lon="-121.85410616700001"><tag k="addr:city" v="San Jose"/><tag k="addr:housenumber" v="138"/><tag k="addr:street" v="Chateau La Salle Drive"/><tag k="addr:postcode" v="95111"/></node>
<node visible="true" id="-800" lat="37.294510036000005" lon="-121.854003855"><tag k="addr:city" v="San Jose"/><tag k="addr:housenumber" v="139"/><tag k="addr:street" v="Chateau La Salle Drive"/><tag k="addr:postcode" v="95111"/></node>
<node visible="true" id="-801" lat="37.294409345000005" lon="-121.85390223700001"><tag k="addr:city" v="San Jose"/><tag k="addr:housenumber" v="140"/><tag k="addr:street" v="Chateau La Salle Drive"/><tag k="addr:postcode" v="95111"/></node>
<node visible="true" id="-802" lat="37.294362479" lon="-121.854173223"><tag k="addr:city" v="San Jose"/><tag k="addr:housenumber" v="141"/><tag k="addr:street" v="Chateau La Salle Drive"/><tag k="addr:postcode" v="95111"/></node>
<node visible="true" id="-803" lat="37.294495286" lon="-121.85429138100001"><tag k="addr:city" v="San Jose"/><tag k="addr:housenumber" v="142"/><tag k="addr:street" v="Chateau La Salle Drive"/><tag k="addr:postcode" v="95111"/></node>
<node visible="true" id="-804" lat="37.294591132" lon="-121.854390456"><tag k="addr:city" v="San Jose"/><tag k="addr:housenumber" v="143"/><tag k="addr:street" v="Chateau La Salle Drive"/><tag k="addr:postcode" v="95111"/></node>
<node visible="true" id="-805" lat="37.294698042" lon="-121.854492238"><tag k="addr:city" v="San Jose"/><tag k="addr:housenumber" v="144"/><tag k="addr:street" v="Chateau La Salle Drive"/><tag k="addr:postcode" v="95111"/></node>
<node visible="true" id="-806" lat="37.294883430000006" lon="-121.85312905800001"><tag k="addr:city" v="San Jose"/><tag k="addr:housenumber" v="103"/><tag k="addr:street" v="Chateau La Salle Drive"/><tag k="addr:postcode" v="95111"/></node>
<node visible="true" id="-807" lat="37.294801514" lon="-121.854588989"><tag k="addr:city" v="San Jose"/><tag k="addr:housenumber" v="145"/><tag k="addr:street" v="Chateau La Salle Drive"/><tag k="addr:postcode" v="95111"/></node>
<node visible="true" id="-808" lat="37.294917454" lon="-121.854690488"><tag k="addr:city" v="San Jose"/><tag k="addr:housenumber" v="146"/><tag k="addr:street" v="Chateau La Salle Drive"/><tag k="addr:postcode" v="95111"/></node>
<node visible="true" id="-809" lat="37.295018815" lon="-121.854781997"><tag k="addr:city" v="San Jose"/><tag k="addr:housenumber" v="147"/><tag k="addr:street" v="Chateau La Salle Drive"/><tag k="addr:postcode" v="95111"/></node>
<node visible="true" id="-810" lat="37.295141814000004" lon="-121.85488271400001"><tag k="addr:city" v="San Jose"/><tag k="addr:housenumber" v="148"/><tag k="addr:street" v="Chateau La Salle Drive"/><tag k="addr:postcode" v="95111"/></node>
<node visible="true" id="-811" lat="37.29525426" lon="-121.854985522"><tag k="addr:city" v="San Jose"/><tag k="addr:housenumber" v="149"/><tag k="addr:street" v="Chateau La Salle Drive"/><tag k="addr:postcode" v="95111"/></node>
<node visible="true" id="-812" lat="37.295268326000006" lon="-121.85520020000001"><tag k="addr:city" v="San Jose"/><tag k="addr:housenumber" v="150"/><tag k="addr:street" v="Chateau La Salle Drive"/><tag k="addr:postcode" v="95111"/></node>
<node visible="true" id="-813" lat="37.295269245" lon="-121.855362599"><tag k="addr:city" v="San Jose"/><tag k="addr:housenumber" v="151"/><tag k="addr:street" v="Chateau La Salle Drive"/><tag k="addr:postcode" v="95111"/></node>
<node visible="true" id="-814" lat="37.295267263" lon="-121.855547701"><tag k="addr:city" v="San Jose"/><tag k="addr:housenumber" v="152"/><tag k="addr:street" v="Chateau La Salle Drive"/><tag k="addr:postcode" v="95111"/></node>
<node visible="true" id="-815" lat="37.295267848" lon="-121.85571104200001"><tag k="addr:city" v="San Jose"/><tag k="addr:housenumber" v="153"/><tag k="addr:street" v="Chateau La Salle Drive"/><tag k="addr:postcode" v="95111"/></node>
<node visible="true" id="-816" lat="37.295269974" lon="-121.85588071800001"><tag k="addr:city" v="San Jose"/><tag k="addr:housenumber" v="154"/><tag k="addr:street" v="Chateau La Salle Drive"/><tag k="addr:postcode" v="95111"/></node>
<node visible="true" id="-817" lat="37.294981683" lon="-121.853232676"><tag k="addr:city" v="San Jose"/><tag k="addr:housenumber" v="104"/><tag k="addr:street" v="Chateau La Salle Drive"/><tag k="addr:postcode" v="95111"/></node>
<node visible="true" id="-818" lat="37.295267681000006" lon="-121.85604772900001"><tag k="addr:city" v="San Jose"/><tag k="addr:housenumber" v="155"/><tag k="addr:street" v="Chateau La Salle Drive"/><tag k="addr:postcode" v="95111"/></node>
<node visible="true" id="-819" lat="37.295267103" lon="-121.85620775000001"><tag k="addr:city" v="San Jose"/><tag k="addr:housenumber" v="156"/><tag k="addr:street" v="Chateau La Salle Drive"/><tag k="addr:postcode" v="95111"/></node>
<node visible="true" id="-820" lat="37.295258437" lon="-121.85638423300001"><tag k="addr:city" v="San Jose"/><tag k="addr:housenumber" v="157"/><tag k="addr:street" v="Chateau La Salle Drive"/><tag k="addr:postcode" v="95111"/></node>
<node visible="true" id="-821" lat="37.295038638" lon="-121.85637759800001"><tag k="addr:city" v="San Jose"/><tag k="addr:housenumber" v="158"/><tag k="addr:street" v="Chateau La Salle Drive"/><tag k="addr:postcode" v="95111"/></node>
<node visible="true" id="-822" lat="37.294898261" lon="-121.85643880100001"><tag k="addr:city" v="San Jose"/><tag k="addr:housenumber" v="159"/><tag k="addr:street" v="Chateau La Salle Drive"/><tag k="addr:postcode" v="95111"/></node>
<node visible="true" id="-823" lat="37.294769116000005" lon="-121.856518578"><tag k="addr:city" v="San Jose"/><tag k="addr:housenumber" v="160"/><tag k="addr:street" v="Chateau La Salle Drive"/><tag k="addr:postcode" v="95111"/></node>
<node visible="true" id="-824" lat="37.294646647" lon="-121.856606962"><tag k="addr:city" v="San Jose"/><tag k="addr:housenumber" v="161"/><tag k="addr:street" v="Chateau La Salle Drive"/><tag k="addr:postcode" v="95111"/></node>
<node visible="true" id="-825" lat="37.294528514" lon="-121.856684133"><tag k="addr:city" v="San Jose"/><tag k="addr:housenumber" v="162"/><tag k="addr:street" v="Chateau La Salle Drive"/><tag k="addr:postcode" v="95111"/></node>
<node visible="true" id="-826" lat="37.294970301" lon="-121.85517761700001"><tag k="addr:city" v="San Jose"/><tag k="addr:housenumber" v="163"/><tag k="addr:street" v="Chateau La Salle Drive"/><tag k="addr:postcode" v="95111"/></node>
<node visible="true" id="-827" lat="37.294851547" lon="-121.855074106"><tag k="addr:city" v="San Jose"/><tag k="addr:housenumber" v="164"/><tag k="addr:street" v="Chateau La Salle Drive"/><tag k="addr:postcode" v="95111"/></node>
<node visible="true" id="-828" lat="37.295099973" lon="-121.85332677000001"><tag k="addr:city" v="San Jose"/><tag k="addr:housenumber" v="105"/><tag k="addr:street" v="Chateau La Salle Drive"/><tag k="addr:postcode" v="95111"/></node>
<node visible="true" id="-829" lat="37.294732282000005" lon="-121.85496489900001"><tag k="addr:city" v="San Jose"/><tag k="addr:housenumber" v="165"/><tag k="addr:street" v="Chateau La Salle Drive"/><tag k="addr:postcode" v="95111"/></node>
<node visible="true" id="-830" lat="37.294624992" lon="-121.854860426"><tag k="addr:city" v="San Jose"/><tag k="addr:housenumber" v="166"/><tag k="addr:street" v="Chateau La Salle Drive"/><tag k="addr:postcode" v="95111"/></node>
<node visible="true" id="-831" lat="37.294509977000004" lon="-121.854758548"><tag k="addr:city" v="San Jose"/><tag k="addr:housenumber" v="167"/><tag k="addr:street" v="Chateau La Salle Drive"/><tag k="addr:postcode" v="95111"/></node>
<node visible="true" id="-832" lat="37.294400516" lon="-121.854658736"><tag k="addr:city" v="San Jose"/><tag k="addr:housenumber" v="168"/><tag k="addr:street" v="Chateau La Salle Drive"/><tag k="addr:postcode" v="95111"/></node>
<node visible="true" id="-833" lat="37.294291655" lon="-121.85455720700001"><tag k="addr:city" v="San Jose"/><tag k="addr:housenumber" v="169"/><tag k="addr:street" v="Chateau La Salle Drive"/><tag k="addr:postcode" v="95111"/></node>
<node visible="true" id="-834" lat="37.294185456" lon="-121.854764591"><tag k="addr:city" v="San Jose"/><tag k="addr:housenumber" v="170"/><tag k="addr:street" v="Chateau La Salle Drive"/><tag k="addr:postcode" v="95111"/></node>
<node visible="true" id="-835" lat="37.294288665" lon="-121.854867892"><tag k="addr:city" v="San Jose"/><tag k="addr:housenumber" v="171"/><tag k="addr:street" v="Chateau La Salle Drive"/><tag k="addr:postcode" v="95111"/></node>
<node visible="true" id="-836" lat="37.294406248" lon="-121.85497611100001"><tag k="addr:city" v="San Jose"/><tag k="addr:housenumber" v="172"/><tag k="addr:street" v="Chateau La Salle Drive"/><tag k="addr:postcode" v="95111"/></node>
<node visible="true" id="-837" lat="37.294507734" lon="-121.855081642"><tag k="addr:city" v="San Jose"/><tag k="addr:housenumber" v="173"/><tag k="addr:street" v="Chateau La Salle Drive"/><tag k="addr:postcode" v="95111"/></node>
<node visible="true" id="-840" lat="37.298524941000004" lon="-121.866147924"/>
<node visible="true" id="-841" lat="37.298673028" lon="-121.866302637"/>
<node visible="true" id="-842" lat="37.298615241" lon="-121.86638932500001"/>
<node visible="true" id="-843" lat="37.298595947" lon="-121.866369168"/>
<node visible="true" id="-844" lat="37.298554738" lon="-121.866430957"/>
<node visible="true" id="-845" lat="37.298587683" lon="-121.86646535800001"/>
<node visible="true" id="-846" lat="37.29854804" lon="-121.866524838"/>
<node visible="true" id="-847" lat="37.298597456" lon="-121.866576455"/>
<node visible="true" id="-848" lat="37.298637406000005" lon="-121.86651653300001"/>
<node visible="true" id="-849" lat="37.298641449" lon="-121.866520768"/>
<node visible="true" id="-850" lat="37.29864528" lon="-121.866515027"/>
<node visible="true" id="-851" lat="37.298647618000004" lon="-121.86657596200001"/>
<node visible="true" id="-852" lat="37.298692761000005" lon="-121.86657004800001"/>
<node visible="true" id="-853" lat="37.298693436" lon="-121.866578175"/>
<node visible="true" id="-854" lat="37.298656483" lon="-121.866640145"/>
<node visible="true" id="-855" lat="37.298706782000004" lon="-121.866691469"/>
<node visible="true" id="-856" lat="37.298745657000005" lon="-121.866631803"/>
<node visible="true" id="-857" lat="37.298750951" lon="-121.86663719500001"/>
<node visible="true" id="-858" lat="37.29879229" lon="-121.86657369000001"/>
<node visible="true" id="-859" lat="37.298768999" lon="-121.866549918"/>
<node visible="true" id="-860" lat="37.298804016000005" lon="-121.866496165"/>
<node visible="true" id="-861" lat="37.298864412" lon="-121.86655781700001"/>
<node visible="true" id="-862" lat="37.298904743" lon="-121.866495908"/>
<node visible="true" id="-863" lat="37.298867310000006" lon="-121.866457713"/>
<node visible="true" id="-864" lat="37.298944839" lon="-121.866338686"/>
<node visible="true" id="-865" lat="37.298972500000005" lon="-121.866366905"/>
<node visible="true" id="-866" lat="37.299030031" lon="-121.866278561"/>
<node visible="true" id="-867" lat="37.29904564" lon="-121.86629449"/>
<node visible="true" id="-868" lat="37.299114303" lon="-121.866189089"/>
<node visible="true" id="-869" lat="37.299178091" lon="-121.86625420700001"/>
<node visible="true" id="-870" lat="37.29921129" lon="-121.86620327300001"/>
<node visible="true" id="-871" lat="37.299147989000005" lon="-121.86613864600001"/>
<node visible="true" id="-872" lat="37.299223056" lon="-121.86602342500001"/>
<node visible="true" id="-873" lat="37.299210759000005" lon="-121.866010857"/>
<node visible="true" id="-874" lat="37.299265801000004" lon="-121.865926387"/>
<node visible="true" id="-875" lat="37.298982112000004" lon="-121.86563682200001"/>
<node visible="true" id="-876" lat="37.298947376" lon="-121.865690134"/>
<node visible="true" id="-877" lat="37.298878564" lon="-121.865619871"/>
<node visible="true" id="-878" lat="37.298814825" lon="-121.86571769400001"/>
<node visible="true" id="-879" lat="37.298831736000004" lon="-121.865734954"/>
<node visible="true" id="-880" lat="37.298812410000004" lon="-121.86576461800001"/>
<node visible="true" id="-881" lat="37.298839636000004" lon="-121.86579241400001"/>
<node visible="true" id="-882" lat="37.298824785" lon="-121.86581521400001"/>
<node visible="true" id="-883" lat="37.298810019" lon="-121.865800125"/>
<node visible="true" id="-884" lat="37.298790524000005" lon="-121.86583009600001"/>
<node visible="true" id="-885" lat="37.298758603" lon="-121.865797501"/>
<node visible="true" id="-887" lat="37.298725487000006" lon="-121.86625356900001"/>
<node visible="true" id="-888" lat="37.298764267" lon="-121.86619507"/>
<node visible="true" id="-889" lat="37.298773983000004" lon="-121.866205116"/>
<node visible="true" id="-890" lat="37.298735175000004" lon="-121.86626364800001"/>
<way visible="true" id="-1"><nd ref="-2"/><nd ref="-3"/><nd ref="-4"/><nd ref="-5"/><nd ref="-6"/><nd ref="-7"/><nd ref="-8"/><nd ref="-9"/><nd ref="-10"/><nd ref="-11"/><nd ref="-12"/><nd ref="-13"/><nd ref="-14"/><nd ref="-15"/><nd ref="-16"/><nd ref="-17"/><nd ref="-18"/><nd ref="-19"/><nd ref="-2"/><tag k="building" v="yes"/><tag k="height" v="5.29"/><tag k="ele" v="44.21"/></way>
<way visible="true" id="-839"><nd ref="-840"/><nd ref="-841"/><nd ref="-842"/><nd ref="-843"/><nd ref="-844"/><nd ref="-845"/><nd ref="-846"/><nd ref="-847"/><nd ref="-848"/><nd ref="-849"/><nd ref="-850"/><nd ref="-851"/><nd ref="-852"/><nd ref="-853"/><nd ref="-854"/><nd ref="-855"/><nd ref="-856"/><nd ref="-857"/><nd ref="-858"/><nd ref="-859"/><nd ref="-860"/><nd ref="-861"/><nd ref="-862"/><nd ref="-863"/><nd ref="-864"/><nd ref="-865"/><nd ref="-866"/><nd ref="-867"/><nd ref="-868"/><nd ref="-869"/><nd ref="-870"/><nd ref="-871"/><nd ref="-872"/><nd ref="-873"/><nd ref="-874"/><nd ref="-875"/><nd ref="-876"/><nd ref="-877"/><nd ref="-878"/><nd ref="-879"/><nd ref="-880"/><nd ref="-881"/><nd ref="-882"/><nd ref="-883"/><nd ref="-884"/><nd ref="-885"/><nd ref="-840"/></way>
<way visible="true" id="-886"><nd ref="-887"/><nd ref="-888"/><nd ref="-889"/><nd ref="-890"/><nd ref="-887"/></way>
<relation visible="true" id="-838"><member type="way" ref="-839" role="outer"/><member type="way" ref="-886" role="inner"/><tag k="type" v="multipolygon"/><tag k="building" v="yes"/><tag k="height" v="3.70"/><tag k="ele" v="49.01"/><tag k="addr:city" v="San Jose"/><tag k="addr:housenumber" v="300"/><tag k="addr:street" v="Curtner Avenue"/><tag k="addr:postcode" v="95125"/></relation>
</osm>