<?xml version="1.0"?>
<osm version="0.6" generator="uvmogr2osm" upload="false">
<node visible="true" id="-2" lat="37.369935472" lon="-121.80548284500001"/>
<node visible="true" id="-3" lat="37.369979476000005" lon="-121.805522228"/>
<node visible="true" id="-4" lat="37.370016427" lon="-121.80545741700001"/>
<node visible="true" id="-5" lat="37.370008051" lon="-121.805449905"/>
<node visible="true" id="-6" lat="37.370019817" lon="-121.80542929"/>
<node visible="true" id="-7" lat="37.369998113" lon="-121.80540984400001"/>
<node visible="true" id="-8" lat="37.369981698000004" lon="-121.805438639"/>
<node visible="true" id="-9" lat="37.369967800000005" lon="-121.805426178"/>
<node visible="true" id="-11" lat="37.369653079" lon="-121.80599850700001"/>
<node visible="true" id="-12" lat="37.369746434" lon="-121.806077986"/>
<node visible="true" id="-13" lat="37.369790294000005" lon="-121.805997086"/>
<node visible="true" id="-14" lat="37.369763466" lon="-121.80597421200001"/>
<node visible="true" id="-15" lat="37.369778918" lon="-121.805945711"/>
<node visible="true" id="-16" lat="37.369731900000005" lon="-121.80590565600001"/>
<node visible="true" id="-17" lat="37.369717233" lon="-121.80593269100001"/>
<node visible="true" id="-18" lat="37.369697779" lon="-121.805916107"/>
<node visible="true" id="-20" lat="37.370427175" lon="-121.80715102200001"/>
<node visible="true" id="-21" lat="37.370434517" lon="-121.80715514200001"/>
<node visible="true" id="-22" lat="37.370432476000005" lon="-121.80716088800001"/>
<node visible="true" id="-23" lat="37.370450875" lon="-121.80717115700001"/>
<node visible="true" id="-24" lat="37.37045408" lon="-121.807162093"/>
<node visible="true" id="-25" lat="37.370462787" lon="-121.80716696100001"/>
<node visible="true" id="-26" lat="37.37045604" lon="-121.80718584"/>
<node visible="true" id="-27" lat="37.370472063" lon="-121.807194792"/>
<node visible="true" id="-28" lat="37.370476146" lon="-121.807183335"/>
<node visible="true" id="-29" lat="37.370501095" lon="-121.807197297"/>
<node visible="true" id="-30" lat="37.370501833000006" lon="-121.807195245"/>
<node visible="true" id="-31" lat="37.370509367000004" lon="-121.80719947200001"/>
<node visible="true" id="-32" lat="37.370514243" lon="-121.80718582700001"/>
<node visible="true" id="-33" lat="37.370521269" lon="-121.80718140600001"/>
<node visible="true" id="-34" lat="37.370529223000005" lon="-121.807162719"/>
<node visible="true" id="-35" lat="37.370527814" lon="-121.80714373200001"/>
<node visible="true" id="-36" lat="37.370541389" lon="-121.807150613"/>
<node visible="true" id="-37" lat="37.370558692" lon="-121.807103869"/>
<node visible="true" id="-38" lat="37.370551157" lon="-121.80709971"/>
<node visible="true" id="-39" lat="37.370557776000005" lon="-121.807092427"/>
<node visible="true" id="-40" lat="37.370562692" lon="-121.80707778300001"/>
<node visible="true" id="-41" lat="37.370562099000004" lon="-121.807066898"/>
<node visible="true" id="-42" lat="37.370558591000005" lon="-121.807061261"/>
<node visible="true" id="-43" lat="37.370564033" lon="-121.80706583000001"/>
<node visible="true" id="-44" lat="37.370575734" lon="-121.80702886600001"/>
<node visible="true" id="-45" lat="37.370582891000005" lon="-121.807032398"/>
<node visible="true" id="-46" lat="37.370602763" lon="-121.806969628"/>
<node visible="true" id="-47" lat="37.370597054" lon="-121.806966809"/>
<node visible="true" id="-48" lat="37.370598676" lon="-121.806961709"/>
<node visible="true" id="-49" lat="37.370514028" lon="-121.80691435300001"/>
<node visible="true" id="-50" lat="37.370510342" lon="-121.80692471600001"/>
<node visible="true" id="-51" lat="37.370503163" lon="-121.80692070200001"/>
<node visible="true" id="-52" lat="37.370468684" lon="-121.80701746000001"/>
<node visible="true" id="-53" lat="37.370457628000004" lon="-121.807011277"/>
<node visible="true" id="-54" lat="37.370435766" lon="-121.80707267100001"/>
<node visible="true" id="-55" lat="37.370447641000005" lon="-121.80707931500001"/>
<node visible="true" id="-56" lat="37.370440127" lon="-121.807100417"/>
<node visible="true" id="-57" lat="37.370444359000004" lon="-121.807102763"/>
<node visible="true" id="-59" lat="37.369761055000005" lon="-121.805112691"/>
<node visible="true" id="-60" lat="37.369776687000005" lon="-121.80513956700001"/>
<node visible="true" id="-61" lat="37.369780378" lon="-121.80513622400001"/>
<node visible="true" id="-62" lat="37.369819322000005" lon="-121.805203222"/>
<node visible="true" id="-63" lat="37.369836027000005" lon="-121.805187993"/>
<node visible="true" id="-64" lat="37.369895021000005" lon="-121.805134166"/>
<node visible="true" id="-65" lat="37.369917337000004" lon="-121.80517255000001"/>
<node visible="true" id="-66" lat="37.369965346" lon="-121.80512851300001"/>
<node visible="true" id="-67" lat="37.369947777" lon="-121.805075825"/>
<node visible="true" id="-68" lat="37.369932959" lon="-121.80508933200001"/>
<node visible="true" id="-69" lat="37.369898057" lon="-121.805029254"/>
<node visible="true" id="-70" lat="37.369905439" lon="-121.80502249800001"/>
<node visible="true" id="-71" lat="37.369902636" lon="-121.805017667"/>
<node visible="true" id="-72" lat="37.369907408" lon="-121.805013345"/>
<node visible="true" id="-73" lat="37.369863451" lon="-121.80493772300001"/>
<node visible="true" id="-74" lat="37.369803013" lon="-121.80499290200001"/>
<node visible="true" id="-75" lat="37.369839882" lon="-121.805056354"/>
<node visible="true" id="-76" lat="37.369829781" lon="-121.80506553800001"/>
<node visible="true" id="-77" lat="37.369823880000006" lon="-121.805055386"/>
<node visible="true" id="-78" lat="37.376565099000004" lon="-121.81413951100001"><tag k="addr:city" v="San Jose"/><tag k="addr:housenumber" v="10798"/><tag k="addr:street" v="Porter Lane"/><tag k="addr:postcode" v="95127"/></node>
<node visible="true" id="-79" lat="37.375786897000005" lon="-121.814063145"><tag k="addr:city" v="San Jose"/><tag k="addr:housenumber" v="235"/><tag k="addr:street" v="Porter Lane"/><tag k="addr:postcode" v="95127"/></node>
<node visible="true" id="-80" lat="37.372181893000004" lon="-121.812254648"><tag k="addr:city" v="San Jose"/><tag k="addr:housenumber" v="366"/><tag k="addr:street" v="Fleming Avenue"/><tag k="addr:postcode" v="95127"/></node>
<node visible="true" id="-81" lat="37.373885805" lon="-121.80899099800001"><tag k="addr:city" v="San Jose"/><tag k="addr:housenumber" v="373"/><tag k="addr:street" v="Photinia Lane"/><tag k="addr:postcode" v="95127"/></node>
<node visible="true" id="-82" lat="37.371155695" lon="-121.80781590400001"><tag k="addr:city" v="San Jose"/><tag k="addr:housenumber" v="3949"/><tag k="addr:street" v="Blue Gum Drive"/><tag k="addr:postcode" v="95127"/></node>
<node visible="true" id="-83" lat="37.375838851000005" lon="-121.81716887700001"><tag k="addr:city" v="San Jose"/><tag k="addr:housenumber" v="4064"/><tag k="addr:street" v="Hidden Valley Lane"/><tag k="addr:postcode" v="95127"/></node>
<node visible="true" id="-84" lat="37.378640074" lon="-121.81728236900001"><tag k="addr:city" v="San Jose"/><tag k="addr:housenumber" v="4537"/><tag k="addr:street" v="Porter Court"/><tag k="addr:postcode" v="95127"/></node>
<node visible="true" id="-85" lat="37.371064477000004" lon="-121.80967396400001"><tag k="addr:city" v="San Jose"/><tag k="addr:housenumber" v="456"/><tag k="addr:street" v="Fleming Avenue"/><tag k="addr:postcode" v="95127"/></node>
<node visible="true" id="-86" lat="37.370721749000005" lon="-121.809104813"><tag k="addr:city" v="San Jose"/><tag k="addr:housenumber" v="486"/><tag k="addr:street" v="Fleming Avenue"/><tag k="addr:postcode" v="95127"/></node>
<node visible="true" id="-87" lat="37.377393167" lon="-121.81968376600001"><tag k="addr:city" v="San Jose"/><tag k="addr:housenumber" v="5290"/><tag k="addr:street" v="Alum Rock Avenue"/><tag k="addr:postcode" v="95127"/></node>
<node visible="true" id="-88" lat="37.377923994" lon="-121.819301214"><tag k="addr:city" v="San Jose"/><tag k="addr:housenumber" v="5300"/><tag k="addr:street" v="Alum Rock Avenue"/><tag k="addr:postcode" v="95127"/></node>
<node visible="true" id="-89" lat="37.378362268000004" lon="-121.81998432900001"><tag k="addr:city" v="San Jose"/><tag k="addr:housenumber" v="5301"/><tag k="addr:street" v="Alum Rock Avenue"/><tag k="addr:postcode" v="95127"/></node>
<node visible="true" id="-90" lat="37.378142556" lon="-121.81932283500001"><tag k="addr:city" v="San Jose"/><tag k="addr:housenumber" v="5310"/><tag k="addr:street" v="Alum Rock Avenue"/><tag k="addr:postcode" v="95127"/></node>
<node visible="true" id="-91" lat="37.378545618000004" lon="-121.819903381"><tag k="addr:city" v="San Jose"/><tag k="addr:housenumber" v="5325"/><tag k="addr:street" v="Alum Rock Avenue"/><tag k="addr:postcode" v="95127"/></node>
<node visible="true" id="-92" lat="37.378751925" lon="-121.81979602400001"><tag k="addr:city" v="San Jose"/><tag k="addr:housenumber" v="5335"/><tag k="addr:street" v="Alum Rock Avenue"/><tag k="addr:postcode" v="95127"/></node>
<node visible="true" id="-93" lat="37.37842602" lon="-121.81919825400001"><tag k="addr:city" v="San Jose"/><tag k="addr:housenumber" v="5340"/><tag k="addr:street" v="Alum Rock Avenue"/><tag k="addr:postcode" v="95127"/></node>
<node visible="true" id="-94" lat="37.379788457000004" lon="-121.81914965600001"><tag k="addr:city" v="San Jose"/><tag k="addr:housenumber" v="5375"/><tag k="addr:street" v="Alum Rock Avenue"/><tag k="addr:postcode" v="95127"/></node>
<node visible="true" id="-95" lat="37.379159624" lon="-121.81788609"><tag k="addr:city" v="San Jose"/><tag k="addr:housenumber" v="5390"/><tag k="addr:street" v="Alum Rock Avenue"/><tag k="addr:postcode" v="95127"/></node>
<node visible="true" id="-96" lat="37.370187351000006" lon="-121.808437287"><tag k="addr:city" v="San Jose"/><tag k="addr:housenumber" v="540"/><tag k="addr:street" v="Fleming Avenue"/><tag k="addr:postcode" v="95127"/></node>
<node visible="true" id="-97" lat="37.381172670000005" lon="-121.818221996"><tag k="addr:city" v="San Jose"/><tag k="addr:housenumber" v="5445"/><tag k="addr:street" v="Alum Rock Avenue"/><tag k="addr:postcode" v="95127"/></node>
<node visible="true" id="-98" lat="37.378930472" lon="-121.81691734500001"><tag k="addr:city" v="San Jose"/><tag k="addr:housenumber" v="57"/><tag k="addr:street" v="Porter Lane"/><tag k="addr:postcode" v="95127"/></node>
<node visible="true" id="-99" lat="37.380182249" lon="-121.816897001"><tag k="addr:city" v="San Jose"/><tag k="addr:housenumber" v="101"/><tag k="addr:street" v="Piazza Way"/><tag k="addr:postcode" v="95127"/></node>
<node visible="true" id="-100" lat="37.372870223" lon="-121.81389592200001"><tag k="addr:city" v="San Jose"/><tag k="addr:housenumber" v="14760"/><tag k="addr:street" v="Whipple Court"/><tag k="addr:postcode" v="95127"/></node>
<node visible="true" id="-101" lat="37.37298252" lon="-121.81376997000001"><tag k="addr:city" v="San Jose"/><tag k="addr:housenumber" v="14770"/><tag k="addr:street" v="Whipple Court"/><tag k="addr:postcode" v="95127"/></node>
<node visible="true" id="-102" lat="37.37310432" lon="-121.813666212"><tag k="addr:city" v="San Jose"/><tag k="addr:housenumber" v="14780"/><tag k="addr:street" v="Whipple Court"/><tag k="addr:postcode" v="95127"/></node>
<node visible="true" id="-103" lat="37.372488417" lon="-121.812086367"><tag k="addr:city" v="San Jose"/><tag k="addr:housenumber" v="14817"/><tag k="addr:street" v="East Hills Drive"/><tag k="addr:postcode" v="95127"/></node>
<node visible="true" id="-104" lat="37.372677919000004" lon="-121.81228972500001"><tag k="addr:city" v="San Jose"/><tag k="addr:housenumber" v="14827"/><tag k="addr:street" v="East Hills Drive"/><tag k="addr:postcode" v="95127"/></node>
<node visible="true" id="-105" lat="37.375952355" lon="-121.81671559600001"><tag k="addr:city" v="San Jose"/><tag k="addr:housenumber" v="14899"/><tag k="addr:street" v="Herchell Drive"/><tag k="addr:postcode" v="95127"/></node>
<node visible="true" id="-106" lat="37.375837335" lon="-121.815537331"><tag k="addr:city" v="San Jose"/><tag k="addr:housenumber" v="14918"/><tag k="addr:street" v="Jeanette Lane"/><tag k="addr:postcode" v="95127"/></node>
<node visible="true" id="-107" lat="37.374149244" lon="-121.80964792600001"><tag k="addr:city" v="San Jose"/><tag k="addr:housenumber" v="14938"/><tag k="addr:street" v="Reynaud Drive"/><tag k="addr:postcode" v="95127"/></node>
<node visible="true" id="-108" lat="37.376660901" lon="-121.81500978000001"><tag k="addr:city" v="San Jose"/><tag k="addr:housenumber" v="15000"/><tag k="addr:street" v="Jeanette Lane"/><tag k="addr:postcode" v="95127"/></node>
<node visible="true" id="-109" lat="37.377571842" lon="-121.814624045"><tag k="addr:city" v="San Jose"/><tag k="addr:housenumber" v="188"/><tag k="addr:street" v="Piazza Way"/><tag k="addr:postcode" v="95127"/></node>
<node visible="true" id="-110" lat="37.377745301000004" lon="-121.815307285"><tag k="addr:city" v="San Jose"/><tag k="addr:housenumber" v="189"/><tag k="addr:street" v="Piazza Way"/><tag k="addr:postcode" v="95127"/></node>
<node visible="true" id="-111" lat="37.374899488000004" lon="-121.81186442500001"><tag k="addr:city" v="San Jose"/><tag k="addr:housenumber" v="10651"/><tag k="addr:street" v="Porter Lane"/><tag k="addr:postcode" v="95127"/></node>
<node visible="true" id="-112" lat="37.379320193000005" lon="-121.81946210800001"><tag k="addr:city" v="San Jose"/><tag k="addr:housenumber" v="2"/><tag k="addr:street" v="Valley View Avenue"/><tag k="addr:postcode" v="95127"/></node>
<node visible="true" id="-113" lat="37.378426033000004" lon="-121.818398454"><tag k="addr:city" v="San Jose"/><tag k="addr:housenumber" v="5350"/><tag k="addr:street" v="Alum Rock Avenue"/><tag k="addr:postcode" v="95127"/></node>
<node visible="true" id="-114" lat="37.379998679" lon="-121.819104389"><tag k="addr:city" v="San Jose"/><tag k="addr:housenumber" v="5500"/><tag k="addr:street" v="McKee Road"/><tag k="addr:postcode" v="95127"/></node>
<node visible="true" id="-115" lat="37.375531431" lon="-121.818472095"><tag k="addr:city" v="San Jose"/><tag k="addr:housenumber" v="14830"/><tag k="addr:street" v="Corralitos Lane"/><tag k="addr:postcode" v="95127"/></node>
<node visible="true" id="-116" lat="37.375569428000006" lon="-121.816958169"><tag k="addr:city" v="San Jose"/><tag k="addr:housenumber" v="14867"/><tag k="addr:street" v="Herchell Drive"/><tag k="addr:postcode" v="95127"/></node>
<node visible="true" id="-117" lat="37.377440712" lon="-121.81583389900001"><tag k="addr:city" v="San Jose"/><tag k="addr:housenumber" v="177"/><tag k="addr:street" v="Porter Lane"/><tag k="addr:postcode" v="95127"/></node>
<node visible="true" id="-118" lat="37.377907617000005" lon="-121.81508339000001"><tag k="addr:city" v="San Jose"/><tag k="addr:housenumber" v="187"/><tag k="addr:street" v="Piazza Way"/><tag k="addr:postcode" v="95127"/></node>
<node visible="true" id="-119" lat="37.37757026" lon="-121.81959004000001"><tag k="addr:city" v="San Jose"/><tag k="addr:housenumber" v="5292"/><tag k="addr:street" v="Alum Rock Avenue"/><tag k="addr:postcode" v="95127"/></node>
<node visible="true" id="-120" lat="37.377797640000004" lon="-121.820377984"><tag k="addr:city" v="San Jose"/><tag k="addr:housenumber" v="5295"/><tag k="addr:street" v="Alum Rock Avenue"/><tag k="addr:postcode" v="95127"/></node>
<node visible="true" id="-121" lat="37.377980282" lon="-121.82026466900001"><tag k="addr:city" v="San Jose"/><tag k="addr:housenumber" v="5299"/><tag k="addr:street" v="Alum Rock Avenue"/><tag k="addr:postcode" v="95127"/></node>
<node visible="true" id="-122" lat="37.375099736" lon="-121.816747719"><tag k="addr:city" v="San Jose"/><tag k="addr:housenumber" v="10841"/><tag k="addr:street" v="Herchell Drive"/><tag k="addr:postcode" v="95127"/></node>
<node visible="true" id="-123" lat="37.376991075" lon="-121.815907033"><tag k="addr:city" v="San Jose"/><tag k="addr:housenumber" v="10840"/><tag k="addr:street" v="Jilinda Court"/><tag k="addr:postcode" v="95127"/></node>
<node visible="true" id="-124" lat="37.376577725000004" lon="-121.81615596300001"><tag k="addr:city" v="San Jose"/><tag k="addr:housenumber" v="10841"/><tag k="addr:street" v="Jilinda Court"/><tag k="addr:postcode" v="95127"/></node>
<node visible="true" id="-125" lat="37.378942565" lon="-121.819679922"><tag k="addr:city" v="San Jose"/><tag k="addr:housenumber" v="11"/><tag k="addr:street" v="Valley View Avenue"/><tag k="addr:postcode" v="95127"/></node>
<node visible="true" id="-126" lat="37.370610008" lon="-121.80867445000001"><tag k="addr:city" v="San Jose"/><tag k="addr:housenumber" v="3917"/><tag k="addr:street" v="Blue Gum Drive"/><tag k="addr:postcode" v="95127"/></node>
<node visible="true" id="-127" lat="37.370476421" lon="-121.808867589"><tag k="addr:city" v="San Jose"/><tag k="addr:housenumber" v="3909"/><tag k="addr:street" v="Blue Gum Drive"/><tag k="addr:postcode" v="95127"/></node>
<node visible="true" id="-128" lat="37.370748924000004" lon="-121.80846904600001"><tag k="addr:city" v="San Jose"/><tag k="addr:housenumber" v="3925"/><tag k="addr:street" v="Blue Gum Drive"/><tag k="addr:postcode" v="95127"/></node>
<node visible="true" id="-129" lat="37.376309651" lon="-121.81385289"><tag k="addr:city" v="San Jose"/><tag k="addr:housenumber" v="10774"/><tag k="addr:street" v="Porter Lane"/><tag k="addr:postcode" v="95127"/></node>
<node visible="true" id="-130" lat="37.376513541" lon="-121.813531705"><tag k="addr:city" v="San Jose"/><tag k="addr:housenumber" v="10775"/><tag k="addr:street" v="Hubbard Way"/><tag k="addr:postcode" v="95127"/></node>
<node visible="true" id="-131" lat="37.369841752" lon="-121.805097981"><tag k="addr:city" v="San Jose"/><tag k="addr:housenumber" v="15239"/><tag k="addr:street" v="Rosemar Avenue"/><tag k="addr:postcode" v="95127"/></node>
<node visible="true" id="-132" lat="37.374543208000006" lon="-121.810786202"><tag k="addr:city" v="San Jose"/><tag k="addr:housenumber" v="10581"/><tag k="addr:street" v="Porter Lane"/><tag k="addr:postcode" v="95127"/></node>
<node visible="true" id="-133" lat="37.377278257" lon="-121.815597643"><tag k="addr:city" v="San Jose"/><tag k="addr:housenumber" v="181"/><tag k="addr:street" v="Porter Lane"/><tag k="addr:postcode" v="95127"/></node>
<node visible="true" id="-134" lat="37.374767224" lon="-121.811499306"><tag k="addr:city" v="San Jose"/><tag k="addr:housenumber" v="10631"/><tag k="addr:street" v="Porter Lane"/><tag k="addr:postcode" v="95127"/></node>
<node visible="true" id="-135" lat="37.374833366000004" lon="-121.811673623"><tag k="addr:city" v="San Jose"/><tag k="addr:housenumber" v="10641"/><tag k="addr:street" v="Porter Lane"/><tag k="addr:postcode" v="95127"/></node>
<node visible="true" id="-136" lat="37.375236217" lon="-121.81257810500001"><tag k="addr:city" v="San Jose"/><tag k="addr:housenumber" v="10691"/><tag k="addr:street" v="Porter Lane"/><tag k="addr:postcode" v="95127"/></node>
<node visible="true" id="-137" lat="37.375389561000006" lon="-121.81292470300001"><tag k="addr:city" v="San Jose"/><tag k="addr:housenumber" v="10711"/><tag k="addr:street" v="Porter Lane"/><tag k="addr:postcode" v="95127"/></node>
<node visible="true" id="-138" lat="37.37730228" lon="-121.81441802"><tag k="addr:city" v="San Jose"/><tag k="addr:housenumber" v="209"/><tag k="addr:street" v="Hubbard Way"/><tag k="addr:postcode" v="95127"/></node>
<node visible="true" id="-139" lat="37.376860523000005" lon="-121.814398131"><tag k="addr:city" v="San Jose"/><tag k="addr:housenumber" v="10824"/><tag k="addr:street" v="Porter Lane"/><tag k="addr:postcode" v="95127"/></node>
<node visible="true" id="-140" lat="37.382001741" lon="-121.81644708500001"><tag k="addr:city" v="San Jose"/><tag k="addr:housenumber" v="10965"/><tag k="addr:street" v="Ridgeview Avenue"/><tag k="addr:postcode" v="95127"/></node>
<node visible="true" id="-141" lat="37.371872096000004" lon="-121.811581325"><tag k="addr:city" v="San Jose"/><tag k="addr:housenumber" v="386"/><tag k="addr:street" v="Fleming Avenue"/><tag k="addr:postcode" v="95127"/></node>
<node visible="true" id="-142" lat="37.373780248" lon="-121.808609528"><tag k="addr:city" v="San Jose"/><tag k="addr:housenumber" v="388"/><tag k="addr:street" v="Photinia Lane"/><tag k="addr:postcode" v="95127"/></node>
<node visible="true" id="-143" lat="37.373008176" lon="-121.809349525"><tag k="addr:city" v="San Jose"/><tag k="addr:housenumber" v="389"/><tag k="addr:street" v="Photinia Lane"/><tag k="addr:postcode" v="95127"/></node>
<node visible="true" id="-144" lat="37.370890469" lon="-121.80828626600001"><tag k="addr:city" v="San Jose"/><tag k="addr:housenumber" v="3933"/><tag k="addr:street" v="Blue Gum Drive"/><tag k="addr:postcode" v="95127"/></node>
<node visible="true" id="-145" lat="37.372026991000006" lon="-121.808253926"><tag k="addr:city" v="San Jose"/><tag k="addr:housenumber" v="3965"/><tag k="addr:street" v="Blue Gum Drive"/><tag k="addr:postcode" v="95127"/></node>
<node visible="true" id="-146" lat="37.372738115000004" lon="-121.808759158"><tag k="addr:city" v="San Jose"/><tag k="addr:housenumber" v="397"/><tag k="addr:street" v="Photinia Lane"/><tag k="addr:postcode" v="95127"/></node>
<node visible="true" id="-147" lat="37.378291156" lon="-121.81887832100001"><tag k="addr:city" v="San Jose"/><tag k="addr:housenumber" v="40"/><tag k="addr:street" v="Cherokee Lane"/><tag k="addr:postcode" v="95127"/></node>
<node visible="true" id="-148" lat="37.372625993" lon="-121.80852033800001"><tag k="addr:city" v="San Jose"/><tag k="addr:housenumber" v="401"/><tag k="addr:street" v="Photinia Lane"/><tag k="addr:postcode" v="95127"/></node>
<node visible="true" id="-149" lat="37.376087268" lon="-121.817026947"><tag k="addr:city" v="San Jose"/><tag k="addr:housenumber" v="4066"/><tag k="addr:street" v="Hidden Valley Lane"/><tag k="addr:postcode" v="95127"/></node>
<node visible="true" id="-150" lat="37.376722508" lon="-121.81718828000001"><tag k="addr:city" v="San Jose"/><tag k="addr:housenumber" v="4101"/><tag k="addr:street" v="Hidden Valley Lane"/><tag k="addr:postcode" v="95127"/></node>
<node visible="true" id="-151" lat="37.376571474" lon="-121.81669818300001"><tag k="addr:city" v="San Jose"/><tag k="addr:housenumber" v="4116"/><tag k="addr:street" v="Hidden Valley Lane"/><tag k="addr:postcode" v="95127"/></node>
<node visible="true" id="-152" lat="37.376979742" lon="-121.817046124"><tag k="addr:city" v="San Jose"/><tag k="addr:housenumber" v="4117"/><tag k="addr:street" v="Hidden Valley Lane"/><tag k="addr:postcode" v="95127"/></node>
<node visible="true" id="-153" lat="37.377205087" lon="-121.81689672700001"><tag k="addr:city" v="San Jose"/><tag k="addr:housenumber" v="4141"/><tag k="addr:street" v="Hidden Valley Lane"/><tag k="addr:postcode" v="95127"/></node>
<node visible="true" id="-154" lat="37.377025212" lon="-121.816401783"><tag k="addr:city" v="San Jose"/><tag k="addr:housenumber" v="4148"/><tag k="addr:street" v="Hidden Valley Lane"/><tag k="addr:postcode" v="95127"/></node>
<node visible="true" id="-155" lat="37.377558693000005" lon="-121.81605594800001"><tag k="addr:city" v="San Jose"/><tag k="addr:housenumber" v="4166"/><tag k="addr:street" v="Hidden Valley Lane"/><tag k="addr:postcode" v="95127"/></node>
<node visible="true" id="-156" lat="37.377929472000005" lon="-121.81641599800001"><tag k="addr:city" v="San Jose"/><tag k="addr:housenumber" v="4177"/><tag k="addr:street" v="Hidden Valley Lane"/><tag k="addr:postcode" v="95127"/></node>
<node visible="true" id="-157" lat="37.378144338000006" lon="-121.81625309300001"><tag k="addr:city" v="San Jose"/><tag k="addr:housenumber" v="4191"/><tag k="addr:street" v="Hidden Valley Lane"/><tag k="addr:postcode" v="95127"/></node>
<node visible="true" id="-158" lat="37.371475517" lon="-121.80880394500001"><tag k="addr:city" v="San Jose"/><tag k="addr:housenumber" v="440"/><tag k="addr:street" v="Fleming Avenue"/><tag k="addr:postcode" v="95127"/></node>
<node visible="true" id="-159" lat="37.378409728" lon="-121.816487631"><tag k="addr:city" v="San Jose"/><tag k="addr:housenumber" v="4502"/><tag k="addr:street" v="Porter Court"/><tag k="addr:postcode" v="95127"/></node>
<node visible="true" id="-160" lat="37.378615208" lon="-121.81691923400001"><tag k="addr:city" v="San Jose"/><tag k="addr:housenumber" v="4503"/><tag k="addr:street" v="Porter Court"/><tag k="addr:postcode" v="95127"/></node>
<node visible="true" id="-161" lat="37.378254088000006" lon="-121.81660095100001"><tag k="addr:city" v="San Jose"/><tag k="addr:housenumber" v="4506"/><tag k="addr:street" v="Porter Court"/><tag k="addr:postcode" v="95127"/></node>
<node visible="true" id="-162" lat="37.378127278" lon="-121.816724449"><tag k="addr:city" v="San Jose"/><tag k="addr:housenumber" v="4510"/><tag k="addr:street" v="Porter Court"/><tag k="addr:postcode" v="95127"/></node>
<node visible="true" id="-163" lat="37.37804555" lon="-121.8173009"><tag k="addr:city" v="San Jose"/><tag k="addr:housenumber" v="4526"/><tag k="addr:street" v="Porter Court"/><tag k="addr:postcode" v="95127"/></node>
<node visible="true" id="-164" lat="37.378218013" lon="-121.817579588"><tag k="addr:city" v="San Jose"/><tag k="addr:housenumber" v="4534"/><tag k="addr:street" v="Porter Court"/><tag k="addr:postcode" v="95127"/></node>
<node visible="true" id="-165" lat="37.378480495000005" lon="-121.81774622300001"><tag k="addr:city" v="San Jose"/><tag k="addr:housenumber" v="4542"/><tag k="addr:street" v="Porter Court"/><tag k="addr:postcode" v="95127"/></node>
<node visible="true" id="-166" lat="37.378561893000004" lon="-121.816028191"><tag k="addr:city" v="San Jose"/><tag k="addr:housenumber" v="120"/><tag k="addr:street" v="Porter Lane"/><tag k="addr:postcode" v="95127"/></node>
<node visible="true" id="-167" lat="37.377795389" lon="-121.81937229"><tag k="addr:city" v="San Jose"/><tag k="addr:housenumber" v="5296"/><tag k="addr:street" v="Alum Rock Avenue"/><tag k="addr:postcode" v="95127"/></node>
<node visible="true" id="-168" lat="37.379518955" lon="-121.818428311"><tag k="addr:city" v="San Jose"/><tag k="addr:housenumber" v="5392"/><tag k="addr:street" v="Alum Rock Avenue"/><tag k="addr:postcode" v="95127"/></node>
<node visible="true" id="-169" lat="37.379782767" lon="-121.818021271"><tag k="addr:city" v="San Jose"/><tag k="addr:housenumber" v="5398"/><tag k="addr:street" v="Alum Rock Avenue"/><tag k="addr:postcode" v="95127"/></node>
<node visible="true" id="-170" lat="37.381157314" lon="-121.81735432800001"><tag k="addr:city" v="San Jose"/><tag k="addr:housenumber" v="5476"/><tag k="addr:street" v="Alum Rock Avenue"/><tag k="addr:postcode" v="95127"/></node>
<node visible="true" id="-171" lat="37.380918213" lon="-121.818454008"><tag k="addr:city" v="San Jose"/><tag k="addr:housenumber" v="5483"/><tag k="addr:street" v="Saint Laurent Court"/><tag k="addr:postcode" v="95127"/></node>
<node visible="true" id="-172" lat="37.381896948000005" lon="-121.816953909"><tag k="addr:city" v="San Jose"/><tag k="addr:housenumber" v="5484"/><tag k="addr:street" v="Alum Rock Avenue"/><tag k="addr:postcode" v="95127"/></node>
<node visible="true" id="-173" lat="37.382351964" lon="-121.81670281100001"><tag k="addr:city" v="San Jose"/><tag k="addr:housenumber" v="5498"/><tag k="addr:street" v="Alum Rock Avenue"/><tag k="addr:postcode" v="95127"/></node>
<node visible="true" id="-174" lat="37.369745581000004" lon="-121.807936104"><tag k="addr:city" v="San Jose"/><tag k="addr:housenumber" v="620"/><tag k="addr:street" v="Fleming Avenue"/><tag k="addr:postcode" v="95127"/></node>
<node visible="true" id="-175" lat="37.381326221" lon="-121.81637494300001"><tag k="addr:city" v="San Jose"/><tag k="addr:housenumber" v="81"/><tag k="addr:street" v="Piazza Court"/><tag k="addr:postcode" v="95127"/></node>
<node visible="true" id="-176" lat="37.381451813000005" lon="-121.81674597400001"><tag k="addr:city" v="San Jose"/><tag k="addr:housenumber" v="87"/><tag k="addr:street" v="Piazza Court"/><tag k="addr:postcode" v="95127"/></node>
<node visible="true" id="-177" lat="37.378347548" lon="-121.815758009"><tag k="addr:city" v="San Jose"/><tag k="addr:housenumber" v="130"/><tag k="addr:street" v="Porter Lane"/><tag k="addr:postcode" v="95127"/></node>
<node visible="true" id="-178" lat="37.373114707" lon="-121.814249243"><tag k="addr:city" v="San Jose"/><tag k="addr:housenumber" v="14761"/><tag k="addr:street" v="Whipple Court"/><tag k="addr:postcode" v="95127"/></node>
<node visible="true" id="-179" lat="37.373242221000005" lon="-121.813561945"><tag k="addr:city" v="San Jose"/><tag k="addr:housenumber" v="14790"/><tag k="addr:street" v="Whipple Court"/><tag k="addr:postcode" v="95127"/></node>
<node visible="true" id="-180" lat="37.372200377000006" lon="-121.81140038000001"><tag k="addr:city" v="San Jose"/><tag k="addr:housenumber" v="14795"/><tag k="addr:street" v="East Hills Drive"/><tag k="addr:postcode" v="95127"/></node>
<node visible="true" id="-181" lat="37.372673649" lon="-121.81118095400001"><tag k="addr:city" v="San Jose"/><tag k="addr:housenumber" v="14800"/><tag k="addr:street" v="East Hills Drive"/><tag k="addr:postcode" v="95127"/></node>
<node visible="true" id="-182" lat="37.372819068000005" lon="-121.8115169"><tag k="addr:city" v="San Jose"/><tag k="addr:housenumber" v="14850"/><tag k="addr:street" v="East Hills Drive"/><tag k="addr:postcode" v="95127"/></node>
<node visible="true" id="-183" lat="37.373612138000006" lon="-121.81163930700001"><tag k="addr:city" v="San Jose"/><tag k="addr:housenumber" v="14881"/><tag k="addr:street" v="East Hills Drive"/><tag k="addr:postcode" v="95127"/></node>
<node visible="true" id="-184" lat="37.375753198000005" lon="-121.81681754200001"><tag k="addr:city" v="San Jose"/><tag k="addr:housenumber" v="14883"/><tag k="addr:street" v="Herchell Drive"/><tag k="addr:postcode" v="95127"/></node>
<node visible="true" id="-185" lat="37.373662153000005" lon="-121.810438136"><tag k="addr:city" v="San Jose"/><tag k="addr:housenumber" v="14899"/><tag k="addr:street" v="Reynaud Drive"/><tag k="addr:postcode" v="95127"/></node>
<node visible="true" id="-186" lat="37.375847255000004" lon="-121.816190382"><tag k="addr:city" v="San Jose"/><tag k="addr:housenumber" v="14906"/><tag k="addr:street" v="Herchell Drive"/><tag k="addr:postcode" v="95127"/></node>
<node visible="true" id="-187" lat="37.373818677" lon="-121.810734288"><tag k="addr:city" v="San Jose"/><tag k="addr:housenumber" v="14910"/><tag k="addr:street" v="East Hills Drive"/><tag k="addr:postcode" v="95127"/></node>
<node visible="true" id="-188" lat="37.374170669" lon="-121.811235694"><tag k="addr:city" v="San Jose"/><tag k="addr:housenumber" v="14915"/><tag k="addr:street" v="East Hills Drive"/><tag k="addr:postcode" v="95127"/></node>
<node visible="true" id="-189" lat="37.376313613" lon="-121.81621099"><tag k="addr:city" v="San Jose"/><tag k="addr:housenumber" v="14931"/><tag k="addr:street" v="Herchell Drive"/><tag k="addr:postcode" v="95127"/></node>
<node visible="true" id="-190" lat="37.376199175" lon="-121.815935314"><tag k="addr:city" v="San Jose"/><tag k="addr:housenumber" v="14935"/><tag k="addr:street" v="Herchell Drive"/><tag k="addr:postcode" v="95127"/></node>
<node visible="true" id="-191" lat="37.374220857000005" lon="-121.81002116200001"><tag k="addr:city" v="San Jose"/><tag k="addr:housenumber" v="14950"/><tag k="addr:street" v="Reynaud Drive"/><tag k="addr:postcode" v="95127"/></node>
<node visible="true" id="-192" lat="37.376430118" lon="-121.81514221900001"><tag k="addr:city" v="San Jose"/><tag k="addr:housenumber" v="14970"/><tag k="addr:street" v="Jeanette Lane"/><tag k="addr:postcode" v="95127"/></node>
<node visible="true" id="-193" lat="37.376879578" lon="-121.815530596"><tag k="addr:city" v="San Jose"/><tag k="addr:housenumber" v="14975"/><tag k="addr:street" v="Jeanette Lane"/><tag k="addr:postcode" v="95127"/></node>
<node visible="true" id="-194" lat="37.378010254" lon="-121.81543197"><tag k="addr:city" v="San Jose"/><tag k="addr:housenumber" v="160"/><tag k="addr:street" v="Porter Lane"/><tag k="addr:postcode" v="95127"/></node>
<node visible="true" id="-195" lat="37.374697329" lon="-121.811289681"><tag k="addr:city" v="San Jose"/><tag k="addr:housenumber" v="10621"/><tag k="addr:street" v="Porter Lane"/><tag k="addr:postcode" v="95127"/></node>
<node visible="true" id="-196" lat="37.375140688" lon="-121.81240361500001"><tag k="addr:city" v="San Jose"/><tag k="addr:housenumber" v="10681"/><tag k="addr:street" v="Porter Lane"/><tag k="addr:postcode" v="95127"/></node>
<node visible="true" id="-197" lat="37.375321603" lon="-121.812755722"><tag k="addr:city" v="San Jose"/><tag k="addr:housenumber" v="10701"/><tag k="addr:street" v="Porter Lane"/><tag k="addr:postcode" v="95127"/></node>
<node visible="true" id="-198" lat="37.375968676" lon="-121.813062744"><tag k="addr:city" v="San Jose"/><tag k="addr:housenumber" v="10736"/><tag k="addr:street" v="Porter Lane"/><tag k="addr:postcode" v="95127"/></node>
<node visible="true" id="-199" lat="37.375705684" lon="-121.813846776"><tag k="addr:city" v="San Jose"/><tag k="addr:housenumber" v="10755"/><tag k="addr:street" v="Porter Lane"/><tag k="addr:postcode" v="95127"/></node>
<node visible="true" id="-200" lat="37.376119386" lon="-121.81348980400001"><tag k="addr:city" v="San Jose"/><tag k="addr:housenumber" v="10756"/><tag k="addr:street" v="Porter Lane"/><tag k="addr:postcode" v="95127"/></node>
<node visible="true" id="-201" lat="37.376296149000005" lon="-121.81292717900001"><tag k="addr:city" v="San Jose"/><tag k="addr:housenumber" v="10761"/><tag k="addr:street" v="Hubbard Way"/><tag k="addr:postcode" v="95127"/></node>
<node visible="true" id="-202" lat="37.376413995" lon="-121.81402492400001"><tag k="addr:city" v="San Jose"/><tag k="addr:housenumber" v="10786"/><tag k="addr:street" v="Porter Lane"/><tag k="addr:postcode" v="95127"/></node>
<node visible="true" id="-203" lat="37.376701945" lon="-121.814288644"><tag k="addr:city" v="San Jose"/><tag k="addr:housenumber" v="10812"/><tag k="addr:street" v="Porter Lane"/><tag k="addr:postcode" v="95127"/></node>
<node visible="true" id="-204" lat="37.376925407" lon="-121.81406926800001"><tag k="addr:city" v="San Jose"/><tag k="addr:housenumber" v="10813"/><tag k="addr:street" v="Hubbard Way"/><tag k="addr:postcode" v="95127"/></node>
<node visible="true" id="-205" lat="37.377062117" lon="-121.81418649300001"><tag k="addr:city" v="San Jose"/><tag k="addr:housenumber" v="10817"/><tag k="addr:street" v="Hubbard Way"/><tag k="addr:postcode" v="95127"/></node>
<node visible="true" id="-206" lat="37.375211920000005" lon="-121.81699175700001"><tag k="addr:city" v="San Jose"/><tag k="addr:housenumber" v="10855"/><tag k="addr:street" v="Herchell Drive"/><tag k="addr:postcode" v="95127"/></node>
<node visible="true" id="-207" lat="37.377208628000005" lon="-121.814710996"><tag k="addr:city" v="San Jose"/><tag k="addr:housenumber" v="226"/><tag k="addr:street" v="Porter Lane"/><tag k="addr:postcode" v="95127"/></node>
<node visible="true" id="-208" lat="37.381746306000004" lon="-121.816137615"><tag k="addr:city" v="San Jose"/><tag k="addr:housenumber" v="10953"/><tag k="addr:street" v="Ridgeview Avenue"/><tag k="addr:postcode" v="95127"/></node>
<node visible="true" id="-209" lat="37.379908812000004" lon="-121.81760845900001"><tag k="addr:city" v="San Jose"/><tag k="addr:housenumber" v="29"/><tag k="addr:street" v="Porter Lane"/><tag k="addr:postcode" v="95127"/></node>
<node visible="true" id="-210" lat="37.372077860000005" lon="-121.812030078"><tag k="addr:city" v="San Jose"/><tag k="addr:housenumber" v="372"/><tag k="addr:street" v="Fleming Avenue"/><tag k="addr:postcode" v="95127"/></node>
<node visible="true" id="-211" lat="37.373521848" lon="-121.80927031600001"><tag k="addr:city" v="San Jose"/><tag k="addr:housenumber" v="381"/><tag k="addr:street" v="Photinia Lane"/><tag k="addr:postcode" v="95127"/></node>
<node visible="true" id="-212" lat="37.373287293000004" lon="-121.80943853000001"><tag k="addr:city" v="San Jose"/><tag k="addr:housenumber" v="385"/><tag k="addr:street" v="Photinia Lane"/><tag k="addr:postcode" v="95127"/></node>
<node visible="true" id="-213" lat="37.373609579000004" lon="-121.80848528800001"><tag k="addr:city" v="San Jose"/><tag k="addr:housenumber" v="392"/><tag k="addr:street" v="Photinia Lane"/><tag k="addr:postcode" v="95127"/></node>
<node visible="true" id="-214" lat="37.37146613" lon="-121.80685772500001"><tag k="addr:city" v="San Jose"/><tag k="addr:housenumber" v="3956"/><tag k="addr:street" v="Blue Gum Drive"/><tag k="addr:postcode" v="95127"/></node>
<node visible="true" id="-215" lat="37.371742953" lon="-121.80791153700001"><tag k="addr:city" v="San Jose"/><tag k="addr:housenumber" v="3957"/><tag k="addr:street" v="Blue Gum Drive"/><tag k="addr:postcode" v="95127"/></node>
<node visible="true" id="-216" lat="37.373423939000006" lon="-121.808617123"><tag k="addr:city" v="San Jose"/><tag k="addr:housenumber" v="396"/><tag k="addr:street" v="Photinia Lane"/><tag k="addr:postcode" v="95127"/></node>
<node visible="true" id="-217" lat="37.372422662000005" lon="-121.80764043"><tag k="addr:city" v="San Jose"/><tag k="addr:housenumber" v="3980"/><tag k="addr:street" v="Blue Gum Drive"/><tag k="addr:postcode" v="95127"/></node>
<node visible="true" id="-218" lat="37.376250131" lon="-121.81752003700001"><tag k="addr:city" v="San Jose"/><tag k="addr:housenumber" v="4067"/><tag k="addr:street" v="Hidden Valley Lane"/><tag k="addr:postcode" v="95127"/></node>
<node visible="true" id="-219" lat="37.379747188" lon="-121.81744765500001"><tag k="addr:city" v="San Jose"/><tag k="addr:housenumber" v="41"/><tag k="addr:street" v="Porter Lane"/><tag k="addr:postcode" v="95127"/></node>
<node visible="true" id="-220" lat="37.376319074" lon="-121.81684761800001"><tag k="addr:city" v="San Jose"/><tag k="addr:housenumber" v="4100"/><tag k="addr:street" v="Hidden Valley Lane"/><tag k="addr:postcode" v="95127"/></node>
<node visible="true" id="-221" lat="37.376811042" lon="-121.81654184400001"><tag k="addr:city" v="San Jose"/><tag k="addr:housenumber" v="4132"/><tag k="addr:street" v="Hidden Valley Lane"/><tag k="addr:postcode" v="95127"/></node>
<node visible="true" id="-222" lat="37.371848255" lon="-121.810136459"><tag k="addr:city" v="San Jose"/><tag k="addr:housenumber" v="416"/><tag k="addr:street" v="Fleming Avenue"/><tag k="addr:postcode" v="95127"/></node>
<node visible="true" id="-223" lat="37.377284712000005" lon="-121.81622913500001"><tag k="addr:city" v="San Jose"/><tag k="addr:housenumber" v="4164"/><tag k="addr:street" v="Hidden Valley Lane"/><tag k="addr:postcode" v="95127"/></node>
<node visible="true" id="-224" lat="37.377682517000004" lon="-121.81659172600001"><tag k="addr:city" v="San Jose"/><tag k="addr:housenumber" v="4165"/><tag k="addr:street" v="Hidden Valley Lane"/><tag k="addr:postcode" v="95127"/></node>
<node visible="true" id="-225" lat="37.371190699" lon="-121.809823065"><tag k="addr:city" v="San Jose"/><tag k="addr:housenumber" v="448"/><tag k="addr:street" v="Fleming Avenue"/><tag k="addr:postcode" v="95127"/></node>
<node visible="true" id="-226" lat="37.37835208" lon="-121.81766900000001"><tag k="addr:city" v="San Jose"/><tag k="addr:housenumber" v="4538"/><tag k="addr:street" v="Porter Court"/><tag k="addr:postcode" v="95127"/></node>
<node visible="true" id="-227" lat="37.378853267000004" lon="-121.817714112"><tag k="addr:city" v="San Jose"/><tag k="addr:housenumber" v="4545"/><tag k="addr:street" v="Porter Court"/><tag k="addr:postcode" v="95127"/></node>
<node visible="true" id="-228" lat="37.378144982" lon="-121.818518572"><tag k="addr:city" v="San Jose"/><tag k="addr:housenumber" v="50"/><tag k="addr:street" v="Cherokee Lane"/><tag k="addr:postcode" v="95127"/></node>
<node visible="true" id="-229" lat="37.377666483000006" lon="-121.819470033"><tag k="addr:city" v="San Jose"/><tag k="addr:housenumber" v="5294"/><tag k="addr:street" v="Alum Rock Avenue"/><tag k="addr:postcode" v="95127"/></node>
<node visible="true" id="-230" lat="37.378020099000004" lon="-121.818991385"><tag k="addr:city" v="San Jose"/><tag k="addr:housenumber" v="5320"/><tag k="addr:street" v="Alum Rock Avenue"/><tag k="addr:postcode" v="95127"/></node>
<node visible="true" id="-231" lat="37.379460166" lon="-121.81936941100001"><tag k="addr:city" v="San Jose"/><tag k="addr:housenumber" v="5355"/><tag k="addr:street" v="Alum Rock Avenue"/><tag k="addr:postcode" v="95127"/></node>
<node visible="true" id="-232" lat="37.379161223000004" lon="-121.81843783000001"><tag k="addr:city" v="San Jose"/><tag k="addr:housenumber" v="5386"/><tag k="addr:street" v="Alum Rock Avenue"/><tag k="addr:postcode" v="95127"/></node>
<node visible="true" id="-233" lat="37.380711637000005" lon="-121.818514659"><tag k="addr:city" v="San Jose"/><tag k="addr:housenumber" v="5491"/><tag k="addr:street" v="Saint Laurent Court"/><tag k="addr:postcode" v="95127"/></node>
<node visible="true" id="-234" lat="37.38256614" lon="-121.81740117100001"><tag k="addr:city" v="San Jose"/><tag k="addr:housenumber" v="5499"/><tag k="addr:street" v="Alum Rock Avenue"/><tag k="addr:postcode" v="95127"/></node>
<node visible="true" id="-235" lat="37.377903503" lon="-121.81868103500001"><tag k="addr:city" v="San Jose"/><tag k="addr:housenumber" v="55"/><tag k="addr:street" v="Cherokee Lane"/><tag k="addr:postcode" v="95127"/></node>
<node visible="true" id="-236" lat="37.369945243000004" lon="-121.808179647"><tag k="addr:city" v="San Jose"/><tag k="addr:housenumber" v="580"/><tag k="addr:street" v="Fleming Avenue"/><tag k="addr:postcode" v="95127"/></node>
<node visible="true" id="-237" lat="37.378775454" lon="-121.81680338500001"><tag k="addr:city" v="San Jose"/><tag k="addr:housenumber" v="61"/><tag k="addr:street" v="Porter Lane"/><tag k="addr:postcode" v="95127"/></node>
<node visible="true" id="-238" lat="37.381055731000004" lon="-121.81691240100001"><tag k="addr:city" v="San Jose"/><tag k="addr:housenumber" v="89"/><tag k="addr:street" v="Piazza Court"/><tag k="addr:postcode" v="95127"/></node>
<node visible="true" id="-239" lat="37.378157005000006" lon="-121.81564795300001"><tag k="addr:city" v="San Jose"/><tag k="addr:housenumber" v="140"/><tag k="addr:street" v="Porter Lane"/><tag k="addr:postcode" v="95127"/></node>
<node visible="true" id="-240" lat="37.379199969000005" lon="-121.81613277800001"><tag k="addr:city" v="San Jose"/><tag k="addr:housenumber" v="141"/><tag k="addr:street" v="Piazza Way"/><tag k="addr:postcode" v="95127"/></node>
<node visible="true" id="-241" lat="37.372360362" lon="-121.81061532800001"><tag k="addr:city" v="San Jose"/><tag k="addr:housenumber" v="14770"/><tag k="addr:street" v="East Hills Drive"/><tag k="addr:postcode" v="95127"/></node>
<node visible="true" id="-242" lat="37.37346534" lon="-121.814096233"><tag k="addr:city" v="San Jose"/><tag k="addr:housenumber" v="14785"/><tag k="addr:street" v="Whipple Court"/><tag k="addr:postcode" v="95127"/></node>
<node visible="true" id="-243" lat="37.373736666" lon="-121.81404449300001"><tag k="addr:city" v="San Jose"/><tag k="addr:housenumber" v="14801"/><tag k="addr:street" v="Whipple Court"/><tag k="addr:postcode" v="95127"/></node>
<node visible="true" id="-244" lat="37.372901923" lon="-121.812266988"><tag k="addr:city" v="San Jose"/><tag k="addr:housenumber" v="14839"/><tag k="addr:street" v="East Hills Drive"/><tag k="addr:postcode" v="95127"/></node>
<node visible="true" id="-245" lat="37.373085693" lon="-121.81203015800001"><tag k="addr:city" v="San Jose"/><tag k="addr:housenumber" v="14849"/><tag k="addr:street" v="East Hills Drive"/><tag k="addr:postcode" v="95127"/></node>
<node visible="true" id="-246" lat="37.37546171" lon="-121.816419214"><tag k="addr:city" v="San Jose"/><tag k="addr:housenumber" v="14876"/><tag k="addr:street" v="Herchell Drive"/><tag k="addr:postcode" v="95127"/></node>
<node visible="true" id="-247" lat="37.373347936" lon="-121.81113521"><tag k="addr:city" v="San Jose"/><tag k="addr:housenumber" v="14880"/><tag k="addr:street" v="East Hills Drive"/><tag k="addr:postcode" v="95127"/></node>
<node visible="true" id="-248" lat="37.373506477" lon="-121.811022214"><tag k="addr:city" v="San Jose"/><tag k="addr:housenumber" v="14890"/><tag k="addr:street" v="East Hills Drive"/><tag k="addr:postcode" v="95127"/></node>
<node visible="true" id="-249" lat="37.37317781" lon="-121.809922853"><tag k="addr:city" v="San Jose"/><tag k="addr:housenumber" v="14890"/><tag k="addr:street" v="Reynaud Drive"/><tag k="addr:postcode" v="95127"/></node>
<node visible="true" id="-250" lat="37.373501337" lon="-121.810528653"><tag k="addr:city" v="San Jose"/><tag k="addr:housenumber" v="14891"/><tag k="addr:street" v="Reynaud Drive"/><tag k="addr:postcode" v="95127"/></node>
<node visible="true" id="-251" lat="37.373349607" lon="-121.80980585200001"><tag k="addr:city" v="San Jose"/><tag k="addr:housenumber" v="14898"/><tag k="addr:street" v="Reynaud Drive"/><tag k="addr:postcode" v="95127"/></node>
<node visible="true" id="-252" lat="37.373657384000005" lon="-121.81086482500001"><tag k="addr:city" v="San Jose"/><tag k="addr:housenumber" v="14900"/><tag k="addr:street" v="East Hills Drive"/><tag k="addr:postcode" v="95127"/></node>
<node visible="true" id="-253" lat="37.375661945000004" lon="-121.81568760900001"><tag k="addr:city" v="San Jose"/><tag k="addr:housenumber" v="14904"/><tag k="addr:street" v="Jeanette Lane"/><tag k="addr:postcode" v="95127"/></node>
<node visible="true" id="-254" lat="37.373834548000005" lon="-121.81026776600001"><tag k="addr:city" v="San Jose"/><tag k="addr:housenumber" v="14907"/><tag k="addr:street" v="Reynaud Drive"/><tag k="addr:postcode" v="95127"/></node>
<node visible="true" id="-255" lat="37.376151730000004" lon="-121.81659665000001"><tag k="addr:city" v="San Jose"/><tag k="addr:housenumber" v="14915"/><tag k="addr:street" v="Herchell Drive"/><tag k="addr:postcode" v="95127"/></node>
<node visible="true" id="-256" lat="37.37441855" lon="-121.810499589"><tag k="addr:city" v="San Jose"/><tag k="addr:housenumber" v="14945"/><tag k="addr:street" v="East Hills Drive"/><tag k="addr:postcode" v="95127"/></node>
<node visible="true" id="-257" lat="37.376228546" lon="-121.81529558400001"><tag k="addr:city" v="San Jose"/><tag k="addr:housenumber" v="14950"/><tag k="addr:street" v="Jeanette Lane"/><tag k="addr:postcode" v="95127"/></node>
<node visible="true" id="-258" lat="37.377131559000006" lon="-121.81538166400001"><tag k="addr:city" v="San Jose"/><tag k="addr:housenumber" v="15001"/><tag k="addr:street" v="Jeanette Lane"/><tag k="addr:postcode" v="95127"/></node>
<node visible="true" id="-259" lat="37.378873358" lon="-121.815806921"><tag k="addr:city" v="San Jose"/><tag k="addr:housenumber" v="157"/><tag k="addr:street" v="Piazza Way"/><tag k="addr:postcode" v="95127"/></node>
<node visible="true" id="-260" lat="37.374606001000004" lon="-121.81106608500001"><tag k="addr:city" v="San Jose"/><tag k="addr:housenumber" v="10593"/><tag k="addr:street" v="Porter Lane"/><tag k="addr:postcode" v="95127"/></node>
<node visible="true" id="-261" lat="37.374972188" lon="-121.812049078"><tag k="addr:city" v="San Jose"/><tag k="addr:housenumber" v="10661"/><tag k="addr:street" v="Porter Lane"/><tag k="addr:postcode" v="95127"/></node>
<node visible="true" id="-262" lat="37.375052686000004" lon="-121.81222671200001"><tag k="addr:city" v="San Jose"/><tag k="addr:housenumber" v="10671"/><tag k="addr:street" v="Porter Lane"/><tag k="addr:postcode" v="95127"/></node>
<node visible="true" id="-263" lat="37.377981265" lon="-121.81894103200001"><tag k="addr:city" v="San Jose"/><tag k="addr:housenumber" v="20"/><tag k="addr:street" v="Cherokee Lane"/><tag k="addr:postcode" v="95127"/></node>
<node visible="true" id="-264" lat="37.376048721000004" lon="-121.81328539100001"><tag k="addr:city" v="San Jose"/><tag k="addr:housenumber" v="10746"/><tag k="addr:street" v="Porter Lane"/><tag k="addr:postcode" v="95127"/></node>
<node visible="true" id="-265" lat="37.376410091000004" lon="-121.813215923"><tag k="addr:city" v="San Jose"/><tag k="addr:housenumber" v="10753"/><tag k="addr:street" v="Hubbard Way"/><tag k="addr:postcode" v="95127"/></node>
<node visible="true" id="-266" lat="37.374868213" lon="-121.81463748700001"><tag k="addr:city" v="San Jose"/><tag k="addr:housenumber" v="10787"/><tag k="addr:street" v="Porter Lane"/><tag k="addr:postcode" v="95127"/></node>
<node visible="true" id="-267" lat="37.376763498" lon="-121.81392613000001"><tag k="addr:city" v="San Jose"/><tag k="addr:housenumber" v="10799"/><tag k="addr:street" v="Hubbard Way"/><tag k="addr:postcode" v="95127"/></node>
<node visible="true" id="-268" lat="37.380002362" lon="-121.816787128"><tag k="addr:city" v="San Jose"/><tag k="addr:housenumber" v="109"/><tag k="addr:street" v="Piazza Way"/><tag k="addr:postcode" v="95127"/></node>
<node visible="true" id="-269" lat="37.376997222" lon="-121.814560584"><tag k="addr:city" v="San Jose"/><tag k="addr:housenumber" v="242"/><tag k="addr:street" v="Porter Lane"/><tag k="addr:postcode" v="95127"/></node>
<node visible="true" id="-270" lat="37.381351683000005" lon="-121.81815521300001"><tag k="addr:city" v="San Jose"/><tag k="addr:housenumber" v="3"/><tag k="addr:street" v="Oakmore Drive"/><tag k="addr:postcode" v="95127"/></node>
<node visible="true" id="-271" lat="37.372291260000004" lon="-121.81247136200001"><tag k="addr:city" v="San Jose"/><tag k="addr:housenumber" v="360"/><tag k="addr:street" v="Fleming Avenue"/><tag k="addr:postcode" v="95127"/></node>
<node visible="true" id="-272" lat="37.373671242" lon="-121.809149859"><tag k="addr:city" v="San Jose"/><tag k="addr:housenumber" v="379"/><tag k="addr:street" v="Photinia Lane"/><tag k="addr:postcode" v="95127"/></node>
<node visible="true" id="-273" lat="37.371761778" lon="-121.81135124400001"><tag k="addr:city" v="San Jose"/><tag k="addr:housenumber" v="392"/><tag k="addr:street" v="Fleming Avenue"/><tag k="addr:postcode" v="95127"/></node>
<node visible="true" id="-274" lat="37.372872845" lon="-121.809017302"><tag k="addr:city" v="San Jose"/><tag k="addr:housenumber" v="393"/><tag k="addr:street" v="Photinia Lane"/><tag k="addr:postcode" v="95127"/></node>
<node visible="true" id="-275" lat="37.37100599" lon="-121.80806286600001"><tag k="addr:city" v="San Jose"/><tag k="addr:housenumber" v="3941"/><tag k="addr:street" v="Blue Gum Drive"/><tag k="addr:postcode" v="95127"/></node>
<node visible="true" id="-276" lat="37.371926528" lon="-121.80713942300001"><tag k="addr:city" v="San Jose"/><tag k="addr:housenumber" v="3964"/><tag k="addr:street" v="Blue Gum Drive"/><tag k="addr:postcode" v="95127"/></node>
<node visible="true" id="-277" lat="37.372206031000005" lon="-121.807499663"><tag k="addr:city" v="San Jose"/><tag k="addr:housenumber" v="3972"/><tag k="addr:street" v="Blue Gum Drive"/><tag k="addr:postcode" v="95127"/></node>
<node visible="true" id="-278" lat="37.372217574000004" lon="-121.80839293300001"><tag k="addr:city" v="San Jose"/><tag k="addr:housenumber" v="3973"/><tag k="addr:street" v="Blue Gum Drive"/><tag k="addr:postcode" v="95127"/></node>
<node visible="true" id="-279" lat="37.371700723000004" lon="-121.811095354"><tag k="addr:city" v="San Jose"/><tag k="addr:housenumber" v="398"/><tag k="addr:street" v="Fleming Avenue"/><tag k="addr:postcode" v="95127"/></node>
<node visible="true" id="-280" lat="37.372664641" lon="-121.80761654700001"><tag k="addr:city" v="San Jose"/><tag k="addr:housenumber" v="3988"/><tag k="addr:street" v="Blue Gum Drive"/><tag k="addr:postcode" v="95127"/></node>
<node visible="true" id="-281" lat="37.375652196000004" lon="-121.81782772000001"><tag k="addr:city" v="San Jose"/><tag k="addr:housenumber" v="4045"/><tag k="addr:street" v="Hidden Valley Lane"/><tag k="addr:postcode" v="95127"/></node>
<node visible="true" id="-282" lat="37.379812569" lon="-121.816610374"><tag k="addr:city" v="San Jose"/><tag k="addr:housenumber" v="117"/><tag k="addr:street" v="Piazza Way"/><tag k="addr:postcode" v="95127"/></node>
<node visible="true" id="-283" lat="37.377425058" lon="-121.81675387800001"><tag k="addr:city" v="San Jose"/><tag k="addr:housenumber" v="4149"/><tag k="addr:street" v="Hidden Valley Lane"/><tag k="addr:postcode" v="95127"/></node>
<node visible="true" id="-284" lat="37.378482881000004" lon="-121.81701845600001"><tag k="addr:city" v="San Jose"/><tag k="addr:housenumber" v="4507"/><tag k="addr:street" v="Porter Court"/><tag k="addr:postcode" v="95127"/></node>
<node visible="true" id="-285" lat="37.378115003000005" lon="-121.81747379900001"><tag k="addr:city" v="San Jose"/><tag k="addr:housenumber" v="4530"/><tag k="addr:street" v="Porter Court"/><tag k="addr:postcode" v="95127"/></node>
<node visible="true" id="-286" lat="37.378695969" lon="-121.81745986700001"><tag k="addr:city" v="San Jose"/><tag k="addr:housenumber" v="4541"/><tag k="addr:street" v="Porter Court"/><tag k="addr:postcode" v="95127"/></node>
<node visible="true" id="-287" lat="37.370813339" lon="-121.80930041900001"><tag k="addr:city" v="San Jose"/><tag k="addr:housenumber" v="476"/><tag k="addr:street" v="Fleming Avenue"/><tag k="addr:postcode" v="95127"/></node>
<node visible="true" id="-288" lat="37.379209105" lon="-121.81718573200001"><tag k="addr:city" v="San Jose"/><tag k="addr:housenumber" v="510"/><tag k="addr:street" v="Porter Lane"/><tag k="addr:postcode" v="95127"/></node>
<node visible="true" id="-289" lat="37.375746995" lon="-121.81483691700001"><tag k="addr:city" v="San Jose"/><tag k="addr:housenumber" v="533"/><tag k="addr:street" v="Porter Lane"/><tag k="addr:postcode" v="95127"/></node>
<node visible="true" id="-290" lat="37.378773298000006" lon="-121.818494211"><tag k="addr:city" v="San Jose"/><tag k="addr:housenumber" v="5360"/><tag k="addr:street" v="Alum Rock Avenue"/><tag k="addr:postcode" v="95127"/></node>
<node visible="true" id="-291" lat="37.379618706" lon="-121.81925728300001"><tag k="addr:city" v="San Jose"/><tag k="addr:housenumber" v="5365"/><tag k="addr:street" v="Alum Rock Avenue"/><tag k="addr:postcode" v="95127"/></node>
<node visible="true" id="-292" lat="37.379058806" lon="-121.81869355"><tag k="addr:city" v="San Jose"/><tag k="addr:housenumber" v="5382"/><tag k="addr:street" v="Alum Rock Avenue"/><tag k="addr:postcode" v="95127"/></node>
<node visible="true" id="-293" lat="37.380782693" lon="-121.81750777500001"><tag k="addr:city" v="San Jose"/><tag k="addr:housenumber" v="5474"/><tag k="addr:street" v="Alum Rock Avenue"/><tag k="addr:postcode" v="95127"/></node>
<node visible="true" id="-294" lat="37.379400867" lon="-121.81626969400001"><tag k="addr:city" v="San Jose"/><tag k="addr:housenumber" v="133"/><tag k="addr:street" v="Piazza Way"/><tag k="addr:postcode" v="95127"/></node>
<node visible="true" id="-295" lat="37.372010759000005" lon="-121.81100092000001"><tag k="addr:city" v="San Jose"/><tag k="addr:housenumber" v="14771"/><tag k="addr:street" v="East Hills Drive"/><tag k="addr:postcode" v="95127"/></node>
<node visible="true" id="-296" lat="37.373700999" lon="-121.81373934400001"><tag k="addr:city" v="San Jose"/><tag k="addr:housenumber" v="14811"/><tag k="addr:street" v="Whipple Court"/><tag k="addr:postcode" v="95127"/></node>
<node visible="true" id="-297" lat="37.372532281000005" lon="-121.81048498000001"><tag k="addr:city" v="San Jose"/><tag k="addr:housenumber" v="14858"/><tag k="addr:street" v="Reynaud Drive"/><tag k="addr:postcode" v="95127"/></node>
<node visible="true" id="-298" lat="37.373440190000004" lon="-121.81176965300001"><tag k="addr:city" v="San Jose"/><tag k="addr:housenumber" v="14871"/><tag k="addr:street" v="East Hills Drive"/><tag k="addr:postcode" v="95127"/></node>
<node visible="true" id="-299" lat="37.372886627" lon="-121.810237821"><tag k="addr:city" v="San Jose"/><tag k="addr:housenumber" v="14874"/><tag k="addr:street" v="Reynaud Drive"/><tag k="addr:postcode" v="95127"/></node>
<node visible="true" id="-300" lat="37.373016099000004" lon="-121.81009340800001"><tag k="addr:city" v="San Jose"/><tag k="addr:housenumber" v="14882"/><tag k="addr:street" v="Reynaud Drive"/><tag k="addr:postcode" v="95127"/></node>
<node visible="true" id="-301" lat="37.373339923" lon="-121.81067254000001"><tag k="addr:city" v="San Jose"/><tag k="addr:housenumber" v="14883"/><tag k="addr:street" v="Reynaud Drive"/><tag k="addr:postcode" v="95127"/></node>
<node visible="true" id="-302" lat="37.375461124000005" lon="-121.81581551400001"><tag k="addr:city" v="San Jose"/><tag k="addr:housenumber" v="14890"/><tag k="addr:street" v="Jeanette Lane"/><tag k="addr:postcode" v="95127"/></node>
<node visible="true" id="-303" lat="37.375639879000005" lon="-121.816315005"><tag k="addr:city" v="San Jose"/><tag k="addr:housenumber" v="14892"/><tag k="addr:street" v="Herchell Drive"/><tag k="addr:postcode" v="95127"/></node>
<node visible="true" id="-304" lat="37.379030587" lon="-121.816036447"><tag k="addr:city" v="San Jose"/><tag k="addr:housenumber" v="149"/><tag k="addr:street" v="Piazza Way"/><tag k="addr:postcode" v="95127"/></node>
<node visible="true" id="-305" lat="37.373988243" lon="-121.81135250400001"><tag k="addr:city" v="San Jose"/><tag k="addr:housenumber" v="14905"/><tag k="addr:street" v="East Hills Drive"/><tag k="addr:postcode" v="95127"/></node>
<node visible="true" id="-306" lat="37.37353233" lon="-121.80966233800001"><tag k="addr:city" v="San Jose"/><tag k="addr:housenumber" v="14906"/><tag k="addr:street" v="Reynaud Drive"/><tag k="addr:postcode" v="95127"/></node>
<node visible="true" id="-307" lat="37.373715052" lon="-121.80951885500001"><tag k="addr:city" v="San Jose"/><tag k="addr:housenumber" v="14918"/><tag k="addr:street" v="Reynaud Drive"/><tag k="addr:postcode" v="95127"/></node>
<node visible="true" id="-308" lat="37.374000953" lon="-121.81063079200001"><tag k="addr:city" v="San Jose"/><tag k="addr:housenumber" v="14920"/><tag k="addr:street" v="East Hills Drive"/><tag k="addr:postcode" v="95127"/></node>
<node visible="true" id="-309" lat="37.374332232" lon="-121.81107848900001"><tag k="addr:city" v="San Jose"/><tag k="addr:housenumber" v="14927"/><tag k="addr:street" v="East Hills Drive"/><tag k="addr:postcode" v="95127"/></node>
<node visible="true" id="-310" lat="37.376453871" lon="-121.816450019"><tag k="addr:city" v="San Jose"/><tag k="addr:housenumber" v="14927"/><tag k="addr:street" v="Herchell Drive"/><tag k="addr:postcode" v="95127"/></node>
<node visible="true" id="-311" lat="37.376030101000005" lon="-121.81544421800001"><tag k="addr:city" v="San Jose"/><tag k="addr:housenumber" v="14934"/><tag k="addr:street" v="Jeanette Lane"/><tag k="addr:postcode" v="95127"/></node>
<node visible="true" id="-312" lat="37.377387767" lon="-121.81488755100001"><tag k="addr:city" v="San Jose"/><tag k="addr:housenumber" v="190"/><tag k="addr:street" v="Piazza Way"/><tag k="addr:postcode" v="95127"/></node>
<node visible="true" id="-313" lat="37.375674066" lon="-121.813538041"><tag k="addr:city" v="San Jose"/><tag k="addr:housenumber" v="10741"/><tag k="addr:street" v="Porter Lane"/><tag k="addr:postcode" v="95127"/></node>
<node visible="true" id="-314" lat="37.37664008" lon="-121.81377954000001"><tag k="addr:city" v="San Jose"/><tag k="addr:housenumber" v="10787"/><tag k="addr:street" v="Hubbard Way"/><tag k="addr:postcode" v="95127"/></node>
<node visible="true" id="-315" lat="37.376440476" lon="-121.815803062"><tag k="addr:city" v="San Jose"/><tag k="addr:housenumber" v="10831"/><tag k="addr:street" v="Jilinda Court"/><tag k="addr:postcode" v="95127"/></node>
<node visible="true" id="-316" lat="37.376797754" lon="-121.81618407"><tag k="addr:city" v="San Jose"/><tag k="addr:housenumber" v="10850"/><tag k="addr:street" v="Jilinda Court"/><tag k="addr:postcode" v="95127"/></node>
<node visible="true" id="-317" lat="37.375851164000004" lon="-121.814264725"><tag k="addr:city" v="San Jose"/><tag k="addr:housenumber" v="233"/><tag k="addr:street" v="Porter Lane"/><tag k="addr:postcode" v="95127"/></node>
<node visible="true" id="-318" lat="37.381524098" lon="-121.81600035400001"><tag k="addr:city" v="San Jose"/><tag k="addr:housenumber" v="10925"/><tag k="addr:street" v="Ridgeview Avenue"/><tag k="addr:postcode" v="95127"/></node>
<node visible="true" id="-319" lat="37.376211387000005" lon="-121.81366523400001"><tag k="addr:city" v="San Jose"/><tag k="addr:housenumber" v="240"/><tag k="addr:street" v="Porter Lane"/><tag k="addr:postcode" v="95127"/></node>
<node visible="true" id="-320" lat="37.377821359" lon="-121.81590465800001"><tag k="addr:city" v="San Jose"/><tag k="addr:housenumber" v="111"/><tag k="addr:street" v="Porter Lane"/><tag k="addr:postcode" v="95127"/></node>
<node visible="true" id="-321" lat="37.372400401" lon="-121.812695954"><tag k="addr:city" v="San Jose"/><tag k="addr:housenumber" v="358"/><tag k="addr:street" v="Fleming Avenue"/><tag k="addr:postcode" v="95127"/></node>
<node visible="true" id="-322" lat="37.371967318" lon="-121.811820194"><tag k="addr:city" v="San Jose"/><tag k="addr:housenumber" v="378"/><tag k="addr:street" v="Fleming Avenue"/><tag k="addr:postcode" v="95127"/></node>
<node visible="true" id="-323" lat="37.372477301" lon="-121.80830972000001"><tag k="addr:city" v="San Jose"/><tag k="addr:housenumber" v="3981"/><tag k="addr:street" v="Blue Gum Drive"/><tag k="addr:postcode" v="95127"/></node>
<node visible="true" id="-324" lat="37.373269037" lon="-121.808795579"><tag k="addr:city" v="San Jose"/><tag k="addr:housenumber" v="400"/><tag k="addr:street" v="Photinia Lane"/><tag k="addr:postcode" v="95127"/></node>
<node visible="true" id="-325" lat="37.373270604000005" lon="-121.80822187800001"><tag k="addr:city" v="San Jose"/><tag k="addr:housenumber" v="404"/><tag k="addr:street" v="Photinia Lane"/><tag k="addr:postcode" v="95127"/></node>
<node visible="true" id="-326" lat="37.372975123" lon="-121.80806483900001"><tag k="addr:city" v="San Jose"/><tag k="addr:housenumber" v="408"/><tag k="addr:street" v="Photinia Lane"/><tag k="addr:postcode" v="95127"/></node>
<node visible="true" id="-327" lat="37.376497012" lon="-121.81735102600001"><tag k="addr:city" v="San Jose"/><tag k="addr:housenumber" v="4085"/><tag k="addr:street" v="Hidden Valley Lane"/><tag k="addr:postcode" v="95127"/></node>
<node visible="true" id="-328" lat="37.371397132000006" lon="-121.81007740400001"><tag k="addr:city" v="San Jose"/><tag k="addr:housenumber" v="424"/><tag k="addr:street" v="Fleming Avenue"/><tag k="addr:postcode" v="95127"/></node>
<node visible="true" id="-329" lat="37.37256139" lon="-121.80948011500001"><tag k="addr:city" v="San Jose"/><tag k="addr:housenumber" v="426"/><tag k="addr:street" v="Fleming Avenue"/><tag k="addr:postcode" v="95127"/></node>
<node visible="true" id="-330" lat="37.379417096000005" lon="-121.817387967"><tag k="addr:city" v="San Jose"/><tag k="addr:housenumber" v="45"/><tag k="addr:street" v="Porter Lane"/><tag k="addr:postcode" v="95127"/></node>
<node visible="true" id="-331" lat="37.378327377000005" lon="-121.81711968600001"><tag k="addr:city" v="San Jose"/><tag k="addr:housenumber" v="4511"/><tag k="addr:street" v="Porter Court"/><tag k="addr:postcode" v="95127"/></node>
<node visible="true" id="-332" lat="37.377980579" lon="-121.81690079200001"><tag k="addr:city" v="San Jose"/><tag k="addr:housenumber" v="4514"/><tag k="addr:street" v="Porter Court"/><tag k="addr:postcode" v="95127"/></node>
<node visible="true" id="-333" lat="37.377995389000006" lon="-121.81712834100001"><tag k="addr:city" v="San Jose"/><tag k="addr:housenumber" v="4522"/><tag k="addr:street" v="Porter Court"/><tag k="addr:postcode" v="95127"/></node>
<node visible="true" id="-334" lat="37.378621436" lon="-121.81773903800001"><tag k="addr:city" v="San Jose"/><tag k="addr:housenumber" v="4546"/><tag k="addr:street" v="Porter Court"/><tag k="addr:postcode" v="95127"/></node>
<node visible="true" id="-335" lat="37.370933942" lon="-121.80946814100001"><tag k="addr:city" v="San Jose"/><tag k="addr:housenumber" v="466"/><tag k="addr:street" v="Fleming Avenue"/><tag k="addr:postcode" v="95127"/></node>
<node visible="true" id="-336" lat="37.375031333" lon="-121.815662012"><tag k="addr:city" v="San Jose"/><tag k="addr:housenumber" v="505"/><tag k="addr:street" v="Porter Lane"/><tag k="addr:postcode" v="95127"/></node>
<node visible="true" id="-337" lat="37.379095542" lon="-121.81699521300001"><tag k="addr:city" v="San Jose"/><tag k="addr:housenumber" v="53"/><tag k="addr:street" v="Porter Lane"/><tag k="addr:postcode" v="95127"/></node>
<node visible="true" id="-338" lat="37.37870359" lon="-121.819048268"><tag k="addr:city" v="San Jose"/><tag k="addr:housenumber" v="5352"/><tag k="addr:street" v="Alum Rock Avenue"/><tag k="addr:postcode" v="95127"/></node>
<node visible="true" id="-339" lat="37.378621177" lon="-121.81881479200001"><tag k="addr:city" v="San Jose"/><tag k="addr:housenumber" v="5354"/><tag k="addr:street" v="Alum Rock Avenue"/><tag k="addr:postcode" v="95127"/></node>
<node visible="true" id="-340" lat="37.379415896000005" lon="-121.81807899"><tag k="addr:city" v="San Jose"/><tag k="addr:housenumber" v="5388"/><tag k="addr:street" v="Alum Rock Avenue"/><tag k="addr:postcode" v="95127"/></node>
<node visible="true" id="-341" lat="37.379683910000004" lon="-121.81831970200001"><tag k="addr:city" v="San Jose"/><tag k="addr:housenumber" v="5394"/><tag k="addr:street" v="Alum Rock Avenue"/><tag k="addr:postcode" v="95127"/></node>
<node visible="true" id="-342" lat="37.38026343" lon="-121.81790305300001"><tag k="addr:city" v="San Jose"/><tag k="addr:housenumber" v="5426"/><tag k="addr:street" v="Alum Rock Avenue"/><tag k="addr:postcode" v="95127"/></node>
<node visible="true" id="-343" lat="37.381424961" lon="-121.817238989"><tag k="addr:city" v="San Jose"/><tag k="addr:housenumber" v="5478"/><tag k="addr:street" v="Alum Rock Avenue"/><tag k="addr:postcode" v="95127"/></node>
<node visible="true" id="-344" lat="37.381640407" lon="-121.81702941500001"><tag k="addr:city" v="San Jose"/><tag k="addr:housenumber" v="5480"/><tag k="addr:street" v="Alum Rock Avenue"/><tag k="addr:postcode" v="95127"/></node>
<node visible="true" id="-345" lat="37.382130172000004" lon="-121.816799926"><tag k="addr:city" v="San Jose"/><tag k="addr:housenumber" v="5490"/><tag k="addr:street" v="Alum Rock Avenue"/><tag k="addr:postcode" v="95127"/></node>
<node visible="true" id="-346" lat="37.380500666" lon="-121.81865815"><tag k="addr:city" v="San Jose"/><tag k="addr:housenumber" v="5495"/><tag k="addr:street" v="Saint Laurent Court"/><tag k="addr:postcode" v="95127"/></node>
<node visible="true" id="-347" lat="37.381757336" lon="-121.81790710700001"><tag k="addr:city" v="San Jose"/><tag k="addr:housenumber" v="6"/><tag k="addr:street" v="Oakmore Drive"/><tag k="addr:postcode" v="95127"/></node>
<node visible="true" id="-348" lat="37.379633283000004" lon="-121.816447162"><tag k="addr:city" v="San Jose"/><tag k="addr:housenumber" v="125"/><tag k="addr:street" v="Piazza Way"/><tag k="addr:postcode" v="95127"/></node>
<node visible="true" id="-349" lat="37.380382098000005" lon="-121.81712725000001"><tag k="addr:city" v="San Jose"/><tag k="addr:housenumber" v="99"/><tag k="addr:street" v="Piazza Way"/><tag k="addr:postcode" v="95127"/></node>
<node visible="true" id="-350" lat="37.373269325" lon="-121.81415325600001"><tag k="addr:city" v="San Jose"/><tag k="addr:housenumber" v="14775"/><tag k="addr:street" v="Whipple Court"/><tag k="addr:postcode" v="95127"/></node>
<node visible="true" id="-351" lat="37.373389111" lon="-121.81344961"><tag k="addr:city" v="San Jose"/><tag k="addr:housenumber" v="14800"/><tag k="addr:street" v="Whipple Court"/><tag k="addr:postcode" v="95127"/></node>
<node visible="true" id="-352" lat="37.372365296000005" lon="-121.811765887"><tag k="addr:city" v="San Jose"/><tag k="addr:housenumber" v="14805"/><tag k="addr:street" v="East Hills Drive"/><tag k="addr:postcode" v="95127"/></node>
<node visible="true" id="-353" lat="37.373592113" lon="-121.813477375"><tag k="addr:city" v="San Jose"/><tag k="addr:housenumber" v="14810"/><tag k="addr:street" v="Whipple Court"/><tag k="addr:postcode" v="95127"/></node>
<node visible="true" id="-354" lat="37.372845745" lon="-121.811037291"><tag k="addr:city" v="San Jose"/><tag k="addr:housenumber" v="14859"/><tag k="addr:street" v="Reynaud Drive"/><tag k="addr:postcode" v="95127"/></node>
<node visible="true" id="-355" lat="37.373001195" lon="-121.81142676"><tag k="addr:city" v="San Jose"/><tag k="addr:housenumber" v="14860"/><tag k="addr:street" v="East Hills Drive"/><tag k="addr:postcode" v="95127"/></node>
<node visible="true" id="-356" lat="37.373247257" lon="-121.811872957"><tag k="addr:city" v="San Jose"/><tag k="addr:housenumber" v="14861"/><tag k="addr:street" v="East Hills Drive"/><tag k="addr:postcode" v="95127"/></node>
<node visible="true" id="-357" lat="37.37268289" lon="-121.81035425900001"><tag k="addr:city" v="San Jose"/><tag k="addr:housenumber" v="14866"/><tag k="addr:street" v="Reynaud Drive"/><tag k="addr:postcode" v="95127"/></node>
<node visible="true" id="-358" lat="37.372995908" lon="-121.810946555"><tag k="addr:city" v="San Jose"/><tag k="addr:housenumber" v="14867"/><tag k="addr:street" v="Reynaud Drive"/><tag k="addr:postcode" v="95127"/></node>
<node visible="true" id="-359" lat="37.373164342" lon="-121.811255681"><tag k="addr:city" v="San Jose"/><tag k="addr:housenumber" v="14870"/><tag k="addr:street" v="East Hills Drive"/><tag k="addr:postcode" v="95127"/></node>
<node visible="true" id="-360" lat="37.375285061" lon="-121.81591305"><tag k="addr:city" v="San Jose"/><tag k="addr:housenumber" v="14874"/><tag k="addr:street" v="Jeanette Lane"/><tag k="addr:postcode" v="95127"/></node>
<node visible="true" id="-361" lat="37.373178781" lon="-121.810789724"><tag k="addr:city" v="San Jose"/><tag k="addr:housenumber" v="14875"/><tag k="addr:street" v="Reynaud Drive"/><tag k="addr:postcode" v="95127"/></node>
<node visible="true" id="-362" lat="37.376431673" lon="-121.81798117500001"><tag k="addr:city" v="San Jose"/><tag k="addr:housenumber" v="14880"/><tag k="addr:street" v="Corralitos Lane"/><tag k="addr:postcode" v="95127"/></node>
<node visible="true" id="-363" lat="37.373805369" lon="-121.811509333"><tag k="addr:city" v="San Jose"/><tag k="addr:housenumber" v="14893"/><tag k="addr:street" v="East Hills Drive"/><tag k="addr:postcode" v="95127"/></node>
<node visible="true" id="-364" lat="37.373939503" lon="-121.80945609000001"><tag k="addr:city" v="San Jose"/><tag k="addr:housenumber" v="14928"/><tag k="addr:street" v="Reynaud Drive"/><tag k="addr:postcode" v="95127"/></node>
<node visible="true" id="-366" lat="37.370205057" lon="-121.80578194700001"/>
<node visible="true" id="-367" lat="37.370222491" lon="-121.80578266500001"/>
<node visible="true" id="-368" lat="37.370221957000005" lon="-121.80580347700001"/>
<node visible="true" id="-369" lat="37.370292132" lon="-121.805806286"/>
<node visible="true" id="-370" lat="37.370292663" lon="-121.80578578400001"/>
<node visible="true" id="-371" lat="37.370305265" lon="-121.80578628"/>
<node visible="true" id="-372" lat="37.370310221000004" lon="-121.80559278000001"/>
<node visible="true" id="-373" lat="37.370209982000006" lon="-121.805588756"/>
<node visible="true" id="-375" lat="37.368738813" lon="-121.806904489"/>
<node visible="true" id="-376" lat="37.368787524000005" lon="-121.806960164"/>
<node visible="true" id="-377" lat="37.36877221" lon="-121.80698123200001"/>
<node visible="true" id="-378" lat="37.368776765" lon="-121.806986475"/>
<node visible="true" id="-379" lat="37.368769179000004" lon="-121.806996874"/>
<node visible="true" id="-380" lat="37.36886991" lon="-121.807111964"/>
<node visible="true" id="-381" lat="37.368877860000005" lon="-121.80710105600001"/>
<node visible="true" id="-382" lat="37.368884612" lon="-121.807108814"/>
<node visible="true" id="-383" lat="37.368954404" lon="-121.80701291700001"/>
<node visible="true" id="-384" lat="37.368793599" lon="-121.80682918500001"/>
<node visible="true" id="-386" lat="37.369269757000005" lon="-121.805928307"/>
<node visible="true" id="-387" lat="37.369283564" lon="-121.805953775"/>
<node visible="true" id="-388" lat="37.369277519" lon="-121.80595893600001"/>
<node visible="true" id="-389" lat="37.369328792000005" lon="-121.806053441"/>
<node visible="true" id="-390" lat="37.369411318000004" lon="-121.80598316400001"/>
<node visible="true" id="-391" lat="37.369418153000005" lon="-121.80599577400001"/>
<node visible="true" id="-392" lat="37.369443971" lon="-121.805973789"/>
<node visible="true" id="-393" lat="37.369435923000005" lon="-121.805958953"/>
<node visible="true" id="-394" lat="37.369385538" lon="-121.805866081"/>
<node visible="true" id="-395" lat="37.369318486000004" lon="-121.805923207"/>
<node visible="true" id="-396" lat="37.369305001" lon="-121.80589833"/>
<node visible="true" id="-398" lat="37.370503993" lon="-121.806863484"/>
<node visible="true" id="-399" lat="37.370581805" lon="-121.806903183"/>
<node visible="true" id="-400" lat="37.37058132" lon="-121.806904689"/>
<node visible="true" id="-401" lat="37.370632477" lon="-121.80693074300001"/>
<node visible="true" id="-402" lat="37.370668742" lon="-121.806819113"/>
<node visible="true" id="-403" lat="37.370655059" lon="-121.80681212900001"/>
<node visible="true" id="-404" lat="37.370662540000005" lon="-121.806789097"/>
<node visible="true" id="-405" lat="37.370653826" lon="-121.80678464300001"/>
<node visible="true" id="-406" lat="37.370667708" lon="-121.80674186600001"/>
<node visible="true" id="-407" lat="37.370628242" lon="-121.80672173100001"/>
<node visible="true" id="-408" lat="37.370631512" lon="-121.806711671"/>
<node visible="true" id="-409" lat="37.370614333" lon="-121.806702903"/>
<node visible="true" id="-410" lat="37.370617092" lon="-121.806694417"/>
<node visible="true" id="-411" lat="37.370564052" lon="-121.806667402"/>
<node visible="true" id="-412" lat="37.370548778" lon="-121.80671438600001"/>
<node visible="true" id="-413" lat="37.370543562" lon="-121.806711715"/>
<node visible="true" id="-414" lat="37.370511477" lon="-121.806810545"/>
<node visible="true" id="-415" lat="37.370519807" lon="-121.80681478700001"/>
<node visible="true" id="-417" lat="37.369354363" lon="-121.806847187"/>
<node visible="true" id="-418" lat="37.369368255000005" lon="-121.80685527700001"/>
<node visible="true" id="-419" lat="37.369363894" lon="-121.80686703900001"/>
<node visible="true" id="-420" lat="37.36937279" lon="-121.806872185"/>
<node visible="true" id="-421" lat="37.369370383" lon="-121.80687864800001"/>
<node visible="true" id="-422" lat="37.369389105" lon="-121.80688954000001"/>
<node visible="true" id="-423" lat="37.369386046" lon="-121.80689781500001"/>
<node visible="true" id="-424" lat="37.369394342" lon="-121.80690264"/>
<node visible="true" id="-425" lat="37.369392445" lon="-121.806907769"/>
<node visible="true" id="-426" lat="37.369420471000005" lon="-121.80692409100001"/>
<node visible="true" id="-427" lat="37.369422681" lon="-121.806918142"/>
<node visible="true" id="-428" lat="37.369441156" lon="-121.806928892"/>
<node visible="true" id="-429" lat="37.369436738000005" lon="-121.806940827"/>
<node visible="true" id="-430" lat="37.369493911" lon="-121.806974108"/>
<node visible="true" id="-431" lat="37.36952104" lon="-121.80690096900001"/>
<node visible="true" id="-432" lat="37.369516374" lon="-121.80689823700001"/>
<node visible="true" id="-433" lat="37.369527191" lon="-121.80686907100001"/>
<node visible="true" id="-434" lat="37.369516303000005" lon="-121.80686275500001"/>
<node visible="true" id="-435" lat="37.369529443000005" lon="-121.80682733"/>
<node visible="true" id="-436" lat="37.36952161" lon="-121.80682278900001"/>
<node visible="true" id="-437" lat="37.369537016" lon="-121.80678120900001"/>
<node visible="true" id="-438" lat="37.369533495" lon="-121.806779151"/>
<node visible="true" id="-439" lat="37.369537743" lon="-121.80676769600001"/>
<node visible="true" id="-440" lat="37.369487310000004" lon="-121.80673835300001"/>
<node visible="true" id="-441" lat="37.369485016000006" lon="-121.806744542"/>
<node visible="true" id="-442" lat="37.369447083000004" lon="-121.806722472"/>
<node visible="true" id="-443" lat="37.369443599" lon="-121.80673191000001"/>
<node visible="true" id="-444" lat="37.369405448" lon="-121.806709698"/>
<node visible="true" id="-445" lat="37.36937795" lon="-121.80678382900001"/>
<node visible="true" id="-447" lat="37.369889382000004" lon="-121.80637800500001"/>
<node visible="true" id="-448" lat="37.369897419000004" lon="-121.80638640500001"/>
<node visible="true" id="-449" lat="37.369895715000006" lon="-121.80638895700001"/>
<node visible="true" id="-450" lat="37.369917789000006" lon="-121.80641205600001"/>
<node visible="true" id="-451" lat="37.369914269" lon="-121.80641733"/>
<node visible="true" id="-452" lat="37.369914893" lon="-121.80641799400001"/>
<node visible="true" id="-453" lat="37.369907351" lon="-121.806429323"/>
<node visible="true" id="-454" lat="37.36996819" lon="-121.806493539"/>
<node visible="true" id="-455" lat="37.3699771" lon="-121.806480272"/>
<node visible="true" id="-456" lat="37.370019913" lon="-121.806525418"/>
<node visible="true" id="-457" lat="37.370024633" lon="-121.80651841100001"/>
<node visible="true" id="-458" lat="37.370047084" lon="-121.80654210300001"/>
<node visible="true" id="-459" lat="37.370102414" lon="-121.806459785"/>
<node visible="true" id="-460" lat="37.370115174000006" lon="-121.80647325800001"/>
<node visible="true" id="-461" lat="37.370151399" lon="-121.806419378"/>
<node visible="true" id="-462" lat="37.370141599" lon="-121.80640902"/>
<node visible="true" id="-463" lat="37.370151570000004" lon="-121.80639419"/>
<node visible="true" id="-464" lat="37.370106830000005" lon="-121.80634698"/>
<node visible="true" id="-465" lat="37.37009792" lon="-121.806360247"/>
<node visible="true" id="-466" lat="37.370073514000005" lon="-121.806334491"/>
<node visible="true" id="-467" lat="37.370078345" lon="-121.80632731300001"/>
<node visible="true" id="-468" lat="37.370082188000005" lon="-121.806315232"/>
<node visible="true" id="-469" lat="37.370078782" lon="-121.806300511"/>
<node visible="true" id="-470" lat="37.370070404" lon="-121.80629065900001"/>
<node visible="true" id="-471" lat="37.370059821000005" lon="-121.80628889100001"/>
<node visible="true" id="-472" lat="37.370048695" lon="-121.80629403100001"/>
<node visible="true" id="-473" lat="37.370042936000004" lon="-121.80630305000001"/>
<node visible="true" id="-474" lat="37.370012201" lon="-121.806270885"/>
<node visible="true" id="-475" lat="37.370000525" lon="-121.80628840400001"/>
<node visible="true" id="-476" lat="37.369970333000005" lon="-121.80625680000001"/>
<node visible="true" id="-477" lat="37.369902146" lon="-121.806359059"/>
<node visible="true" id="-478" lat="37.369902092000004" lon="-121.806358989"/>
<node visible="true" id="-480" lat="37.370343080000005" lon="-121.805939882"/>
<node visible="true" id="-481" lat="37.370377716" lon="-121.80596695300001"/>
<node visible="true" id="-482" lat="37.370389011" lon="-121.80594423100001"/>
<node visible="true" id="-483" lat="37.370470622" lon="-121.806007984"/>
<node visible="true" id="-484" lat="37.370504674" lon="-121.80593950800001"/>
<node visible="true" id="-485" lat="37.370496396" lon="-121.80593303"/>
<node visible="true" id="-486" lat="37.370498165" lon="-121.80592951700001"/>
<node visible="true" id="-487" lat="37.370552489000005" lon="-121.80581913300001"/>
<node visible="true" id="-488" lat="37.370470028" lon="-121.805755399"/>
<node visible="true" id="-489" lat="37.370454319000004" lon="-121.805787269"/>
<node visible="true" id="-490" lat="37.370397756" lon="-121.805743535"/>
<node visible="true" id="-491" lat="37.370349728" lon="-121.80584109"/>
<node visible="true" id="-492" lat="37.370360521" lon="-121.80585855500001"/>
<node visible="true" id="-493" lat="37.370379859" lon="-121.80586825300001"/>
<node visible="true" id="-494" lat="37.370395174" lon="-121.80583975"/>
<node visible="true" id="-495" lat="37.370419044" lon="-121.80585689300001"/>
<node visible="true" id="-496" lat="37.370404968" lon="-121.805885212"/>
<node visible="true" id="-497" lat="37.370387868" lon="-121.805871835"/>
<node visible="true" id="-498" lat="37.370361907" lon="-121.80592400200001"/>
<node visible="true" id="-499" lat="37.370354037000006" lon="-121.80591787700001"/>
<node visible="true" id="-501" lat="37.369519112" lon="-121.805533041"/>
<node visible="true" id="-502" lat="37.369562195" lon="-121.805625613"/>
<node visible="true" id="-503" lat="37.369579364" lon="-121.80561311100001"/>
<node visible="true" id="-504" lat="37.369609489000005" lon="-121.805677856"/>
<node visible="true" id="-505" lat="37.369631642" lon="-121.80566169100001"/>
<node visible="true" id="-506" lat="37.369735268" lon="-121.80558599800001"/>
<node visible="true" id="-507" lat="37.369693394" lon="-121.80549599400001"/>
<node visible="true" id="-508" lat="37.369689599000004" lon="-121.80549878400001"/>
<node visible="true" id="-509" lat="37.369685951" lon="-121.805490942"/>
<node visible="true" id="-510" lat="37.369601073000005" lon="-121.80555291900001"/>
<node visible="true" id="-511" lat="37.36957339" lon="-121.80549341400001"/>
<node visible="true" id="-513" lat="37.370543581" lon="-121.806246521"/>
<node visible="true" id="-514" lat="37.370618831" lon="-121.80640033200001"/>
<node visible="true" id="-515" lat="37.37074483" lon="-121.806303591"/>
<node visible="true" id="-516" lat="37.370669609000004" lon="-121.80614974500001"/>
<node visible="true" id="-518" lat="37.369405885" lon="-121.80655218800001"/>
<node visible="true" id="-519" lat="37.369466762" lon="-121.80664490100001"/>
<node visible="true" id="-520" lat="37.369471348000005" lon="-121.80664016200001"/>
<node visible="true" id="-521" lat="37.369486229" lon="-121.80666282800001"/>
<node visible="true" id="-522" lat="37.369534216000005" lon="-121.80661335200001"/>
<node visible="true" id="-523" lat="37.369540537" lon="-121.806622996"/>
<node visible="true" id="-524" lat="37.369541148" lon="-121.80662235300001"/>
<node visible="true" id="-525" lat="37.369553032" lon="-121.806640422"/>
<node visible="true" id="-526" lat="37.369573622000004" lon="-121.806619169"/>
<node visible="true" id="-527" lat="37.36957735" lon="-121.80662484400001"/>
<node visible="true" id="-528" lat="37.369630673" lon="-121.80656981800001"/>
<node visible="true" id="-529" lat="37.369522663000005" lon="-121.80640538700001"/>
<node visible="true" id="-530" lat="37.369497127" lon="-121.80643168"/>
<node visible="true" id="-531" lat="37.369496533" lon="-121.80643077600001"/>
<node visible="true" id="-532" lat="37.369469052" lon="-121.80645909900001"/>
<node visible="true" id="-533" lat="37.369467702" lon="-121.806457011"/>
<node visible="true" id="-534" lat="37.369427273" lon="-121.806498668"/>
<node visible="true" id="-535" lat="37.369433593000004" lon="-121.80650831300001"/>
<node visible="true" id="-536" lat="37.369433149" lon="-121.80650875100001"/>
<node visible="true" id="-537" lat="37.369439171" lon="-121.80651790900001"/>
<node visible="true" id="-539" lat="37.369572126" lon="-121.80628511100001"/>
<node visible="true" id="-540" lat="37.369593234" lon="-121.80632574600001"/>
<node visible="true" id="-541" lat="37.369587221" lon="-121.80633063"/>
<node visible="true" id="-542" lat="37.369611986" lon="-121.806378316"/>
<node visible="true" id="-543" lat="37.369606193" lon="-121.806383033"/>
<node visible="true" id="-544" lat="37.369635396" lon="-121.80643926100001"/>
<node visible="true" id="-545" lat="37.369643073" lon="-121.806433029"/>
<node visible="true" id="-546" lat="37.369645118" lon="-121.806436953"/>
<node visible="true" id="-547" lat="37.369677356000004" lon="-121.806410674"/>
<node visible="true" id="-548" lat="37.369682868000005" lon="-121.80642130100001"/>
<node visible="true" id="-549" lat="37.369710143" lon="-121.806399064"/>
<node visible="true" id="-550" lat="37.369714877" lon="-121.806408129"/>
<node visible="true" id="-551" lat="37.369736497000005" lon="-121.806390508"/>
<node visible="true" id="-552" lat="37.369739885" lon="-121.80639707200001"/>
<node visible="true" id="-553" lat="37.369793549" lon="-121.806353306"/>
<node visible="true" id="-554" lat="37.369747297" lon="-121.806264255"/>
<node visible="true" id="-555" lat="37.369744415" lon="-121.80626661400001"/>
<node visible="true" id="-556" lat="37.369720051" lon="-121.806219728"/>
<node visible="true" id="-557" lat="37.369708215" lon="-121.80622939700001"/>
<node visible="true" id="-558" lat="37.3697016" lon="-121.80621668600001"/>
<node visible="true" id="-559" lat="37.369692009000005" lon="-121.80622450300001"/>
<node visible="true" id="-560" lat="37.369676520000006" lon="-121.80619467000001"/>
<node visible="true" id="-561" lat="37.369626653000005" lon="-121.806235337"/>
<node visible="true" id="-562" lat="37.369628589" lon="-121.80623905200001"/>
<node visible="true" id="-564" lat="37.370760801" lon="-121.806290207"/>
<node visible="true" id="-565" lat="37.370804847" lon="-121.80633313700001"/>
<node visible="true" id="-566" lat="37.370808314" lon="-121.806327588"/>
<node visible="true" id="-567" lat="37.370817145000004" lon="-121.806336208"/>
<node visible="true" id="-568" lat="37.370813929" lon="-121.806341383"/>
<node visible="true" id="-569" lat="37.370862703" lon="-121.80638893800001"/>
<node visible="true" id="-570" lat="37.370866787000004" lon="-121.806382368"/>
<node visible="true" id="-571" lat="37.37089116" lon="-121.80640612900001"/>
<node visible="true" id="-572" lat="37.370895887" lon="-121.806398536"/>
<node visible="true" id="-573" lat="37.370894012" lon="-121.806396714"/>
<node visible="true" id="-574" lat="37.370973415" lon="-121.806268872"/>
<node visible="true" id="-575" lat="37.370848315" lon="-121.80614688200001"/>
<node visible="true" id="-576" lat="37.370812878" lon="-121.80620394300001"/>
<node visible="true" id="-577" lat="37.37081383" lon="-121.806204855"/>
<node visible="true" id="-579" lat="37.369118266" lon="-121.80620765500001"/>
<node visible="true" id="-580" lat="37.369160824000005" lon="-121.806285626"/>
<node visible="true" id="-581" lat="37.369156359" lon="-121.80628947100001"/>
<node visible="true" id="-582" lat="37.369181042" lon="-121.806334746"/>
<node visible="true" id="-583" lat="37.369182761000005" lon="-121.806333295"/>
<node visible="true" id="-584" lat="37.369189168000005" lon="-121.806345006"/>
<node visible="true" id="-585" lat="37.369200899" lon="-121.80633495500001"/>
<node visible="true" id="-586" lat="37.369198314" lon="-121.806330195"/>
<node visible="true" id="-587" lat="37.369206661" lon="-121.80632304500001"/>
<node visible="true" id="-588" lat="37.369205101000006" lon="-121.806320196"/>
<node visible="true" id="-589" lat="37.369219992000005" lon="-121.80630744800001"/>
<node visible="true" id="-590" lat="37.369232268000005" lon="-121.80632992800001"/>
<node visible="true" id="-591" lat="37.369256616" lon="-121.80630908500001"/>
<node visible="true" id="-592" lat="37.369244287" lon="-121.806286501"/>
<node visible="true" id="-593" lat="37.369248696" lon="-121.80628272400001"/>
<node visible="true" id="-594" lat="37.369230904000005" lon="-121.80625013000001"/>
<node visible="true" id="-595" lat="37.369251758000004" lon="-121.80623229000001"/>
<node visible="true" id="-596" lat="37.369282014" lon="-121.80628774600001"/>
<node visible="true" id="-597" lat="37.36931019" lon="-121.80626359700001"/>
<node visible="true" id="-598" lat="37.369311697" lon="-121.806266343"/>
<node visible="true" id="-599" lat="37.369339651000004" lon="-121.806242397"/>
<node visible="true" id="-600" lat="37.369329503" lon="-121.80622380700001"/>
<node visible="true" id="-601" lat="37.369335160000006" lon="-121.80621895"/>
<node visible="true" id="-602" lat="37.369261890000004" lon="-121.80608465600001"/>
<node visible="true" id="-604" lat="37.370364723" lon="-121.80532329600001"/>
<node visible="true" id="-605" lat="37.370482731" lon="-121.80542857100001"/>
<node visible="true" id="-606" lat="37.370540277" lon="-121.80532729400001"/>
<node visible="true" id="-607" lat="37.370498964" lon="-121.805290435"/>
<node visible="true" id="-608" lat="37.370501402" lon="-121.80528614200001"/>
<node visible="true" id="-609" lat="37.370454623" lon="-121.805244404"/>
<node visible="true" id="-610" lat="37.370450867" lon="-121.80525105000001"/>
<node visible="true" id="-611" lat="37.370420951" lon="-121.80522437100001"/>
<node visible="true" id="-613" lat="37.370799182" lon="-121.807154436"/>
<node visible="true" id="-614" lat="37.370888583" lon="-121.807221424"/>
<node visible="true" id="-615" lat="37.370985836" lon="-121.80701769900001"/>
<node visible="true" id="-616" lat="37.370896462000005" lon="-121.806950712"/>
<node visible="true" id="-618" lat="37.369408954" lon="-121.805731652"/>
<node visible="true" id="-619" lat="37.369460296" lon="-121.805824919"/>
<node visible="true" id="-620" lat="37.369529854" lon="-121.805764807"/>
<node visible="true" id="-621" lat="37.369534188" lon="-121.805772695"/>
<node visible="true" id="-622" lat="37.369509782" lon="-121.805793812"/>
<node visible="true" id="-623" lat="37.369529811" lon="-121.805830196"/>
<node visible="true" id="-624" lat="37.369553635" lon="-121.805809619"/>
<node visible="true" id="-625" lat="37.369559128" lon="-121.805819557"/>
<node visible="true" id="-626" lat="37.36960733" lon="-121.805777898"/>
<node visible="true" id="-627" lat="37.369582939000004" lon="-121.80573359200001"/>
<node visible="true" id="-628" lat="37.369573259" lon="-121.80574195700001"/>
<node visible="true" id="-629" lat="37.369516479000005" lon="-121.80563875300001"/>
<node visible="true" id="-630" lat="37.369507632" lon="-121.805646409"/>
<node visible="true" id="-633" lat="37.369994839" lon="-121.806655722"/>
<node visible="true" id="-634" lat="37.370014821000005" lon="-121.806728516"/>
<node visible="true" id="-635" lat="37.370034029" lon="-121.806720248"/>
<node visible="true" id="-636" lat="37.370041051" lon="-121.806745804"/>
<node visible="true" id="-637" lat="37.370017508000004" lon="-121.80675595700001"/>
<node visible="true" id="-638" lat="37.370044432" lon="-121.80685403100001"/>
<node visible="true" id="-639" lat="37.370069051" lon="-121.80684344800001"/>
<node visible="true" id="-640" lat="37.370074409000004" lon="-121.80686302100001"/>
<node visible="true" id="-641" lat="37.370069553" lon="-121.80687233200001"/>
<node visible="true" id="-642" lat="37.370075945" lon="-121.806895158"/>
<node visible="true" id="-643" lat="37.370083515000005" lon="-121.80689869700001"/>
<node visible="true" id="-644" lat="37.370082247" lon="-121.80692865"/>
<node visible="true" id="-645" lat="37.370131494" lon="-121.806906592"/>
<node visible="true" id="-646" lat="37.370137230000005" lon="-121.80692672200001"/>
<node visible="true" id="-647" lat="37.370151778" lon="-121.806920231"/>
<node visible="true" id="-648" lat="37.370154897" lon="-121.806931195"/>
<node visible="true" id="-649" lat="37.370202543000005" lon="-121.80690990000001"/>
<node visible="true" id="-650" lat="37.370196015000005" lon="-121.806886934"/>
<node visible="true" id="-651" lat="37.370200488" lon="-121.80687493200001"/>
<node visible="true" id="-652" lat="37.370195668" lon="-121.806853958"/>
<node visible="true" id="-653" lat="37.370184553" lon="-121.80684578"/>
<node visible="true" id="-654" lat="37.370211347" lon="-121.80683468400001"/>
<node visible="true" id="-655" lat="37.370185774" lon="-121.80674114400001"/>
<node visible="true" id="-656" lat="37.370174954" lon="-121.806745773"/>
<node visible="true" id="-657" lat="37.370179736000004" lon="-121.80673336400001"/>
<node visible="true" id="-658" lat="37.370180989000005" lon="-121.806736689"/>
<node visible="true" id="-659" lat="37.370222282" lon="-121.806711187"/>
<node visible="true" id="-660" lat="37.370192642" lon="-121.806639946"/>
<node visible="true" id="-661" lat="37.370153712000004" lon="-121.806665385"/>
<node visible="true" id="-662" lat="37.370157003" lon="-121.806673289"/>
<node visible="true" id="-663" lat="37.370126011" lon="-121.806656778"/>
<node visible="true" id="-664" lat="37.370133487000004" lon="-121.806636604"/>
<node visible="true" id="-665" lat="37.370089271000005" lon="-121.806611395"/>
<node visible="true" id="-666" lat="37.37007576" lon="-121.80664808700001"/>
<node visible="true" id="-667" lat="37.370065177" lon="-121.806626667"/>
<node visible="true" id="-669" lat="37.370146694" lon="-121.80670607900001"/>
<node visible="true" id="-670" lat="37.370157725000006" lon="-121.80667746600001"/>
<node visible="true" id="-671" lat="37.370174416000005" lon="-121.80672019200001"/>
<node visible="true" id="-672" lat="37.370166834" lon="-121.80671049200001"/>
<node visible="true" id="-673" lat="37.370156699" lon="-121.80671034900001"/>
<node visible="true" id="-675" lat="37.370990327" lon="-121.80734662"/>
<node visible="true" id="-676" lat="37.371077777" lon="-121.807381637"/>
<node visible="true" id="-677" lat="37.37108062" lon="-121.807370571"/>
<node visible="true" id="-678" lat="37.371087073000005" lon="-121.807373162"/>
<node visible="true" id="-679" lat="37.371108845" lon="-121.80728784700001"/>
<node visible="true" id="-680" lat="37.371149836" lon="-121.807304258"/>
<node visible="true" id="-681" lat="37.371175225" lon="-121.80720482800001"/>
<node visible="true" id="-682" lat="37.371052691" lon="-121.80715574000001"/>
<node visible="true" id="-683" lat="37.371026611000005" lon="-121.80725798"/>
<node visible="true" id="-684" lat="37.371014196000004" lon="-121.807253015"/>
<node visible="true" id="-686" lat="37.369689637" lon="-121.805386901"/>
<node visible="true" id="-687" lat="37.369765399" lon="-121.805531771"/>
<node visible="true" id="-688" lat="37.369827051" lon="-121.805481122"/>
<node visible="true" id="-689" lat="37.369820165" lon="-121.80546795900001"/>
<node visible="true" id="-690" lat="37.36988833" lon="-121.80541198600001"/>
<node visible="true" id="-691" lat="37.369877654" lon="-121.80539153000001"/>
<node visible="true" id="-692" lat="37.369882172000004" lon="-121.805387823"/>
<node visible="true" id="-693" lat="37.369823434000004" lon="-121.80527549700001"/>
<node visible="true" id="-694" lat="37.369769906" lon="-121.80531944"/>
<node visible="true" id="-695" lat="37.369783406" lon="-121.80534524500001"/>
<node visible="true" id="-696" lat="37.369763392" lon="-121.805361691"/>
<node visible="true" id="-697" lat="37.369750456000006" lon="-121.80533696"/>
<node visible="true" id="-699" lat="37.370453219000005" lon="-121.80644331100001"/>
<node visible="true" id="-700" lat="37.370459342000004" lon="-121.80653220900001"/>
<node visible="true" id="-701" lat="37.370465804000006" lon="-121.806531531"/>
<node visible="true" id="-702" lat="37.370468383" lon="-121.806568814"/>
<node visible="true" id="-703" lat="37.370523357" lon="-121.806562858"/>
<node visible="true" id="-704" lat="37.370523806" lon="-121.80656937100001"/>
<node visible="true" id="-705" lat="37.370539647" lon="-121.806567618"/>
<node visible="true" id="-706" lat="37.370539104" lon="-121.806559555"/>
<node visible="true" id="-707" lat="37.37056072" lon="-121.80655721400001"/>
<node visible="true" id="-708" lat="37.370559539000006" lon="-121.806539985"/>
<node visible="true" id="-709" lat="37.370564874" lon="-121.806539391"/>
<node visible="true" id="-710" lat="37.370561043" lon="-121.80648388"/>
<node visible="true" id="-711" lat="37.37056527" lon="-121.80648908200001"/>
<node visible="true" id="-712" lat="37.370605582" lon="-121.80640619200001"/>
<node visible="true" id="-713" lat="37.370503852" lon="-121.806328836"/>
<node visible="true" id="-714" lat="37.370464831" lon="-121.80640940800001"/>
<node visible="true" id="-715" lat="37.370468344" lon="-121.80641208600001"/>
<node visible="true" id="-717" lat="37.369019936" lon="-121.80641700100001"/>
<node visible="true" id="-718" lat="37.369052361" lon="-121.806479791"/>
<node visible="true" id="-719" lat="37.369056436" lon="-121.806476489"/>
<node visible="true" id="-720" lat="37.369069908" lon="-121.80650253600001"/>
<node visible="true" id="-721" lat="37.36912185" lon="-121.806460426"/>
<node visible="true" id="-722" lat="37.369118409" lon="-121.80645375900001"/>
<node visible="true" id="-723" lat="37.369132213" lon="-121.80644254"/>
<node visible="true" id="-724" lat="37.369159180000004" lon="-121.806494736"/>
<node visible="true" id="-725" lat="37.369211124" lon="-121.80645259200001"/>
<node visible="true" id="-726" lat="37.369203166000005" lon="-121.806437172"/>
<node visible="true" id="-727" lat="37.369129279" lon="-121.80629419300001"/>
<node visible="true" id="-728" lat="37.369094437" lon="-121.80632245900001"/>
<node visible="true" id="-729" lat="37.369106859000006" lon="-121.80634649100001"/>
<node visible="true" id="-731" lat="37.368869546" lon="-121.80664928600001"/>
<node visible="true" id="-732" lat="37.368931752" lon="-121.80676335800001"/>
<node visible="true" id="-733" lat="37.368949555" lon="-121.80674811300001"/>
<node visible="true" id="-734" lat="37.368955504000006" lon="-121.80675905800001"/>
<node visible="true" id="-735" lat="37.369002204000004" lon="-121.806719059"/>
<node visible="true" id="-736" lat="37.3689832" lon="-121.806684243"/>
<node visible="true" id="-737" lat="37.36900131" lon="-121.80666873000001"/>
<node visible="true" id="-738" lat="37.369046504" lon="-121.80675160000001"/>
<node visible="true" id="-739" lat="37.369054435" lon="-121.80674478600001"/>
<node visible="true" id="-740" lat="37.369077476" lon="-121.806787037"/>
<node visible="true" id="-741" lat="37.369120849000005" lon="-121.806749905"/>
<node visible="true" id="-742" lat="37.369097780000004" lon="-121.80670761900001"/>
<node visible="true" id="-743" lat="37.369100166" lon="-121.80670559500001"/>
<node visible="true" id="-744" lat="37.369095024" lon="-121.80669618"/>
<node visible="true" id="-745" lat="37.369010020000005" lon="-121.806540342"/>
<node visible="true" id="-746" lat="37.368976547" lon="-121.80656900900001"/>
<node visible="true" id="-747" lat="37.368978269" lon="-121.80657217100001"/>
<node visible="true" id="-748" lat="37.368932373" lon="-121.806611496"/>
<node visible="true" id="-749" lat="37.368926451" lon="-121.806600586"/>
<node visible="true" id="-751" lat="37.369817651000005" lon="-121.80574802000001"/>
<node visible="true" id="-752" lat="37.369900929" lon="-121.80580994300001"/>
<node visible="true" id="-753" lat="37.369915302" lon="-121.80577963300001"/>
<node visible="true" id="-754" lat="37.369936796000005" lon="-121.80579560000001"/>
<node visible="true" id="-755" lat="37.369974883000005" lon="-121.80571518400001"/>
<node visible="true" id="-756" lat="37.369962923" lon="-121.805706302"/>
<node visible="true" id="-757" lat="37.369974539000005" lon="-121.805681828"/>
<node visible="true" id="-758" lat="37.369903357000005" lon="-121.805628893"/>
<node visible="true" id="-759" lat="37.369892922000005" lon="-121.805650908"/>
<node visible="true" id="-760" lat="37.369868976" lon="-121.805633075"/>
<node visible="true" id="-761" lat="37.369831959" lon="-121.80571120500001"/>
<node visible="true" id="-762" lat="37.369834275" lon="-121.805712897"/>
<node visible="true" id="-764" lat="37.370664302" lon="-121.805711301"/>
<node visible="true" id="-765" lat="37.370677864" lon="-121.805721726"/>
<node visible="true" id="-766" lat="37.370674182" lon="-121.80572923300001"/>
<node visible="true" id="-767" lat="37.370685674" lon="-121.80574302800001"/>
<node visible="true" id="-768" lat="37.370701961" lon="-121.80575054"/>
<node visible="true" id="-769" lat="37.370705672" lon="-121.805742929"/>
<node visible="true" id="-770" lat="37.370741785" lon="-121.80577068100001"/>
<node visible="true" id="-771" lat="37.370736867000005" lon="-121.805780713"/>
<node visible="true" id="-772" lat="37.370767423000004" lon="-121.805804167"/>
<node visible="true" id="-773" lat="37.370760564" lon="-121.80581819300001"/>
<node visible="true" id="-774" lat="37.370762981000006" lon="-121.805830556"/>
<node visible="true" id="-775" lat="37.370767862" lon="-121.80584127600001"/>
<node visible="true" id="-776" lat="37.370775922" lon="-121.805849952"/>
<node visible="true" id="-777" lat="37.370783045" lon="-121.80585417300001"/>
<node visible="true" id="-778" lat="37.370796611" lon="-121.805856852"/>
<node visible="true" id="-779" lat="37.370805307000005" lon="-121.805855421"/>
<node visible="true" id="-780" lat="37.370813076000005" lon="-121.805841"/>
<node visible="true" id="-781" lat="37.370820450000004" lon="-121.80584722"/>
<node visible="true" id="-782" lat="37.370877836000005" lon="-121.805733172"/>
<node visible="true" id="-783" lat="37.370880641" lon="-121.805735389"/>
<node visible="true" id="-784" lat="37.370897775" lon="-121.80570127200001"/>
<node visible="true" id="-785" lat="37.370882800000004" lon="-121.805689447"/>
<node visible="true" id="-786" lat="37.370887743000004" lon="-121.80567962200001"/>
<node visible="true" id="-787" lat="37.370875042" lon="-121.805660919"/>
<node visible="true" id="-788" lat="37.370855642" lon="-121.805654281"/>
<node visible="true" id="-789" lat="37.370851063" lon="-121.805663425"/>
<node visible="true" id="-790" lat="37.370833147" lon="-121.805649277"/>
<node visible="true" id="-791" lat="37.37081826" lon="-121.80567885500001"/>
<node visible="true" id="-792" lat="37.370800398" lon="-121.80566477600001"/>
<node visible="true" id="-793" lat="37.370812869000005" lon="-121.80564004300001"/>
<node visible="true" id="-794" lat="37.370774505" lon="-121.80560974100001"/>
<node visible="true" id="-795" lat="37.370767061" lon="-121.80562451300001"/>
<node visible="true" id="-796" lat="37.370754151" lon="-121.805609798"/>
<node visible="true" id="-797" lat="37.370738308" lon="-121.805601812"/>
<node visible="true" id="-798" lat="37.370733506" lon="-121.80561136300001"/>
<node visible="true" id="-799" lat="37.370719973" lon="-121.80560066500001"/>
<node visible="true" id="-801" lat="37.370237885" lon="-121.805968949"/>
<node visible="true" id="-802" lat="37.370272755" lon="-121.80599974"/>
<node visible="true" id="-803" lat="37.370248628" lon="-121.806042648"/>
<node visible="true" id="-804" lat="37.370280615000006" lon="-121.806070911"/>
<node visible="true" id="-805" lat="37.370264503" lon="-121.806099539"/>
<node visible="true" id="-806" lat="37.370293905000004" lon="-121.80612548500001"/>
<node visible="true" id="-807" lat="37.370285863" lon="-121.80613976400001"/>
<node visible="true" id="-808" lat="37.37031445" lon="-121.80616504400001"/>
<node visible="true" id="-809" lat="37.370316047" lon="-121.806162215"/>
<node visible="true" id="-810" lat="37.37033816" lon="-121.806181772"/>
<node visible="true" id="-811" lat="37.370346511" lon="-121.80616694700001"/>
<node visible="true" id="-812" lat="37.370352223000005" lon="-121.80617200300001"/>
<node visible="true" id="-813" lat="37.370398178" lon="-121.806090381"/>
<node visible="true" id="-814" lat="37.370387108" lon="-121.80608058700001"/>
<node visible="true" id="-815" lat="37.370406808000006" lon="-121.806045552"/>
<node visible="true" id="-816" lat="37.370418993" lon="-121.806056295"/>
<node visible="true" id="-817" lat="37.370427708" lon="-121.80604082400001"/>
<node visible="true" id="-818" lat="37.370411714" lon="-121.80602670900001"/>
<node visible="true" id="-819" lat="37.370413368" lon="-121.80602374300001"/>
<node visible="true" id="-820" lat="37.370360247" lon="-121.80597680100001"/>
<node visible="true" id="-821" lat="37.370346770000005" lon="-121.806000725"/>
<node visible="true" id="-822" lat="37.370327267" lon="-121.805983521"/>
<node visible="true" id="-823" lat="37.370329649000006" lon="-121.80597929400001"/>
<node visible="true" id="-824" lat="37.370321542" lon="-121.80597216700001"/>
<node visible="true" id="-825" lat="37.370334657" lon="-121.805948856"/>
<node visible="true" id="-826" lat="37.370277564000006" lon="-121.80589843700001"/>
<node visible="true" id="-828" lat="37.370915371" lon="-121.80682656"/>
<node visible="true" id="-829" lat="37.370926185" lon="-121.806829675"/>
<node visible="true" id="-830" lat="37.370919401" lon="-121.806866622"/>
<node visible="true" id="-831" lat="37.371047754" lon="-121.806903731"/>
<node visible="true" id="-832" lat="37.371067109" lon="-121.80679865500001"/>
<node visible="true" id="-833" lat="37.371091148000005" lon="-121.80680558"/>
<node visible="true" id="-834" lat="37.37109951" lon="-121.80676012400001"/>
<node visible="true" id="-835" lat="37.371073992" lon="-121.80675276100001"/>
<node visible="true" id="-836" lat="37.37108218" lon="-121.806708232"/>
<node visible="true" id="-837" lat="37.37094449" lon="-121.806668481"/>
<node visible="true" id="-838" lat="37.370931186" lon="-121.80674076300001"/>
<node visible="true" id="-839" lat="37.37095131" lon="-121.80674658800001"/>
<node visible="true" id="-840" lat="37.37094909" lon="-121.80675856"/>
<node visible="true" id="-841" lat="37.370928966" lon="-121.806752736"/>
<node visible="true" id="-843" lat="37.370899284000004" lon="-121.80645107900001"/>
<node visible="true" id="-844" lat="37.370900418000005" lon="-121.80645777500001"/>
<node visible="true" id="-845" lat="37.370906699" lon="-121.806456096"/>
<node visible="true" id="-846" lat="37.370910595000005" lon="-121.80647870600001"/>
<node visible="true" id="-847" lat="37.370904093" lon="-121.80648048500001"/>
<node visible="true" id="-848" lat="37.370915701" lon="-121.80654800600001"/>
<node visible="true" id="-849" lat="37.370924104000004" lon="-121.806545744"/>
<node visible="true" id="-850" lat="37.370928798" lon="-121.806573083"/>
<node visible="true" id="-851" lat="37.370920891000004" lon="-121.80657521600001"/>
<node visible="true" id="-852" lat="37.370930384000005" lon="-121.80663037900001"/>
<node visible="true" id="-853" lat="37.371070972000005" lon="-121.80659243400001"/>
<node visible="true" id="-854" lat="37.371040176" lon="-121.80641310600001"/>
<way visible="true" id="-1"><nd ref="-2"/><nd ref="-3"/><nd ref="-4"/><nd ref="-5"/><nd ref="-6"/><nd ref="-7"/><nd ref="-8"/><nd ref="-9"/><nd ref="-2"/><tag k="building" v="yes"/><tag k="height" v="3.97"/><tag k="ele" v="114.83"/></way>
<way visible="true" id="-10"><nd ref="-11"/><nd ref="-12"/><nd ref="-13"/><nd ref="-14"/><nd ref="-15"/><nd ref="-16"/><nd ref="-17"/><nd ref="-18"/><nd ref="-11"/><tag k="building" v="yes"/><tag k="height" v="4.08"/><tag k="ele" v="106.93"/></way>
<way visible="true" id="-19"><nd ref="-20"/><nd ref="-21"/><nd ref="-22"/><nd ref="-23"/><nd ref="-24"/><nd ref="-25"/><nd ref="-26"/><nd ref="-27"/><nd ref="-28"/><nd ref="-29"/><nd ref="-30"/><nd ref="-31"/><nd ref="-32"/><nd ref="-33"/><nd ref="-34"/><nd ref="-35"/><nd ref="-36"/><nd ref="-37"/><nd ref="-38"/><nd ref="-39"/><nd ref="-40"/><nd ref="-41"/><nd ref="-42"/><nd ref="-43"/><nd ref="-44"/><nd ref="-45"/><nd ref="-46"/><nd ref="-47"/><nd ref="-48"/><nd ref="-49"/><nd ref="-50"/><nd ref="-51"/><nd ref="-52"/><nd ref="-53"/><nd ref="-54"/><nd ref="-55"/><nd ref="-56"/><nd ref="-57"/><nd ref="-20"/><tag k="building" v="yes"/><tag k="height" v="9.00"/><tag k="ele" v="107.39"/></way>
<way visible="true" id="-58"><nd ref="-59"/><nd ref="-60"/><nd ref="-61"/><nd ref="-62"/><nd ref="-63"/><nd ref="-64"/><nd ref="-65"/><nd ref="-66"/><nd ref="-67"/><nd ref="-68"/><nd ref="-69"/><nd ref="-70"/><nd ref="-71"/><nd ref="-72"/><nd ref="-73"/><nd ref="-74"/><nd ref="-75"/><nd ref="-76"/><nd ref="-77"/><nd ref="-59"/><tag k="building" v="yes"/><tag k="height" v="3.13"/><tag k="ele" v="112.84"/></way>
<way visible="true" id="-365"><nd ref="-366"/><nd ref="-367"/><nd ref="-368"/><nd ref="-369"/><nd ref="-370"/><nd ref="-371"/><nd ref="-372"/><nd ref="-373"/><nd ref="-366"/><tag k="building" v="yes"/><tag k="height" v="6.59"/><tag k="ele" v="120.57"/><tag k="addr:city" v="San Jose"/><tag k="addr:housenumber" v="3675"/><tag k="addr:street" v="Nob Hill Drive"/><tag k="addr:postcode" v="95127"/></way>
<way visible="true" id="-374"><nd ref="-375"/><nd ref="-376"/><nd ref="-377"/><nd ref="-378"/><nd ref="-379"/><nd ref="-380"/><nd ref="-381"/><nd ref="-382"/><nd ref="-383"/><nd ref="-384"/><nd ref="-375"/><tag k="building" v="yes"/><tag k="height" v="4.80"/><tag k="ele" v="86.24"/><tag k="addr:city" v="San Jose"/><tag k="addr:housenumber" v="15109"/><tag k="addr:street" v="Rosemar Avenue"/><tag k="addr:postcode" v="95127"/></way>
<way visible="true" id="-385"><nd ref="-386"/><nd ref="-387"/><nd ref="-388"/><nd ref="-389"/><nd ref="-390"/><nd ref="-391"/><nd ref="-392"/><nd ref="-393"/><nd ref="-394"/><nd ref="-395"/><nd ref="-396"/><nd ref="-386"/><tag k="building" v="yes"/><tag k="height" v="5.32"/><tag k="ele" v="101.87"/><tag k="addr:city" v="San Jose"/><tag k="addr:housenumber" v="15175"/><tag k="addr:street" v="Rosemar Avenue"/><tag k="addr:postcode" v="95127"/></way>
<way visible="true" id="-397"><nd ref="-398"/><nd ref="-399"/><nd ref="-400"/><nd ref="-401"/><nd ref="-402"/><nd ref="-403"/><nd ref="-404"/><nd ref="-405"/><nd ref="-406"/><nd ref="-407"/><nd ref="-408"/><nd ref="-409"/><nd ref="-410"/><nd ref="-411"/><nd ref="-412"/><nd ref="-413"/><nd ref="-414"/><nd ref="-415"/><nd ref="-398"/><tag k="building" v="yes"/><tag k="height" v="7.76"/><tag k="ele" v="109.12"/><tag k="addr:city" v="San Jose"/><tag k="addr:housenumber" v="3668"/><tag k="addr:street" v="Pueblo Hill Court"/><tag k="addr:postcode" v="95127"/></way>
<way visible="true" id="-416"><nd ref="-417"/><nd ref="-418"/><nd ref="-419"/><nd ref="-420"/><nd ref="-421"/><nd ref="-422"/><nd ref="-423"/><nd ref="-424"/><nd ref="-425"/><nd ref="-426"/><nd ref="-427"/><nd ref="-428"/><nd ref="-429"/><nd ref="-430"/><nd ref="-431"/><nd ref="-432"/><nd ref="-433"/><nd ref="-434"/><nd ref="-435"/><nd ref="-436"/><nd ref="-437"/><nd ref="-438"/><nd ref="-439"/><nd ref="-440"/><nd ref="-441"/><nd ref="-442"/><nd ref="-443"/><nd ref="-444"/><nd ref="-445"/><nd ref="-417"/><tag k="building" v="yes"/><tag k="height" v="7.71"/><tag k="ele" v="98.26"/><tag k="addr:city" v="San Jose"/><tag k="addr:housenumber" v="680"/><tag k="addr:street" v="Nob Hill Court"/><tag k="addr:postcode" v="95127"/></way>
<way visible="true" id="-446"><nd ref="-447"/><nd ref="-448"/><nd ref="-449"/><nd ref="-450"/><nd ref="-451"/><nd ref="-452"/><nd ref="-453"/><nd ref="-454"/><nd ref="-455"/><nd ref="-456"/><nd ref="-457"/><nd ref="-458"/><nd ref="-459"/><nd ref="-460"/><nd ref="-461"/><nd ref="-462"/><nd ref="-463"/><nd ref="-464"/><nd ref="-465"/><nd ref="-466"/><nd ref="-467"/><nd ref="-468"/><nd ref="-469"/><nd ref="-470"/><nd ref="-471"/><nd ref="-472"/><nd ref="-473"/><nd ref="-474"/><nd ref="-475"/><nd ref="-476"/><nd ref="-477"/><nd ref="-478"/><nd ref="-447"/><tag k="building" v="yes"/><tag k="height" v="6.77"/><tag k="ele" v="105.09"/><tag k="addr:city" v="San Jose"/><tag k="addr:housenumber" v="693"/><tag k="addr:street" v="Nob Hill Court"/><tag k="addr:postcode" v="95127"/></way>
<way visible="true" id="-479"><nd ref="-480"/><nd ref="-481"/><nd ref="-482"/><nd ref="-483"/><nd ref="-484"/><nd ref="-485"/><nd ref="-486"/><nd ref="-487"/><nd ref="-488"/><nd ref="-489"/><nd ref="-490"/><nd ref="-491"/><nd ref="-492"/><nd ref="-493"/><nd ref="-494"/><nd ref="-495"/><nd ref="-496"/><nd ref="-497"/><nd ref="-498"/><nd ref="-499"/><nd ref="-480"/><tag k="building" v="yes"/><tag k="height" v="5.13"/><tag k="ele" v="121.01"/><tag k="addr:city" v="San Jose"/><tag k="addr:housenumber" v="15293"/><tag k="addr:street" v="Nob Hill Drive"/><tag k="addr:postcode" v="95127"/></way>
<way visible="true" id="-500"><nd ref="-501"/><nd ref="-502"/><nd ref="-503"/><nd ref="-504"/><nd ref="-505"/><nd ref="-506"/><nd ref="-507"/><nd ref="-508"/><nd ref="-509"/><nd ref="-510"/><nd ref="-511"/><nd ref="-501"/><tag k="building" v="yes"/><tag k="height" v="4.82"/><tag k="ele" v="108.84"/><tag k="addr:city" v="San Jose"/><tag k="addr:housenumber" v="15207"/><tag k="addr:street" v="Rosemar Avenue"/><tag k="addr:postcode" v="95127"/></way>
<way visible="true" id="-512"><nd ref="-513"/><nd ref="-514"/><nd ref="-515"/><nd ref="-516"/><nd ref="-513"/><tag k="building" v="yes"/><tag k="height" v="7.38"/><tag k="ele" v="115.91"/><tag k="addr:city" v="San Jose"/><tag k="addr:housenumber" v="3680"/><tag k="addr:street" v="Pueblo Hill Court"/><tag k="addr:postcode" v="95127"/></way>
<way visible="true" id="-517"><nd ref="-518"/><nd ref="-519"/><nd ref="-520"/><nd ref="-521"/><nd ref="-522"/><nd ref="-523"/><nd ref="-524"/><nd ref="-525"/><nd ref="-526"/><nd ref="-527"/><nd ref="-528"/><nd ref="-529"/><nd ref="-530"/><nd ref="-531"/><nd ref="-532"/><nd ref="-533"/><nd ref="-534"/><nd ref="-535"/><nd ref="-536"/><nd ref="-537"/><nd ref="-518"/><tag k="building" v="yes"/><tag k="height" v="7.83"/><tag k="ele" v="102.24"/><tag k="addr:city" v="San Jose"/><tag k="addr:housenumber" v="686"/><tag k="addr:street" v="Nob Hill Court"/><tag k="addr:postcode" v="95127"/></way>
<way visible="true" id="-538"><nd ref="-539"/><nd ref="-540"/><nd ref="-541"/><nd ref="-542"/><nd ref="-543"/><nd ref="-544"/><nd ref="-545"/><nd ref="-546"/><nd ref="-547"/><nd ref="-548"/><nd ref="-549"/><nd ref="-550"/><nd ref="-551"/><nd ref="-552"/><nd ref="-553"/><nd ref="-554"/><nd ref="-555"/><nd ref="-556"/><nd ref="-557"/><nd ref="-558"/><nd ref="-559"/><nd ref="-560"/><nd ref="-561"/><nd ref="-562"/><nd ref="-539"/><tag k="building" v="yes"/><tag k="height" v="7.99"/><tag k="ele" v="105.28"/><tag k="addr:city" v="San Jose"/><tag k="addr:housenumber" v="692"/><tag k="addr:street" v="Nob Hill Court"/><tag k="addr:postcode" v="95127"/></way>
<way visible="true" id="-563"><nd ref="-564"/><nd ref="-565"/><nd ref="-566"/><nd ref="-567"/><nd ref="-568"/><nd ref="-569"/><nd ref="-570"/><nd ref="-571"/><nd ref="-572"/><nd ref="-573"/><nd ref="-574"/><nd ref="-575"/><nd ref="-576"/><nd ref="-577"/><nd ref="-564"/><tag k="building" v="yes"/><tag k="height" v="5.99"/><tag k="ele" v="115.37"/><tag k="addr:city" v="San Jose"/><tag k="addr:housenumber" v="3679"/><tag k="addr:street" v="Pueblo Hill Court"/><tag k="addr:postcode" v="95127"/></way>
<way visible="true" id="-578"><nd ref="-579"/><nd ref="-580"/><nd ref="-581"/><nd ref="-582"/><nd ref="-583"/><nd ref="-584"/><nd ref="-585"/><nd ref="-586"/><nd ref="-587"/><nd ref="-588"/><nd ref="-589"/><nd ref="-590"/><nd ref="-591"/><nd ref="-592"/><nd ref="-593"/><nd ref="-594"/><nd ref="-595"/><nd ref="-596"/><nd ref="-597"/><nd ref="-598"/><nd ref="-599"/><nd ref="-600"/><nd ref="-601"/><nd ref="-602"/><nd ref="-579"/><tag k="building" v="yes"/><tag k="height" v="5.02"/><tag k="ele" v="97.98"/><tag k="addr:city" v="San Jose"/><tag k="addr:housenumber" v="15159"/><tag k="addr:street" v="Rosemar Avenue"/><tag k="addr:postcode" v="95127"/></way>
<way visible="true" id="-603"><nd ref="-604"/><nd ref="-605"/><nd ref="-606"/><nd ref="-607"/><nd ref="-608"/><nd ref="-609"/><nd ref="-610"/><nd ref="-611"/><nd ref="-604"/><tag k="building" v="yes"/><tag k="height" v="5.94"/><tag k="ele" v="127.40"/><tag k="addr:city" v="San Jose"/><tag k="addr:housenumber" v="789"/><tag k="addr:street" v="Juliet Park Drive"/><tag k="addr:postcode" v="95127"/></way>
<way visible="true" id="-612"><nd ref="-613"/><nd ref="-614"/><nd ref="-615"/><nd ref="-616"/><nd ref="-613"/><tag k="building" v="yes"/><tag k="height" v="7.26"/><tag k="ele" v="107.76"/><tag k="addr:city" v="San Jose"/><tag k="addr:housenumber" v="3661"/><tag k="addr:street" v="Pueblo Hill Court"/><tag k="addr:postcode" v="95127"/></way>
<way visible="true" id="-617"><nd ref="-618"/><nd ref="-619"/><nd ref="-620"/><nd ref="-621"/><nd ref="-622"/><nd ref="-623"/><nd ref="-624"/><nd ref="-625"/><nd ref="-626"/><nd ref="-627"/><nd ref="-628"/><nd ref="-629"/><nd ref="-630"/><nd ref="-618"/><tag k="building" v="yes"/><tag k="height" v="4.57"/><tag k="ele" v="105.83"/><tag k="addr:city" v="San Jose"/><tag k="addr:housenumber" v="15191"/><tag k="addr:street" v="Rosemar Avenue"/><tag k="addr:postcode" v="95127"/></way>
<way visible="true" id="-632"><nd ref="-633"/><nd ref="-634"/><nd ref="-635"/><nd ref="-636"/><nd ref="-637"/><nd ref="-638"/><nd ref="-639"/><nd ref="-640"/><nd ref="-641"/><nd ref="-642"/><nd ref="-643"/><nd ref="-644"/><nd ref="-645"/><nd ref="-646"/><nd ref="-647"/><nd ref="-648"/><nd ref="-649"/><nd ref="-650"/><nd ref="-651"/><nd ref="-652"/><nd ref="-653"/><nd ref="-654"/><nd ref="-655"/><nd ref="-656"/><nd ref="-657"/><nd ref="-658"/><nd ref="-659"/><nd ref="-660"/><nd ref="-661"/><nd ref="-662"/><nd ref="-663"/><nd ref="-664"/><nd ref="-665"/><nd ref="-666"/><nd ref="-667"/><nd ref="-633"/></way>
<way visible="true" id="-668"><nd ref="-669"/><nd ref="-670"/><nd ref="-671"/><nd ref="-672"/><nd ref="-673"/><nd ref="-669"/></way>
<way visible="true" id="-674"><nd ref="-675"/><nd ref="-676"/><nd ref="-677"/><nd ref="-678"/><nd ref="-679"/><nd ref="-680"/><nd ref="-681"/><nd ref="-682"/><nd ref="-683"/><nd ref="-684"/><nd ref="-675"/><tag k="building" v="yes"/><tag k="height" v="6.45"/><tag k="ele" v="107.57"/><tag k="addr:city" v="San Jose"/><tag k="addr:housenumber" v="3950"/><tag k="addr:street" v="Blue Gum Drive"/><tag k="addr:postcode" v="95127"/></way>
<way visible="true" id="-685"><nd ref="-686"/><nd ref="-687"/><nd ref="-688"/><nd ref="-689"/><nd ref="-690"/><nd ref="-691"/><nd ref="-692"/><nd ref="-693"/><nd ref="-694"/><nd ref="-695"/><nd ref="-696"/><nd ref="-697"/><nd ref="-686"/><tag k="building" v="yes"/><tag k="height" v="4.75"/><tag k="ele" v="111.93"/><tag k="addr:city" v="San Jose"/><tag k="addr:housenumber" v="15223"/><tag k="addr:street" v="Rosemar Avenue"/><tag k="addr:postcode" v="95127"/></way>
<way visible="true" id="-698"><nd ref="-699"/><nd ref="-700"/><nd ref="-701"/><nd ref="-702"/><nd ref="-703"/><nd ref="-704"/><nd ref="-705"/><nd ref="-706"/><nd ref="-707"/><nd ref="-708"/><nd ref="-709"/><nd ref="-710"/><nd ref="-711"/><nd ref="-712"/><nd ref="-713"/><nd ref="-714"/><nd ref="-715"/><nd ref="-699"/><tag k="building" v="yes"/><tag k="height" v="5.42"/><tag k="ele" v="113.12"/><tag k="addr:city" v="San Jose"/><tag k="addr:housenumber" v="3674"/><tag k="addr:street" v="Pueblo Hill Court"/><tag k="addr:postcode" v="95127"/></way>
<way visible="true" id="-716"><nd ref="-717"/><nd ref="-718"/><nd ref="-719"/><nd ref="-720"/><nd ref="-721"/><nd ref="-722"/><nd ref="-723"/><nd ref="-724"/><nd ref="-725"/><nd ref="-726"/><nd ref="-727"/><nd ref="-728"/><nd ref="-729"/><nd ref="-717"/><tag k="building" v="yes"/><tag k="height" v="3.89"/><tag k="ele" v="93.50"/><tag k="addr:city" v="San Jose"/><tag k="addr:housenumber" v="15143"/><tag k="addr:street" v="Rosemar Avenue"/><tag k="addr:postcode" v="95127"/></way>
<way visible="true" id="-730"><nd ref="-731"/><nd ref="-732"/><nd ref="-733"/><nd ref="-734"/><nd ref="-735"/><nd ref="-736"/><nd ref="-737"/><nd ref="-738"/><nd ref="-739"/><nd ref="-740"/><nd ref="-741"/><nd ref="-742"/><nd ref="-743"/><nd ref="-744"/><nd ref="-745"/><nd ref="-746"/><nd ref="-747"/><nd ref="-748"/><nd ref="-749"/><nd ref="-731"/><tag k="building" v="yes"/><tag k="height" v="3.85"/><tag k="ele" v="90.02"/><tag k="addr:city" v="San Jose"/><tag k="addr:housenumber" v="15127"/><tag k="addr:street" v="Rosemar Avenue"/><tag k="addr:postcode" v="95127"/></way>
<way visible="true" id="-750"><nd ref="-751"/><nd ref="-752"/><nd ref="-753"/><nd ref="-754"/><nd ref="-755"/><nd ref="-756"/><nd ref="-757"/><nd ref="-758"/><nd ref="-759"/><nd ref="-760"/><nd ref="-761"/><nd ref="-762"/><nd ref="-751"/><tag k="building" v="yes"/><tag k="height" v="6.57"/><tag k="ele" v="115.10"/><tag k="addr:city" v="San Jose"/><tag k="addr:housenumber" v="15150"/><tag k="addr:street" v="Nob Hill Drive"/><tag k="addr:postcode" v="95127"/></way>
<way visible="true" id="-763"><nd ref="-764"/><nd ref="-765"/><nd ref="-766"/><nd ref="-767"/><nd ref="-768"/><nd ref="-769"/><nd ref="-770"/><nd ref="-771"/><nd ref="-772"/><nd ref="-773"/><nd ref="-774"/><nd ref="-775"/><nd ref="-776"/><nd ref="-777"/><nd ref="-778"/><nd ref="-779"/><nd ref="-780"/><nd ref="-781"/><nd ref="-782"/><nd ref="-783"/><nd ref="-784"/><nd ref="-785"/><nd ref="-786"/><nd ref="-787"/><nd ref="-788"/><nd ref="-789"/><nd ref="-790"/><nd ref="-791"/><nd ref="-792"/><nd ref="-793"/><nd ref="-794"/><nd ref="-795"/><nd ref="-796"/><nd ref="-797"/><nd ref="-798"/><nd ref="-799"/><nd ref="-764"/><tag k="building" v="yes"/><tag k="height" v="10.35"/><tag k="ele" v="131.80"/><tag k="addr:city" v="San Jose"/><tag k="addr:housenumber" v="773"/><tag k="addr:street" v="Juliet Park Drive"/><tag k="addr:postcode" v="95127"/></way>
<way visible="true" id="-800"><nd ref="-801"/><nd ref="-802"/><nd ref="-803"/><nd ref="-804"/><nd ref="-805"/><nd ref="-806"/><nd ref="-807"/><nd ref="-808"/><nd ref="-809"/><nd ref="-810"/><nd ref="-811"/><nd ref="-812"/><nd ref="-813"/><nd ref="-814"/><nd ref="-815"/><nd ref="-816"/><nd ref="-817"/><nd ref="-818"/><nd ref="-819"/><nd ref="-820"/><nd ref="-821"/><nd ref="-822"/><nd ref="-823"/><nd ref="-824"/><nd ref="-825"/><nd ref="-826"/><nd ref="-801"/><tag k="building" v="yes"/><tag k="height" v="6.99"/><tag k="ele" v="117.08"/><tag k="addr:city" v="San Jose"/><tag k="addr:housenumber" v="3665"/><tag k="addr:street" v="Nob Hill Drive"/><tag k="addr:postcode" v="95127"/></way>
<way visible="true" id="-827"><nd ref="-828"/><nd ref="-829"/><nd ref="-830"/><nd ref="-831"/><nd ref="-832"/><nd ref="-833"/><nd ref="-834"/><nd ref="-835"/><nd ref="-836"/><nd ref="-837"/><nd ref="-838"/><nd ref="-839"/><nd ref="-840"/><nd ref="-841"/><nd ref="-828"/><tag k="building" v="yes"/><tag k="height" v="5.80"/><tag k="ele" v="111.67"/><tag k="addr:city" v="San Jose"/><tag k="addr:housenumber" v="3667"/><tag k="addr:street" v="Pueblo Hill Court"/><tag k="addr:postcode" v="95127"/></way>
<way visible="true" id="-842"><nd ref="-843"/><nd ref="-844"/><nd ref="-845"/><nd ref="-846"/><nd ref="-847"/><nd ref="-848"/><nd ref="-849"/><nd ref="-850"/><nd ref="-851"/><nd ref="-852"/><nd ref="-853"/><nd ref="-854"/><nd ref="-843"/><tag k="building" v="yes"/><tag k="height" v="7.21"/><tag k="ele" v="114.92"/><tag k="addr:city" v="San Jose"/><tag k="addr:housenumber" v="3673"/><tag k="addr:street" v="Pueblo Hill Court"/><tag k="addr:postcode" v="95127"/></way>
<relation visible="true" id="-631"><member type="way" ref="-632" role="outer"/><member type="way" ref="-668" role="inner"/><tag k="type" v="multipolygon"/><tag k="building" v="yes"/><tag k="height" v="7.14"/><tag k="ele" v="102.79"/><tag k="addr:city" v="San Jose"/><tag k="addr:housenumber" v="687"/><tag k="addr:street" v="Nob Hill Court"/><tag k="addr:postcode" v="95127"/></relation>
</osm>