<?xml version="1.0"?>
<osm version="0.6" generator="uvmogr2osm" upload="false">
<node visible="true" id="-2" lat="37.372912846000006" lon="-121.80356240600001"/>
<node visible="true" id="-3" lat="37.372960122" lon="-121.803598991"/>
<node visible="true" id="-4" lat="37.372940648000004" lon="-121.80363850500001"/>
<node visible="true" id="-5" lat="37.372958405000006" lon="-121.80365223700001"/>
<node visible="true" id="-6" lat="37.372961889" lon="-121.80364517400001"/>
<node visible="true" id="-7" lat="37.37300406" lon="-121.80367888200001"/>
<node visible="true" id="-8" lat="37.373043133" lon="-121.803601024"/>
<node visible="true" id="-9" lat="37.372935580000004" lon="-121.80351627200001"/>
<node visible="true" id="-10" lat="37.378668976" lon="-121.813052079"><tag k="addr:city" v="San Jose"/><tag k="addr:housenumber" v="10780"/><tag k="addr:street" v="Ridgeview Avenue"/><tag k="addr:postcode" v="95127"/></node>
<node visible="true" id="-11" lat="37.378826706000005" lon="-121.81323490000001"><tag k="addr:city" v="San Jose"/><tag k="addr:housenumber" v="10790"/><tag k="addr:street" v="Ridgeview Avenue"/><tag k="addr:postcode" v="95127"/></node>
<node visible="true" id="-12" lat="37.379514679" lon="-121.812673493"><tag k="addr:city" v="San Jose"/><tag k="addr:housenumber" v="10795"/><tag k="addr:street" v="Ridgeview Court"/><tag k="addr:postcode" v="95127"/></node>
<node visible="true" id="-13" lat="37.37984229" lon="-121.812979427"><tag k="addr:city" v="San Jose"/><tag k="addr:housenumber" v="10797"/><tag k="addr:street" v="Ridgeview Court"/><tag k="addr:postcode" v="95127"/></node>
<node visible="true" id="-14" lat="37.377300368" lon="-121.813178844"><tag k="addr:city" v="San Jose"/><tag k="addr:housenumber" v="10808"/><tag k="addr:street" v="Hubbard Way"/><tag k="addr:postcode" v="95127"/></node>
<node visible="true" id="-15" lat="37.380466462" lon="-121.812711699"><tag k="addr:city" v="San Jose"/><tag k="addr:housenumber" v="10810"/><tag k="addr:street" v="Ridgeview Avenue"/><tag k="addr:postcode" v="95127"/></node>
<node visible="true" id="-16" lat="37.379707136" lon="-121.813351092"><tag k="addr:city" v="San Jose"/><tag k="addr:housenumber" v="10815"/><tag k="addr:street" v="Ridgeview Court"/><tag k="addr:postcode" v="95127"/></node>
<node visible="true" id="-17" lat="37.377389218000005" lon="-121.813807275"><tag k="addr:city" v="San Jose"/><tag k="addr:housenumber" v="10816"/><tag k="addr:street" v="Hubbard Way"/><tag k="addr:postcode" v="95127"/></node>
<node visible="true" id="-18" lat="37.379497224000005" lon="-121.813672873"><tag k="addr:city" v="San Jose"/><tag k="addr:housenumber" v="10828"/><tag k="addr:street" v="Ridgeview Avenue"/><tag k="addr:postcode" v="95127"/></node>
<node visible="true" id="-19" lat="37.379427276" lon="-121.81448329400001"><tag k="addr:city" v="San Jose"/><tag k="addr:housenumber" v="10851"/><tag k="addr:street" v="Ridgeview Avenue"/><tag k="addr:postcode" v="95127"/></node>
<node visible="true" id="-20" lat="37.379863854" lon="-121.814504333"><tag k="addr:city" v="San Jose"/><tag k="addr:housenumber" v="10865"/><tag k="addr:street" v="Ridgeview Avenue"/><tag k="addr:postcode" v="95127"/></node>
<node visible="true" id="-21" lat="37.380881604" lon="-121.81460227100001"><tag k="addr:city" v="San Jose"/><tag k="addr:housenumber" v="10890"/><tag k="addr:street" v="Ridgeview Avenue"/><tag k="addr:postcode" v="95127"/></node>
<node visible="true" id="-22" lat="37.38115542" lon="-121.81488717"><tag k="addr:city" v="San Jose"/><tag k="addr:housenumber" v="10900"/><tag k="addr:street" v="Ridgeview Avenue"/><tag k="addr:postcode" v="95127"/></node>
<node visible="true" id="-23" lat="37.381542635" lon="-121.81456055400001"><tag k="addr:city" v="San Jose"/><tag k="addr:housenumber" v="10920"/><tag k="addr:street" v="Prieta Court"/><tag k="addr:postcode" v="95127"/></node>
<node visible="true" id="-24" lat="37.382174716" lon="-121.81425156300001"><tag k="addr:city" v="San Jose"/><tag k="addr:housenumber" v="10925"/><tag k="addr:street" v="Prieta Court"/><tag k="addr:postcode" v="95127"/></node>
<node visible="true" id="-25" lat="37.382086076" lon="-121.81550375100001"><tag k="addr:city" v="San Jose"/><tag k="addr:housenumber" v="10944"/><tag k="addr:street" v="Ridgeview Avenue"/><tag k="addr:postcode" v="95127"/></node>
<node visible="true" id="-26" lat="37.382360936000005" lon="-121.81569532600001"><tag k="addr:city" v="San Jose"/><tag k="addr:housenumber" v="10958"/><tag k="addr:street" v="Ridgeview Avenue"/><tag k="addr:postcode" v="95127"/></node>
<node visible="true" id="-27" lat="37.382880062000005" lon="-121.815957881"><tag k="addr:city" v="San Jose"/><tag k="addr:housenumber" v="10980"/><tag k="addr:street" v="Ridgeview Avenue"/><tag k="addr:postcode" v="95127"/></node>
<node visible="true" id="-28" lat="37.373231369" lon="-121.80725989400001"><tag k="addr:city" v="San Jose"/><tag k="addr:housenumber" v="430"/><tag k="addr:street" v="Porter Lane"/><tag k="addr:postcode" v="95127"/></node>
<node visible="true" id="-29" lat="37.373034398" lon="-121.806821454"><tag k="addr:city" v="San Jose"/><tag k="addr:housenumber" v="438"/><tag k="addr:street" v="Porter Lane"/><tag k="addr:postcode" v="95127"/></node>
<node visible="true" id="-30" lat="37.383506171" lon="-121.81596856700001"><tag k="addr:city" v="San Jose"/><tag k="addr:housenumber" v="5560"/><tag k="addr:street" v="Alum Rock Avenue"/><tag k="addr:postcode" v="95127"/></node>
<node visible="true" id="-31" lat="37.381323649" lon="-121.81582341200001"><tag k="addr:city" v="San Jose"/><tag k="addr:housenumber" v="69"/><tag k="addr:street" v="Ridgeview Avenue"/><tag k="addr:postcode" v="95127"/></node>
<node visible="true" id="-32" lat="37.380716913" lon="-121.815772725"><tag k="addr:city" v="San Jose"/><tag k="addr:housenumber" v="72"/><tag k="addr:street" v="Piazza Way"/><tag k="addr:postcode" v="95127"/></node>
<node visible="true" id="-33" lat="37.380553848000005" lon="-121.816063286"><tag k="addr:city" v="San Jose"/><tag k="addr:housenumber" v="86"/><tag k="addr:street" v="Piazza Way"/><tag k="addr:postcode" v="95127"/></node>
<node visible="true" id="-34" lat="37.376440881" lon="-121.804662207"><tag k="addr:city" v="San Jose"/><tag k="addr:housenumber" v="13921"/><tag k="addr:street" v="Observatory Drive"/><tag k="addr:postcode" v="95127"/></node>
<node visible="true" id="-35" lat="37.37334364" lon="-121.803802449"><tag k="addr:city" v="San Jose"/><tag k="addr:housenumber" v="10251"/><tag k="addr:street" v="Kenny Lane"/><tag k="addr:postcode" v="95127"/></node>
<node visible="true" id="-36" lat="37.379777546" lon="-121.814982592"><tag k="addr:city" v="San Jose"/><tag k="addr:housenumber" v="103"/><tag k="addr:street" v="Ridgeview Terrace"/><tag k="addr:postcode" v="95127"/></node>
<node visible="true" id="-37" lat="37.375555073" lon="-121.80988458700001"><tag k="addr:city" v="San Jose"/><tag k="addr:housenumber" v="15000"/><tag k="addr:street" v="Rolfe Court"/><tag k="addr:postcode" v="95127"/></node>
<node visible="true" id="-38" lat="37.375843141000004" lon="-121.805187621"><tag k="addr:city" v="San Jose"/><tag k="addr:housenumber" v="10340"/><tag k="addr:street" v="Anderson Road"/><tag k="addr:postcode" v="95127"/></node>
<node visible="true" id="-39" lat="37.37516482" lon="-121.80476688700001"><tag k="addr:city" v="San Jose"/><tag k="addr:housenumber" v="15051"/><tag k="addr:street" v="Garcal Drive"/><tag k="addr:postcode" v="95127"/></node>
<node visible="true" id="-40" lat="37.374920977" lon="-121.804145934"><tag k="addr:city" v="San Jose"/><tag k="addr:housenumber" v="15050"/><tag k="addr:street" v="Garcal Drive"/><tag k="addr:postcode" v="95127"/></node>
<node visible="true" id="-41" lat="37.376059785" lon="-121.805722203"><tag k="addr:city" v="San Jose"/><tag k="addr:housenumber" v="10360"/><tag k="addr:street" v="Anderson Road"/><tag k="addr:postcode" v="95127"/></node>
<node visible="true" id="-42" lat="37.377327622" lon="-121.806938004"><tag k="addr:city" v="San Jose"/><tag k="addr:housenumber" v="10380"/><tag k="addr:street" v="Anderson Road"/><tag k="addr:postcode" v="95127"/></node>
<node visible="true" id="-43" lat="37.377593077" lon="-121.80692475200001"><tag k="addr:city" v="San Jose"/><tag k="addr:housenumber" v="10381"/><tag k="addr:street" v="Observatory Drive"/><tag k="addr:postcode" v="95127"/></node>
<node visible="true" id="-44" lat="37.376282923000005" lon="-121.807483016"><tag k="addr:city" v="San Jose"/><tag k="addr:housenumber" v="10395"/><tag k="addr:street" v="Anderson Road"/><tag k="addr:postcode" v="95127"/></node>
<node visible="true" id="-45" lat="37.377626756000005" lon="-121.807244714"><tag k="addr:city" v="San Jose"/><tag k="addr:housenumber" v="10425"/><tag k="addr:street" v="Observatory Drive"/><tag k="addr:postcode" v="95127"/></node>
<node visible="true" id="-46" lat="37.377737822" lon="-121.80795028300001"><tag k="addr:city" v="San Jose"/><tag k="addr:housenumber" v="10455"/><tag k="addr:street" v="Observatory Drive"/><tag k="addr:postcode" v="95127"/></node>
<node visible="true" id="-47" lat="37.37400076" lon="-121.80726954000001"><tag k="addr:city" v="San Jose"/><tag k="addr:housenumber" v="10456"/><tag k="addr:street" v="Porter Lane"/><tag k="addr:postcode" v="95127"/></node>
<node visible="true" id="-48" lat="37.377586365" lon="-121.80831980200001"><tag k="addr:city" v="San Jose"/><tag k="addr:housenumber" v="10468"/><tag k="addr:street" v="Anderson Road"/><tag k="addr:postcode" v="95127"/></node>
<node visible="true" id="-49" lat="37.378083775" lon="-121.808735451"><tag k="addr:city" v="San Jose"/><tag k="addr:housenumber" v="10501"/><tag k="addr:street" v="Observatory Drive"/><tag k="addr:postcode" v="95127"/></node>
<node visible="true" id="-50" lat="37.378148334" lon="-121.80895596900001"><tag k="addr:city" v="San Jose"/><tag k="addr:housenumber" v="10521"/><tag k="addr:street" v="Observatory Drive"/><tag k="addr:postcode" v="95127"/></node>
<node visible="true" id="-51" lat="37.378586818" lon="-121.81532210300001"><tag k="addr:city" v="San Jose"/><tag k="addr:housenumber" v="179"/><tag k="addr:street" v="Piazza Way"/><tag k="addr:postcode" v="95127"/></node>
<node visible="true" id="-52" lat="37.377555225" lon="-121.81068548"><tag k="addr:city" v="San Jose"/><tag k="addr:housenumber" v="10625"/><tag k="addr:street" v="Olive Drive"/><tag k="addr:postcode" v="95127"/></node>
<node visible="true" id="-53" lat="37.375350193" lon="-121.81145499"><tag k="addr:city" v="San Jose"/><tag k="addr:housenumber" v="10640"/><tag k="addr:street" v="Porter Lane"/><tag k="addr:postcode" v="95127"/></node>
<node visible="true" id="-54" lat="37.37824684" lon="-121.810290816"><tag k="addr:city" v="San Jose"/><tag k="addr:housenumber" v="10645"/><tag k="addr:street" v="Olive Drive"/><tag k="addr:postcode" v="95127"/></node>
<node visible="true" id="-55" lat="37.375444833" lon="-121.81171154900001"><tag k="addr:city" v="San Jose"/><tag k="addr:housenumber" v="10650"/><tag k="addr:street" v="Porter Lane"/><tag k="addr:postcode" v="95127"/></node>
<node visible="true" id="-56" lat="37.375557382000004" lon="-121.81199492600001"><tag k="addr:city" v="San Jose"/><tag k="addr:housenumber" v="10660"/><tag k="addr:street" v="Porter Lane"/><tag k="addr:postcode" v="95127"/></node>
<node visible="true" id="-57" lat="37.378681554" lon="-121.811432112"><tag k="addr:city" v="San Jose"/><tag k="addr:housenumber" v="10675"/><tag k="addr:street" v="Ridgeview Way"/><tag k="addr:postcode" v="95127"/></node>
<node visible="true" id="-58" lat="37.378318711000006" lon="-121.81246575200001"><tag k="addr:city" v="San Jose"/><tag k="addr:housenumber" v="10750"/><tag k="addr:street" v="Ridgeview Avenue"/><tag k="addr:postcode" v="95127"/></node>
<node visible="true" id="-59" lat="37.376672752000005" lon="-121.81278759000001"><tag k="addr:city" v="San Jose"/><tag k="addr:housenumber" v="10760"/><tag k="addr:street" v="Hubbard Way"/><tag k="addr:postcode" v="95127"/></node>
<node visible="true" id="-60" lat="37.377358343000004" lon="-121.81018856600001"><tag k="addr:city" v="San Jose"/><tag k="addr:housenumber" v="10601"/><tag k="addr:street" v="Olive Drive"/><tag k="addr:postcode" v="95127"/></node>
<node visible="true" id="-61" lat="37.375185227" lon="-121.81116484200001"><tag k="addr:city" v="San Jose"/><tag k="addr:housenumber" v="10630"/><tag k="addr:street" v="Porter Lane"/><tag k="addr:postcode" v="95127"/></node>
<node visible="true" id="-62" lat="37.379449734000005" lon="-121.811947887"><tag k="addr:city" v="San Jose"/><tag k="addr:housenumber" v="10760"/><tag k="addr:street" v="Ridgeview Way"/><tag k="addr:postcode" v="95127"/></node>
<node visible="true" id="-63" lat="37.375415625" lon="-121.808827065"><tag k="addr:city" v="San Jose"/><tag k="addr:housenumber" v="509"/><tag k="addr:street" v="Porter Lane"/><tag k="addr:unit" v="A;B"/><tag k="addr:postcode" v="95127"/></node>
<node visible="true" id="-64" lat="37.379007764" lon="-121.810844345"><tag k="addr:city" v="San Jose"/><tag k="addr:housenumber" v="10674"/><tag k="addr:street" v="Ridgeview Way"/><tag k="addr:postcode" v="95127"/></node>
<node visible="true" id="-65" lat="37.378095077000005" lon="-121.811001696"><tag k="addr:city" v="San Jose"/><tag k="addr:housenumber" v="10639"/><tag k="addr:street" v="Ridgeview Way"/><tag k="addr:postcode" v="95127"/></node>
<node visible="true" id="-66" lat="37.379565122" lon="-121.811523178"><tag k="addr:city" v="San Jose"/><tag k="addr:housenumber" v="10740"/><tag k="addr:street" v="Ridgeview Way"/><tag k="addr:postcode" v="95127"/></node>
<node visible="true" id="-67" lat="37.380170368" lon="-121.81605652900001"><tag k="addr:city" v="San Jose"/><tag k="addr:housenumber" v="116"/><tag k="addr:street" v="Piazza Way"/><tag k="addr:postcode" v="95127"/></node>
<node visible="true" id="-68" lat="37.379282756" lon="-121.81540068500001"><tag k="addr:city" v="San Jose"/><tag k="addr:housenumber" v="148"/><tag k="addr:street" v="Piazza Way"/><tag k="addr:postcode" v="95127"/></node>
<node visible="true" id="-69" lat="37.378185645" lon="-121.81499494100001"><tag k="addr:city" v="San Jose"/><tag k="addr:housenumber" v="185"/><tag k="addr:street" v="Piazza Way"/><tag k="addr:postcode" v="95127"/></node>
<node visible="true" id="-70" lat="37.382650893000005" lon="-121.81577502500001"><tag k="addr:city" v="San Jose"/><tag k="addr:housenumber" v="10970"/><tag k="addr:street" v="Ridgeview Avenue"/><tag k="addr:postcode" v="95127"/></node>
<node visible="true" id="-71" lat="37.373695111" lon="-121.806115211"><tag k="addr:city" v="San Jose"/><tag k="addr:housenumber" v="14990"/><tag k="addr:street" v="Garcal Drive"/><tag k="addr:postcode" v="95127"/></node>
<node visible="true" id="-72" lat="37.379100985" lon="-121.81251949400001"><tag k="addr:city" v="San Jose"/><tag k="addr:housenumber" v="10761"/><tag k="addr:street" v="Ridgeview Way"/><tag k="addr:postcode" v="95127"/></node>
<node visible="true" id="-73" lat="37.378586327" lon="-121.812823871"><tag k="addr:city" v="San Jose"/><tag k="addr:housenumber" v="10770"/><tag k="addr:street" v="Ridgeview Avenue"/><tag k="addr:postcode" v="95127"/></node>
<node visible="true" id="-74" lat="37.376826507000004" lon="-121.813131654"><tag k="addr:city" v="San Jose"/><tag k="addr:housenumber" v="10766"/><tag k="addr:street" v="Hubbard Way"/><tag k="addr:postcode" v="95127"/></node>
<node visible="true" id="-75" lat="37.378449954000004" lon="-121.81263475200001"><tag k="addr:city" v="San Jose"/><tag k="addr:housenumber" v="10762"/><tag k="addr:street" v="Ridgeview Avenue"/><tag k="addr:postcode" v="95127"/></node>
<node visible="true" id="-76" lat="37.378142405000006" lon="-121.81328706100001"><tag k="addr:city" v="San Jose"/><tag k="addr:housenumber" v="10771"/><tag k="addr:street" v="Ridgeview Avenue"/><tag k="addr:postcode" v="95127"/></node>
<node visible="true" id="-77" lat="37.374023271000006" lon="-121.802306255"><tag k="addr:city" v="San Jose"/><tag k="addr:housenumber" v="10270"/><tag k="addr:street" v="Kenny Lane"/><tag k="addr:postcode" v="95127"/></node>
<node visible="true" id="-78" lat="37.377232136" lon="-121.80979711"><tag k="addr:city" v="San Jose"/><tag k="addr:housenumber" v="10555"/><tag k="addr:street" v="Olive Drive"/><tag k="addr:postcode" v="95127"/></node>
<node visible="true" id="-79" lat="37.37839444" lon="-121.814425123"><tag k="addr:city" v="San Jose"/><tag k="addr:housenumber" v="184"/><tag k="addr:street" v="Piazza Way"/><tag k="addr:postcode" v="95127"/></node>
<node visible="true" id="-80" lat="37.378333673" lon="-121.80962133800001"><tag k="addr:city" v="San Jose"/><tag k="addr:housenumber" v="10581"/><tag k="addr:street" v="Observatory Drive"/><tag k="addr:postcode" v="95127"/></node>
<node visible="true" id="-81" lat="37.380067996" lon="-121.814734306"><tag k="addr:city" v="San Jose"/><tag k="addr:housenumber" v="107"/><tag k="addr:street" v="Ridgeview Terrace"/><tag k="addr:postcode" v="95127"/></node>
<node visible="true" id="-82" lat="37.375785427000004" lon="-121.812727906"><tag k="addr:city" v="San Jose"/><tag k="addr:housenumber" v="10720"/><tag k="addr:street" v="Porter Lane"/><tag k="addr:postcode" v="95127"/></node>
<node visible="true" id="-83" lat="37.37588324" lon="-121.812897069"><tag k="addr:city" v="San Jose"/><tag k="addr:housenumber" v="10724"/><tag k="addr:street" v="Porter Lane"/><tag k="addr:postcode" v="95127"/></node>
<node visible="true" id="-84" lat="37.378166158" lon="-121.81229634500001"><tag k="addr:city" v="San Jose"/><tag k="addr:housenumber" v="10740"/><tag k="addr:street" v="Ridgeview Avenue"/><tag k="addr:postcode" v="95127"/></node>
<node visible="true" id="-85" lat="37.3778906" lon="-121.812939682"><tag k="addr:city" v="San Jose"/><tag k="addr:housenumber" v="10751"/><tag k="addr:street" v="Ridgeview Avenue"/><tag k="addr:postcode" v="95127"/></node>
<node visible="true" id="-86" lat="37.379270043000005" lon="-121.81264251900001"><tag k="addr:city" v="San Jose"/><tag k="addr:housenumber" v="10775"/><tag k="addr:street" v="Ridgeview Way"/><tag k="addr:postcode" v="95127"/></node>
<node visible="true" id="-87" lat="37.377032194" lon="-121.81343481600001"><tag k="addr:city" v="San Jose"/><tag k="addr:housenumber" v="10804"/><tag k="addr:street" v="Hubbard Way"/><tag k="addr:postcode" v="95127"/></node>
<node visible="true" id="-88" lat="37.377178422" lon="-121.81358514600001"><tag k="addr:city" v="San Jose"/><tag k="addr:housenumber" v="10806"/><tag k="addr:street" v="Hubbard Way"/><tag k="addr:postcode" v="95127"/></node>
<node visible="true" id="-89" lat="37.380001894" lon="-121.813151923"><tag k="addr:city" v="San Jose"/><tag k="addr:housenumber" v="10809"/><tag k="addr:street" v="Ridgeview Way"/><tag k="addr:postcode" v="95127"/></node>
<node visible="true" id="-90" lat="37.380127245000004" lon="-121.81343489100001"><tag k="addr:city" v="San Jose"/><tag k="addr:housenumber" v="10817"/><tag k="addr:street" v="Ridgeview Way"/><tag k="addr:postcode" v="95127"/></node>
<node visible="true" id="-91" lat="37.380976335" lon="-121.813325425"><tag k="addr:city" v="San Jose"/><tag k="addr:housenumber" v="10830"/><tag k="addr:street" v="Ridgeview Way"/><tag k="addr:postcode" v="95127"/></node>
<node visible="true" id="-92" lat="37.379047385" lon="-121.81415650800001"><tag k="addr:city" v="San Jose"/><tag k="addr:housenumber" v="10831"/><tag k="addr:street" v="Ridgeview Avenue"/><tag k="addr:postcode" v="95127"/></node>
<node visible="true" id="-93" lat="37.38050544" lon="-121.813761408"><tag k="addr:city" v="San Jose"/><tag k="addr:housenumber" v="10831"/><tag k="addr:street" v="Ridgeview Way"/><tag k="addr:postcode" v="95127"/></node>
<node visible="true" id="-94" lat="37.382003251" lon="-121.81379185"><tag k="addr:city" v="San Jose"/><tag k="addr:housenumber" v="10935"/><tag k="addr:street" v="Prieta Court"/><tag k="addr:postcode" v="95127"/></node>
<node visible="true" id="-95" lat="37.381428096" lon="-121.813371473"><tag k="addr:city" v="San Jose"/><tag k="addr:housenumber" v="10960"/><tag k="addr:street" v="Prieta Court"/><tag k="addr:postcode" v="95127"/></node>
<node visible="true" id="-96" lat="37.373130154" lon="-121.807035447"><tag k="addr:city" v="San Jose"/><tag k="addr:housenumber" v="434"/><tag k="addr:street" v="Porter Lane"/><tag k="addr:postcode" v="95127"/></node>
<node visible="true" id="-97" lat="37.372359882000005" lon="-121.80681905"><tag k="addr:city" v="San Jose"/><tag k="addr:housenumber" v="443"/><tag k="addr:street" v="Porter Lane"/><tag k="addr:postcode" v="95127"/></node>
<node visible="true" id="-98" lat="37.372007259" lon="-121.806237064"><tag k="addr:city" v="San Jose"/><tag k="addr:housenumber" v="457"/><tag k="addr:street" v="Porter Lane"/><tag k="addr:postcode" v="95127"/></node>
<node visible="true" id="-99" lat="37.372267133" lon="-121.805309132"><tag k="addr:city" v="San Jose"/><tag k="addr:housenumber" v="466"/><tag k="addr:street" v="Porter Lane"/><tag k="addr:postcode" v="95127"/></node>
<node visible="true" id="-100" lat="37.375748615" lon="-121.801587917"><tag k="addr:city" v="San Jose"/><tag k="addr:housenumber" v="12095"/><tag k="addr:street" v="Mount Hamilton Road"/><tag k="addr:postcode" v="95127"/></node>
<node visible="true" id="-101" lat="37.375931552000004" lon="-121.806914542"><tag k="addr:city" v="San Jose"/><tag k="addr:housenumber" v="10200"/><tag k="addr:street" v="Anderson Road"/><tag k="addr:postcode" v="95127"/></node>
<node visible="true" id="-102" lat="37.376737891000005" lon="-121.80524665700001"><tag k="addr:city" v="San Jose"/><tag k="addr:housenumber" v="13941"/><tag k="addr:street" v="Observatory Drive"/><tag k="addr:postcode" v="95127"/></node>
<node visible="true" id="-103" lat="37.375620078000004" lon="-121.80266051400001"><tag k="addr:city" v="San Jose"/><tag k="addr:housenumber" v="10300"/><tag k="addr:street" v="Kenny Lane"/><tag k="addr:postcode" v="95127"/></node>
<node visible="true" id="-104" lat="37.375418658" lon="-121.80558994900001"><tag k="addr:city" v="San Jose"/><tag k="addr:housenumber" v="10310"/><tag k="addr:street" v="Anderson Road"/><tag k="addr:postcode" v="95127"/></node>
<node visible="true" id="-105" lat="37.375608331" lon="-121.80364352500001"><tag k="addr:city" v="San Jose"/><tag k="addr:housenumber" v="10315"/><tag k="addr:street" v="Kenny Lane"/><tag k="addr:postcode" v="95127"/></node>
<node visible="true" id="-106" lat="37.374426671" lon="-121.804556231"><tag k="addr:city" v="San Jose"/><tag k="addr:housenumber" v="15030"/><tag k="addr:street" v="Garcal Drive"/><tag k="addr:postcode" v="95127"/></node>
<node visible="true" id="-107" lat="37.375457314" lon="-121.804967352"><tag k="addr:city" v="San Jose"/><tag k="addr:housenumber" v="15101"/><tag k="addr:street" v="Garcal Drive"/><tag k="addr:postcode" v="95127"/></node>
<node visible="true" id="-108" lat="37.375814042" lon="-121.80401586900001"><tag k="addr:city" v="San Jose"/><tag k="addr:housenumber" v="15131"/><tag k="addr:street" v="Garcal Drive"/><tag k="addr:postcode" v="95127"/></node>
<node visible="true" id="-109" lat="37.377335936" lon="-121.805871034"><tag k="addr:city" v="San Jose"/><tag k="addr:housenumber" v="10391"/><tag k="addr:street" v="Observatory Drive"/><tag k="addr:postcode" v="95127"/></node>
<node visible="true" id="-110" lat="37.377380542000004" lon="-121.80738227900001"><tag k="addr:city" v="San Jose"/><tag k="addr:housenumber" v="10400"/><tag k="addr:street" v="Anderson Road"/><tag k="addr:postcode" v="95127"/></node>
<node visible="true" id="-111" lat="37.379164131" lon="-121.81514554200001"><tag k="addr:city" v="San Jose"/><tag k="addr:housenumber" v="158"/><tag k="addr:street" v="Piazza Way"/><tag k="addr:postcode" v="95127"/></node>
<node visible="true" id="-112" lat="37.377510846" lon="-121.80811162200001"><tag k="addr:city" v="San Jose"/><tag k="addr:housenumber" v="10444"/><tag k="addr:street" v="Anderson Road"/><tag k="addr:postcode" v="95127"/></node>
<node visible="true" id="-113" lat="37.377282541" lon="-121.80863064900001"><tag k="addr:city" v="San Jose"/><tag k="addr:housenumber" v="10469"/><tag k="addr:street" v="Anderson Road"/><tag k="addr:postcode" v="95127"/></node>
<node visible="true" id="-114" lat="37.377738157" lon="-121.808678559"><tag k="addr:city" v="San Jose"/><tag k="addr:housenumber" v="10486"/><tag k="addr:street" v="Anderson Road"/><tag k="addr:postcode" v="95127"/></node>
<node visible="true" id="-115" lat="37.377921808" lon="-121.809116247"><tag k="addr:city" v="San Jose"/><tag k="addr:housenumber" v="10520"/><tag k="addr:street" v="Anderson Road"/><tag k="addr:postcode" v="95127"/></node>
<node visible="true" id="-116" lat="37.378827907" lon="-121.81472617700001"><tag k="addr:city" v="San Jose"/><tag k="addr:housenumber" v="180"/><tag k="addr:street" v="Piazza Way"/><tag k="addr:postcode" v="95127"/></node>
<node visible="true" id="-117" lat="37.379003914" lon="-121.81167753800001"><tag k="addr:city" v="San Jose"/><tag k="addr:housenumber" v="10715"/><tag k="addr:street" v="Ridgeview Way"/><tag k="addr:postcode" v="95127"/></node>
<node visible="true" id="-118" lat="37.377707896000004" lon="-121.813892905"><tag k="addr:city" v="San Jose"/><tag k="addr:housenumber" v="202"/><tag k="addr:street" v="Hubbard Way"/><tag k="addr:postcode" v="95127"/></node>
<node visible="true" id="-119" lat="37.378571322" lon="-121.813854742"><tag k="addr:city" v="San Jose"/><tag k="addr:housenumber" v="10811"/><tag k="addr:street" v="Ridgeview Avenue"/><tag k="addr:postcode" v="95127"/></node>
<node visible="true" id="-120" lat="37.377573438" lon="-121.813530415"><tag k="addr:city" v="San Jose"/><tag k="addr:housenumber" v="10812"/><tag k="addr:street" v="Hubbard Way"/><tag k="addr:postcode" v="95127"/></node>
<node visible="true" id="-121" lat="37.37914647" lon="-121.81342972600001"><tag k="addr:city" v="San Jose"/><tag k="addr:housenumber" v="10812"/><tag k="addr:street" v="Ridgeview Avenue"/><tag k="addr:postcode" v="95127"/></node>
<node visible="true" id="-122" lat="37.379007061" lon="-121.81297699900001"><tag k="addr:city" v="San Jose"/><tag k="addr:housenumber" v="10816"/><tag k="addr:street" v="Ridgeview Court"/><tag k="addr:postcode" v="95127"/></node>
<node visible="true" id="-123" lat="37.378804012" lon="-121.81400553"><tag k="addr:city" v="San Jose"/><tag k="addr:housenumber" v="10821"/><tag k="addr:street" v="Ridgeview Avenue"/><tag k="addr:postcode" v="95127"/></node>
<node visible="true" id="-124" lat="37.380323094000005" lon="-121.81358145300001"><tag k="addr:city" v="San Jose"/><tag k="addr:housenumber" v="10829"/><tag k="addr:street" v="Ridgeview Way"/><tag k="addr:postcode" v="95127"/></node>
<node visible="true" id="-125" lat="37.381878008" lon="-121.81539864800001"><tag k="addr:city" v="San Jose"/><tag k="addr:housenumber" v="10920"/><tag k="addr:street" v="Ridgeview Avenue"/><tag k="addr:postcode" v="95127"/></node>
<node visible="true" id="-126" lat="37.381981733" lon="-121.813407885"><tag k="addr:city" v="San Jose"/><tag k="addr:housenumber" v="10945"/><tag k="addr:street" v="Prieta Court"/><tag k="addr:postcode" v="95127"/></node>
<node visible="true" id="-127" lat="37.380963336" lon="-121.81396349"><tag k="addr:city" v="San Jose"/><tag k="addr:housenumber" v="10952"/><tag k="addr:street" v="Prieta Court"/><tag k="addr:postcode" v="95127"/></node>
<node visible="true" id="-128" lat="37.372795406" lon="-121.80738322200001"><tag k="addr:city" v="San Jose"/><tag k="addr:housenumber" v="3990"/><tag k="addr:street" v="Blue Gum Drive"/><tag k="addr:postcode" v="95127"/></node>
<node visible="true" id="-129" lat="37.372482535" lon="-121.80702996800001"><tag k="addr:city" v="San Jose"/><tag k="addr:housenumber" v="439"/><tag k="addr:street" v="Porter Lane"/><tag k="addr:postcode" v="95127"/></node>
<node visible="true" id="-130" lat="37.372934911" lon="-121.80659965400001"><tag k="addr:city" v="San Jose"/><tag k="addr:housenumber" v="442"/><tag k="addr:street" v="Porter Lane"/><tag k="addr:postcode" v="95127"/></node>
<node visible="true" id="-131" lat="37.372645648" lon="-121.80622775"><tag k="addr:city" v="San Jose"/><tag k="addr:housenumber" v="450"/><tag k="addr:street" v="Porter Lane"/><tag k="addr:postcode" v="95127"/></node>
<node visible="true" id="-132" lat="37.372122783" lon="-121.80643209"><tag k="addr:city" v="San Jose"/><tag k="addr:housenumber" v="451"/><tag k="addr:street" v="Porter Lane"/><tag k="addr:postcode" v="95127"/></node>
<node visible="true" id="-133" lat="37.372531818" lon="-121.80572018000001"><tag k="addr:city" v="San Jose"/><tag k="addr:housenumber" v="458"/><tag k="addr:street" v="Porter Lane"/><tag k="addr:postcode" v="95127"/></node>
<node visible="true" id="-134" lat="37.383132887" lon="-121.81620135700001"><tag k="addr:city" v="San Jose"/><tag k="addr:housenumber" v="5540"/><tag k="addr:street" v="Alum Rock Avenue"/><tag k="addr:postcode" v="95127"/></node>
<node visible="true" id="-135" lat="37.383319316000005" lon="-121.816078282"><tag k="addr:city" v="San Jose"/><tag k="addr:housenumber" v="5550"/><tag k="addr:street" v="Alum Rock Avenue"/><tag k="addr:postcode" v="95127"/></node>
<node visible="true" id="-136" lat="37.380701913" lon="-121.81521227200001"><tag k="addr:city" v="San Jose"/><tag k="addr:housenumber" v="85"/><tag k="addr:street" v="Ridgeview Avenue"/><tag k="addr:postcode" v="95127"/></node>
<node visible="true" id="-137" lat="37.380617778" lon="-121.817011382"><tag k="addr:city" v="San Jose"/><tag k="addr:housenumber" v="95"/><tag k="addr:street" v="Piazza Way"/><tag k="addr:postcode" v="95127"/></node>
<node visible="true" id="-138" lat="37.373892113000004" lon="-121.803601802"><tag k="addr:city" v="San Jose"/><tag k="addr:housenumber" v="10281"/><tag k="addr:street" v="Kenny Lane"/><tag k="addr:postcode" v="95127"/></node>
<node visible="true" id="-139" lat="37.372809806" lon="-121.80493875600001"><tag k="addr:city" v="San Jose"/><tag k="addr:housenumber" v="10289"/><tag k="addr:street" v="Kenny Lane"/><tag k="addr:postcode" v="95127"/></node>
<node visible="true" id="-140" lat="37.373506019000004" lon="-121.80437368000001"><tag k="addr:city" v="San Jose"/><tag k="addr:housenumber" v="10291"/><tag k="addr:street" v="Kenny Lane"/><tag k="addr:postcode" v="95127"/></node>
<node visible="true" id="-141" lat="37.374650434" lon="-121.80222956300001"><tag k="addr:city" v="San Jose"/><tag k="addr:housenumber" v="10292"/><tag k="addr:street" v="Kenny Lane"/><tag k="addr:postcode" v="95127"/></node>
<node visible="true" id="-142" lat="37.373710405000004" lon="-121.804803022"><tag k="addr:city" v="San Jose"/><tag k="addr:housenumber" v="10295"/><tag k="addr:street" v="Kenny Lane"/><tag k="addr:postcode" v="95127"/></node>
<node visible="true" id="-143" lat="37.375396463" lon="-121.80339749000001"><tag k="addr:city" v="San Jose"/><tag k="addr:housenumber" v="10309"/><tag k="addr:street" v="Kenny Lane"/><tag k="addr:postcode" v="95127"/></node>
<node visible="true" id="-144" lat="37.375857099" lon="-121.80306307000001"><tag k="addr:city" v="San Jose"/><tag k="addr:housenumber" v="10310"/><tag k="addr:street" v="Kenny Lane"/><tag k="addr:postcode" v="95127"/></node>
<node visible="true" id="-145" lat="37.375293994" lon="-121.81027309400001"><tag k="addr:city" v="San Jose"/><tag k="addr:housenumber" v="14980"/><tag k="addr:street" v="Rolfe Court"/><tag k="addr:postcode" v="95127"/></node>
<node visible="true" id="-146" lat="37.374494813000005" lon="-121.80574372000001"><tag k="addr:city" v="San Jose"/><tag k="addr:housenumber" v="15001"/><tag k="addr:street" v="Garcal Drive"/><tag k="addr:postcode" v="95127"/></node>
<node visible="true" id="-147" lat="37.375201016000005" lon="-121.803865947"><tag k="addr:city" v="San Jose"/><tag k="addr:housenumber" v="15100"/><tag k="addr:street" v="Garcal Drive"/><tag k="addr:postcode" v="95127"/></node>
<node visible="true" id="-148" lat="37.376420913000004" lon="-121.80337272300001"><tag k="addr:city" v="San Jose"/><tag k="addr:housenumber" v="15183"/><tag k="addr:street" v="Garcal Drive"/><tag k="addr:postcode" v="95127"/></node>
<node visible="true" id="-149" lat="37.376775153000004" lon="-121.80277011000001"><tag k="addr:city" v="San Jose"/><tag k="addr:housenumber" v="15191"/><tag k="addr:street" v="Garcal Drive"/><tag k="addr:postcode" v="95127"/></node>
<node visible="true" id="-150" lat="37.376115889000005" lon="-121.80371130500001"><tag k="addr:city" v="San Jose"/><tag k="addr:housenumber" v="15205"/><tag k="addr:street" v="Garcal Drive"/><tag k="addr:postcode" v="95127"/></node>
<node visible="true" id="-151" lat="37.37719115" lon="-121.805585444"><tag k="addr:city" v="San Jose"/><tag k="addr:housenumber" v="10383"/><tag k="addr:street" v="Observatory Drive"/><tag k="addr:postcode" v="95127"/></node>
<node visible="true" id="-152" lat="37.377659744" lon="-121.808542607"><tag k="addr:city" v="San Jose"/><tag k="addr:housenumber" v="10472"/><tag k="addr:street" v="Anderson Road"/><tag k="addr:postcode" v="95127"/></node>
<node visible="true" id="-153" lat="37.376894533000005" lon="-121.80904210700001"><tag k="addr:city" v="San Jose"/><tag k="addr:housenumber" v="10473"/><tag k="addr:street" v="Anderson Road"/><tag k="addr:postcode" v="95127"/></node>
<node visible="true" id="-154" lat="37.378722916" lon="-121.81553790000001"><tag k="addr:city" v="San Jose"/><tag k="addr:housenumber" v="165"/><tag k="addr:street" v="Piazza Way"/><tag k="addr:postcode" v="95127"/></node>
<node visible="true" id="-155" lat="37.377429306" lon="-121.80892295800001"><tag k="addr:city" v="San Jose"/><tag k="addr:housenumber" v="10501"/><tag k="addr:street" v="Olive Drive"/><tag k="addr:postcode" v="95127"/></node>
<node visible="true" id="-156" lat="37.378964603" lon="-121.81488863300001"><tag k="addr:city" v="San Jose"/><tag k="addr:housenumber" v="172"/><tag k="addr:street" v="Piazza Way"/><tag k="addr:postcode" v="95127"/></node>
<node visible="true" id="-157" lat="37.378397023000005" lon="-121.81514535800001"><tag k="addr:city" v="San Jose"/><tag k="addr:housenumber" v="181"/><tag k="addr:street" v="Piazza Way"/><tag k="addr:postcode" v="95127"/></node>
<node visible="true" id="-158" lat="37.378107130000004" lon="-121.814393393"><tag k="addr:city" v="San Jose"/><tag k="addr:housenumber" v="186"/><tag k="addr:street" v="Piazza Way"/><tag k="addr:postcode" v="95127"/></node>
<node visible="true" id="-159" lat="37.378086699" lon="-121.81174844300001"><tag k="addr:city" v="San Jose"/><tag k="addr:housenumber" v="10710"/><tag k="addr:street" v="Ridgeview Avenue"/><tag k="addr:postcode" v="95127"/></node>
<node visible="true" id="-160" lat="37.377710084" lon="-121.81274593200001"><tag k="addr:city" v="San Jose"/><tag k="addr:housenumber" v="10741"/><tag k="addr:street" v="Ridgeview Avenue"/><tag k="addr:postcode" v="95127"/></node>
<node visible="true" id="-161" lat="37.378759731" lon="-121.812080053"><tag k="addr:city" v="San Jose"/><tag k="addr:housenumber" v="10745"/><tag k="addr:street" v="Ridgeview Way"/><tag k="addr:postcode" v="95127"/></node>
<node visible="true" id="-162" lat="37.378031923" lon="-121.81309646700001"><tag k="addr:city" v="San Jose"/><tag k="addr:housenumber" v="10761"/><tag k="addr:street" v="Ridgeview Avenue"/><tag k="addr:postcode" v="95127"/></node>
<node visible="true" id="-163" lat="37.378255779" lon="-121.813489168"><tag k="addr:city" v="San Jose"/><tag k="addr:housenumber" v="10785"/><tag k="addr:street" v="Ridgeview Avenue"/><tag k="addr:postcode" v="95127"/></node>
<node visible="true" id="-164" lat="37.379373825" lon="-121.81290159500001"><tag k="addr:city" v="San Jose"/><tag k="addr:housenumber" v="10818"/><tag k="addr:street" v="Ridgeview Court"/><tag k="addr:postcode" v="95127"/></node>
<node visible="true" id="-165" lat="37.379248284" lon="-121.814293418"><tag k="addr:city" v="San Jose"/><tag k="addr:housenumber" v="10839"/><tag k="addr:street" v="Ridgeview Avenue"/><tag k="addr:postcode" v="95127"/></node>
<node visible="true" id="-166" lat="37.379735688000004" lon="-121.81380115200001"><tag k="addr:city" v="San Jose"/><tag k="addr:housenumber" v="10840"/><tag k="addr:street" v="Ridgeview Avenue"/><tag k="addr:postcode" v="95127"/></node>
<node visible="true" id="-167" lat="37.379936332" lon="-121.81393399500001"><tag k="addr:city" v="San Jose"/><tag k="addr:housenumber" v="10852"/><tag k="addr:street" v="Ridgeview Avenue"/><tag k="addr:postcode" v="95127"/></node>
<node visible="true" id="-168" lat="37.380391530000004" lon="-121.816287152"><tag k="addr:city" v="San Jose"/><tag k="addr:housenumber" v="100"/><tag k="addr:street" v="Piazza Way"/><tag k="addr:postcode" v="95127"/></node>
<node visible="true" id="-169" lat="37.381229216" lon="-121.81378240100001"><tag k="addr:city" v="San Jose"/><tag k="addr:housenumber" v="10940"/><tag k="addr:street" v="Prieta Court"/><tag k="addr:postcode" v="95127"/></node>
<node visible="true" id="-170" lat="37.381151789" lon="-121.814260239"><tag k="addr:city" v="San Jose"/><tag k="addr:housenumber" v="10946"/><tag k="addr:street" v="Prieta Court"/><tag k="addr:postcode" v="95127"/></node>
<node visible="true" id="-171" lat="37.382577984" lon="-121.814392041"><tag k="addr:city" v="San Jose"/><tag k="addr:housenumber" v="11145"/><tag k="addr:street" v="Mount Hamilton Road"/><tag k="addr:postcode" v="95127"/></node>
<node visible="true" id="-172" lat="37.372836849" lon="-121.80638558800001"><tag k="addr:city" v="San Jose"/><tag k="addr:housenumber" v="446"/><tag k="addr:street" v="Porter Lane"/><tag k="addr:postcode" v="95127"/></node>
<node visible="true" id="-173" lat="37.38272362" lon="-121.81639492400001"><tag k="addr:city" v="San Jose"/><tag k="addr:housenumber" v="5520"/><tag k="addr:street" v="Alum Rock Avenue"/><tag k="addr:postcode" v="95127"/></node>
<node visible="true" id="-174" lat="37.374942284" lon="-121.80158298600001"><tag k="addr:city" v="San Jose"/><tag k="addr:housenumber" v="12125"/><tag k="addr:street" v="Mount Hamilton Road"/><tag k="addr:postcode" v="95127"/></node>
<node visible="true" id="-175" lat="37.374481527" lon="-121.800946154"><tag k="addr:city" v="San Jose"/><tag k="addr:housenumber" v="12155"/><tag k="addr:street" v="Mount Hamilton Road"/><tag k="addr:postcode" v="95127"/></node>
<node visible="true" id="-176" lat="37.379937504000004" lon="-121.815919049"><tag k="addr:city" v="San Jose"/><tag k="addr:housenumber" v="124"/><tag k="addr:street" v="Piazza Way"/><tag k="addr:postcode" v="95127"/></node>
<node visible="true" id="-177" lat="37.381074770000005" lon="-121.81616581300001"><tag k="addr:city" v="San Jose"/><tag k="addr:housenumber" v="73"/><tag k="addr:street" v="Piazza Court"/><tag k="addr:postcode" v="95127"/></node>
<node visible="true" id="-178" lat="37.379683806" lon="-121.815741172"><tag k="addr:city" v="San Jose"/><tag k="addr:housenumber" v="130"/><tag k="addr:street" v="Piazza Way"/><tag k="addr:postcode" v="95127"/></node>
<node visible="true" id="-179" lat="37.374456111" lon="-121.802683856"><tag k="addr:city" v="San Jose"/><tag k="addr:housenumber" v="10288"/><tag k="addr:street" v="Kenny Lane"/><tag k="addr:postcode" v="95127"/></node>
<node visible="true" id="-180" lat="37.375316134" lon="-121.801680226"><tag k="addr:city" v="San Jose"/><tag k="addr:housenumber" v="10296"/><tag k="addr:street" v="Kenny Lane"/><tag k="addr:postcode" v="95127"/></node>
<node visible="true" id="-181" lat="37.375188885" lon="-121.80313866200001"><tag k="addr:city" v="San Jose"/><tag k="addr:housenumber" v="10301"/><tag k="addr:street" v="Kenny Lane"/><tag k="addr:postcode" v="95127"/></node>
<node visible="true" id="-182" lat="37.375597581" lon="-121.806339702"><tag k="addr:city" v="San Jose"/><tag k="addr:housenumber" v="10325"/><tag k="addr:street" v="Anderson Road"/><tag k="addr:postcode" v="95127"/></node>
<node visible="true" id="-183" lat="37.37640426" lon="-121.80613346400001"><tag k="addr:city" v="San Jose"/><tag k="addr:housenumber" v="10330"/><tag k="addr:street" v="Anderson Road"/><tag k="addr:postcode" v="95127"/></node>
<node visible="true" id="-184" lat="37.375553329" lon="-121.81070425300001"><tag k="addr:city" v="San Jose"/><tag k="addr:housenumber" v="14990"/><tag k="addr:street" v="Rolfe Court"/><tag k="addr:postcode" v="95127"/></node>
<node visible="true" id="-185" lat="37.375862963" lon="-121.81141728700001"><tag k="addr:city" v="San Jose"/><tag k="addr:housenumber" v="14995"/><tag k="addr:street" v="Rolfe Court"/><tag k="addr:postcode" v="95127"/></node>
<node visible="true" id="-186" lat="37.374144059" lon="-121.805062288"><tag k="addr:city" v="San Jose"/><tag k="addr:housenumber" v="14999"/><tag k="addr:street" v="Garcal Drive"/><tag k="addr:postcode" v="95127"/></node>
<node visible="true" id="-187" lat="37.374763387" lon="-121.80365531500001"><tag k="addr:city" v="San Jose"/><tag k="addr:housenumber" v="15090"/><tag k="addr:street" v="Garcal Drive"/><tag k="addr:postcode" v="95127"/></node>
<node visible="true" id="-188" lat="37.375503478" lon="-121.80438298600001"><tag k="addr:city" v="San Jose"/><tag k="addr:housenumber" v="15123"/><tag k="addr:street" v="Garcal Drive"/><tag k="addr:postcode" v="95127"/></node>
<node visible="true" id="-189" lat="37.375024543" lon="-121.80540863200001"><tag k="addr:city" v="San Jose"/><tag k="addr:housenumber" v="15155"/><tag k="addr:street" v="Garcal Drive"/><tag k="addr:postcode" v="95127"/></node>
<node visible="true" id="-190" lat="37.377485024" lon="-121.80627843900001"><tag k="addr:city" v="San Jose"/><tag k="addr:housenumber" v="10395"/><tag k="addr:street" v="Observatory Drive"/><tag k="addr:postcode" v="95127"/></node>
<node visible="true" id="-191" lat="37.376600077" lon="-121.8081293"><tag k="addr:city" v="San Jose"/><tag k="addr:housenumber" v="10425"/><tag k="addr:street" v="Anderson Road"/><tag k="addr:postcode" v="95127"/></node>
<node visible="true" id="-192" lat="37.377697477000005" lon="-121.807610034"><tag k="addr:city" v="San Jose"/><tag k="addr:housenumber" v="10431"/><tag k="addr:street" v="Observatory Drive"/><tag k="addr:postcode" v="95127"/></node>
<node visible="true" id="-193" lat="37.377995991" lon="-121.808545881"><tag k="addr:city" v="San Jose"/><tag k="addr:housenumber" v="10487"/><tag k="addr:street" v="Observatory Drive"/><tag k="addr:postcode" v="95127"/></node>
<node visible="true" id="-194" lat="37.377821520000005" lon="-121.808897685"><tag k="addr:city" v="San Jose"/><tag k="addr:housenumber" v="10500"/><tag k="addr:street" v="Anderson Road"/><tag k="addr:postcode" v="95127"/></node>
<node visible="true" id="-195" lat="37.378247772" lon="-121.809088333"><tag k="addr:city" v="San Jose"/><tag k="addr:housenumber" v="10541"/><tag k="addr:street" v="Observatory Drive"/><tag k="addr:postcode" v="95127"/></node>
<node visible="true" id="-196" lat="37.378019985" lon="-121.809359107"><tag k="addr:city" v="San Jose"/><tag k="addr:housenumber" v="10550"/><tag k="addr:street" v="Anderson Road"/><tag k="addr:postcode" v="95127"/></node>
<node visible="true" id="-197" lat="37.378294712" lon="-121.80933449300001"><tag k="addr:city" v="San Jose"/><tag k="addr:housenumber" v="10561"/><tag k="addr:street" v="Observatory Drive"/><tag k="addr:postcode" v="95127"/></node>
<node visible="true" id="-198" lat="37.378648467000005" lon="-121.81457628800001"><tag k="addr:city" v="San Jose"/><tag k="addr:housenumber" v="182"/><tag k="addr:street" v="Piazza Way"/><tag k="addr:postcode" v="95127"/></node>
<node visible="true" id="-199" lat="37.3779082" lon="-121.814083116"><tag k="addr:city" v="San Jose"/><tag k="addr:housenumber" v="200"/><tag k="addr:street" v="Hubbard Way"/><tag k="addr:postcode" v="95127"/></node>
<node visible="true" id="-200" lat="37.378974920000005" lon="-121.81236390500001"><tag k="addr:city" v="San Jose"/><tag k="addr:housenumber" v="10731"/><tag k="addr:street" v="Ridgeview Avenue"/><tag k="addr:postcode" v="95127"/></node>
<node visible="true" id="-201" lat="37.376129527" lon="-121.812691997"><tag k="addr:city" v="San Jose"/><tag k="addr:housenumber" v="10759"/><tag k="addr:street" v="Hubbard Way"/><tag k="addr:postcode" v="95127"/></node>
<node visible="true" id="-202" lat="37.379745276" lon="-121.81198526000001"><tag k="addr:city" v="San Jose"/><tag k="addr:housenumber" v="10780"/><tag k="addr:street" v="Ridgeview Way"/><tag k="addr:postcode" v="95127"/></node>
<node visible="true" id="-203" lat="37.379978144" lon="-121.812100838"><tag k="addr:city" v="San Jose"/><tag k="addr:housenumber" v="10790"/><tag k="addr:street" v="Ridgeview Way"/><tag k="addr:postcode" v="95127"/></node>
<node visible="true" id="-204" lat="37.380262462000005" lon="-121.81239258400001"><tag k="addr:city" v="San Jose"/><tag k="addr:housenumber" v="10800"/><tag k="addr:street" v="Ridgeview Way"/><tag k="addr:postcode" v="95127"/></node>
<node visible="true" id="-205" lat="37.378410838" lon="-121.81364808900001"><tag k="addr:city" v="San Jose"/><tag k="addr:housenumber" v="10801"/><tag k="addr:street" v="Ridgeview Avenue"/><tag k="addr:postcode" v="95127"/></node>
<node visible="true" id="-206" lat="37.380739435" lon="-121.81305250700001"><tag k="addr:city" v="San Jose"/><tag k="addr:housenumber" v="10820"/><tag k="addr:street" v="Ridgeview Way"/><tag k="addr:postcode" v="95127"/></node>
<node visible="true" id="-207" lat="37.380147731" lon="-121.81407777000001"><tag k="addr:city" v="San Jose"/><tag k="addr:housenumber" v="10860"/><tag k="addr:street" v="Ridgeview Avenue"/><tag k="addr:postcode" v="95127"/></node>
<node visible="true" id="-208" lat="37.379541169" lon="-121.814778727"><tag k="addr:city" v="San Jose"/><tag k="addr:housenumber" v="10863"/><tag k="addr:street" v="Ridgeview Avenue"/><tag k="addr:postcode" v="95127"/></node>
<node visible="true" id="-209" lat="37.38053308" lon="-121.81432938"><tag k="addr:city" v="San Jose"/><tag k="addr:housenumber" v="10880"/><tag k="addr:street" v="Ridgeview Avenue"/><tag k="addr:postcode" v="95127"/></node>
<node visible="true" id="-210" lat="37.381440636" lon="-121.815105598"><tag k="addr:city" v="San Jose"/><tag k="addr:housenumber" v="10910"/><tag k="addr:street" v="Ridgeview Avenue"/><tag k="addr:postcode" v="95127"/></node>
<node visible="true" id="-211" lat="37.381515602" lon="-121.814119906"><tag k="addr:city" v="San Jose"/><tag k="addr:housenumber" v="10930"/><tag k="addr:street" v="Prieta Court"/><tag k="addr:postcode" v="95127"/></node>
<node visible="true" id="-212" lat="37.372593811" lon="-121.807221651"><tag k="addr:city" v="San Jose"/><tag k="addr:housenumber" v="435"/><tag k="addr:street" v="Porter Lane"/><tag k="addr:postcode" v="95127"/></node>
<node visible="true" id="-213" lat="37.372182941000005" lon="-121.80667577800001"><tag k="addr:city" v="San Jose"/><tag k="addr:housenumber" v="447"/><tag k="addr:street" v="Porter Lane"/><tag k="addr:postcode" v="95127"/></node>
<node visible="true" id="-214" lat="37.372639096" lon="-121.805957809"><tag k="addr:city" v="San Jose"/><tag k="addr:housenumber" v="454"/><tag k="addr:street" v="Porter Lane"/><tag k="addr:postcode" v="95127"/></node>
<node visible="true" id="-215" lat="37.372399839" lon="-121.80552762"><tag k="addr:city" v="San Jose"/><tag k="addr:housenumber" v="462"/><tag k="addr:street" v="Porter Lane"/><tag k="addr:postcode" v="95127"/></node>
<node visible="true" id="-216" lat="37.37521361" lon="-121.80889452800001"><tag k="addr:city" v="San Jose"/><tag k="addr:housenumber" v="509"/><tag k="addr:street" v="Porter Lane"/><tag k="addr:postcode" v="95127"/></node>
<node visible="true" id="-217" lat="37.376044072" lon="-121.80183364700001"><tag k="addr:city" v="San Jose"/><tag k="addr:housenumber" v="12075"/><tag k="addr:street" v="Mount Hamilton Road"/><tag k="addr:postcode" v="95127"/></node>
<node visible="true" id="-218" lat="37.375374082" lon="-121.802262278"><tag k="addr:city" v="San Jose"/><tag k="addr:housenumber" v="12105"/><tag k="addr:street" v="Mount Hamilton Road"/><tag k="addr:postcode" v="95127"/></node>
<node visible="true" id="-219" lat="37.382952479000004" lon="-121.81633858400001"><tag k="addr:city" v="San Jose"/><tag k="addr:housenumber" v="5530"/><tag k="addr:street" v="Alum Rock Avenue"/><tag k="addr:postcode" v="95127"/></node>
<node visible="true" id="-220" lat="37.374797427000004" lon="-121.799893627"><tag k="addr:city" v="San Jose"/><tag k="addr:housenumber" v="12175"/><tag k="addr:street" v="Mount Hamilton Road"/><tag k="addr:postcode" v="95127"/></node>
<node visible="true" id="-221" lat="37.380922898" lon="-121.81545624500001"><tag k="addr:city" v="San Jose"/><tag k="addr:housenumber" v="71"/><tag k="addr:street" v="Ridgeview Avenue"/><tag k="addr:postcode" v="95127"/></node>
<node visible="true" id="-222" lat="37.380802456000005" lon="-121.81669453"><tag k="addr:city" v="San Jose"/><tag k="addr:housenumber" v="91"/><tag k="addr:street" v="Piazza Court"/><tag k="addr:postcode" v="95127"/></node>
<node visible="true" id="-223" lat="37.380479703" lon="-121.81507498"><tag k="addr:city" v="San Jose"/><tag k="addr:housenumber" v="93"/><tag k="addr:street" v="Ridgeview Avenue"/><tag k="addr:postcode" v="95127"/></node>
<node visible="true" id="-224" lat="37.380358335000004" lon="-121.81544630200001"><tag k="addr:city" v="San Jose"/><tag k="addr:housenumber" v="95"/><tag k="addr:street" v="Ridgeview Terrace"/><tag k="addr:postcode" v="95127"/></node>
<node visible="true" id="-225" lat="37.380154145" lon="-121.81560276"><tag k="addr:city" v="San Jose"/><tag k="addr:housenumber" v="97"/><tag k="addr:street" v="Ridgeview Terrace"/><tag k="addr:postcode" v="95127"/></node>
<node visible="true" id="-226" lat="37.379816279" lon="-121.81533005400001"><tag k="addr:city" v="San Jose"/><tag k="addr:housenumber" v="99"/><tag k="addr:street" v="Ridgeview Terrace"/><tag k="addr:postcode" v="95127"/></node>
<node visible="true" id="-227" lat="37.379473000000004" lon="-121.81553741100001"><tag k="addr:city" v="San Jose"/><tag k="addr:housenumber" v="140"/><tag k="addr:street" v="Piazza Way"/><tag k="addr:postcode" v="95127"/></node>
<node visible="true" id="-228" lat="37.373077989" lon="-121.80526286400001"><tag k="addr:city" v="San Jose"/><tag k="addr:housenumber" v="10293"/><tag k="addr:street" v="Kenny Lane"/><tag k="addr:postcode" v="95127"/></node>
<node visible="true" id="-229" lat="37.375039231" lon="-121.810551196"><tag k="addr:city" v="San Jose"/><tag k="addr:housenumber" v="14970"/><tag k="addr:street" v="Rolfe Court"/><tag k="addr:postcode" v="95127"/></node>
<node visible="true" id="-230" lat="37.374770211000005" lon="-121.804368014"><tag k="addr:city" v="San Jose"/><tag k="addr:housenumber" v="15040"/><tag k="addr:street" v="Garcal Drive"/><tag k="addr:postcode" v="95127"/></node>
<node visible="true" id="-231" lat="37.375945091000006" lon="-121.80439345"><tag k="addr:city" v="San Jose"/><tag k="addr:housenumber" v="15159"/><tag k="addr:street" v="Garcal Drive"/><tag k="addr:postcode" v="95127"/></node>
<node visible="true" id="-232" lat="37.377514796" lon="-121.80662390500001"><tag k="addr:city" v="San Jose"/><tag k="addr:housenumber" v="10401"/><tag k="addr:street" v="Observatory Drive"/><tag k="addr:postcode" v="95127"/></node>
<node visible="true" id="-233" lat="37.377430936" lon="-121.807755123"><tag k="addr:city" v="San Jose"/><tag k="addr:housenumber" v="10422"/><tag k="addr:street" v="Anderson Road"/><tag k="addr:postcode" v="95127"/></node>
<node visible="true" id="-234" lat="37.377066695" lon="-121.808143838"><tag k="addr:city" v="San Jose"/><tag k="addr:housenumber" v="10445"/><tag k="addr:street" v="Anderson Road"/><tag k="addr:postcode" v="95127"/></node>
<node visible="true" id="-235" lat="37.377895612" lon="-121.80836982500001"><tag k="addr:city" v="San Jose"/><tag k="addr:housenumber" v="10473"/><tag k="addr:street" v="Observatory Drive"/><tag k="addr:postcode" v="95127"/></node>
<node visible="true" id="-236" lat="37.377163665000005" lon="-121.80948917100001"><tag k="addr:city" v="San Jose"/><tag k="addr:housenumber" v="10533"/><tag k="addr:street" v="Olive Drive"/><tag k="addr:postcode" v="95127"/></node>
<node visible="true" id="-238" lat="37.373691416" lon="-121.80168506000001"/>
<node visible="true" id="-239" lat="37.373698115" lon="-121.80169512500001"/>
<node visible="true" id="-240" lat="37.373856373" lon="-121.80193343200001"/>
<node visible="true" id="-241" lat="37.373934571" lon="-121.801851885"/>
<node visible="true" id="-242" lat="37.373769641" lon="-121.801603513"/>
<node visible="true" id="-244" lat="37.372249891" lon="-121.799623525"/>
<node visible="true" id="-245" lat="37.372257266000005" lon="-121.79979570200001"/>
<node visible="true" id="-246" lat="37.372280196000006" lon="-121.799823426"/>
<node visible="true" id="-247" lat="37.372374138000005" lon="-121.79981814400001"/>
<node visible="true" id="-248" lat="37.37239264" lon="-121.79978938400001"/>
<node visible="true" id="-249" lat="37.372397991" lon="-121.799794778"/>
<node visible="true" id="-250" lat="37.372420211000005" lon="-121.79976019700001"/>
<node visible="true" id="-251" lat="37.372414915" lon="-121.799754839"/>
<node visible="true" id="-252" lat="37.372425899" lon="-121.79973772000001"/>
<node visible="true" id="-253" lat="37.372433433000005" lon="-121.799736956"/>
<node visible="true" id="-254" lat="37.372445491" lon="-121.79971465800001"/>
<node visible="true" id="-255" lat="37.372444865000006" lon="-121.79968935100001"/>
<node visible="true" id="-256" lat="37.37242929" lon="-121.79966471200001"/>
<node visible="true" id="-257" lat="37.372376667000005" lon="-121.79965192300001"/>
<node visible="true" id="-258" lat="37.3723552" lon="-121.799692918"/>
<node visible="true" id="-259" lat="37.372315249" lon="-121.79969408100001"/>
<node visible="true" id="-260" lat="37.372314369" lon="-121.799647156"/>
<node visible="true" id="-261" lat="37.372297897" lon="-121.79962160800001"/>
<node visible="true" id="-263" lat="37.370198292000005" lon="-121.805227638"/>
<node visible="true" id="-264" lat="37.370203295" lon="-121.805229721"/>
<node visible="true" id="-265" lat="37.370199912000004" lon="-121.805242465"/>
<node visible="true" id="-266" lat="37.370276081" lon="-121.805274323"/>
<node visible="true" id="-267" lat="37.370280611000005" lon="-121.805257263"/>
<node visible="true" id="-268" lat="37.370296413000005" lon="-121.80526387100001"/>
<node visible="true" id="-269" lat="37.370308826000006" lon="-121.80521721400001"/>
<node visible="true" id="-270" lat="37.370291712000004" lon="-121.80521003300001"/>
<node visible="true" id="-271" lat="37.370317253" lon="-121.80511415100001"/>
<node visible="true" id="-272" lat="37.370292264" lon="-121.80510369800001"/>
<node visible="true" id="-273" lat="37.370300175000004" lon="-121.80507403300001"/>
<node visible="true" id="-274" lat="37.370255939" lon="-121.80505553600001"/>
<node visible="true" id="-275" lat="37.370247797000005" lon="-121.80508609200001"/>
<node visible="true" id="-276" lat="37.370237190000005" lon="-121.80508163900001"/>
<node visible="true" id="-278" lat="37.370514847" lon="-121.80552425600001"/>
<node visible="true" id="-279" lat="37.370551968" lon="-121.80555760000001"/>
<node visible="true" id="-280" lat="37.370541828" lon="-121.80557531900001"/>
<node visible="true" id="-281" lat="37.37061958" lon="-121.80564513"/>
<node visible="true" id="-282" lat="37.370631177" lon="-121.80562482100001"/>
<node visible="true" id="-283" lat="37.370634876000004" lon="-121.80562812100001"/>
<node visible="true" id="-284" lat="37.370708018" lon="-121.80550020300001"/>
<node visible="true" id="-285" lat="37.370705515000004" lon="-121.80549795700001"/>
<node visible="true" id="-286" lat="37.370720979000005" lon="-121.805470936"/>
<node visible="true" id="-287" lat="37.370683586000006" lon="-121.80543734700001"/>
<node visible="true" id="-288" lat="37.370669858" lon="-121.80546137"/>
<node visible="true" id="-289" lat="37.370638312000004" lon="-121.805433046"/>
<node visible="true" id="-290" lat="37.370650609" lon="-121.805411578"/>
<node visible="true" id="-291" lat="37.370646883" lon="-121.805408243"/>
<node visible="true" id="-292" lat="37.370649096" lon="-121.80540435900001"/>
<node visible="true" id="-293" lat="37.370611675" lon="-121.805370769"/>
<node visible="true" id="-294" lat="37.370609938" lon="-121.805373802"/>
<node visible="true" id="-295" lat="37.370604962" lon="-121.80536931"/>
<node visible="true" id="-296" lat="37.370591376" lon="-121.80539306000001"/>
<node visible="true" id="-297" lat="37.370590396000004" lon="-121.80539214800001"/>
<node visible="true" id="-299" lat="37.372741038" lon="-121.80379953100001"/>
<node visible="true" id="-300" lat="37.372762542000004" lon="-121.80387882500001"/>
<node visible="true" id="-301" lat="37.372771803" lon="-121.803883357"/>
<node visible="true" id="-302" lat="37.372767028000005" lon="-121.803895354"/>
<node visible="true" id="-303" lat="37.372886787" lon="-121.80398902700001"/>
<node visible="true" id="-304" lat="37.372903959000006" lon="-121.803956493"/>
<node visible="true" id="-305" lat="37.372908357" lon="-121.803958738"/>
<node visible="true" id="-306" lat="37.372924661" lon="-121.803954859"/>
<node visible="true" id="-307" lat="37.372931841" lon="-121.803941561"/>
<node visible="true" id="-308" lat="37.372927579" lon="-121.803922111"/>
<node visible="true" id="-309" lat="37.372923407" lon="-121.80391687500001"/>
<node visible="true" id="-310" lat="37.372925123" lon="-121.80391332600001"/>
<node visible="true" id="-311" lat="37.372927978" lon="-121.803915888"/>
<node visible="true" id="-312" lat="37.372941637000004" lon="-121.803887974"/>
<node visible="true" id="-313" lat="37.372938103" lon="-121.80388460900001"/>
<node visible="true" id="-314" lat="37.372968081" lon="-121.80382442000001"/>
<node visible="true" id="-315" lat="37.372975358000005" lon="-121.803809783"/>
<node visible="true" id="-316" lat="37.372981497000005" lon="-121.803793783"/>
<node visible="true" id="-317" lat="37.373037334" lon="-121.80376935800001"/>
<node visible="true" id="-318" lat="37.373015544000005" lon="-121.80369112800001"/>
<node visible="true" id="-319" lat="37.372939722000005" lon="-121.803724289"/>
<node visible="true" id="-320" lat="37.372900571" lon="-121.80380424500001"/>
<node visible="true" id="-321" lat="37.372897832" lon="-121.80380113300001"/>
<node visible="true" id="-322" lat="37.372884256" lon="-121.803806679"/>
<node visible="true" id="-323" lat="37.372871824" lon="-121.803830414"/>
<node visible="true" id="-324" lat="37.372875172" lon="-121.803847992"/>
<node visible="true" id="-325" lat="37.372823687" lon="-121.803804485"/>
<node visible="true" id="-326" lat="37.372813008" lon="-121.80376936500001"/>
<way visible="true" id="-1"><nd ref="-2"/><nd ref="-3"/><nd ref="-4"/><nd ref="-5"/><nd ref="-6"/><nd ref="-7"/><nd ref="-8"/><nd ref="-9"/><nd ref="-2"/><tag k="building" v="yes"/><tag k="height" v="3.37"/><tag k="ele" v="168.53"/></way>
<way visible="true" id="-237"><nd ref="-238"/><nd ref="-239"/><nd ref="-240"/><nd ref="-241"/><nd ref="-242"/><nd ref="-238"/><tag k="building" v="yes"/><tag k="height" v="3.98"/><tag k="ele" v="198.55"/><tag k="addr:city" v="San Jose"/><tag k="addr:housenumber" v="10183"/><tag k="addr:street" v="Kenny Lane"/><tag k="addr:postcode" v="95127"/></way>
<way visible="true" id="-243"><nd ref="-244"/><nd ref="-245"/><nd ref="-246"/><nd ref="-247"/><nd ref="-248"/><nd ref="-249"/><nd ref="-250"/><nd ref="-251"/><nd ref="-252"/><nd ref="-253"/><nd ref="-254"/><nd ref="-255"/><nd ref="-256"/><nd ref="-257"/><nd ref="-258"/><nd ref="-259"/><nd ref="-260"/><nd ref="-261"/><nd ref="-244"/><tag k="building" v="yes"/><tag k="height" v="6.41"/><tag k="ele" v="178.24"/><tag k="addr:city" v="San Jose"/><tag k="addr:housenumber" v="3790"/><tag k="addr:street" v="Rosemar Avenue"/><tag k="addr:postcode" v="95127"/></way>
<way visible="true" id="-262"><nd ref="-263"/><nd ref="-264"/><nd ref="-265"/><nd ref="-266"/><nd ref="-267"/><nd ref="-268"/><nd ref="-269"/><nd ref="-270"/><nd ref="-271"/><nd ref="-272"/><nd ref="-273"/><nd ref="-274"/><nd ref="-275"/><nd ref="-276"/><nd ref="-263"/><tag k="building" v="yes"/><tag k="height" v="6.71"/><tag k="ele" v="124.22"/><tag k="addr:city" v="San Jose"/><tag k="addr:housenumber" v="3695"/><tag k="addr:street" v="Nob Hill Drive"/><tag k="addr:postcode" v="95127"/></way>
<way visible="true" id="-277"><nd ref="-278"/><nd ref="-279"/><nd ref="-280"/><nd ref="-281"/><nd ref="-282"/><nd ref="-283"/><nd ref="-284"/><nd ref="-285"/><nd ref="-286"/><nd ref="-287"/><nd ref="-288"/><nd ref="-289"/><nd ref="-290"/><nd ref="-291"/><nd ref="-292"/><nd ref="-293"/><nd ref="-294"/><nd ref="-295"/><nd ref="-296"/><nd ref="-297"/><nd ref="-278"/><tag k="building" v="yes"/><tag k="height" v="7.33"/><tag k="ele" v="129.52"/><tag k="addr:city" v="San Jose"/><tag k="addr:housenumber" v="781"/><tag k="addr:street" v="Juliet Park Drive"/><tag k="addr:postcode" v="95127"/></way>
<way visible="true" id="-298"><nd ref="-299"/><nd ref="-300"/><nd ref="-301"/><nd ref="-302"/><nd ref="-303"/><nd ref="-304"/><nd ref="-305"/><nd ref="-306"/><nd ref="-307"/><nd ref="-308"/><nd ref="-309"/><nd ref="-310"/><nd ref="-311"/><nd ref="-312"/><nd ref="-313"/><nd ref="-314"/><nd ref="-315"/><nd ref="-316"/><nd ref="-317"/><nd ref="-318"/><nd ref="-319"/><nd ref="-320"/><nd ref="-321"/><nd ref="-322"/><nd ref="-323"/><nd ref="-324"/><nd ref="-325"/><nd ref="-326"/><nd ref="-299"/><tag k="building" v="yes"/><tag k="height" v="4.07"/><tag k="ele" v="168.61"/><tag k="addr:city" v="San Jose"/><tag k="addr:housenumber" v="10261"/><tag k="addr:street" v="Kenny Lane"/><tag k="addr:postcode" v="95127"/></way>
</osm>