<?xml version="1.0"?>
<osm version="0.6" generator="uvmogr2osm" upload="false">
<node visible="true" id="-2" lat="37.314309744" lon="-121.838321495"/>
<node visible="true" id="-3" lat="37.314475873" lon="-121.83849418400001"/>
<node visible="true" id="-4" lat="37.314582387" lon="-121.83833359900001"/>
<node visible="true" id="-5" lat="37.314416258" lon="-121.83816091000001"/>
<node visible="true" id="-7" lat="37.314710907000006" lon="-121.838386419"/>
<node visible="true" id="-8" lat="37.314733039000004" lon="-121.83840879"/>
<node visible="true" id="-9" lat="37.314724901000005" lon="-121.83842140300001"/>
<node visible="true" id="-10" lat="37.314782686" lon="-121.838479766"/>
<node visible="true" id="-11" lat="37.314788865000004" lon="-121.83847017900001"/>
<node visible="true" id="-12" lat="37.314812897" lon="-121.83849444200001"/>
<node visible="true" id="-13" lat="37.314834876" lon="-121.838460342"/>
<node visible="true" id="-14" lat="37.314884596" lon="-121.838510548"/>
<node visible="true" id="-15" lat="37.314979083000004" lon="-121.83836395"/>
<node visible="true" id="-16" lat="37.314928848" lon="-121.838313185"/>
<node visible="true" id="-17" lat="37.315024369" lon="-121.83816499000001"/>
<node visible="true" id="-18" lat="37.315075365000006" lon="-121.838216524"/>
<node visible="true" id="-19" lat="37.315293757" lon="-121.83787770200001"/>
<node visible="true" id="-20" lat="37.315243765000005" lon="-121.83782718"/>
<node visible="true" id="-21" lat="37.315256013" lon="-121.83780814200001"/>
<node visible="true" id="-22" lat="37.315151633" lon="-121.837702656"/>
<node visible="true" id="-23" lat="37.315447122" lon="-121.841754432"><tag k="addr:city" v="San Jose"/><tag k="addr:housenumber" v="2282"/><tag k="addr:street" v="Lucretia Avenue"/><tag k="addr:unit" v="1;2"/><tag k="addr:postcode" v="95122"/></node>
<node visible="true" id="-24" lat="37.315457305" lon="-121.841765151"><tag k="addr:city" v="San Jose"/><tag k="addr:housenumber" v="2284"/><tag k="addr:street" v="Lucretia Avenue"/><tag k="addr:unit" v="1-3"/><tag k="addr:postcode" v="95122"/></node>
<node visible="true" id="-25" lat="37.315462374" lon="-121.841763181"><tag k="addr:city" v="San Jose"/><tag k="addr:housenumber" v="2286"/><tag k="addr:street" v="Lucretia Avenue"/><tag k="addr:unit" v="2-4"/><tag k="addr:postcode" v="95122"/></node>
<node visible="true" id="-26" lat="37.315655366" lon="-121.84198539600001"><tag k="addr:city" v="San Jose"/><tag k="addr:housenumber" v="2344"/><tag k="addr:street" v="Lucretia Avenue"/><tag k="addr:unit" v="3;4"/><tag k="addr:postcode" v="95122"/></node>
<node visible="true" id="-27" lat="37.315633352" lon="-121.841942613"><tag k="addr:city" v="San Jose"/><tag k="addr:housenumber" v="2340"/><tag k="addr:street" v="Lucretia Avenue"/><tag k="addr:unit" v="1-4"/><tag k="addr:postcode" v="95122"/></node>
<node visible="true" id="-28" lat="37.315643773000005" lon="-121.841953337"><tag k="addr:city" v="San Jose"/><tag k="addr:housenumber" v="2342"/><tag k="addr:street" v="Lucretia Avenue"/><tag k="addr:unit" v="2-4"/><tag k="addr:postcode" v="95122"/></node>
<node visible="true" id="-29" lat="37.315722249000004" lon="-121.84207143500001"><tag k="addr:city" v="San Jose"/><tag k="addr:housenumber" v="2348"/><tag k="addr:street" v="Lucretia Avenue"/><tag k="addr:unit" v="1-4"/><tag k="addr:postcode" v="95122"/></node>
<node visible="true" id="-30" lat="37.315714169" lon="-121.84204373700001"><tag k="addr:city" v="San Jose"/><tag k="addr:housenumber" v="2346"/><tag k="addr:street" v="Lucretia Avenue"/><tag k="addr:unit" v="1-3"/><tag k="addr:postcode" v="95122"/></node>
<node visible="true" id="-31" lat="37.315703269000004" lon="-121.84201240700001"><tag k="addr:city" v="San Jose"/><tag k="addr:housenumber" v="2344"/><tag k="addr:street" v="Lucretia Avenue"/><tag k="addr:unit" v="1;2"/><tag k="addr:postcode" v="95122"/></node>
<node visible="true" id="-32" lat="37.316729025" lon="-121.840258664"><tag k="addr:city" v="San Jose"/><tag k="addr:housenumber" v="2177;2189"/><tag k="addr:street" v="McLaughlin Avenue"/><tag k="addr:unit" v="1;3;4"/><tag k="addr:postcode" v="95122"/></node>
<node visible="true" id="-33" lat="37.317227769000006" lon="-121.838915748"><tag k="addr:city" v="San Jose"/><tag k="addr:housenumber" v="2229"/><tag k="addr:street" v="McLaughlin Avenue"/><tag k="addr:unit" v="1-4"/><tag k="addr:postcode" v="95122"/></node>
<node visible="true" id="-34" lat="37.317014512" lon="-121.840502411"><tag k="addr:city" v="San Jose"/><tag k="addr:housenumber" v="2175;2187"/><tag k="addr:street" v="McLaughlin Avenue"/><tag k="addr:unit" v="1-4"/><tag k="addr:postcode" v="95122"/></node>
<node visible="true" id="-35" lat="37.316777895" lon="-121.840263659"><tag k="addr:city" v="San Jose"/><tag k="addr:housenumber" v="2189"/><tag k="addr:street" v="McLaughlin Avenue"/><tag k="addr:unit" v="2-4"/><tag k="addr:postcode" v="95122"/></node>
<node visible="true" id="-36" lat="37.317212861" lon="-121.83957915"><tag k="addr:city" v="San Jose"/><tag k="addr:housenumber" v="2227"/><tag k="addr:street" v="McLaughlin Avenue"/><tag k="addr:unit" v="1-4"/><tag k="addr:postcode" v="95122"/></node>
<node visible="true" id="-37" lat="37.316976474" lon="-121.83931673800001"><tag k="addr:city" v="San Jose"/><tag k="addr:housenumber" v="2249"/><tag k="addr:street" v="McLaughlin Avenue"/><tag k="addr:unit" v="1-3"/><tag k="addr:postcode" v="95122"/></node>
<node visible="true" id="-38" lat="37.31699755" lon="-121.839326009"><tag k="addr:city" v="San Jose"/><tag k="addr:housenumber" v="2247"/><tag k="addr:street" v="McLaughlin Avenue"/><tag k="addr:unit" v="3;4"/><tag k="addr:postcode" v="95122"/></node>
<node visible="true" id="-39" lat="37.316976617" lon="-121.839802778"><tag k="addr:city" v="San Jose"/><tag k="addr:housenumber" v="2277"/><tag k="addr:street" v="McLaughlin Avenue"/><tag k="addr:unit" v="2-4"/><tag k="addr:postcode" v="95122"/></node>
<node visible="true" id="-40" lat="37.317023833" lon="-121.83942965300001"><tag k="addr:city" v="San Jose"/><tag k="addr:housenumber" v="2247"/><tag k="addr:street" v="McLaughlin Avenue"/><tag k="addr:unit" v="1;2"/><tag k="addr:postcode" v="95122"/></node>
<node visible="true" id="-41" lat="37.31680333" lon="-121.840341316"><tag k="addr:city" v="San Jose"/><tag k="addr:housenumber" v="2177"/><tag k="addr:street" v="McLaughlin Avenue"/><tag k="addr:unit" v="1;2"/><tag k="addr:postcode" v="95122"/></node>
<node visible="true" id="-42" lat="37.317326906000005" lon="-121.838982009"><tag k="addr:city" v="San Jose"/><tag k="addr:housenumber" v="2231"/><tag k="addr:street" v="McLaughlin Avenue"/><tag k="addr:unit" v="1-4"/><tag k="addr:postcode" v="95122"/></node>
<node visible="true" id="-43" lat="37.317244333000005" lon="-121.83892503300001"><tag k="addr:city" v="San Jose"/><tag k="addr:housenumber" v="2233"/><tag k="addr:street" v="McLaughlin Avenue"/><tag k="addr:unit" v="2-4"/><tag k="addr:postcode" v="95122"/></node>
<node visible="true" id="-44" lat="37.317069565000004" lon="-121.839922395"><tag k="addr:city" v="San Jose"/><tag k="addr:housenumber" v="2275"/><tag k="addr:street" v="McLaughlin Avenue"/><tag k="addr:unit" v="3;4"/><tag k="addr:postcode" v="95122"/></node>
<node visible="true" id="-45" lat="37.316263053" lon="-121.838498313"><tag k="addr:city" v="San Jose"/><tag k="addr:housenumber" v="1075"/><tag k="addr:street" v="Tekman Drive"/><tag k="addr:postcode" v="95122"/></node>
<node visible="true" id="-46" lat="37.315901311000005" lon="-121.83889707300001"><tag k="addr:city" v="San Jose"/><tag k="addr:housenumber" v="2310"/><tag k="addr:street" v="Balme Drive"/><tag k="addr:postcode" v="95122"/></node>
<node visible="true" id="-47" lat="37.315346647000005" lon="-121.838208195"><tag k="addr:city" v="San Jose"/><tag k="addr:housenumber" v="2410"/><tag k="addr:street" v="Balme Drive"/><tag k="addr:postcode" v="95122"/></node>
<node visible="true" id="-48" lat="37.318448981" lon="-121.84379445500001"><tag k="addr:city" v="San Jose"/><tag k="addr:housenumber" v="2020;2022;2024;2028;2038"/><tag k="addr:street" v="Lucretia Avenue"/><tag k="addr:postcode" v="95122"/></node>
<node visible="true" id="-49" lat="37.318512231" lon="-121.84385198000001"><tag k="addr:city" v="San Jose"/><tag k="addr:housenumber" v="2026;2030;2032;2034;2036;2040"/><tag k="addr:street" v="Lucretia Avenue"/><tag k="addr:postcode" v="95122"/></node>
<node visible="true" id="-50" lat="37.315092681" lon="-121.83853543800001"><tag k="addr:city" v="San Jose"/><tag k="addr:housenumber" v="2390"/><tag k="addr:street" v="Balme Drive"/><tag k="addr:postcode" v="95122"/></node>
<node visible="true" id="-51" lat="37.314232963" lon="-121.841127189"><tag k="addr:city" v="San Jose"/><tag k="addr:housenumber" v="2390"/><tag k="addr:street" v="Lucretia Avenue"/><tag k="addr:unit" v="101"/><tag k="addr:postcode" v="95122"/></node>
<node visible="true" id="-52" lat="37.314195090000005" lon="-121.84118621500001"><tag k="addr:city" v="San Jose"/><tag k="addr:housenumber" v="2390"/><tag k="addr:street" v="Lucretia Avenue"/><tag k="addr:unit" v="102"/><tag k="addr:postcode" v="95122"/></node>
<node visible="true" id="-53" lat="37.314538581" lon="-121.840759516"><tag k="addr:city" v="San Jose"/><tag k="addr:housenumber" v="2390"/><tag k="addr:street" v="Lucretia Avenue"/><tag k="addr:unit" v="209"/><tag k="addr:postcode" v="95122"/></node>
<node visible="true" id="-54" lat="37.314549863" lon="-121.84069046100001"><tag k="addr:city" v="San Jose"/><tag k="addr:housenumber" v="2390"/><tag k="addr:street" v="Lucretia Avenue"/><tag k="addr:unit" v="211"/><tag k="addr:postcode" v="95122"/></node>
<node visible="true" id="-55" lat="37.314735251" lon="-121.84157608800001"><tag k="addr:city" v="San Jose"/><tag k="addr:housenumber" v="2290"/><tag k="addr:street" v="Lucretia Avenue"/><tag k="addr:unit" v="1-4"/><tag k="addr:postcode" v="95122"/></node>
<node visible="true" id="-56" lat="37.318840737" lon="-121.84111463500001"><tag k="addr:city" v="San Jose"/><tag k="addr:housenumber" v="2233"/><tag k="addr:street" v="Summerton Drive"/><tag k="addr:postcode" v="95122"/></node>
<node visible="true" id="-57" lat="37.318910880000004" lon="-121.841074691"><tag k="addr:city" v="San Jose"/><tag k="addr:housenumber" v="2235"/><tag k="addr:street" v="Summerton Drive"/><tag k="addr:postcode" v="95122"/></node>
<node visible="true" id="-58" lat="37.31895936" lon="-121.84097871300001"><tag k="addr:city" v="San Jose"/><tag k="addr:housenumber" v="2239"/><tag k="addr:street" v="Summerton Drive"/><tag k="addr:postcode" v="95122"/></node>
<node visible="true" id="-59" lat="37.318915665000006" lon="-121.84097339"><tag k="addr:city" v="San Jose"/><tag k="addr:housenumber" v="2241"/><tag k="addr:street" v="Summerton Drive"/><tag k="addr:postcode" v="95122"/></node>
<node visible="true" id="-60" lat="37.318998978" lon="-121.84089626500001"><tag k="addr:city" v="San Jose"/><tag k="addr:housenumber" v="2243"/><tag k="addr:street" v="Summerton Drive"/><tag k="addr:postcode" v="95122"/></node>
<node visible="true" id="-61" lat="37.318973426" lon="-121.840880088"><tag k="addr:city" v="San Jose"/><tag k="addr:housenumber" v="2245"/><tag k="addr:street" v="Summerton Drive"/><tag k="addr:postcode" v="95122"/></node>
<node visible="true" id="-62" lat="37.320201566" lon="-121.841968597"><tag k="addr:city" v="San Jose"/><tag k="addr:housenumber" v="1089"/><tag k="addr:street" v="Summerain Court"/><tag k="addr:postcode" v="95122"/></node>
<node visible="true" id="-63" lat="37.315422702" lon="-121.83813119300001"><tag k="addr:city" v="San Jose"/><tag k="addr:housenumber" v="2420"/><tag k="addr:street" v="Balme Drive"/><tag k="addr:postcode" v="95122"/></node>
<node visible="true" id="-64" lat="37.315790069" lon="-121.83754443900001"><tag k="addr:city" v="San Jose"/><tag k="addr:housenumber" v="2450"/><tag k="addr:street" v="Balme Drive"/><tag k="addr:postcode" v="95122"/></node>
<node visible="true" id="-65" lat="37.315807239" lon="-121.83752122800001"><tag k="addr:city" v="San Jose"/><tag k="addr:housenumber" v="2460"/><tag k="addr:street" v="Balme Drive"/><tag k="addr:postcode" v="95122"/></node>
<node visible="true" id="-66" lat="37.316123553000004" lon="-121.83782365200001"><tag k="addr:city" v="San Jose"/><tag k="addr:housenumber" v="2327"/><tag k="addr:street" v="McLaughlin Avenue"/><tag k="addr:postcode" v="95122"/></node>
<node visible="true" id="-67" lat="37.316140451" lon="-121.83779462400001"><tag k="addr:city" v="San Jose"/><tag k="addr:housenumber" v="2331"/><tag k="addr:street" v="McLaughlin Avenue"/><tag k="addr:postcode" v="95122"/></node>
<node visible="true" id="-68" lat="37.315754235" lon="-121.83783734000001"><tag k="addr:city" v="San Jose"/><tag k="addr:housenumber" v="2446"/><tag k="addr:street" v="Balme Drive"/><tag k="addr:postcode" v="95122"/></node>
<node visible="true" id="-69" lat="37.315777003" lon="-121.83763893800001"><tag k="addr:city" v="San Jose"/><tag k="addr:housenumber" v="2452"/><tag k="addr:street" v="Balme Drive"/><tag k="addr:postcode" v="95122"/></node>
<node visible="true" id="-70" lat="37.315870257" lon="-121.83762632300001"><tag k="addr:city" v="San Jose"/><tag k="addr:housenumber" v="2454"/><tag k="addr:street" v="Balme Drive"/><tag k="addr:postcode" v="95122"/></node>
<node visible="true" id="-71" lat="37.315794873" lon="-121.83765864"><tag k="addr:city" v="San Jose"/><tag k="addr:housenumber" v="2456"/><tag k="addr:street" v="Balme Drive"/><tag k="addr:postcode" v="95122"/></node>
<node visible="true" id="-72" lat="37.314533428000004" lon="-121.83828994400001"><tag k="addr:city" v="San Jose"/><tag k="addr:housenumber" v="1055"/><tag k="addr:street" v="Tully Road"/><tag k="addr:unit" v="B"/><tag k="addr:postcode" v="95122"/></node>
<node visible="true" id="-73" lat="37.316001743" lon="-121.838822155"><tag k="addr:city" v="San Jose"/><tag k="addr:housenumber" v="1057"/><tag k="addr:street" v="Tekman Drive"/><tag k="addr:postcode" v="95122"/></node>
<node visible="true" id="-74" lat="37.319581" lon="-121.84241370400001"><tag k="addr:city" v="San Jose"/><tag k="addr:housenumber" v="1068"/><tag k="addr:street" v="Summershore Court"/><tag k="addr:postcode" v="95122"/></node>
<node visible="true" id="-75" lat="37.319736328000005" lon="-121.84204691400001"><tag k="addr:city" v="San Jose"/><tag k="addr:housenumber" v="1070"/><tag k="addr:street" v="Summerain Court"/><tag k="addr:postcode" v="95122"/></node>
<node visible="true" id="-76" lat="37.3196707" lon="-121.84244087"><tag k="addr:city" v="San Jose"/><tag k="addr:housenumber" v="1070"/><tag k="addr:street" v="Summershore Court"/><tag k="addr:postcode" v="95122"/></node>
<node visible="true" id="-77" lat="37.318035723" lon="-121.84154169800001"><tag k="addr:city" v="San Jose"/><tag k="addr:housenumber" v="2073"/><tag k="addr:street" v="McLaughlin Avenue"/><tag k="addr:unit" v="110"/><tag k="addr:postcode" v="95122"/></node>
<node visible="true" id="-78" lat="37.318290655000006" lon="-121.841871701"><tag k="addr:city" v="San Jose"/><tag k="addr:housenumber" v="2187"/><tag k="addr:street" v="Summerton Drive"/><tag k="addr:postcode" v="95122"/></node>
<node visible="true" id="-79" lat="37.318316692" lon="-121.841831138"><tag k="addr:city" v="San Jose"/><tag k="addr:housenumber" v="2189"/><tag k="addr:street" v="Summerton Drive"/><tag k="addr:postcode" v="95122"/></node>
<node visible="true" id="-80" lat="37.318343521" lon="-121.841781409"><tag k="addr:city" v="San Jose"/><tag k="addr:housenumber" v="2191"/><tag k="addr:street" v="Summerton Drive"/><tag k="addr:postcode" v="95122"/></node>
<node visible="true" id="-81" lat="37.318388465000005" lon="-121.84168726"><tag k="addr:city" v="San Jose"/><tag k="addr:housenumber" v="2195"/><tag k="addr:street" v="Summerton Drive"/><tag k="addr:postcode" v="95122"/></node>
<node visible="true" id="-82" lat="37.318412303" lon="-121.84162997800001"><tag k="addr:city" v="San Jose"/><tag k="addr:housenumber" v="2197"/><tag k="addr:street" v="Summerton Drive"/><tag k="addr:postcode" v="95122"/></node>
<node visible="true" id="-83" lat="37.318869844000005" lon="-121.841136961"><tag k="addr:city" v="San Jose"/><tag k="addr:housenumber" v="2231"/><tag k="addr:street" v="Summerton Drive"/><tag k="addr:postcode" v="95122"/></node>
<node visible="true" id="-84" lat="37.317291592000004" lon="-121.838945761"><tag k="addr:city" v="San Jose"/><tag k="addr:housenumber" v="2233"/><tag k="addr:street" v="McLaughlin Avenue"/><tag k="addr:unit" v="1"/><tag k="addr:postcode" v="95122"/></node>
<node visible="true" id="-85" lat="37.318889489" lon="-121.84106691400001"><tag k="addr:city" v="San Jose"/><tag k="addr:housenumber" v="2237"/><tag k="addr:street" v="Summerton Drive"/><tag k="addr:postcode" v="95122"/></node>
<node visible="true" id="-86" lat="37.316807455" lon="-121.83962749700001"><tag k="addr:city" v="San Jose"/><tag k="addr:housenumber" v="2279"/><tag k="addr:street" v="McLaughlin Avenue"/><tag k="addr:unit" v="1"/><tag k="addr:postcode" v="95122"/></node>
<node visible="true" id="-87" lat="37.315691675000004" lon="-121.841980347"><tag k="addr:city" v="San Jose"/><tag k="addr:housenumber" v="2342"/><tag k="addr:street" v="Lucretia Avenue"/><tag k="addr:unit" v="1"/><tag k="addr:postcode" v="95122"/></node>
<node visible="true" id="-88" lat="37.315313274000005" lon="-121.83859256400001"><tag k="addr:city" v="San Jose"/><tag k="addr:housenumber" v="2382"/><tag k="addr:street" v="Balme Drive"/><tag k="addr:postcode" v="95122"/></node>
<node visible="true" id="-89" lat="37.315109917" lon="-121.83855553900001"><tag k="addr:city" v="San Jose"/><tag k="addr:housenumber" v="2386"/><tag k="addr:street" v="Balme Drive"/><tag k="addr:postcode" v="95122"/></node>
<node visible="true" id="-90" lat="37.315199685" lon="-121.838493979"><tag k="addr:city" v="San Jose"/><tag k="addr:housenumber" v="2394"/><tag k="addr:street" v="Balme Drive"/><tag k="addr:postcode" v="95122"/></node>
<node visible="true" id="-91" lat="37.315368071" lon="-121.838229322"><tag k="addr:city" v="San Jose"/><tag k="addr:housenumber" v="2416"/><tag k="addr:street" v="Balme Drive"/><tag k="addr:postcode" v="95122"/></node>
<node visible="true" id="-92" lat="37.316004248000006" lon="-121.838007461"><tag k="addr:city" v="San Jose"/><tag k="addr:housenumber" v="1097"/><tag k="addr:street" v="Tekman Drive"/><tag k="addr:postcode" v="95122"/></node>
<node visible="true" id="-93" lat="37.319553777" lon="-121.84355944200001"><tag k="addr:city" v="San Jose"/><tag k="addr:housenumber" v="1030"/><tag k="addr:street" v="Summerplace Drive"/><tag k="addr:postcode" v="95122"/></node>
<node visible="true" id="-94" lat="37.319618842000004" lon="-121.843413893"><tag k="addr:city" v="San Jose"/><tag k="addr:housenumber" v="1040"/><tag k="addr:street" v="Summerplace Drive"/><tag k="addr:postcode" v="95122"/></node>
<node visible="true" id="-95" lat="37.317214163" lon="-121.83888738700001"><tag k="addr:city" v="San Jose"/><tag k="addr:housenumber" v="2235"/><tag k="addr:street" v="McLaughlin Avenue"/><tag k="addr:unit" v="1;2"/><tag k="addr:postcode" v="95122"/></node>
<node visible="true" id="-96" lat="37.317981211" lon="-121.841654641"><tag k="addr:city" v="San Jose"/><tag k="addr:housenumber" v="2073"/><tag k="addr:street" v="McLaughlin Avenue"/><tag k="addr:unit" v="103;111;209;212"/><tag k="addr:postcode" v="95122"/></node>
<node visible="true" id="-97" lat="37.318408709" lon="-121.84410532700001"><tag k="addr:city" v="San Jose"/><tag k="addr:housenumber" v="2018"/><tag k="addr:street" v="Lucretia Avenue"/><tag k="addr:postcode" v="95122"/></node>
<node visible="true" id="-98" lat="37.320007083" lon="-121.84275114500001"><tag k="addr:city" v="San Jose"/><tag k="addr:housenumber" v="1068"/><tag k="addr:street" v="Summerplace Drive"/><tag k="addr:postcode" v="95122"/></node>
<node visible="true" id="-99" lat="37.313829605" lon="-121.839293072"><tag k="addr:city" v="San Jose"/><tag k="addr:housenumber" v="2390"/><tag k="addr:street" v="Lucretia Avenue"/><tag k="addr:unit" v="1001"/><tag k="addr:postcode" v="95122"/></node>
<node visible="true" id="-100" lat="37.313566268" lon="-121.83970005900001"><tag k="addr:city" v="San Jose"/><tag k="addr:housenumber" v="2390"/><tag k="addr:street" v="Lucretia Avenue"/><tag k="addr:unit" v="1109"/><tag k="addr:postcode" v="95122"/></node>
<node visible="true" id="-101" lat="37.313793178000005" lon="-121.839942601"><tag k="addr:city" v="San Jose"/><tag k="addr:housenumber" v="2390"/><tag k="addr:street" v="Lucretia Avenue"/><tag k="addr:unit" v="1414"/><tag k="addr:postcode" v="95122"/></node>
<node visible="true" id="-102" lat="37.314062393" lon="-121.83974222"><tag k="addr:city" v="San Jose"/><tag k="addr:housenumber" v="2390"/><tag k="addr:street" v="Lucretia Avenue"/><tag k="addr:unit" v="1508"/><tag k="addr:postcode" v="95122"/></node>
<node visible="true" id="-103" lat="37.314049822" lon="-121.83967393200001"><tag k="addr:city" v="San Jose"/><tag k="addr:housenumber" v="2390"/><tag k="addr:street" v="Lucretia Avenue"/><tag k="addr:unit" v="1511"/><tag k="addr:postcode" v="95122"/></node>
<node visible="true" id="-104" lat="37.314020548" lon="-121.839648331"><tag k="addr:city" v="San Jose"/><tag k="addr:housenumber" v="2390"/><tag k="addr:street" v="Lucretia Avenue"/><tag k="addr:unit" v="1512"/><tag k="addr:postcode" v="95122"/></node>
<node visible="true" id="-105" lat="37.314013381" lon="-121.839407625"><tag k="addr:city" v="San Jose"/><tag k="addr:housenumber" v="2390"/><tag k="addr:street" v="Lucretia Avenue"/><tag k="addr:unit" v="1606"/><tag k="addr:postcode" v="95122"/></node>
<node visible="true" id="-106" lat="37.319423141" lon="-121.84253375300001"><tag k="addr:city" v="San Jose"/><tag k="addr:housenumber" v="1056"/><tag k="addr:street" v="Summershore Court"/><tag k="addr:postcode" v="95122"/></node>
<node visible="true" id="-107" lat="37.319638229" lon="-121.84246996700001"><tag k="addr:city" v="San Jose"/><tag k="addr:housenumber" v="1072"/><tag k="addr:street" v="Summershore Court"/><tag k="addr:postcode" v="95122"/></node>
<node visible="true" id="-108" lat="37.315569441" lon="-121.83768902800001"><tag k="addr:city" v="San Jose"/><tag k="addr:housenumber" v="2436"/><tag k="addr:street" v="Balme Drive"/><tag k="addr:postcode" v="95122"/></node>
<node visible="true" id="-109" lat="37.315584632000004" lon="-121.837665872"><tag k="addr:city" v="San Jose"/><tag k="addr:housenumber" v="2444"/><tag k="addr:street" v="Balme Drive"/><tag k="addr:postcode" v="95122"/></node>
<node visible="true" id="-110" lat="37.316066003" lon="-121.838751661"><tag k="addr:city" v="San Jose"/><tag k="addr:housenumber" v="1055"/><tag k="addr:street" v="Tekman Drive"/><tag k="addr:postcode" v="95122"/></node>
<node visible="true" id="-111" lat="37.314444925000004" lon="-121.83820052300001"><tag k="addr:city" v="San Jose"/><tag k="addr:housenumber" v="1055"/><tag k="addr:street" v="Tully Road"/><tag k="addr:unit" v="A"/><tag k="addr:postcode" v="95122"/></node>
<node visible="true" id="-112" lat="37.314485338000004" lon="-121.83824486300001"><tag k="addr:city" v="San Jose"/><tag k="addr:housenumber" v="1055"/><tag k="addr:street" v="Tully Road"/><tag k="addr:unit" v="A2"/><tag k="addr:postcode" v="95122"/></node>
<node visible="true" id="-113" lat="37.319726083" lon="-121.84224355900001"><tag k="addr:city" v="San Jose"/><tag k="addr:housenumber" v="1057"/><tag k="addr:street" v="Summerain Court"/><tag k="addr:postcode" v="95122"/></node>
<node visible="true" id="-114" lat="37.319836988000006" lon="-121.842987428"><tag k="addr:city" v="San Jose"/><tag k="addr:housenumber" v="1058"/><tag k="addr:street" v="Summerplace Drive"/><tag k="addr:postcode" v="95122"/></node>
<node visible="true" id="-115" lat="37.319462909" lon="-121.842507882"><tag k="addr:city" v="San Jose"/><tag k="addr:housenumber" v="1058"/><tag k="addr:street" v="Summershore Court"/><tag k="addr:postcode" v="95122"/></node>
<node visible="true" id="-116" lat="37.319866219000005" lon="-121.84294616700001"><tag k="addr:city" v="San Jose"/><tag k="addr:housenumber" v="1060"/><tag k="addr:street" v="Summerplace Drive"/><tag k="addr:postcode" v="95122"/></node>
<node visible="true" id="-117" lat="37.31951129" lon="-121.84248061900001"><tag k="addr:city" v="San Jose"/><tag k="addr:housenumber" v="1060"/><tag k="addr:street" v="Summershore Court"/><tag k="addr:postcode" v="95122"/></node>
<node visible="true" id="-118" lat="37.319910031" lon="-121.842915003"><tag k="addr:city" v="San Jose"/><tag k="addr:housenumber" v="1062"/><tag k="addr:street" v="Summerplace Drive"/><tag k="addr:postcode" v="95122"/></node>
<node visible="true" id="-119" lat="37.319574146" lon="-121.84229981300001"><tag k="addr:city" v="San Jose"/><tag k="addr:housenumber" v="1062"/><tag k="addr:street" v="Summershore Court"/><tag k="addr:postcode" v="95122"/></node>
<node visible="true" id="-120" lat="37.319950028" lon="-121.84284026300001"><tag k="addr:city" v="San Jose"/><tag k="addr:housenumber" v="1064"/><tag k="addr:street" v="Summerplace Drive"/><tag k="addr:postcode" v="95122"/></node>
<node visible="true" id="-121" lat="37.319533183000004" lon="-121.84234626300001"><tag k="addr:city" v="San Jose"/><tag k="addr:housenumber" v="1064"/><tag k="addr:street" v="Summershore Court"/><tag k="addr:postcode" v="95122"/></node>
<node visible="true" id="-122" lat="37.315786457" lon="-121.83845047700001"><tag k="addr:city" v="San Jose"/><tag k="addr:housenumber" v="1064"/><tag k="addr:street" v="Tekman Drive"/><tag k="addr:postcode" v="95122"/></node>
<node visible="true" id="-123" lat="37.319618651" lon="-121.84237840700001"><tag k="addr:city" v="San Jose"/><tag k="addr:housenumber" v="1066"/><tag k="addr:street" v="Summershore Court"/><tag k="addr:postcode" v="95122"/></node>
<node visible="true" id="-124" lat="37.320029821000006" lon="-121.84267726700001"><tag k="addr:city" v="San Jose"/><tag k="addr:housenumber" v="1070"/><tag k="addr:street" v="Summerplace Drive"/><tag k="addr:postcode" v="95122"/></node>
<node visible="true" id="-125" lat="37.320057045000006" lon="-121.84267947500001"><tag k="addr:city" v="San Jose"/><tag k="addr:housenumber" v="1072"/><tag k="addr:street" v="Summerplace Drive"/><tag k="addr:postcode" v="95122"/></node>
<node visible="true" id="-126" lat="37.320109903" lon="-121.842587463"><tag k="addr:city" v="San Jose"/><tag k="addr:housenumber" v="1074"/><tag k="addr:street" v="Summerplace Drive"/><tag k="addr:postcode" v="95122"/></node>
<node visible="true" id="-127" lat="37.314794768000006" lon="-121.838388866"><tag k="addr:city" v="San Jose"/><tag k="addr:housenumber" v="1075"/><tag k="addr:street" v="Tully Road"/><tag k="addr:unit" v="10"/><tag k="addr:postcode" v="95122"/></node>
<node visible="true" id="-128" lat="37.314821031" lon="-121.83834396"><tag k="addr:city" v="San Jose"/><tag k="addr:housenumber" v="1075"/><tag k="addr:street" v="Tully Road"/><tag k="addr:unit" v="12"/><tag k="addr:postcode" v="95122"/></node>
<node visible="true" id="-129" lat="37.314850484000004" lon="-121.83829755900001"><tag k="addr:city" v="San Jose"/><tag k="addr:housenumber" v="1075"/><tag k="addr:street" v="Tully Road"/><tag k="addr:unit" v="14"/><tag k="addr:postcode" v="95122"/></node>
<node visible="true" id="-130" lat="37.314876853" lon="-121.83825388000001"><tag k="addr:city" v="San Jose"/><tag k="addr:housenumber" v="1075"/><tag k="addr:street" v="Tully Road"/><tag k="addr:unit" v="16"/><tag k="addr:postcode" v="95122"/></node>
<node visible="true" id="-131" lat="37.314906497" lon="-121.838209363"><tag k="addr:city" v="San Jose"/><tag k="addr:housenumber" v="1075"/><tag k="addr:street" v="Tully Road"/><tag k="addr:unit" v="18"/><tag k="addr:postcode" v="95122"/></node>
<node visible="true" id="-132" lat="37.314948645" lon="-121.83815160700001"><tag k="addr:city" v="San Jose"/><tag k="addr:housenumber" v="1075"/><tag k="addr:street" v="Tully Road"/><tag k="addr:unit" v="20"/><tag k="addr:postcode" v="95122"/></node>
<node visible="true" id="-133" lat="37.314982632" lon="-121.838098481"><tag k="addr:city" v="San Jose"/><tag k="addr:housenumber" v="1075"/><tag k="addr:street" v="Tully Road"/><tag k="addr:unit" v="22"/><tag k="addr:postcode" v="95122"/></node>
<node visible="true" id="-134" lat="37.315011825" lon="-121.838047656"><tag k="addr:city" v="San Jose"/><tag k="addr:housenumber" v="1075"/><tag k="addr:street" v="Tully Road"/><tag k="addr:unit" v="24"/><tag k="addr:postcode" v="95122"/></node>
<node visible="true" id="-135" lat="37.315049231" lon="-121.83798742600001"><tag k="addr:city" v="San Jose"/><tag k="addr:housenumber" v="1075"/><tag k="addr:street" v="Tully Road"/><tag k="addr:unit" v="26"/><tag k="addr:postcode" v="95122"/></node>
<node visible="true" id="-136" lat="37.315094880000004" lon="-121.837915401"><tag k="addr:city" v="San Jose"/><tag k="addr:housenumber" v="1075"/><tag k="addr:street" v="Tully Road"/><tag k="addr:unit" v="28"/><tag k="addr:postcode" v="95122"/></node>
<node visible="true" id="-137" lat="37.315139493000004" lon="-121.83785052600001"><tag k="addr:city" v="San Jose"/><tag k="addr:housenumber" v="1075"/><tag k="addr:street" v="Tully Road"/><tag k="addr:unit" v="30"/><tag k="addr:postcode" v="95122"/></node>
<node visible="true" id="-138" lat="37.315180237" lon="-121.83779035600001"><tag k="addr:city" v="San Jose"/><tag k="addr:housenumber" v="1075"/><tag k="addr:street" v="Tully Road"/><tag k="addr:unit" v="32"/><tag k="addr:postcode" v="95122"/></node>
<node visible="true" id="-139" lat="37.320080888" lon="-121.842585771"><tag k="addr:city" v="San Jose"/><tag k="addr:housenumber" v="1076"/><tag k="addr:street" v="Summerplace Drive"/><tag k="addr:postcode" v="95122"/></node>
<node visible="true" id="-140" lat="37.320137819" lon="-121.84252440600001"><tag k="addr:city" v="San Jose"/><tag k="addr:housenumber" v="1078"/><tag k="addr:street" v="Summerplace Drive"/><tag k="addr:postcode" v="95122"/></node>
<node visible="true" id="-141" lat="37.316280456" lon="-121.83847025000001"><tag k="addr:city" v="San Jose"/><tag k="addr:housenumber" v="1079"/><tag k="addr:street" v="Tekman Drive"/><tag k="addr:postcode" v="95122"/></node>
<node visible="true" id="-142" lat="37.320152264" lon="-121.84206428700001"><tag k="addr:city" v="San Jose"/><tag k="addr:housenumber" v="1081"/><tag k="addr:street" v="Summerain Court"/><tag k="addr:postcode" v="95122"/></node>
<node visible="true" id="-143" lat="37.316580689000006" lon="-121.840082338"><tag k="addr:city" v="San Jose"/><tag k="addr:housenumber" v="2167"/><tag k="addr:street" v="McLaughlin Avenue"/><tag k="addr:unit" v="4"/><tag k="addr:postcode" v="95122"/></node>
<node visible="true" id="-144" lat="37.318209229000004" lon="-121.841935136"><tag k="addr:city" v="San Jose"/><tag k="addr:housenumber" v="2183"/><tag k="addr:street" v="Summerton Drive"/><tag k="addr:postcode" v="95122"/></node>
<node visible="true" id="-145" lat="37.318249205" lon="-121.841905451"><tag k="addr:city" v="San Jose"/><tag k="addr:housenumber" v="2185"/><tag k="addr:street" v="Summerton Drive"/><tag k="addr:postcode" v="95122"/></node>
<node visible="true" id="-146" lat="37.318368985" lon="-121.841728524"><tag k="addr:city" v="San Jose"/><tag k="addr:housenumber" v="2193"/><tag k="addr:street" v="Summerton Drive"/><tag k="addr:postcode" v="95122"/></node>
<node visible="true" id="-147" lat="37.320175702" lon="-121.842017866"><tag k="addr:city" v="San Jose"/><tag k="addr:housenumber" v="1087"/><tag k="addr:street" v="Summerain Court"/><tag k="addr:postcode" v="95122"/></node>
<node visible="true" id="-148" lat="37.317012606000006" lon="-121.83989167000001"><tag k="addr:city" v="San Jose"/><tag k="addr:housenumber" v="2277"/><tag k="addr:street" v="McLaughlin Avenue"/><tag k="addr:unit" v="1"/><tag k="addr:postcode" v="95122"/></node>
<node visible="true" id="-149" lat="37.315429393" lon="-121.841736413"><tag k="addr:city" v="San Jose"/><tag k="addr:housenumber" v="2280"/><tag k="addr:street" v="Lucretia Avenue"/><tag k="addr:unit" v="1"/><tag k="addr:postcode" v="95122"/></node>
<node visible="true" id="-150" lat="37.316430732" lon="-121.83819905300001"><tag k="addr:city" v="San Jose"/><tag k="addr:housenumber" v="2303"/><tag k="addr:street" v="McLaughlin Avenue"/><tag k="addr:postcode" v="95122"/></node>
<node visible="true" id="-151" lat="37.316413395000005" lon="-121.83822887400001"><tag k="addr:city" v="San Jose"/><tag k="addr:housenumber" v="2305"/><tag k="addr:street" v="McLaughlin Avenue"/><tag k="addr:postcode" v="95122"/></node>
<node visible="true" id="-152" lat="37.315850221000005" lon="-121.8389339"><tag k="addr:city" v="San Jose"/><tag k="addr:housenumber" v="2312"/><tag k="addr:street" v="Balme Drive"/><tag k="addr:postcode" v="95122"/></node>
<node visible="true" id="-153" lat="37.315652325" lon="-121.838788758"><tag k="addr:city" v="San Jose"/><tag k="addr:housenumber" v="2318"/><tag k="addr:street" v="Balme Drive"/><tag k="addr:postcode" v="95122"/></node>
<node visible="true" id="-154" lat="37.315681571" lon="-121.83866371600001"><tag k="addr:city" v="San Jose"/><tag k="addr:housenumber" v="2322"/><tag k="addr:street" v="Balme Drive"/><tag k="addr:postcode" v="95122"/></node>
<node visible="true" id="-155" lat="37.315669237" lon="-121.838755058"><tag k="addr:city" v="San Jose"/><tag k="addr:housenumber" v="2324"/><tag k="addr:street" v="Balme Drive"/><tag k="addr:postcode" v="95122"/></node>
<node visible="true" id="-156" lat="37.315659041" lon="-121.83864453500001"><tag k="addr:city" v="San Jose"/><tag k="addr:housenumber" v="2326"/><tag k="addr:street" v="Balme Drive"/><tag k="addr:postcode" v="95122"/></node>
<node visible="true" id="-157" lat="37.315592532000004" lon="-121.83867605100001"><tag k="addr:city" v="San Jose"/><tag k="addr:housenumber" v="2328"/><tag k="addr:street" v="Balme Drive"/><tag k="addr:postcode" v="95122"/></node>
<node visible="true" id="-158" lat="37.315575901" lon="-121.838706642"><tag k="addr:city" v="San Jose"/><tag k="addr:housenumber" v="2330"/><tag k="addr:street" v="Balme Drive"/><tag k="addr:postcode" v="95122"/></node>
<node visible="true" id="-159" lat="37.315666267000005" lon="-121.84201672500001"><tag k="addr:city" v="San Jose"/><tag k="addr:housenumber" v="2346"/><tag k="addr:street" v="Lucretia Avenue"/><tag k="addr:unit" v="4"/><tag k="addr:postcode" v="95122"/></node>
<node visible="true" id="-160" lat="37.315318281" lon="-121.83856428200001"><tag k="addr:city" v="San Jose"/><tag k="addr:housenumber" v="2374"/><tag k="addr:street" v="Balme Drive"/><tag k="addr:postcode" v="95122"/></node>
<node visible="true" id="-161" lat="37.315180969000004" lon="-121.83852435600001"><tag k="addr:city" v="San Jose"/><tag k="addr:housenumber" v="2384"/><tag k="addr:street" v="Balme Drive"/><tag k="addr:postcode" v="95122"/></node>
<node visible="true" id="-162" lat="37.31510516" lon="-121.838442549"><tag k="addr:city" v="San Jose"/><tag k="addr:housenumber" v="2388"/><tag k="addr:street" v="Balme Drive"/><tag k="addr:postcode" v="95122"/></node>
<node visible="true" id="-163" lat="37.313985987" lon="-121.839751597"><tag k="addr:city" v="San Jose"/><tag k="addr:housenumber" v="2390"/><tag k="addr:street" v="Lucretia Avenue"/><tag k="addr:unit" v="1509"/><tag k="addr:postcode" v="95122"/></node>
<node visible="true" id="-164" lat="37.313950094" lon="-121.83972110100001"><tag k="addr:city" v="San Jose"/><tag k="addr:housenumber" v="2390"/><tag k="addr:street" v="Lucretia Avenue"/><tag k="addr:unit" v="1510"/><tag k="addr:postcode" v="95122"/></node>
<node visible="true" id="-165" lat="37.313939260000005" lon="-121.83942570100001"><tag k="addr:city" v="San Jose"/><tag k="addr:housenumber" v="2390"/><tag k="addr:street" v="Lucretia Avenue"/><tag k="addr:unit" v="1607"/><tag k="addr:postcode" v="95122"/></node>
<node visible="true" id="-166" lat="37.313904559" lon="-121.83938477900001"><tag k="addr:city" v="San Jose"/><tag k="addr:housenumber" v="2390"/><tag k="addr:street" v="Lucretia Avenue"/><tag k="addr:unit" v="1608"/><tag k="addr:postcode" v="95122"/></node>
<node visible="true" id="-167" lat="37.315136924" lon="-121.83976381900001"><tag k="addr:city" v="San Jose"/><tag k="addr:housenumber" v="2390"/><tag k="addr:street" v="Lucretia Avenue"/><tag k="addr:unit" v="602"/><tag k="addr:postcode" v="95122"/></node>
<node visible="true" id="-168" lat="37.315203394" lon="-121.839705902"><tag k="addr:city" v="San Jose"/><tag k="addr:housenumber" v="2390"/><tag k="addr:street" v="Lucretia Avenue"/><tag k="addr:unit" v="604"/><tag k="addr:postcode" v="95122"/></node>
<node visible="true" id="-169" lat="37.315273153" lon="-121.83961043000001"><tag k="addr:city" v="San Jose"/><tag k="addr:housenumber" v="2390"/><tag k="addr:street" v="Lucretia Avenue"/><tag k="addr:unit" v="606"/><tag k="addr:postcode" v="95122"/></node>
<node visible="true" id="-170" lat="37.315121088000005" lon="-121.838415986"><tag k="addr:city" v="San Jose"/><tag k="addr:housenumber" v="2398"/><tag k="addr:street" v="Balme Drive"/><tag k="addr:postcode" v="95122"/></node>
<node visible="true" id="-171" lat="37.315234145000005" lon="-121.838186178"><tag k="addr:city" v="San Jose"/><tag k="addr:housenumber" v="2404"/><tag k="addr:street" v="Balme Drive"/><tag k="addr:postcode" v="95122"/></node>
<node visible="true" id="-172" lat="37.315248616000005" lon="-121.838163702"><tag k="addr:city" v="San Jose"/><tag k="addr:housenumber" v="2412"/><tag k="addr:street" v="Balme Drive"/><tag k="addr:postcode" v="95122"/></node>
<node visible="true" id="-173" lat="37.319405684" lon="-121.84191159500001"><tag k="addr:city" v="San Jose"/><tag k="addr:housenumber" v="1097"/><tag k="addr:street" v="Indian Summer Court"/><tag k="addr:postcode" v="95122"/></node>
<node visible="true" id="-174" lat="37.319438652" lon="-121.84195424800001"><tag k="addr:city" v="San Jose"/><tag k="addr:housenumber" v="1099"/><tag k="addr:street" v="Indian Summer Court"/><tag k="addr:postcode" v="95122"/></node>
<node visible="true" id="-175" lat="37.315880847" lon="-121.83760321300001"><tag k="addr:city" v="San Jose"/><tag k="addr:housenumber" v="2464"/><tag k="addr:street" v="Balme Drive"/><tag k="addr:postcode" v="95122"/></node>
<node visible="true" id="-176" lat="37.315984507" lon="-121.83803874700001"><tag k="addr:city" v="San Jose"/><tag k="addr:housenumber" v="1101"/><tag k="addr:street" v="Tekman Drive"/><tag k="addr:postcode" v="95122"/></node>
<node visible="true" id="-177" lat="37.317043859" lon="-121.844060909"><tag k="addr:city" v="San Jose"/><tag k="addr:housenumber" v="920"/><tag k="addr:street" v="Deer Meadow Court"/><tag k="addr:postcode" v="95122"/></node>
<node visible="true" id="-178" lat="37.317094726" lon="-121.84399414100001"><tag k="addr:city" v="San Jose"/><tag k="addr:housenumber" v="924"/><tag k="addr:street" v="Deer Meadow Court"/><tag k="addr:postcode" v="95122"/></node>
<node visible="true" id="-179" lat="37.317151562" lon="-121.843917027"><tag k="addr:city" v="San Jose"/><tag k="addr:housenumber" v="928"/><tag k="addr:street" v="Deer Meadow Court"/><tag k="addr:postcode" v="95122"/></node>
<node visible="true" id="-180" lat="37.317203499" lon="-121.843831123"><tag k="addr:city" v="San Jose"/><tag k="addr:housenumber" v="932"/><tag k="addr:street" v="Deer Meadow Court"/><tag k="addr:postcode" v="95122"/></node>
<node visible="true" id="-181" lat="37.317385332" lon="-121.84350564500001"><tag k="addr:city" v="San Jose"/><tag k="addr:housenumber" v="936"/><tag k="addr:street" v="Deer Meadow Court"/><tag k="addr:postcode" v="95122"/></node>
<node visible="true" id="-182" lat="37.317438105" lon="-121.843437949"><tag k="addr:city" v="San Jose"/><tag k="addr:housenumber" v="940"/><tag k="addr:street" v="Deer Meadow Court"/><tag k="addr:postcode" v="95122"/></node>
<node visible="true" id="-183" lat="37.317495465" lon="-121.84335578800001"><tag k="addr:city" v="San Jose"/><tag k="addr:housenumber" v="944"/><tag k="addr:street" v="Deer Meadow Court"/><tag k="addr:postcode" v="95122"/></node>
<node visible="true" id="-184" lat="37.317547340000004" lon="-121.843270535"><tag k="addr:city" v="San Jose"/><tag k="addr:housenumber" v="948"/><tag k="addr:street" v="Deer Meadow Court"/><tag k="addr:postcode" v="95122"/></node>
<node visible="true" id="-185" lat="37.317694573000004" lon="-121.84302549300001"><tag k="addr:city" v="San Jose"/><tag k="addr:housenumber" v="952"/><tag k="addr:street" v="Deer Meadow Court"/><tag k="addr:postcode" v="95122"/></node>
<node visible="true" id="-186" lat="37.317614217" lon="-121.843647152"><tag k="addr:city" v="San Jose"/><tag k="addr:housenumber" v="953"/><tag k="addr:street" v="Deer Meadow Court"/><tag k="addr:postcode" v="95122"/></node>
<node visible="true" id="-187" lat="37.317763351" lon="-121.84307350200001"><tag k="addr:city" v="San Jose"/><tag k="addr:housenumber" v="956"/><tag k="addr:street" v="Deer Meadow Court"/><tag k="addr:postcode" v="95122"/></node>
<node visible="true" id="-188" lat="37.317821993" lon="-121.84313357"><tag k="addr:city" v="San Jose"/><tag k="addr:housenumber" v="960"/><tag k="addr:street" v="Deer Meadow Court"/><tag k="addr:postcode" v="95122"/></node>
<node visible="true" id="-189" lat="37.317899728" lon="-121.84319811"><tag k="addr:city" v="San Jose"/><tag k="addr:housenumber" v="964"/><tag k="addr:street" v="Deer Meadow Court"/><tag k="addr:postcode" v="95122"/></node>
<node visible="true" id="-190" lat="37.315460722000005" lon="-121.841836837"><tag k="addr:city" v="San Jose"/><tag k="addr:housenumber" v="2286"/><tag k="addr:street" v="Lucretia Avenue"/><tag k="addr:postcode" v="95122"/></node>
<node visible="true" id="-191" lat="37.319473433" lon="-121.843813428"><tag k="addr:city" v="San Jose"/><tag k="addr:housenumber" v="1020"/><tag k="addr:street" v="Summerplace Drive"/><tag k="addr:postcode" v="95122"/></node>
<node visible="true" id="-192" lat="37.319489581" lon="-121.8437514"><tag k="addr:city" v="San Jose"/><tag k="addr:housenumber" v="1022"/><tag k="addr:street" v="Summerplace Drive"/><tag k="addr:postcode" v="95122"/></node>
<node visible="true" id="-193" lat="37.319454548" lon="-121.843754793"><tag k="addr:city" v="San Jose"/><tag k="addr:housenumber" v="1024"/><tag k="addr:street" v="Summerplace Drive"/><tag k="addr:postcode" v="95122"/></node>
<node visible="true" id="-194" lat="37.319477382" lon="-121.843653508"><tag k="addr:city" v="San Jose"/><tag k="addr:housenumber" v="1026"/><tag k="addr:street" v="Summerplace Drive"/><tag k="addr:postcode" v="95122"/></node>
<node visible="true" id="-195" lat="37.318860711" lon="-121.84215524700001"><tag k="addr:city" v="San Jose"/><tag k="addr:housenumber" v="1028"/><tag k="addr:street" v="Summermist Court"/><tag k="addr:postcode" v="95122"/></node>
<node visible="true" id="-196" lat="37.319520378" lon="-121.843650256"><tag k="addr:city" v="San Jose"/><tag k="addr:housenumber" v="1028"/><tag k="addr:street" v="Summerplace Drive"/><tag k="addr:postcode" v="95122"/></node>
<node visible="true" id="-197" lat="37.318899602" lon="-121.84211966100001"><tag k="addr:city" v="San Jose"/><tag k="addr:housenumber" v="1030"/><tag k="addr:street" v="Summermist Court"/><tag k="addr:postcode" v="95122"/></node>
<node visible="true" id="-198" lat="37.319513417" lon="-121.84355796000001"><tag k="addr:city" v="San Jose"/><tag k="addr:housenumber" v="1032"/><tag k="addr:street" v="Summerplace Drive"/><tag k="addr:postcode" v="95122"/></node>
<node visible="true" id="-199" lat="37.319576216" lon="-121.843480571"><tag k="addr:city" v="San Jose"/><tag k="addr:housenumber" v="1034"/><tag k="addr:street" v="Summerplace Drive"/><tag k="addr:postcode" v="95122"/></node>
<node visible="true" id="-200" lat="37.319048006" lon="-121.84203600000001"><tag k="addr:city" v="San Jose"/><tag k="addr:housenumber" v="1036"/><tag k="addr:street" v="Summermist Court"/><tag k="addr:postcode" v="95122"/></node>
<node visible="true" id="-201" lat="37.319599563000004" lon="-121.84345426700001"><tag k="addr:city" v="San Jose"/><tag k="addr:housenumber" v="1036"/><tag k="addr:street" v="Summerplace Drive"/><tag k="addr:postcode" v="95122"/></node>
<node visible="true" id="-202" lat="37.319025347" lon="-121.84204546500001"><tag k="addr:city" v="San Jose"/><tag k="addr:housenumber" v="1038"/><tag k="addr:street" v="Summermist Court"/><tag k="addr:postcode" v="95122"/></node>
<node visible="true" id="-203" lat="37.319638103" lon="-121.843403648"><tag k="addr:city" v="San Jose"/><tag k="addr:housenumber" v="1038"/><tag k="addr:street" v="Summerplace Drive"/><tag k="addr:postcode" v="95122"/></node>
<node visible="true" id="-204" lat="37.319122355000005" lon="-121.84207485700001"><tag k="addr:city" v="San Jose"/><tag k="addr:housenumber" v="1040"/><tag k="addr:street" v="Summermist Court"/><tag k="addr:postcode" v="95122"/></node>
<node visible="true" id="-205" lat="37.319090205" lon="-121.84208315400001"><tag k="addr:city" v="San Jose"/><tag k="addr:housenumber" v="1042"/><tag k="addr:street" v="Summermist Court"/><tag k="addr:postcode" v="95122"/></node>
<node visible="true" id="-206" lat="37.319185232" lon="-121.842800937"><tag k="addr:city" v="San Jose"/><tag k="addr:housenumber" v="1042"/><tag k="addr:street" v="Summershore Court"/><tag k="addr:postcode" v="95122"/></node>
<node visible="true" id="-207" lat="37.31921319" lon="-121.842750953"><tag k="addr:city" v="San Jose"/><tag k="addr:housenumber" v="1044"/><tag k="addr:street" v="Summershore Court"/><tag k="addr:postcode" v="95122"/></node>
<node visible="true" id="-208" lat="37.319169439" lon="-121.8421536"><tag k="addr:city" v="San Jose"/><tag k="addr:housenumber" v="1046"/><tag k="addr:street" v="Summermist Court"/><tag k="addr:postcode" v="95122"/></node>
<node visible="true" id="-209" lat="37.319253073000006" lon="-121.84271738000001"><tag k="addr:city" v="San Jose"/><tag k="addr:housenumber" v="1046"/><tag k="addr:street" v="Summershore Court"/><tag k="addr:postcode" v="95122"/></node>
<node visible="true" id="-210" lat="37.319267846" lon="-121.842173665"><tag k="addr:city" v="San Jose"/><tag k="addr:housenumber" v="1048"/><tag k="addr:street" v="Summermist Court"/><tag k="addr:postcode" v="95122"/></node>
<node visible="true" id="-211" lat="37.319287224" lon="-121.842702242"><tag k="addr:city" v="San Jose"/><tag k="addr:housenumber" v="1048"/><tag k="addr:street" v="Summershore Court"/><tag k="addr:postcode" v="95122"/></node>
<node visible="true" id="-212" lat="37.319237204000004" lon="-121.84220613100001"><tag k="addr:city" v="San Jose"/><tag k="addr:housenumber" v="1050"/><tag k="addr:street" v="Summermist Court"/><tag k="addr:postcode" v="95122"/></node>
<node visible="true" id="-213" lat="37.319319161" lon="-121.842645415"><tag k="addr:city" v="San Jose"/><tag k="addr:housenumber" v="1050"/><tag k="addr:street" v="Summershore Court"/><tag k="addr:postcode" v="95122"/></node>
<node visible="true" id="-214" lat="37.319323077" lon="-121.842226967"><tag k="addr:city" v="San Jose"/><tag k="addr:housenumber" v="1052"/><tag k="addr:street" v="Summermist Court"/><tag k="addr:postcode" v="95122"/></node>
<node visible="true" id="-215" lat="37.319803834000005" lon="-121.843047397"><tag k="addr:city" v="San Jose"/><tag k="addr:housenumber" v="1052"/><tag k="addr:street" v="Summerplace Drive"/><tag k="addr:postcode" v="95122"/></node>
<node visible="true" id="-216" lat="37.319399029" lon="-121.84258614800001"><tag k="addr:city" v="San Jose"/><tag k="addr:housenumber" v="1052"/><tag k="addr:street" v="Summershore Court"/><tag k="addr:postcode" v="95122"/></node>
<node visible="true" id="-217" lat="37.315769225000004" lon="-121.83848175600001"><tag k="addr:city" v="San Jose"/><tag k="addr:housenumber" v="1052"/><tag k="addr:street" v="Tekman Drive"/><tag k="addr:postcode" v="95122"/></node>
<node visible="true" id="-218" lat="37.315978026" lon="-121.83880125600001"><tag k="addr:city" v="San Jose"/><tag k="addr:housenumber" v="1053"/><tag k="addr:street" v="Tekman Drive"/><tag k="addr:postcode" v="95122"/></node>
<node visible="true" id="-219" lat="37.319299343000004" lon="-121.842267812"><tag k="addr:city" v="San Jose"/><tag k="addr:housenumber" v="1054"/><tag k="addr:street" v="Summermist Court"/><tag k="addr:postcode" v="95122"/></node>
<node visible="true" id="-220" lat="37.319359511" lon="-121.842604628"><tag k="addr:city" v="San Jose"/><tag k="addr:housenumber" v="1054"/><tag k="addr:street" v="Summershore Court"/><tag k="addr:postcode" v="95122"/></node>
<node visible="true" id="-221" lat="37.315694722" lon="-121.838465708"><tag k="addr:city" v="San Jose"/><tag k="addr:housenumber" v="1054"/><tag k="addr:street" v="Tekman Drive"/><tag k="addr:postcode" v="95122"/></node>
<node visible="true" id="-223" lat="37.314857238" lon="-121.83747859900001"/>
<node visible="true" id="-224" lat="37.314906702" lon="-121.83752965800001"/>
<node visible="true" id="-225" lat="37.314897338" lon="-121.837543866"/>
<node visible="true" id="-226" lat="37.314940938" lon="-121.83758887200001"/>
<node visible="true" id="-227" lat="37.314952398" lon="-121.83757143400001"/>
<node visible="true" id="-228" lat="37.314992984" lon="-121.83761329200001"/>
<node visible="true" id="-229" lat="37.315045646" lon="-121.83753328"/>
<node visible="true" id="-230" lat="37.315003242" lon="-121.83748953300001"/>
<node visible="true" id="-231" lat="37.315011823" lon="-121.837476515"/>
<node visible="true" id="-232" lat="37.31496958" lon="-121.83743294400001"/>
<node visible="true" id="-233" lat="37.314956107" lon="-121.83745344"/>
<node visible="true" id="-234" lat="37.314907105" lon="-121.837402869"/>
<node visible="true" id="-237" lat="37.317491299000004" lon="-121.84450523500001"/>
<node visible="true" id="-238" lat="37.317646149000005" lon="-121.84465944600001"/>
<node visible="true" id="-239" lat="37.317714879" lon="-121.844551248"/>
<node visible="true" id="-240" lat="37.317750455" lon="-121.84458665800001"/>
<node visible="true" id="-241" lat="37.317736608000004" lon="-121.84460845400001"/>
<node visible="true" id="-242" lat="37.317829594" lon="-121.84470109200001"/>
<node visible="true" id="-243" lat="37.317965206000004" lon="-121.844487622"/>
<node visible="true" id="-244" lat="37.317903369" lon="-121.844425981"/>
<node visible="true" id="-245" lat="37.317931399" lon="-121.844381845"/>
<node visible="true" id="-246" lat="37.317952609" lon="-121.84440296500001"/>
<node visible="true" id="-247" lat="37.318026876000005" lon="-121.84428609700001"/>
<node visible="true" id="-248" lat="37.317873247" lon="-121.84413307700001"/>
<node visible="true" id="-249" lat="37.317818729" lon="-121.844218866"/>
<node visible="true" id="-250" lat="37.317782393" lon="-121.84418268700001"/>
<node visible="true" id="-251" lat="37.31776835" lon="-121.84420478800001"/>
<node visible="true" id="-252" lat="37.317720391" lon="-121.84415701500001"/>
<node visible="true" id="-253" lat="37.317734126000005" lon="-121.84413539"/>
<node visible="true" id="-254" lat="37.317698006" lon="-121.84409942"/>
<node visible="true" id="-255" lat="37.317596186" lon="-121.84425967600001"/>
<node visible="true" id="-256" lat="37.317627525" lon="-121.84429084800001"/>
<node visible="true" id="-258" lat="37.317673928000005" lon="-121.84441683200001"/>
<node visible="true" id="-259" lat="37.317768113" lon="-121.84426613800001"/>
<node visible="true" id="-260" lat="37.317859514000006" lon="-121.844355687"/>
<node visible="true" id="-261" lat="37.317765329000004" lon="-121.844506381"/>
<node visible="true" id="-263" lat="37.315043398" lon="-121.837186415"/>
<node visible="true" id="-264" lat="37.315050756000005" lon="-121.83719390600001"/>
<node visible="true" id="-265" lat="37.315058082" lon="-121.83718262000001"/>
<node visible="true" id="-266" lat="37.31514475" lon="-121.837270868"/>
<node visible="true" id="-267" lat="37.315124648" lon="-121.837301803"/>
<node visible="true" id="-268" lat="37.31519166" lon="-121.83737002800001"/>
<node visible="true" id="-269" lat="37.315209694" lon="-121.837342254"/>
<node visible="true" id="-270" lat="37.315221016" lon="-121.83735380600001"/>
<node visible="true" id="-271" lat="37.315257082" lon="-121.83729829200001"/>
<node visible="true" id="-272" lat="37.315245706" lon="-121.83728670600001"/>
<node visible="true" id="-273" lat="37.315301707" lon="-121.837200459"/>
<node visible="true" id="-274" lat="37.315234506" lon="-121.83713205800001"/>
<node visible="true" id="-275" lat="37.315182755" lon="-121.837211709"/>
<node visible="true" id="-276" lat="37.315097118000004" lon="-121.83712447600001"/>
<node visible="true" id="-277" lat="37.315104583" lon="-121.83711295100001"/>
<node visible="true" id="-278" lat="37.315096192000006" lon="-121.83710441100001"/>
<node visible="true" id="-279" lat="37.315088364000005" lon="-121.837116479"/>
<node visible="true" id="-280" lat="37.31508649" lon="-121.837114588"/>
<node visible="true" id="-281" lat="37.315048047000005" lon="-121.837173773"/>
<node visible="true" id="-282" lat="37.315050191000005" lon="-121.83717594400001"/>
<way visible="true" id="-1"><nd ref="-2"/><nd ref="-3"/><nd ref="-4"/><nd ref="-5"/><nd ref="-2"/><tag k="building" v="yes"/><tag k="height" v="4.61"/><tag k="ele" v="46.38"/></way>
<way visible="true" id="-6"><nd ref="-7"/><nd ref="-8"/><nd ref="-9"/><nd ref="-10"/><nd ref="-11"/><nd ref="-12"/><nd ref="-13"/><nd ref="-14"/><nd ref="-15"/><nd ref="-16"/><nd ref="-17"/><nd ref="-18"/><nd ref="-19"/><nd ref="-20"/><nd ref="-21"/><nd ref="-22"/><nd ref="-7"/><tag k="building" v="yes"/><tag k="height" v="4.85"/><tag k="ele" v="46.00"/></way>
<way visible="true" id="-222"><nd ref="-223"/><nd ref="-224"/><nd ref="-225"/><nd ref="-226"/><nd ref="-227"/><nd ref="-228"/><nd ref="-229"/><nd ref="-230"/><nd ref="-231"/><nd ref="-232"/><nd ref="-233"/><nd ref="-234"/><nd ref="-223"/><tag k="building" v="yes"/><tag k="height" v="3.65"/><tag k="ele" v="44.38"/><tag k="addr:city" v="San Jose"/><tag k="addr:housenumber" v="1095"/><tag k="addr:street" v="Tully Road"/><tag k="addr:postcode" v="95122"/></way>
<way visible="true" id="-236"><nd ref="-237"/><nd ref="-238"/><nd ref="-239"/><nd ref="-240"/><nd ref="-241"/><nd ref="-242"/><nd ref="-243"/><nd ref="-244"/><nd ref="-245"/><nd ref="-246"/><nd ref="-247"/><nd ref="-248"/><nd ref="-249"/><nd ref="-250"/><nd ref="-251"/><nd ref="-252"/><nd ref="-253"/><nd ref="-254"/><nd ref="-255"/><nd ref="-256"/><nd ref="-237"/></way>
<way visible="true" id="-257"><nd ref="-258"/><nd ref="-259"/><nd ref="-260"/><nd ref="-261"/><nd ref="-258"/></way>
<way visible="true" id="-262"><nd ref="-263"/><nd ref="-264"/><nd ref="-265"/><nd ref="-266"/><nd ref="-267"/><nd ref="-268"/><nd ref="-269"/><nd ref="-270"/><nd ref="-271"/><nd ref="-272"/><nd ref="-273"/><nd ref="-274"/><nd ref="-275"/><nd ref="-276"/><nd ref="-277"/><nd ref="-278"/><nd ref="-279"/><nd ref="-280"/><nd ref="-281"/><nd ref="-282"/><nd ref="-263"/><tag k="building" v="yes"/><tag k="height" v="5.05"/><tag k="ele" v="43.78"/><tag k="addr:city" v="San Jose"/><tag k="addr:housenumber" v="1151"/><tag k="addr:street" v="Tully Road"/><tag k="addr:postcode" v="95122"/></way>
<relation visible="true" id="-235"><member type="way" ref="-236" role="outer"/><member type="way" ref="-257" role="inner"/><tag k="type" v="multipolygon"/><tag k="building" v="yes"/><tag k="height" v="4.24"/><tag k="ele" v="43.20"/><tag k="addr:city" v="San Jose"/><tag k="addr:housenumber" v="2072"/><tag k="addr:street" v="Lucretia Avenue"/><tag k="addr:postcode" v="95122"/></relation>
</osm>