<?xml version="1.0"?>
<osm version="0.6" generator="uvmogr2osm" upload="false">
<node visible="true" id="-2" lat="37.396018481000006" lon="-121.90508132500001"/>
<node visible="true" id="-3" lat="37.395960551" lon="-121.90512956900001"/>
<node visible="true" id="-4" lat="37.395963154" lon="-121.90513468"/>
<node visible="true" id="-5" lat="37.396056891" lon="-121.90531891100001"/>
<node visible="true" id="-6" lat="37.396138483" lon="-121.905343031"/>
<node visible="true" id="-7" lat="37.396126512" lon="-121.90541372800001"/>
<node visible="true" id="-8" lat="37.396268126" lon="-121.905455814"/>
<node visible="true" id="-9" lat="37.396283247" lon="-121.90538132100001"/>
<node visible="true" id="-10" lat="37.396363634000004" lon="-121.90540510800001"/>
<node visible="true" id="-11" lat="37.396516546" lon="-121.905281395"/>
<node visible="true" id="-12" lat="37.396433905" lon="-121.905120163"/>
<node visible="true" id="-13" lat="37.396334333000006" lon="-121.90520046900001"/>
<node visible="true" id="-14" lat="37.396297020000006" lon="-121.905190023"/>
<node visible="true" id="-15" lat="37.396294414" lon="-121.90520815100001"/>
<node visible="true" id="-16" lat="37.396186425" lon="-121.905177166"/>
<node visible="true" id="-17" lat="37.396191279" lon="-121.90515949200001"/>
<node visible="true" id="-18" lat="37.39615166" lon="-121.905146559"/>
<node visible="true" id="-19" lat="37.3960869" lon="-121.905024326"/>
<node visible="true" id="-22" lat="37.403898613" lon="-121.905395361"/>
<node visible="true" id="-23" lat="37.403999779" lon="-121.905443438"/>
<node visible="true" id="-24" lat="37.404038819" lon="-121.905314262"/>
<node visible="true" id="-25" lat="37.403937655" lon="-121.90526622"/>
<node visible="true" id="-27" lat="37.403926500000004" lon="-121.905376535"/>
<node visible="true" id="-28" lat="37.403949775" lon="-121.90530232600001"/>
<node visible="true" id="-29" lat="37.404008838" lon="-121.90533143"/>
<node visible="true" id="-30" lat="37.403985563" lon="-121.90540563900001"/>
<node visible="true" id="-31" lat="37.398226942" lon="-121.906271766"><tag k="addr:city" v="San Jose"/><tag k="addr:housenumber" v="203"/><tag k="addr:street" v="Brentwood Drive"/><tag k="addr:postcode" v="95131"/></node>
<node visible="true" id="-32" lat="37.397931942" lon="-121.906214766"><tag k="addr:city" v="San Jose"/><tag k="addr:housenumber" v="214"/><tag k="addr:street" v="Arroyo Drive"/><tag k="addr:postcode" v="95131"/></node>
<node visible="true" id="-33" lat="37.397388607" lon="-121.90676143600001"><tag k="addr:city" v="San Jose"/><tag k="addr:housenumber" v="219"/><tag k="addr:street" v="Arroyo Drive"/><tag k="addr:postcode" v="95131"/></node>
<node visible="true" id="-34" lat="37.400734947000004" lon="-121.906090757"><tag k="addr:city" v="San Jose"/><tag k="addr:housenumber" v="34"/><tag k="addr:street" v="Creekside Drive"/><tag k="addr:postcode" v="95131"/></node>
<node visible="true" id="-35" lat="37.395414933000005" lon="-121.90373976900001"><tag k="addr:city" v="San Jose"/><tag k="addr:housenumber" v="409"/><tag k="addr:street" v="Buena Vista Drive"/><tag k="addr:postcode" v="95131"/></node>
<node visible="true" id="-36" lat="37.395180933" lon="-121.903972769"><tag k="addr:city" v="San Jose"/><tag k="addr:housenumber" v="425"/><tag k="addr:street" v="Buena Vista Drive"/><tag k="addr:postcode" v="95131"/></node>
<node visible="true" id="-37" lat="37.39807994" lon="-121.90520076400001"><tag k="addr:city" v="San Jose"/><tag k="addr:housenumber" v="14"/><tag k="addr:street" v="Creekside Drive"/><tag k="addr:postcode" v="95131"/></node>
<node visible="true" id="-38" lat="37.394095933" lon="-121.90633777800001"><tag k="addr:city" v="San Jose"/><tag k="addr:housenumber" v="501"/><tag k="addr:street" v="Arroyo Drive"/><tag k="addr:postcode" v="95131"/></node>
<node visible="true" id="-39" lat="37.394219934000006" lon="-121.906409779"><tag k="addr:city" v="San Jose"/><tag k="addr:housenumber" v="502"/><tag k="addr:street" v="Arroyo Drive"/><tag k="addr:postcode" v="95131"/></node>
<node visible="true" id="-40" lat="37.394890932" lon="-121.90454877100001"><tag k="addr:city" v="San Jose"/><tag k="addr:housenumber" v="253"/><tag k="addr:street" v="Fountain Circle"/><tag k="addr:postcode" v="95131"/></node>
<node visible="true" id="-41" lat="37.394757933" lon="-121.904624772"><tag k="addr:city" v="San Jose"/><tag k="addr:housenumber" v="254"/><tag k="addr:street" v="Fountain Circle"/><tag k="addr:postcode" v="95131"/></node>
<node visible="true" id="-42" lat="37.394647932000005" lon="-121.904710773"><tag k="addr:city" v="San Jose"/><tag k="addr:housenumber" v="255"/><tag k="addr:street" v="Fountain Circle"/><tag k="addr:postcode" v="95131"/></node>
<node visible="true" id="-43" lat="37.393382929000005" lon="-121.90450577600001"><tag k="addr:city" v="San Jose"/><tag k="addr:housenumber" v="567"/><tag k="addr:street" v="Alta Glen Court"/><tag k="addr:postcode" v="95131"/></node>
<node visible="true" id="-44" lat="37.393458929000005" lon="-121.90427277600001"><tag k="addr:city" v="San Jose"/><tag k="addr:housenumber" v="568"/><tag k="addr:street" v="Cabrillo Drive"/><tag k="addr:postcode" v="95131"/></node>
<node visible="true" id="-45" lat="37.392087928" lon="-121.90556278300001"><tag k="addr:city" v="San Jose"/><tag k="addr:housenumber" v="581"/><tag k="addr:street" v="Pacifica Drive"/><tag k="addr:postcode" v="95131"/></node>
<node visible="true" id="-46" lat="37.392192927" lon="-121.90532878200001"><tag k="addr:city" v="San Jose"/><tag k="addr:housenumber" v="582"/><tag k="addr:street" v="Pacifica Drive"/><tag k="addr:postcode" v="95131"/></node>
<node visible="true" id="-47" lat="37.397279941" lon="-121.90687076900001"><tag k="addr:city" v="San Jose"/><tag k="addr:housenumber" v="220"/><tag k="addr:street" v="Arroyo Drive"/><tag k="addr:postcode" v="95131"/></node>
<node visible="true" id="-48" lat="37.396848828" lon="-121.906868438"><tag k="addr:city" v="San Jose"/><tag k="addr:housenumber" v="222"/><tag k="addr:street" v="Arroyo Drive"/><tag k="addr:postcode" v="95131"/></node>
<node visible="true" id="-49" lat="37.397062606000006" lon="-121.90665377"><tag k="addr:city" v="San Jose"/><tag k="addr:housenumber" v="224"/><tag k="addr:street" v="Arroyo Drive"/><tag k="addr:postcode" v="95131"/></node>
<node visible="true" id="-50" lat="37.397169496000004" lon="-121.90654643500001"><tag k="addr:city" v="San Jose"/><tag k="addr:housenumber" v="225"/><tag k="addr:street" v="Arroyo Drive"/><tag k="addr:postcode" v="95131"/></node>
<node visible="true" id="-51" lat="37.39667594" lon="-121.90671377100001"><tag k="addr:city" v="San Jose"/><tag k="addr:housenumber" v="286"/><tag k="addr:street" v="Alamo Drive"/><tag k="addr:postcode" v="95131"/></node>
<node visible="true" id="-52" lat="37.396532939000004" lon="-121.90675677200001"><tag k="addr:city" v="San Jose"/><tag k="addr:housenumber" v="287"/><tag k="addr:street" v="Alamo Drive"/><tag k="addr:postcode" v="95131"/></node>
<node visible="true" id="-53" lat="37.396546939000004" lon="-121.90639977000001"><tag k="addr:city" v="San Jose"/><tag k="addr:housenumber" v="331"/><tag k="addr:street" v="Alamo Drive"/><tag k="addr:postcode" v="95131"/></node>
<node visible="true" id="-54" lat="37.396156936000004" lon="-121.90469176900001"><tag k="addr:city" v="San Jose"/><tag k="addr:housenumber" v="465"/><tag k="addr:street" v="Fountain Circle"/><tag k="addr:postcode" v="95131"/></node>
<node visible="true" id="-55" lat="37.399540947000006" lon="-121.907432763"><tag k="addr:city" v="San Jose"/><tag k="addr:housenumber" v="112"/><tag k="addr:street" v="Westwood Drive"/><tag k="addr:postcode" v="95131"/></node>
<node visible="true" id="-56" lat="37.399697947" lon="-121.907427763"><tag k="addr:city" v="San Jose"/><tag k="addr:housenumber" v="113"/><tag k="addr:street" v="Westwood Drive"/><tag k="addr:postcode" v="95131"/></node>
<node visible="true" id="-57" lat="37.400463946" lon="-121.90600475800001"><tag k="addr:city" v="San Jose"/><tag k="addr:housenumber" v="32"/><tag k="addr:street" v="Creekside Drive"/><tag k="addr:postcode" v="95131"/></node>
<node visible="true" id="-58" lat="37.400596948" lon="-121.90608075600001"><tag k="addr:city" v="San Jose"/><tag k="addr:housenumber" v="33"/><tag k="addr:street" v="Creekside Drive"/><tag k="addr:postcode" v="95131"/></node>
<node visible="true" id="-59" lat="37.400866614" lon="-121.90604709"><tag k="addr:city" v="San Jose"/><tag k="addr:housenumber" v="35"/><tag k="addr:street" v="Creekside Drive"/><tag k="addr:postcode" v="95131"/></node>
<node visible="true" id="-60" lat="37.400669949000005" lon="-121.90745161800001"><tag k="addr:city" v="San Jose"/><tag k="addr:housenumber" v="74"/><tag k="addr:street" v="Westwood Drive"/><tag k="addr:postcode" v="95131"/></node>
<node visible="true" id="-61" lat="37.400540448" lon="-121.90750397500001"><tag k="addr:city" v="San Jose"/><tag k="addr:housenumber" v="75"/><tag k="addr:street" v="Westwood Drive"/><tag k="addr:postcode" v="95131"/></node>
<node visible="true" id="-62" lat="37.400567948" lon="-121.907175761"><tag k="addr:city" v="San Jose"/><tag k="addr:housenumber" v="136"/><tag k="addr:street" v="Colony Drive"/><tag k="addr:postcode" v="95131"/></node>
<node visible="true" id="-63" lat="37.398583943000006" lon="-121.90664776400001"><tag k="addr:city" v="San Jose"/><tag k="addr:housenumber" v="176"/><tag k="addr:street" v="Cedarwood Drive"/><tag k="addr:postcode" v="95131"/></node>
<node visible="true" id="-64" lat="37.396188896000005" lon="-121.90253340900001"><tag k="addr:city" v="San Jose"/><tag k="addr:housenumber" v="2139"/><tag k="addr:street" v="Oakland Road"/><tag k="addr:postcode" v="95131"/></node>
<node visible="true" id="-65" lat="37.396741939" lon="-121.906975771"><tag k="addr:city" v="San Jose"/><tag k="addr:housenumber" v="221"/><tag k="addr:street" v="Arroyo Drive"/><tag k="addr:postcode" v="95131"/></node>
<node visible="true" id="-66" lat="37.396955717000004" lon="-121.90676110300001"><tag k="addr:city" v="San Jose"/><tag k="addr:housenumber" v="223"/><tag k="addr:street" v="Arroyo Drive"/><tag k="addr:postcode" v="95131"/></node>
<node visible="true" id="-67" lat="37.39678594" lon="-121.90660727000001"><tag k="addr:city" v="San Jose"/><tag k="addr:housenumber" v="285"/><tag k="addr:street" v="Alamo Drive"/><tag k="addr:postcode" v="95131"/></node>
<node visible="true" id="-68" lat="37.395371931" lon="-121.90342076900001"><tag k="addr:city" v="San Jose"/><tag k="addr:housenumber" v="474"/><tag k="addr:street" v="Arroyo Drive"/><tag k="addr:postcode" v="95131"/></node>
<node visible="true" id="-69" lat="37.394843931000004" lon="-121.90329677000001"><tag k="addr:city" v="San Jose"/><tag k="addr:housenumber" v="478"/><tag k="addr:street" v="Arroyo Drive"/><tag k="addr:postcode" v="95131"/></node>
<node visible="true" id="-70" lat="37.393705929" lon="-121.90435377600001"><tag k="addr:city" v="San Jose"/><tag k="addr:housenumber" v="488"/><tag k="addr:street" v="Arroyo Drive"/><tag k="addr:postcode" v="95131"/></node>
<node visible="true" id="-71" lat="37.393667929" lon="-121.904510775"><tag k="addr:city" v="San Jose"/><tag k="addr:housenumber" v="489"/><tag k="addr:street" v="Arroyo Drive"/><tag k="addr:postcode" v="95131"/></node>
<node visible="true" id="-72" lat="37.399647684" lon="-121.9077625"><tag k="addr:city" v="San Jose"/><tag k="addr:housenumber" v="82"/><tag k="addr:street" v="Westwood Drive"/><tag k="addr:postcode" v="95131"/></node>
<node visible="true" id="-73" lat="37.398418843" lon="-121.90694046700001"><tag k="addr:city" v="San Jose"/><tag k="addr:housenumber" v="159"/><tag k="addr:street" v="Fountain Circle"/><tag k="addr:postcode" v="95131"/></node>
<node visible="true" id="-74" lat="37.393929930000006" lon="-121.904000107"><tag k="addr:city" v="San Jose"/><tag k="addr:housenumber" v="486"/><tag k="addr:street" v="Arroyo Drive"/><tag k="addr:postcode" v="95131"/></node>
<node visible="true" id="-75" lat="37.39382993" lon="-121.904120774"><tag k="addr:city" v="San Jose"/><tag k="addr:housenumber" v="487"/><tag k="addr:street" v="Arroyo Drive"/><tag k="addr:postcode" v="95131"/></node>
<node visible="true" id="-76" lat="37.397450941" lon="-121.90704277"><tag k="addr:city" v="San Jose"/><tag k="addr:housenumber" v="196"/><tag k="addr:street" v="Brentwood Drive"/><tag k="addr:postcode" v="95131"/></node>
<node visible="true" id="-77" lat="37.396221214" lon="-121.905221147"><tag k="addr:city" v="San Jose"/><tag k="addr:housenumber" v="2151"/><tag k="addr:street" v="Oakland Road"/><tag k="addr:postcode" v="95131"/></node>
<node visible="true" id="-78" lat="37.399068943" lon="-121.90586676100001"><tag k="addr:city" v="San Jose"/><tag k="addr:housenumber" v="184"/><tag k="addr:street" v="Brentwood Drive"/><tag k="addr:postcode" v="95131"/></node>
<node visible="true" id="-79" lat="37.398407942000006" lon="-121.90650976500001"><tag k="addr:city" v="San Jose"/><tag k="addr:housenumber" v="190"/><tag k="addr:street" v="Brentwood Drive"/><tag k="addr:postcode" v="95131"/></node>
<node visible="true" id="-80" lat="37.398240943000005" lon="-121.906694767"><tag k="addr:city" v="San Jose"/><tag k="addr:housenumber" v="191"/><tag k="addr:street" v="Brentwood Drive"/><tag k="addr:postcode" v="95131"/></node>
<node visible="true" id="-81" lat="37.398050942000005" lon="-121.906428765"><tag k="addr:city" v="San Jose"/><tag k="addr:housenumber" v="202"/><tag k="addr:street" v="Brentwood Drive"/><tag k="addr:postcode" v="95131"/></node>
<node visible="true" id="-82" lat="37.399013693" lon="-121.90552188500001"><tag k="addr:city" v="San Jose"/><tag k="addr:housenumber" v="21"/><tag k="addr:street" v="Creekside Drive"/><tag k="addr:postcode" v="95131"/></node>
<node visible="true" id="-83" lat="37.398107942" lon="-121.906028765"><tag k="addr:city" v="San Jose"/><tag k="addr:housenumber" v="213"/><tag k="addr:street" v="Arroyo Drive"/><tag k="addr:postcode" v="95131"/></node>
<node visible="true" id="-84" lat="37.396159299000004" lon="-121.90241629900001"><tag k="addr:city" v="San Jose"/><tag k="addr:housenumber" v="2137"/><tag k="addr:street" v="Oakland Road"/><tag k="addr:postcode" v="95131"/></node>
<node visible="true" id="-85" lat="37.399146318" lon="-121.90556357400001"><tag k="addr:city" v="San Jose"/><tag k="addr:housenumber" v="22"/><tag k="addr:street" v="Creekside Drive"/><tag k="addr:postcode" v="95131"/></node>
<node visible="true" id="-86" lat="37.397276385000005" lon="-121.90643910200001"><tag k="addr:city" v="San Jose"/><tag k="addr:housenumber" v="226"/><tag k="addr:street" v="Arroyo Drive"/><tag k="addr:postcode" v="95131"/></node>
<node visible="true" id="-87" lat="37.399278943000006" lon="-121.905605261"><tag k="addr:city" v="San Jose"/><tag k="addr:housenumber" v="23"/><tag k="addr:street" v="Creekside Drive"/><tag k="addr:postcode" v="95131"/></node>
<node visible="true" id="-88" lat="37.398179942000006" lon="-121.90560076300001"><tag k="addr:city" v="San Jose"/><tag k="addr:housenumber" v="233"/><tag k="addr:street" v="Arroyo Drive"/><tag k="addr:postcode" v="95131"/></node>
<node visible="true" id="-89" lat="37.397374942" lon="-121.90736177000001"><tag k="addr:city" v="San Jose"/><tag k="addr:housenumber" v="100"/><tag k="addr:street" v="Westwood Drive"/><tag k="addr:postcode" v="95131"/></node>
<node visible="true" id="-90" lat="37.399676821" lon="-121.90573032300001"><tag k="addr:city" v="San Jose"/><tag k="addr:housenumber" v="26"/><tag k="addr:street" v="Creekside Drive"/><tag k="addr:postcode" v="95131"/></node>
<node visible="true" id="-91" lat="37.396470937000004" lon="-121.904843768"><tag k="addr:city" v="San Jose"/><tag k="addr:housenumber" v="264"/><tag k="addr:street" v="Loma Court"/><tag k="addr:postcode" v="95131"/></node>
<node visible="true" id="-92" lat="37.399809445" lon="-121.90577200800001"><tag k="addr:city" v="San Jose"/><tag k="addr:housenumber" v="27"/><tag k="addr:street" v="Creekside Drive"/><tag k="addr:postcode" v="95131"/></node>
<node visible="true" id="-93" lat="37.399942071000005" lon="-121.90581369700001"><tag k="addr:city" v="San Jose"/><tag k="addr:housenumber" v="28"/><tag k="addr:street" v="Creekside Drive"/><tag k="addr:postcode" v="95131"/></node>
<node visible="true" id="-94" lat="37.399827947000006" lon="-121.90739442900001"><tag k="addr:city" v="San Jose"/><tag k="addr:housenumber" v="114"/><tag k="addr:street" v="Westwood Drive"/><tag k="addr:postcode" v="95131"/></node>
<node visible="true" id="-95" lat="37.400998281" lon="-121.906003424"><tag k="addr:city" v="San Jose"/><tag k="addr:housenumber" v="36"/><tag k="addr:street" v="Creekside Drive"/><tag k="addr:postcode" v="95131"/></node>
<node visible="true" id="-96" lat="37.394086931000004" lon="-121.904124773"><tag k="addr:city" v="San Jose"/><tag k="addr:housenumber" v="398"/><tag k="addr:street" v="Buena Vista Drive"/><tag k="addr:postcode" v="95131"/></node>
<node visible="true" id="-97" lat="37.394176931000004" lon="-121.904001773"><tag k="addr:city" v="San Jose"/><tag k="addr:housenumber" v="399"/><tag k="addr:street" v="Buena Vista Drive"/><tag k="addr:postcode" v="95131"/></node>
<node visible="true" id="-98" lat="37.395166932" lon="-121.90357276900001"><tag k="addr:city" v="San Jose"/><tag k="addr:housenumber" v="407"/><tag k="addr:street" v="Buena Vista Drive"/><tag k="addr:postcode" v="95131"/></node>
<node visible="true" id="-99" lat="37.395285933000004" lon="-121.90365377"><tag k="addr:city" v="San Jose"/><tag k="addr:housenumber" v="408"/><tag k="addr:street" v="Buena Vista Drive"/><tag k="addr:postcode" v="95131"/></node>
<node visible="true" id="-100" lat="37.395299933000004" lon="-121.904044771"><tag k="addr:city" v="San Jose"/><tag k="addr:housenumber" v="424"/><tag k="addr:street" v="Buena Vista Drive"/><tag k="addr:postcode" v="95131"/></node>
<node visible="true" id="-101" lat="37.395071933000004" lon="-121.90391576900001"><tag k="addr:city" v="San Jose"/><tag k="addr:housenumber" v="426"/><tag k="addr:street" v="Buena Vista Drive"/><tag k="addr:postcode" v="95131"/></node>
<node visible="true" id="-102" lat="37.394428932000004" lon="-121.904196772"><tag k="addr:city" v="San Jose"/><tag k="addr:housenumber" v="431"/><tag k="addr:street" v="Buena Vista Drive"/><tag k="addr:postcode" v="95131"/></node>
<node visible="true" id="-103" lat="37.394333931000006" lon="-121.90431577300001"><tag k="addr:city" v="San Jose"/><tag k="addr:housenumber" v="432"/><tag k="addr:street" v="Buena Vista Drive"/><tag k="addr:postcode" v="95131"/></node>
<node visible="true" id="-104" lat="37.394229931000005" lon="-121.904429773"><tag k="addr:city" v="San Jose"/><tag k="addr:housenumber" v="433"/><tag k="addr:street" v="Buena Vista Drive"/><tag k="addr:postcode" v="95131"/></node>
<node visible="true" id="-105" lat="37.394495932000005" lon="-121.90446777300001"><tag k="addr:city" v="San Jose"/><tag k="addr:housenumber" v="452"/><tag k="addr:street" v="Fountain Circle"/><tag k="addr:postcode" v="95131"/></node>
<node visible="true" id="-106" lat="37.394614931" lon="-121.90434877300001"><tag k="addr:city" v="San Jose"/><tag k="addr:housenumber" v="453"/><tag k="addr:street" v="Fountain Circle"/><tag k="addr:postcode" v="95131"/></node>
<node visible="true" id="-107" lat="37.394728932" lon="-121.90426277300001"><tag k="addr:city" v="San Jose"/><tag k="addr:housenumber" v="454"/><tag k="addr:street" v="Fountain Circle"/><tag k="addr:postcode" v="95131"/></node>
<node visible="true" id="-108" lat="37.396025268" lon="-121.90464493500001"><tag k="addr:city" v="San Jose"/><tag k="addr:housenumber" v="464"/><tag k="addr:street" v="Fountain Circle"/><tag k="addr:postcode" v="95131"/></node>
<node visible="true" id="-109" lat="37.395257932" lon="-121.903354769"><tag k="addr:city" v="San Jose"/><tag k="addr:housenumber" v="475"/><tag k="addr:street" v="Arroyo Drive"/><tag k="addr:postcode" v="95131"/></node>
<node visible="true" id="-110" lat="37.395128932000006" lon="-121.90328776800001"><tag k="addr:city" v="San Jose"/><tag k="addr:housenumber" v="476"/><tag k="addr:street" v="Arroyo Drive"/><tag k="addr:postcode" v="95131"/></node>
<node visible="true" id="-111" lat="37.394738931" lon="-121.90334477100001"><tag k="addr:city" v="San Jose"/><tag k="addr:housenumber" v="479"/><tag k="addr:street" v="Arroyo Drive"/><tag k="addr:postcode" v="95131"/></node>
<node visible="true" id="-112" lat="37.402738951" lon="-121.90603875100001"><tag k="addr:city" v="San Jose"/><tag k="addr:housenumber" v="49"/><tag k="addr:street" v="Creekside Drive"/><tag k="addr:postcode" v="95131"/></node>
<node visible="true" id="-113" lat="37.402780953000004" lon="-121.90633375"><tag k="addr:city" v="San Jose"/><tag k="addr:housenumber" v="50"/><tag k="addr:street" v="Atwood Court"/><tag k="addr:postcode" v="95131"/></node>
<node visible="true" id="-114" lat="37.39360593" lon="-121.90396777500001"><tag k="addr:city" v="San Jose"/><tag k="addr:housenumber" v="597"/><tag k="addr:street" v="Cabrillo Drive"/><tag k="addr:postcode" v="95131"/></node>
<node visible="true" id="-115" lat="37.394614501" lon="-121.903033198"><tag k="addr:city" v="San Jose"/><tag k="addr:housenumber" v="604"/><tag k="addr:street" v="Arroyo Drive"/><tag k="addr:postcode" v="95131"/></node>
<node visible="true" id="-116" lat="37.39471993" lon="-121.90295977000001"><tag k="addr:city" v="San Jose"/><tag k="addr:housenumber" v="605"/><tag k="addr:street" v="Arroyo Drive"/><tag k="addr:postcode" v="95131"/></node>
<node visible="true" id="-117" lat="37.394819931" lon="-121.90293577000001"><tag k="addr:city" v="San Jose"/><tag k="addr:housenumber" v="606"/><tag k="addr:street" v="Arroyo Drive"/><tag k="addr:postcode" v="95131"/></node>
<node visible="true" id="-118" lat="37.395185930000004" lon="-121.902978769"><tag k="addr:city" v="San Jose"/><tag k="addr:housenumber" v="609"/><tag k="addr:street" v="Arroyo Drive"/><tag k="addr:postcode" v="95131"/></node>
<node visible="true" id="-119" lat="37.395328932000005" lon="-121.90300176800001"><tag k="addr:city" v="San Jose"/><tag k="addr:housenumber" v="610"/><tag k="addr:street" v="Arroyo Drive"/><tag k="addr:postcode" v="95131"/></node>
<node visible="true" id="-120" lat="37.395456932" lon="-121.90310176700001"><tag k="addr:city" v="San Jose"/><tag k="addr:housenumber" v="611"/><tag k="addr:street" v="Arroyo Drive"/><tag k="addr:postcode" v="95131"/></node>
<node visible="true" id="-121" lat="37.399773947" lon="-121.90778476400001"><tag k="addr:city" v="San Jose"/><tag k="addr:housenumber" v="81"/><tag k="addr:street" v="Westwood Drive"/><tag k="addr:postcode" v="95131"/></node>
<node visible="true" id="-122" lat="37.397501205000005" lon="-121.90738403200001"><tag k="addr:city" v="San Jose"/><tag k="addr:housenumber" v="99"/><tag k="addr:street" v="Westwood Drive"/><tag k="addr:postcode" v="95131"/></node>
<node visible="true" id="-123" lat="37.401086948" lon="-121.90629575700001"><tag k="addr:city" v="San Jose"/><tag k="addr:housenumber" v="130"/><tag k="addr:street" v="Briarwood Drive"/><tag k="addr:postcode" v="95131"/></node>
<node visible="true" id="-124" lat="37.400877948" lon="-121.906394758"><tag k="addr:city" v="San Jose"/><tag k="addr:housenumber" v="131"/><tag k="addr:street" v="Colony Drive"/><tag k="addr:postcode" v="95131"/></node>
<node visible="true" id="-125" lat="37.398217941000006" lon="-121.905271763"><tag k="addr:city" v="San Jose"/><tag k="addr:housenumber" v="15"/><tag k="addr:street" v="Creekside Drive"/><tag k="addr:postcode" v="95131"/></node>
<node visible="true" id="-126" lat="37.398350566000005" lon="-121.90531345000001"><tag k="addr:city" v="San Jose"/><tag k="addr:housenumber" v="16"/><tag k="addr:street" v="Creekside Drive"/><tag k="addr:postcode" v="95131"/></node>
<node visible="true" id="-127" lat="37.398288943000004" lon="-121.906913766"><tag k="addr:city" v="San Jose"/><tag k="addr:housenumber" v="160"/><tag k="addr:street" v="Fountain Circle"/><tag k="addr:postcode" v="95131"/></node>
<node visible="true" id="-128" lat="37.399844945000005" lon="-121.90615775900001"><tag k="addr:city" v="San Jose"/><tag k="addr:housenumber" v="167"/><tag k="addr:street" v="Dellwood Drive"/><tag k="addr:postcode" v="95131"/></node>
<node visible="true" id="-129" lat="37.399659944" lon="-121.906028761"><tag k="addr:city" v="San Jose"/><tag k="addr:housenumber" v="168"/><tag k="addr:street" v="Cedarwood Drive"/><tag k="addr:postcode" v="95131"/></node>
<node visible="true" id="-131" lat="37.403786643000004" lon="-121.905339126"/>
<node visible="true" id="-132" lat="37.403859719" lon="-121.90537476200001"/>
<node visible="true" id="-133" lat="37.403924488" lon="-121.90516612100001"/>
<node visible="true" id="-134" lat="37.403851411000005" lon="-121.905130486"/>
<way visible="true" id="-1"><nd ref="-2"/><nd ref="-3"/><nd ref="-4"/><nd ref="-5"/><nd ref="-6"/><nd ref="-7"/><nd ref="-8"/><nd ref="-9"/><nd ref="-10"/><nd ref="-11"/><nd ref="-12"/><nd ref="-13"/><nd ref="-14"/><nd ref="-15"/><nd ref="-16"/><nd ref="-17"/><nd ref="-18"/><nd ref="-19"/><nd ref="-2"/><tag k="building" v="yes"/><tag k="height" v="4.57"/><tag k="ele" v="17.88"/></way>
<way visible="true" id="-21"><nd ref="-22"/><nd ref="-23"/><nd ref="-24"/><nd ref="-25"/><nd ref="-22"/></way>
<way visible="true" id="-26"><nd ref="-27"/><nd ref="-28"/><nd ref="-29"/><nd ref="-30"/><nd ref="-27"/></way>
<way visible="true" id="-130"><nd ref="-131"/><nd ref="-132"/><nd ref="-133"/><nd ref="-134"/><nd ref="-131"/><tag k="building" v="yes"/><tag k="height" v="4.80"/><tag k="ele" v="17.77"/><tag k="addr:city" v="San Jose"/><tag k="addr:housenumber" v="1298"/><tag k="addr:street" v="Montague Expressway"/><tag k="addr:postcode" v="95131"/></way>
<relation visible="true" id="-20"><member type="way" ref="-21" role="outer"/><member type="way" ref="-26" role="inner"/><tag k="type" v="multipolygon"/><tag k="building" v="yes"/><tag k="height" v="6.79"/><tag k="ele" v="19.45"/></relation>
</osm>