<?xml version="1.0"?>
<osm version="0.6" generator="uvmogr2osm" upload="false">
<node visible="true" id="-3" lat="37.334478748" lon="-121.88916280100001"/>
<node visible="true" id="-4" lat="37.334940672" lon="-121.88950822900001"/>
<node visible="true" id="-5" lat="37.334943404" lon="-121.88950246600001"/>
<node visible="true" id="-6" lat="37.335624498" lon="-121.89001176100001"/>
<node visible="true" id="-7" lat="37.33581917" lon="-121.88960341"/>
<node visible="true" id="-8" lat="37.335418942000004" lon="-121.889304119"/>
<node visible="true" id="-9" lat="37.335383704" lon="-121.88937800800001"/>
<node visible="true" id="-10" lat="37.335277141" lon="-121.889298318"/>
<node visible="true" id="-11" lat="37.335309788" lon="-121.88922981600001"/>
<node visible="true" id="-12" lat="37.335133932000005" lon="-121.889098304"/>
<node visible="true" id="-13" lat="37.335126242" lon="-121.88911446700001"/>
<node visible="true" id="-14" lat="37.334996291" lon="-121.88901728100001"/>
<node visible="true" id="-15" lat="37.334988854" lon="-121.88903286300001"/>
<node visible="true" id="-16" lat="37.334941399" lon="-121.88899737300001"/>
<node visible="true" id="-17" lat="37.334905400000004" lon="-121.8890729"/>
<node visible="true" id="-18" lat="37.334756635000005" lon="-121.888961639"/>
<node visible="true" id="-19" lat="37.33480114" lon="-121.888868246"/>
<node visible="true" id="-20" lat="37.334666995" lon="-121.888767954"/>
<node visible="true" id="-22" lat="37.335469078" lon="-121.88975531000001"/>
<node visible="true" id="-23" lat="37.335530343" lon="-121.889633814"/>
<node visible="true" id="-24" lat="37.335514832" lon="-121.889621555"/>
<node visible="true" id="-25" lat="37.335568305" lon="-121.88951556600001"/>
<node visible="true" id="-26" lat="37.335536629" lon="-121.889490518"/>
<node visible="true" id="-27" lat="37.335567234" lon="-121.88942982100001"/>
<node visible="true" id="-28" lat="37.335621849" lon="-121.889473011"/>
<node visible="true" id="-29" lat="37.335592454" lon="-121.88953128700001"/>
<node visible="true" id="-30" lat="37.335598959" lon="-121.889536397"/>
<node visible="true" id="-31" lat="37.335541238000005" lon="-121.88965083800001"/>
<node visible="true" id="-32" lat="37.335549048000004" lon="-121.88965703800001"/>
<node visible="true" id="-33" lat="37.335490821" lon="-121.88977250100001"/>
<node visible="true" id="-35" lat="37.336211160000005" lon="-121.889703236"/>
<node visible="true" id="-36" lat="37.336242829" lon="-121.88963151600001"/>
<node visible="true" id="-37" lat="37.33618622" lon="-121.88958966400001"/>
<node visible="true" id="-38" lat="37.336111019" lon="-121.889533501"/>
<node visible="true" id="-39" lat="37.336077666" lon="-121.88960357200001"/>
<node visible="true" id="-41" lat="37.33627639" lon="-121.889615629"/>
<node visible="true" id="-42" lat="37.336161881" lon="-121.88985856400001"/>
<node visible="true" id="-43" lat="37.336132283000005" lon="-121.88983668700001"/>
<node visible="true" id="-44" lat="37.336087522" lon="-121.88980327700001"/>
<node visible="true" id="-45" lat="37.335972984" lon="-121.890043941"/>
<node visible="true" id="-46" lat="37.336006576" lon="-121.89006947200001"/>
<node visible="true" id="-47" lat="37.336017951" lon="-121.890045982"/>
<node visible="true" id="-48" lat="37.336072233" lon="-121.89008724000001"/>
<node visible="true" id="-49" lat="37.336063082" lon="-121.89010612800001"/>
<node visible="true" id="-50" lat="37.336086085000005" lon="-121.890123618"/>
<node visible="true" id="-51" lat="37.336200599" lon="-121.889887322"/>
<node visible="true" id="-52" lat="37.336304506000005" lon="-121.88996627700001"/>
<node visible="true" id="-53" lat="37.336499581000005" lon="-121.889556482"/>
<node visible="true" id="-54" lat="37.336204824" lon="-121.889336447"/>
<node visible="true" id="-55" lat="37.336209183" lon="-121.889540933"/>
<node visible="true" id="-56" lat="37.336267998000004" lon="-121.88958440900001"/>
<node visible="true" id="-57" lat="37.336284708" lon="-121.889548875"/>
<node visible="true" id="-58" lat="37.336390929000004" lon="-121.88962739"/>
<node visible="true" id="-59" lat="37.336365429000004" lon="-121.88968144100001"/>
<node visible="true" id="-61" lat="37.336010089000006" lon="-121.88974545500001"/>
<node visible="true" id="-62" lat="37.335892380000004" lon="-121.889982586"/>
<node visible="true" id="-63" lat="37.335897633" lon="-121.88998664"/>
<node visible="true" id="-65" lat="37.336165974000004" lon="-121.889765932"/>
<node visible="true" id="-66" lat="37.3361773" lon="-121.88977439800001"/>
<node visible="true" id="-67" lat="37.336043695" lon="-121.88967494"/>
<node visible="true" id="-68" lat="37.336031819000006" lon="-121.889675752"/>
<node visible="true" id="-69" lat="37.336023609" lon="-121.88969169800001"/>
<node visible="true" id="-70" lat="37.336029217000004" lon="-121.88970291300001"/>
<node visible="true" id="-71" lat="37.33602552" lon="-121.889711308"/>
<node visible="true" id="-72" lat="37.336012713" lon="-121.889709487"/>
<node visible="true" id="-73" lat="37.336006602000005" lon="-121.889724544"/>
<node visible="true" id="-74" lat="37.336013634000004" lon="-121.889738331"/>
<node visible="true" id="-76" lat="37.336194675" lon="-121.89020613400001"/>
<node visible="true" id="-77" lat="37.335813832" lon="-121.89015543000001"/>
<node visible="true" id="-78" lat="37.336120073000004" lon="-121.890377435"/>
<node visible="true" id="-79" lat="37.336199766" lon="-121.890210013"/>
<node visible="true" id="-80" lat="37.336196525000005" lon="-121.890207613"/>
<node visible="true" id="-82" lat="37.33624694" lon="-121.88963455100001"/>
<node visible="true" id="-83" lat="37.336261169000004" lon="-121.889604371"/>
<node visible="true" id="-85" lat="37.33630772" lon="-121.889968675"/>
<node visible="true" id="-87" lat="37.335811243" lon="-121.89016064500001"/>
<node visible="true" id="-88" lat="37.336115228000004" lon="-121.89038763100001"/>
<node visible="true" id="-89" lat="37.335813677000004" lon="-121.88985099400001"><tag k="addr:city" v="San Jose"/><tag k="addr:housenumber" v="26"/><tag k="addr:street" v="South 1st Street"/><tag k="addr:postcode" v="95113"/></node>
<node visible="true" id="-90" lat="37.33543044" lon="-121.889764576"><tag k="addr:city" v="San Jose"/><tag k="addr:housenumber" v="42"/><tag k="addr:street" v="South 1st Street"/><tag k="addr:unit" v="D;F"/><tag k="addr:postcode" v="95113"/></node>
<node visible="true" id="-91" lat="37.335009655" lon="-121.88878843500001"><tag k="addr:city" v="San Jose"/><tag k="addr:housenumber" v="83"/><tag k="addr:street" v="South 2nd Street"/><tag k="addr:postcode" v="95113"/></node>
<node visible="true" id="-92" lat="37.335049971000004" lon="-121.888540011"><tag k="addr:city" v="San Jose"/><tag k="addr:housenumber" v="85"/><tag k="addr:street" v="South 2nd Street"/><tag k="addr:postcode" v="95113"/></node>
<node visible="true" id="-93" lat="37.335102974" lon="-121.88959150500001"><tag k="addr:city" v="San Jose"/><tag k="addr:housenumber" v="66"/><tag k="addr:street" v="South 1st Street"/><tag k="addr:postcode" v="95113"/></node>
<node visible="true" id="-94" lat="37.335080344000005" lon="-121.88956958600001"><tag k="addr:city" v="San Jose"/><tag k="addr:housenumber" v="70"/><tag k="addr:street" v="South 1st Street"/><tag k="addr:postcode" v="95113"/></node>
<node visible="true" id="-95" lat="37.335301739" lon="-121.889660336"><tag k="addr:city" v="San Jose"/><tag k="addr:housenumber" v="52"/><tag k="addr:street" v="South 1st Street"/><tag k="addr:unit" v="1;120;210;220;310;320"/><tag k="addr:postcode" v="95113"/></node>
<node visible="true" id="-96" lat="37.335955275" lon="-121.89018841400001"><tag k="addr:city" v="San Jose"/><tag k="addr:housenumber" v="12"/><tag k="addr:street" v="South 1st Street"/><tag k="addr:unit" v="304;419;501;717;801"/><tag k="addr:postcode" v="95113"/></node>
<node visible="true" id="-97" lat="37.336303569" lon="-121.88943935900001"><tag k="addr:city" v="San Jose"/><tag k="addr:housenumber" v="11"/><tag k="addr:street" v="South 2nd Street"/><tag k="addr:postcode" v="95113"/></node>
<node visible="true" id="-98" lat="37.335990296000006" lon="-121.88983643200001"><tag k="addr:city" v="San Jose"/><tag k="addr:housenumber" v="11"/><tag k="addr:street" v="Fountain Alley"/><tag k="addr:postcode" v="95113"/></node>
<node visible="true" id="-99" lat="37.336214097" lon="-121.889729391"><tag k="addr:city" v="San Jose"/><tag k="addr:housenumber" v="30"/><tag k="addr:street" v="East Santa Clara Street"/><tag k="addr:postcode" v="95113"/></node>
<node visible="true" id="-100" lat="37.336299778000004" lon="-121.889740031"><tag k="addr:city" v="San Jose"/><tag k="addr:housenumber" v="30"/><tag k="addr:street" v="East Santa Clara Street"/><tag k="addr:unit" v="270"/><tag k="addr:postcode" v="95113"/></node>
<node visible="true" id="-101" lat="37.335699835" lon="-121.889708698"><tag k="addr:city" v="San Jose"/><tag k="addr:housenumber" v="30"/><tag k="addr:street" v="South 1st Street"/><tag k="addr:postcode" v="95113"/></node>
<node visible="true" id="-102" lat="37.335568098" lon="-121.88993877700001"><tag k="addr:city" v="San Jose"/><tag k="addr:housenumber" v="34"/><tag k="addr:street" v="South 1st Street"/><tag k="addr:postcode" v="95113"/></node>
<node visible="true" id="-103" lat="37.33559167" lon="-121.889777928"><tag k="addr:city" v="San Jose"/><tag k="addr:housenumber" v="36"/><tag k="addr:street" v="South 1st Street"/><tag k="addr:postcode" v="95113"/></node>
<node visible="true" id="-104" lat="37.335539293000004" lon="-121.889613143"><tag k="addr:city" v="San Jose"/><tag k="addr:housenumber" v="40"/><tag k="addr:street" v="South 1st Street"/><tag k="addr:postcode" v="95113"/></node>
<node visible="true" id="-105" lat="37.335480787" lon="-121.88984899200001"><tag k="addr:city" v="San Jose"/><tag k="addr:housenumber" v="40"/><tag k="addr:street" v="South 1st Street"/><tag k="addr:unit" v="A"/><tag k="addr:postcode" v="95113"/></node>
<node visible="true" id="-106" lat="37.335454141" lon="-121.88977969700001"><tag k="addr:city" v="San Jose"/><tag k="addr:housenumber" v="40"/><tag k="addr:street" v="South 1st Street"/><tag k="addr:unit" v="B"/><tag k="addr:postcode" v="95113"/></node>
<node visible="true" id="-107" lat="37.336376469" lon="-121.889572705"><tag k="addr:city" v="San Jose"/><tag k="addr:housenumber" v="42"/><tag k="addr:street" v="East Santa Clara Street"/><tag k="addr:postcode" v="95113"/></node>
<node visible="true" id="-108" lat="37.335416564" lon="-121.889808751"><tag k="addr:city" v="San Jose"/><tag k="addr:housenumber" v="42"/><tag k="addr:street" v="South 1st Street"/><tag k="addr:postcode" v="95113"/></node>
<node visible="true" id="-109" lat="37.335412002000005" lon="-121.88977522200001"><tag k="addr:city" v="San Jose"/><tag k="addr:housenumber" v="42"/><tag k="addr:street" v="South 1st Street"/><tag k="addr:unit" v="A"/><tag k="addr:postcode" v="95113"/></node>
<node visible="true" id="-110" lat="37.335381019" lon="-121.88979017400001"><tag k="addr:city" v="San Jose"/><tag k="addr:housenumber" v="44"/><tag k="addr:street" v="South 1st Street"/><tag k="addr:postcode" v="95113"/></node>
<node visible="true" id="-111" lat="37.336043052" lon="-121.89001699800001"><tag k="addr:city" v="San Jose"/><tag k="addr:housenumber" v="12"/><tag k="addr:street" v="South 1st Street"/><tag k="addr:unit" v="9"/><tag k="addr:postcode" v="95113"/></node>
<node visible="true" id="-112" lat="37.336040436000005" lon="-121.89023751100001"><tag k="addr:city" v="San Jose"/><tag k="addr:housenumber" v="8"/><tag k="addr:street" v="South 1st Street"/><tag k="addr:postcode" v="95113"/></node>
<node visible="true" id="-113" lat="37.336462866000005" lon="-121.88955932600001"><tag k="addr:city" v="San Jose"/><tag k="addr:housenumber" v="48"/><tag k="addr:street" v="East Santa Clara Street"/><tag k="addr:postcode" v="95113"/></node>
<node visible="true" id="-114" lat="37.335391197" lon="-121.88969091800001"><tag k="addr:city" v="San Jose"/><tag k="addr:housenumber" v="48"/><tag k="addr:street" v="South 1st Street"/><tag k="addr:postcode" v="95113"/></node>
<node visible="true" id="-115" lat="37.336239456" lon="-121.88995431400001"><tag k="addr:city" v="San Jose"/><tag k="addr:housenumber" v="12"/><tag k="addr:street" v="South 1st Street"/><tag k="addr:unit" v="10"/><tag k="addr:postcode" v="95113"/></node>
<node visible="true" id="-116" lat="37.336171023000006" lon="-121.88991123000001"><tag k="addr:city" v="San Jose"/><tag k="addr:housenumber" v="12"/><tag k="addr:street" v="South 1st Street"/><tag k="addr:unit" v="11"/><tag k="addr:postcode" v="95113"/></node>
<node visible="true" id="-117" lat="37.336117804000004" lon="-121.889875919"><tag k="addr:city" v="San Jose"/><tag k="addr:housenumber" v="12"/><tag k="addr:street" v="South 1st Street"/><tag k="addr:unit" v="12"/><tag k="addr:postcode" v="95113"/></node>
<node visible="true" id="-118" lat="37.336087866" lon="-121.889979108"><tag k="addr:city" v="San Jose"/><tag k="addr:housenumber" v="12"/><tag k="addr:street" v="South 1st Street"/><tag k="addr:unit" v="13"/><tag k="addr:postcode" v="95113"/></node>
<node visible="true" id="-119" lat="37.336125294000006" lon="-121.890223937"><tag k="addr:city" v="San Jose"/><tag k="addr:housenumber" v="12"/><tag k="addr:street" v="South 1st Street"/><tag k="addr:unit" v="2"/><tag k="addr:postcode" v="95113"/></node>
<node visible="true" id="-120" lat="37.336091871" lon="-121.890208161"><tag k="addr:city" v="San Jose"/><tag k="addr:housenumber" v="12"/><tag k="addr:street" v="South 1st Street"/><tag k="addr:unit" v="3 &amp; 4"/><tag k="addr:postcode" v="95113"/></node>
<node visible="true" id="-121" lat="37.336180474" lon="-121.890105422"><tag k="addr:city" v="San Jose"/><tag k="addr:housenumber" v="12"/><tag k="addr:street" v="South 1st Street"/><tag k="addr:unit" v="5"/><tag k="addr:postcode" v="95113"/></node>
<node visible="true" id="-122" lat="37.336144404" lon="-121.89008623100001"><tag k="addr:city" v="San Jose"/><tag k="addr:housenumber" v="12"/><tag k="addr:street" v="South 1st Street"/><tag k="addr:unit" v="6"/><tag k="addr:postcode" v="95113"/></node>
<node visible="true" id="-123" lat="37.336111021" lon="-121.89006708900001"><tag k="addr:city" v="San Jose"/><tag k="addr:housenumber" v="12"/><tag k="addr:street" v="South 1st Street"/><tag k="addr:unit" v="7"/><tag k="addr:postcode" v="95113"/></node>
<node visible="true" id="-124" lat="37.336076355" lon="-121.89004287300001"><tag k="addr:city" v="San Jose"/><tag k="addr:housenumber" v="12"/><tag k="addr:street" v="South 1st Street"/><tag k="addr:unit" v="8"/><tag k="addr:postcode" v="95113"/></node>
<node visible="true" id="-125" lat="37.335877769" lon="-121.890094043"><tag k="addr:city" v="San Jose"/><tag k="addr:housenumber" v="12"/><tag k="addr:street" v="South 1st Street"/><tag k="addr:unit" v="B"/><tag k="addr:postcode" v="95113"/></node>
<node visible="true" id="-126" lat="37.335333005" lon="-121.889737323"><tag k="addr:city" v="San Jose"/><tag k="addr:housenumber" v="50"/><tag k="addr:street" v="South 1st Street"/><tag k="addr:postcode" v="95113"/></node>
<node visible="true" id="-127" lat="37.335358969000005" lon="-121.889531805"><tag k="addr:city" v="San Jose"/><tag k="addr:housenumber" v="52"/><tag k="addr:street" v="South 1st Street"/><tag k="addr:postcode" v="95113"/></node>
<node visible="true" id="-128" lat="37.335354882000004" lon="-121.88937994000001"><tag k="addr:city" v="San Jose"/><tag k="addr:housenumber" v="56"/><tag k="addr:street" v="South 1st Street"/><tag k="addr:postcode" v="95113"/></node>
<node visible="true" id="-129" lat="37.33522157" lon="-121.88959455800001"><tag k="addr:city" v="San Jose"/><tag k="addr:housenumber" v="58"/><tag k="addr:street" v="South 1st Street"/><tag k="addr:postcode" v="95113"/></node>
<node visible="true" id="-130" lat="37.33508977" lon="-121.88942191500001"><tag k="addr:city" v="San Jose"/><tag k="addr:housenumber" v="72"/><tag k="addr:street" v="South 1st Street"/><tag k="addr:postcode" v="95113"/></node>
<node visible="true" id="-131" lat="37.334799524000005" lon="-121.88936369800001"><tag k="addr:city" v="San Jose"/><tag k="addr:housenumber" v="76"/><tag k="addr:street" v="South 1st Street"/><tag k="addr:postcode" v="95113"/></node>
<node visible="true" id="-132" lat="37.33490727" lon="-121.88944632600001"><tag k="addr:city" v="San Jose"/><tag k="addr:housenumber" v="74"/><tag k="addr:street" v="South 1st Street"/><tag k="addr:postcode" v="95113"/></node>
<node visible="true" id="-133" lat="37.334794268" lon="-121.889130182"><tag k="addr:city" v="San Jose"/><tag k="addr:housenumber" v="78"/><tag k="addr:street" v="South 1st Street"/><tag k="addr:postcode" v="95113"/></node>
<node visible="true" id="-134" lat="37.334700443" lon="-121.889274067"><tag k="addr:city" v="San Jose"/><tag k="addr:housenumber" v="80"/><tag k="addr:street" v="South 1st Street"/><tag k="addr:postcode" v="95113"/></node>
<node visible="true" id="-135" lat="37.334628327000004" lon="-121.88920285200001"><tag k="addr:city" v="San Jose"/><tag k="addr:housenumber" v="86"/><tag k="addr:street" v="South 1st Street"/><tag k="addr:postcode" v="95113"/></node>
<node visible="true" id="-136" lat="37.334815736" lon="-121.888623636"><tag k="addr:city" v="San Jose"/><tag k="addr:housenumber" v="97"/><tag k="addr:street" v="South 2nd Street"/><tag k="addr:postcode" v="95113"/></node>
<node visible="true" id="-137" lat="37.335359440000005" lon="-121.889383561"><tag k="addr:city" v="San Jose"/><tag k="addr:housenumber" v="60"/><tag k="addr:street" v="South 1st Street"/><tag k="addr:postcode" v="95113"/></node>
<node visible="true" id="-138" lat="37.336483588" lon="-121.88965884400001"><tag k="addr:city" v="San Jose"/><tag k="addr:housenumber" v="44"/><tag k="addr:street" v="East Santa Clara Street"/><tag k="addr:postcode" v="95113"/></node>
<node visible="true" id="-139" lat="37.335612072" lon="-121.889961661"><tag k="addr:city" v="San Jose"/><tag k="addr:housenumber" v="28"/><tag k="addr:street" v="South 1st Street"/><tag k="addr:postcode" v="95113"/></node>
<node visible="true" id="-140" lat="37.336257329000006" lon="-121.88979701900001"><tag k="addr:city" v="San Jose"/><tag k="addr:housenumber" v="30"/><tag k="addr:street" v="East Santa Clara Street"/><tag k="addr:unit" v="110;120;130;140;150;160;170;210;220;230;240;260;360;370"/><tag k="addr:postcode" v="95113"/></node>
<node visible="true" id="-141" lat="37.336069786" lon="-121.890256578"><tag k="addr:city" v="San Jose"/><tag k="addr:housenumber" v="14"/><tag k="addr:street" v="South 1st Street"/><tag k="addr:postcode" v="95113"/></node>
<node visible="true" id="-142" lat="37.336007486" lon="-121.88975807800001"><tag k="addr:city" v="San Jose"/><tag k="addr:housenumber" v="15"/><tag k="addr:street" v="Fountain Alley"/><tag k="addr:postcode" v="95113"/></node>
<node visible="true" id="-143" lat="37.336186881" lon="-121.88948744500001"><tag k="addr:city" v="San Jose"/><tag k="addr:housenumber" v="17"/><tag k="addr:street" v="South 2nd Street"/><tag k="addr:postcode" v="95113"/></node>
<node visible="true" id="-144" lat="37.335939329000006" lon="-121.890143397"><tag k="addr:city" v="San Jose"/><tag k="addr:housenumber" v="12"/><tag k="addr:street" v="South 1st Street"/><tag k="addr:unit" v="101;413"/><tag k="addr:postcode" v="95113"/></node>
<node visible="true" id="-145" lat="37.336094491000004" lon="-121.89007615400001"><tag k="addr:city" v="San Jose"/><tag k="addr:housenumber" v="12"/><tag k="addr:street" v="South 1st Street"/><tag k="addr:unit" v="108;203-205;215;216;218;221-225;230;232;300;301;306;318;405;406;408;411;416;417;420;500;502;509;600;612;616;620;703;708-711;716;719;720;802;808;809;811;814;816;819;820;901;905;906;908;911;912;B11;B12;1014;1100;1102;1108;1205;1220"/><tag k="addr:postcode" v="95113"/></node>
<node visible="true" id="-146" lat="37.334676779000006" lon="-121.889218802"><tag k="addr:city" v="San Jose"/><tag k="addr:housenumber" v="84"/><tag k="addr:street" v="South 1st Street"/><tag k="addr:unit" v="3"/><tag k="addr:postcode" v="95113"/></node>
<node visible="true" id="-147" lat="37.336014118" lon="-121.89012598500001"><tag k="addr:city" v="San Jose"/><tag k="addr:housenumber" v="12"/><tag k="addr:street" v="South 1st Street"/><tag k="addr:unit" v="105;229;233;302;404;505;701;705;706;805;810;900;1101;1103"/><tag k="addr:postcode" v="95113"/></node>
<node visible="true" id="-148" lat="37.334906966000005" lon="-121.88841600600001"><tag k="addr:city" v="San Jose"/><tag k="addr:housenumber" v="97"/><tag k="addr:street" v="South 2nd Street"/><tag k="addr:unit" v="100;210;300"/><tag k="addr:postcode" v="95113"/></node>
<way visible="true" id="-2"><nd ref="-3"/><nd ref="-4"/><nd ref="-5"/><nd ref="-6"/><nd ref="-7"/><nd ref="-8"/><nd ref="-9"/><nd ref="-10"/><nd ref="-11"/><nd ref="-12"/><nd ref="-13"/><nd ref="-14"/><nd ref="-15"/><nd ref="-16"/><nd ref="-17"/><nd ref="-18"/><nd ref="-19"/><nd ref="-20"/><nd ref="-3"/></way>
<way visible="true" id="-21"><nd ref="-22"/><nd ref="-23"/><nd ref="-24"/><nd ref="-25"/><nd ref="-26"/><nd ref="-27"/><nd ref="-28"/><nd ref="-29"/><nd ref="-30"/><nd ref="-31"/><nd ref="-32"/><nd ref="-33"/><nd ref="-22"/></way>
<way visible="true" id="-34"><nd ref="-35"/><nd ref="-36"/><nd ref="-37"/><nd ref="-38"/><nd ref="-39"/><nd ref="-35"/><tag k="building" v="yes"/><tag k="height" v="5.53"/><tag k="ele" v="31.45"/></way>
<way visible="true" id="-40"><nd ref="-41"/><nd ref="-42"/><nd ref="-43"/><nd ref="-44"/><nd ref="-45"/><nd ref="-46"/><nd ref="-47"/><nd ref="-48"/><nd ref="-49"/><nd ref="-50"/><nd ref="-51"/><nd ref="-52"/><nd ref="-53"/><nd ref="-54"/><nd ref="-38"/><nd ref="-37"/><nd ref="-55"/><nd ref="-56"/><nd ref="-57"/><nd ref="-58"/><nd ref="-59"/><nd ref="-41"/><tag k="building" v="yes"/><tag k="height" v="11.24"/><tag k="ele" v="37.24"/></way>
<way visible="true" id="-60"><nd ref="-61"/><nd ref="-62"/><nd ref="-63"/><nd ref="-45"/><nd ref="-44"/><nd ref="-61"/><tag k="building" v="yes"/><tag k="height" v="6.54"/><tag k="ele" v="32.80"/></way>
<way visible="true" id="-64"><nd ref="-43"/><nd ref="-65"/><nd ref="-66"/><nd ref="-35"/><nd ref="-39"/><nd ref="-67"/><nd ref="-68"/><nd ref="-69"/><nd ref="-70"/><nd ref="-71"/><nd ref="-72"/><nd ref="-73"/><nd ref="-74"/><nd ref="-61"/><nd ref="-44"/><nd ref="-43"/><tag k="building" v="yes"/><tag k="height" v="12.33"/><tag k="ele" v="39.16"/></way>
<way visible="true" id="-75"><nd ref="-76"/><nd ref="-50"/><nd ref="-49"/><nd ref="-48"/><nd ref="-47"/><nd ref="-46"/><nd ref="-45"/><nd ref="-63"/><nd ref="-77"/><nd ref="-78"/><nd ref="-79"/><nd ref="-80"/><nd ref="-76"/><tag k="building" v="yes"/><tag k="height" v="81.49"/><tag k="ele" v="103.77"/></way>
<way visible="true" id="-81"><nd ref="-36"/><nd ref="-82"/><nd ref="-83"/><nd ref="-41"/><nd ref="-59"/><nd ref="-58"/><nd ref="-57"/><nd ref="-56"/><nd ref="-55"/><nd ref="-37"/><nd ref="-36"/><tag k="building" v="yes"/><tag k="height" v="13.76"/><tag k="ele" v="38.49"/></way>
<way visible="true" id="-84"><nd ref="-50"/><nd ref="-76"/><nd ref="-85"/><nd ref="-52"/><nd ref="-51"/><nd ref="-50"/><tag k="building" v="yes"/><tag k="height" v="15.52"/><tag k="ele" v="41.56"/></way>
<way visible="true" id="-86"><nd ref="-77"/><nd ref="-87"/><nd ref="-88"/><nd ref="-78"/><nd ref="-77"/><tag k="building" v="yes"/><tag k="height" v="0.00"/><tag k="ele" v="37.29"/></way>
<relation visible="true" id="-1"><member type="way" ref="-2" role="outer"/><member type="way" ref="-21" role="inner"/><tag k="type" v="multipolygon"/><tag k="building" v="yes"/><tag k="height" v="4.48"/><tag k="ele" v="47.07"/></relation>
</osm>