<?xml version="1.0"?>
<osm version="0.6" generator="uvmogr2osm" upload="false">
<node visible="true" id="-2" lat="37.371515951" lon="-121.873020834"/>
<node visible="true" id="-3" lat="37.371639406" lon="-121.87306412800001"/>
<node visible="true" id="-4" lat="37.371674074000005" lon="-121.872908928"/>
<node visible="true" id="-5" lat="37.371550619000004" lon="-121.87286563400001"/>
<node visible="true" id="-6" lat="37.371867961" lon="-121.87312298500001"><tag k="addr:city" v="San Jose"/><tag k="addr:housenumber" v="949"/><tag k="addr:street" v="Lundy Avenue"/><tag k="addr:unit" v="100;102;104;106;200"/><tag k="addr:postcode" v="95133"/></node>
<node visible="true" id="-7" lat="37.372926906000004" lon="-121.873342343"><tag k="addr:city" v="San Jose"/><tag k="addr:housenumber" v="1710"/><tag k="addr:street" v="Berryessa Road"/><tag k="addr:postcode" v="95133"/></node>
<node visible="true" id="-8" lat="37.37310612" lon="-121.873033621"><tag k="addr:city" v="San Jose"/><tag k="addr:housenumber" v="1712"/><tag k="addr:street" v="Berryessa Road"/><tag k="addr:unit" v="10;15;20"/><tag k="addr:postcode" v="95133"/></node>
<node visible="true" id="-9" lat="37.372658115" lon="-121.87368030100001"><tag k="addr:city" v="San Jose"/><tag k="addr:housenumber" v="1686"/><tag k="addr:street" v="Berryessa Road"/><tag k="addr:postcode" v="95133"/></node>
<node visible="true" id="-10" lat="37.372577534" lon="-121.873174538"><tag k="addr:city" v="San Jose"/><tag k="addr:housenumber" v="1710"/><tag k="addr:street" v="Berryessa Road"/><tag k="addr:unit" v="110"/><tag k="addr:postcode" v="95133"/></node>
<node visible="true" id="-11" lat="37.37183557" lon="-121.87311999900001"><tag k="addr:city" v="San Jose"/><tag k="addr:housenumber" v="949"/><tag k="addr:street" v="Lundy Avenue"/><tag k="addr:unit" v="201;202;204-206"/><tag k="addr:postcode" v="95133"/></node>
<node visible="true" id="-12" lat="37.371801158000004" lon="-121.87312653800001"><tag k="addr:city" v="San Jose"/><tag k="addr:housenumber" v="949"/><tag k="addr:street" v="Lundy Avenue"/><tag k="addr:unit" v="207;300-302;304"/><tag k="addr:postcode" v="95133"/></node>
<node visible="true" id="-13" lat="37.368402218" lon="-121.86863867900001"><tag k="addr:city" v="San Jose"/><tag k="addr:housenumber" v="721"/><tag k="addr:street" v="Creekland Circle"/><tag k="addr:postcode" v="95133"/></node>
<node visible="true" id="-14" lat="37.368510891" lon="-121.86861188"><tag k="addr:city" v="San Jose"/><tag k="addr:housenumber" v="723"/><tag k="addr:street" v="Creekland Circle"/><tag k="addr:postcode" v="95133"/></node>
<node visible="true" id="-15" lat="37.368575459000006" lon="-121.86852551300001"><tag k="addr:city" v="San Jose"/><tag k="addr:housenumber" v="725"/><tag k="addr:street" v="Creekland Circle"/><tag k="addr:postcode" v="95133"/></node>
<node visible="true" id="-16" lat="37.368648157" lon="-121.86847689400001"><tag k="addr:city" v="San Jose"/><tag k="addr:housenumber" v="727"/><tag k="addr:street" v="Creekland Circle"/><tag k="addr:postcode" v="95133"/></node>
<node visible="true" id="-17" lat="37.368720894" lon="-121.868428394"><tag k="addr:city" v="San Jose"/><tag k="addr:housenumber" v="729"/><tag k="addr:street" v="Creekland Circle"/><tag k="addr:postcode" v="95133"/></node>
<node visible="true" id="-18" lat="37.368793618000005" lon="-121.86837989300001"><tag k="addr:city" v="San Jose"/><tag k="addr:housenumber" v="731"/><tag k="addr:street" v="Creekland Circle"/><tag k="addr:postcode" v="95133"/></node>
<node visible="true" id="-19" lat="37.368866275" lon="-121.86833120400001"><tag k="addr:city" v="San Jose"/><tag k="addr:housenumber" v="733"/><tag k="addr:street" v="Creekland Circle"/><tag k="addr:postcode" v="95133"/></node>
<node visible="true" id="-20" lat="37.368938717" lon="-121.868282022"><tag k="addr:city" v="San Jose"/><tag k="addr:housenumber" v="735"/><tag k="addr:street" v="Creekland Circle"/><tag k="addr:postcode" v="95133"/></node>
<node visible="true" id="-21" lat="37.369011014" lon="-121.8682325"><tag k="addr:city" v="San Jose"/><tag k="addr:housenumber" v="737"/><tag k="addr:street" v="Creekland Circle"/><tag k="addr:postcode" v="95133"/></node>
<node visible="true" id="-22" lat="37.369083323000005" lon="-121.868183"><tag k="addr:city" v="San Jose"/><tag k="addr:housenumber" v="739"/><tag k="addr:street" v="Creekland Circle"/><tag k="addr:postcode" v="95133"/></node>
<node visible="true" id="-23" lat="37.369155619000004" lon="-121.86813342500001"><tag k="addr:city" v="San Jose"/><tag k="addr:housenumber" v="741"/><tag k="addr:street" v="Creekland Circle"/><tag k="addr:postcode" v="95133"/></node>
<node visible="true" id="-24" lat="37.369227943000006" lon="-121.86808395700001"><tag k="addr:city" v="San Jose"/><tag k="addr:housenumber" v="743"/><tag k="addr:street" v="Creekland Circle"/><tag k="addr:postcode" v="95133"/></node>
<node visible="true" id="-25" lat="37.369299971000004" lon="-121.86803378200001"><tag k="addr:city" v="San Jose"/><tag k="addr:housenumber" v="745"/><tag k="addr:street" v="Creekland Circle"/><tag k="addr:postcode" v="95133"/></node>
<node visible="true" id="-26" lat="37.369368872" lon="-121.86797625300001"><tag k="addr:city" v="San Jose"/><tag k="addr:housenumber" v="747"/><tag k="addr:street" v="Creekland Circle"/><tag k="addr:postcode" v="95133"/></node>
<node visible="true" id="-27" lat="37.369437105" lon="-121.867917116"><tag k="addr:city" v="San Jose"/><tag k="addr:housenumber" v="749"/><tag k="addr:street" v="Creekland Circle"/><tag k="addr:postcode" v="95133"/></node>
<node visible="true" id="-28" lat="37.369300389" lon="-121.867032339"><tag k="addr:city" v="San Jose"/><tag k="addr:housenumber" v="762"/><tag k="addr:street" v="Creekland Circle"/><tag k="addr:postcode" v="95133"/></node>
<node visible="true" id="-29" lat="37.369290133" lon="-121.866929576"><tag k="addr:city" v="San Jose"/><tag k="addr:housenumber" v="764"/><tag k="addr:street" v="Creekland Circle"/><tag k="addr:postcode" v="95133"/></node>
<node visible="true" id="-30" lat="37.369278911" lon="-121.86682713500001"><tag k="addr:city" v="San Jose"/><tag k="addr:housenumber" v="766"/><tag k="addr:street" v="Creekland Circle"/><tag k="addr:postcode" v="95133"/></node>
<node visible="true" id="-31" lat="37.369267704" lon="-121.86672467400001"><tag k="addr:city" v="San Jose"/><tag k="addr:housenumber" v="768"/><tag k="addr:street" v="Creekland Circle"/><tag k="addr:postcode" v="95133"/></node>
<node visible="true" id="-32" lat="37.369256264" lon="-121.86662222700001"><tag k="addr:city" v="San Jose"/><tag k="addr:housenumber" v="770"/><tag k="addr:street" v="Creekland Circle"/><tag k="addr:postcode" v="95133"/></node>
<node visible="true" id="-33" lat="37.369245354" lon="-121.86652010600001"><tag k="addr:city" v="San Jose"/><tag k="addr:housenumber" v="772"/><tag k="addr:street" v="Creekland Circle"/><tag k="addr:postcode" v="95133"/></node>
<node visible="true" id="-34" lat="37.367549945" lon="-121.86948971800001"><tag k="addr:city" v="San Jose"/><tag k="addr:housenumber" v="750"/><tag k="addr:street" v="North King Road"/><tag k="addr:unit" v="408"/><tag k="addr:postcode" v="95133"/></node>
<node visible="true" id="-35" lat="37.369564442000005" lon="-121.870444089"><tag k="addr:city" v="San Jose"/><tag k="addr:housenumber" v="750"/><tag k="addr:street" v="North King Road"/><tag k="addr:unit" v="1302"/><tag k="addr:postcode" v="95133"/></node>
<node visible="true" id="-36" lat="37.37256079" lon="-121.87361434"><tag k="addr:city" v="San Jose"/><tag k="addr:housenumber" v="1680"/><tag k="addr:street" v="Berryessa Road"/><tag k="addr:postcode" v="95133"/></node>
<node visible="true" id="-37" lat="37.372612434000004" lon="-121.873647668"><tag k="addr:city" v="San Jose"/><tag k="addr:housenumber" v="1682"/><tag k="addr:street" v="Berryessa Road"/><tag k="addr:postcode" v="95133"/></node>
<node visible="true" id="-38" lat="37.372794293000005" lon="-121.873355985"><tag k="addr:city" v="San Jose"/><tag k="addr:housenumber" v="1710"/><tag k="addr:street" v="Berryessa Road"/><tag k="addr:unit" v="102"/><tag k="addr:postcode" v="95133"/></node>
<node visible="true" id="-39" lat="37.372753188000004" lon="-121.87332332000001"><tag k="addr:city" v="San Jose"/><tag k="addr:housenumber" v="1710"/><tag k="addr:street" v="Berryessa Road"/><tag k="addr:unit" v="103"/><tag k="addr:postcode" v="95133"/></node>
<node visible="true" id="-40" lat="37.372714901" lon="-121.87329429500001"><tag k="addr:city" v="San Jose"/><tag k="addr:housenumber" v="1710"/><tag k="addr:street" v="Berryessa Road"/><tag k="addr:unit" v="105"/><tag k="addr:postcode" v="95133"/></node>
<node visible="true" id="-41" lat="37.372658126000005" lon="-121.873255966"><tag k="addr:city" v="San Jose"/><tag k="addr:housenumber" v="1710"/><tag k="addr:street" v="Berryessa Road"/><tag k="addr:unit" v="107"/><tag k="addr:postcode" v="95133"/></node>
<node visible="true" id="-42" lat="37.372536493000005" lon="-121.87313649900001"><tag k="addr:city" v="San Jose"/><tag k="addr:housenumber" v="1710"/><tag k="addr:street" v="Berryessa Road"/><tag k="addr:unit" v="111"/><tag k="addr:postcode" v="95133"/></node>
<node visible="true" id="-43" lat="37.372498269000005" lon="-121.87310209500001"><tag k="addr:city" v="San Jose"/><tag k="addr:housenumber" v="1710"/><tag k="addr:street" v="Berryessa Road"/><tag k="addr:unit" v="112"/><tag k="addr:postcode" v="95133"/></node>
<node visible="true" id="-45" lat="37.372146604" lon="-121.866208825"/>
<node visible="true" id="-46" lat="37.372252006000004" lon="-121.86632357100001"/>
<node visible="true" id="-47" lat="37.372298968" lon="-121.86625587300001"/>
<node visible="true" id="-48" lat="37.37225755" lon="-121.86621078700001"/>
<node visible="true" id="-49" lat="37.372294232" lon="-121.86615790600001"/>
<node visible="true" id="-50" lat="37.372230247000005" lon="-121.86608824500001"/>
<node visible="true" id="-52" lat="37.415328483" lon="-121.94315706900001"/>
<node visible="true" id="-53" lat="37.415340592" lon="-121.943253779"/>
<node visible="true" id="-54" lat="37.415335642" lon="-121.94340029800001"/>
<node visible="true" id="-55" lat="37.415317051" lon="-121.943495377"/>
<node visible="true" id="-56" lat="37.415286728000005" lon="-121.943585588"/>
<node visible="true" id="-57" lat="37.415241317" lon="-121.94367611800001"/>
<node visible="true" id="-58" lat="37.415184785" lon="-121.943757195"/>
<node visible="true" id="-59" lat="37.415115562000004" lon="-121.94382927800001"/>
<node visible="true" id="-60" lat="37.415056825" lon="-121.94387371500001"/>
<node visible="true" id="-61" lat="37.415381635" lon="-121.944567429"/>
<node visible="true" id="-62" lat="37.415905133" lon="-121.944189109"/>
<node visible="true" id="-63" lat="37.415931914000005" lon="-121.944178104"/>
<node visible="true" id="-64" lat="37.415965031" lon="-121.944185864"/>
<node visible="true" id="-65" lat="37.415986834" lon="-121.94420825200001"/>
<node visible="true" id="-66" lat="37.416128846" lon="-121.944511112"/>
<node visible="true" id="-67" lat="37.416127788000004" lon="-121.944560514"/>
<node visible="true" id="-68" lat="37.416099902" lon="-121.94460454000001"/>
<node visible="true" id="-69" lat="37.415576029" lon="-121.94498198900001"/>
<node visible="true" id="-70" lat="37.415945231" lon="-121.94579303900001"/>
<node visible="true" id="-71" lat="37.416250069" lon="-121.94556122300001"/>
<node visible="true" id="-72" lat="37.417015744000004" lon="-121.945009862"/>
<node visible="true" id="-73" lat="37.417025749000004" lon="-121.94430656300001"/>
<node visible="true" id="-74" lat="37.417968492" lon="-121.944329627"/>
<node visible="true" id="-75" lat="37.417994310000005" lon="-121.94296138300001"/>
<node visible="true" id="-76" lat="37.418007323000005" lon="-121.94295523000001"/>
<node visible="true" id="-77" lat="37.418047472000005" lon="-121.940644793"/>
<node visible="true" id="-78" lat="37.416659274000004" lon="-121.94191488000001"/>
<way visible="true" id="-1"><nd ref="-2"/><nd ref="-3"/><nd ref="-4"/><nd ref="-5"/><nd ref="-2"/><tag k="building" v="yes"/><tag k="height" v="6.53"/><tag k="ele" v="33.82"/></way>
<way visible="true" id="-44"><nd ref="-45"/><nd ref="-46"/><nd ref="-47"/><nd ref="-48"/><nd ref="-49"/><nd ref="-50"/><nd ref="-45"/><tag k="building" v="yes"/><tag k="height" v="7.49"/><tag k="ele" v="40.16"/><tag k="addr:city" v="San Jose"/><tag k="addr:housenumber" v="850"/><tag k="addr:street" v="Cape Verde Place"/><tag k="addr:postcode" v="95133"/></way>
<way visible="true" id="-51"><nd ref="-52"/><nd ref="-53"/><nd ref="-54"/><nd ref="-55"/><nd ref="-56"/><nd ref="-57"/><nd ref="-58"/><nd ref="-59"/><nd ref="-60"/><nd ref="-61"/><nd ref="-62"/><nd ref="-63"/><nd ref="-64"/><nd ref="-65"/><nd ref="-66"/><nd ref="-67"/><nd ref="-68"/><nd ref="-69"/><nd ref="-70"/><nd ref="-71"/><nd ref="-72"/><nd ref="-73"/><nd ref="-74"/><nd ref="-75"/><nd ref="-76"/><nd ref="-77"/><nd ref="-78"/><nd ref="-52"/><tag k="landuse" v="residential"/><tag k="name" v="Westwinds Hermitage Mobile Hom"/></way>
</osm>