<?xml version="1.0"?>
<osm version="0.6" generator="uvmogr2osm" upload="false">
<node visible="true" id="-2" lat="37.365761207000006" lon="-121.850130667"/>
<node visible="true" id="-3" lat="37.365908694000005" lon="-121.85028688800001"/>
<node visible="true" id="-4" lat="37.366067977" lon="-121.85005083200001"/>
<node visible="true" id="-5" lat="37.36592049" lon="-121.849894613"/>
<node visible="true" id="-7" lat="37.366415281" lon="-121.85069910000001"/>
<node visible="true" id="-8" lat="37.366957972" lon="-121.85127943100001"/>
<node visible="true" id="-9" lat="37.367270035000004" lon="-121.85082138000001"/>
<node visible="true" id="-10" lat="37.367320367000005" lon="-121.850875219"/>
<node visible="true" id="-11" lat="37.367369346000004" lon="-121.85080331900001"/>
<node visible="true" id="-12" lat="37.367316817" lon="-121.85074716800001"/>
<node visible="true" id="-13" lat="37.367655728" lon="-121.85024967700001"/>
<node visible="true" id="-14" lat="37.367531755" lon="-121.85011707400001"/>
<node visible="true" id="-15" lat="37.367580707" lon="-121.85004520700001"/>
<node visible="true" id="-16" lat="37.367638419" lon="-121.85010692300001"/>
<node visible="true" id="-17" lat="37.367665242" lon="-121.85006755600001"/>
<node visible="true" id="-18" lat="37.367607284" lon="-121.850005561"/>
<node visible="true" id="-19" lat="37.367706331" lon="-121.84986016100001"/>
<node visible="true" id="-20" lat="37.367591854000004" lon="-121.849737778"/>
<node visible="true" id="-21" lat="37.367601941000004" lon="-121.84972295600001"/>
<node visible="true" id="-22" lat="37.367651351" lon="-121.849775781"/>
<node visible="true" id="-23" lat="37.367814211" lon="-121.849536721"/>
<node visible="true" id="-24" lat="37.367645739000004" lon="-121.84935658"/>
<node visible="true" id="-25" lat="37.367810219" lon="-121.84911514100001"/>
<node visible="true" id="-26" lat="37.367823025" lon="-121.849128828"/>
<node visible="true" id="-27" lat="37.367847109" lon="-121.849093472"/>
<node visible="true" id="-28" lat="37.367834927000004" lon="-121.84908045"/>
<node visible="true" id="-29" lat="37.367904020000005" lon="-121.84897903800001"/>
<node visible="true" id="-30" lat="37.367727814000006" lon="-121.848790604"/>
<node visible="true" id="-31" lat="37.367482338" lon="-121.84915092700001"/>
<node visible="true" id="-32" lat="37.367455938" lon="-121.849122714"/>
<node visible="true" id="-33" lat="37.367269693000004" lon="-121.84939607400001"/>
<node visible="true" id="-34" lat="37.367279325000005" lon="-121.84940636600001"/>
<node visible="true" id="-35" lat="37.367192908" lon="-121.84953323900001"/>
<node visible="true" id="-36" lat="37.367175896" lon="-121.84951503500001"/>
<node visible="true" id="-37" lat="37.367084784" lon="-121.849648809"/>
<node visible="true" id="-38" lat="37.367082532000005" lon="-121.84964642800001"/>
<node visible="true" id="-39" lat="37.367043527" lon="-121.84970371200001"/>
<node visible="true" id="-40" lat="37.36707655" lon="-121.849738997"/>
<node visible="true" id="-41" lat="37.366806651000005" lon="-121.85013518100001"/>
<node visible="true" id="-42" lat="37.366802066000005" lon="-121.850130245"/>
<node visible="true" id="-43" lat="37.366785833" lon="-121.85015407700001"/>
<node visible="true" id="-44" lat="37.366781384" lon="-121.85014931500001"/>
<node visible="true" id="-45" lat="37.36676747" lon="-121.85016974700001"/>
<node visible="true" id="-46" lat="37.366746061" lon="-121.85014685300001"/>
<node visible="true" id="-47" lat="37.366648132" lon="-121.850290584"/>
<node visible="true" id="-48" lat="37.366670137" lon="-121.85031410900001"/>
<node visible="true" id="-49" lat="37.366660861" lon="-121.85032774000001"/>
<node visible="true" id="-50" lat="37.366665148" lon="-121.850332327"/>
<node visible="true" id="-52" lat="37.367296198000005" lon="-121.847999301"/>
<node visible="true" id="-53" lat="37.367300371" lon="-121.84804965500001"/>
<node visible="true" id="-54" lat="37.367326594000005" lon="-121.84807666100001"/>
<node visible="true" id="-55" lat="37.367321897000004" lon="-121.848083805"/>
<node visible="true" id="-56" lat="37.367357757" lon="-121.848120757"/>
<node visible="true" id="-57" lat="37.367363572" lon="-121.84811194900001"/>
<node visible="true" id="-58" lat="37.367378122000005" lon="-121.84812694200001"/>
<node visible="true" id="-59" lat="37.367369594" lon="-121.848139934"/>
<node visible="true" id="-60" lat="37.367399482" lon="-121.848170792"/>
<node visible="true" id="-61" lat="37.36740661" lon="-121.84815994300001"/>
<node visible="true" id="-62" lat="37.367418446" lon="-121.848172168"/>
<node visible="true" id="-63" lat="37.367456366" lon="-121.848166176"/>
<node visible="true" id="-64" lat="37.36746129" lon="-121.848158314"/>
<node visible="true" id="-65" lat="37.367822978" lon="-121.848106133"/>
<node visible="true" id="-66" lat="37.367861746" lon="-121.848045436"/>
<node visible="true" id="-67" lat="37.36785102" lon="-121.84792716700001"/>
<node visible="true" id="-68" lat="37.367607275000005" lon="-121.84946625600001"><tag k="addr:city" v="San Jose"/><tag k="addr:housenumber" v="2323;2327;2343;2349;2351"/><tag k="addr:street" v="McKee Road"/><tag k="addr:unit" v="A;B;FRNT"/><tag k="addr:postcode" v="95116"/></node>
<node visible="true" id="-69" lat="37.375512824000005" lon="-121.854323112"><tag k="addr:city" v="San Jose"/><tag k="addr:housenumber" v="754"/><tag k="addr:street" v="Lava Way"/><tag k="addr:postcode" v="95133"/></node>
<node visible="true" id="-70" lat="37.365818725000004" lon="-121.85010942900001"><tag k="addr:city" v="San Jose"/><tag k="addr:housenumber" v="2303"/><tag k="addr:street" v="McKee Road"/><tag k="addr:postcode" v="95116"/></node>
<node visible="true" id="-71" lat="37.367736664" lon="-121.847970813"><tag k="addr:city" v="San Jose"/><tag k="addr:housenumber" v="2355"/><tag k="addr:street" v="McKee Road"/><tag k="addr:unit" v="10"/><tag k="addr:postcode" v="95133"/></node>
<node visible="true" id="-72" lat="37.367794535" lon="-121.848022403"><tag k="addr:city" v="San Jose"/><tag k="addr:housenumber" v="2355"/><tag k="addr:street" v="McKee Road"/><tag k="addr:unit" v="20"/><tag k="addr:postcode" v="95133"/></node>
<node visible="true" id="-73" lat="37.365930403" lon="-121.84993602700001"><tag k="addr:city" v="San Jose"/><tag k="addr:housenumber" v="2309"/><tag k="addr:street" v="McKee Road"/><tag k="addr:postcode" v="95116"/></node>
<node visible="true" id="-74" lat="37.365841061000005" lon="-121.85007474800001"><tag k="addr:city" v="San Jose"/><tag k="addr:housenumber" v="2305"/><tag k="addr:street" v="McKee Road"/><tag k="addr:unit" v="20"/><tag k="addr:postcode" v="95116"/></node>
<node visible="true" id="-75" lat="37.365863396" lon="-121.85004006800001"><tag k="addr:city" v="San Jose"/><tag k="addr:housenumber" v="2305"/><tag k="addr:street" v="McKee Road"/><tag k="addr:unit" v="30"/><tag k="addr:postcode" v="95116"/></node>
<node visible="true" id="-76" lat="37.367864433" lon="-121.849282966"><tag k="addr:city" v="San Jose"/><tag k="addr:housenumber" v="2335"/><tag k="addr:street" v="McKee Road"/><tag k="addr:postcode" v="95116"/></node>
<node visible="true" id="-77" lat="37.367959112" lon="-121.848710886"><tag k="addr:city" v="San Jose"/><tag k="addr:housenumber" v="357"/><tag k="addr:street" v="Caribe Way"/><tag k="addr:postcode" v="95133"/></node>
<node visible="true" id="-78" lat="37.36716347" lon="-121.850432318"><tag k="addr:city" v="San Jose"/><tag k="addr:housenumber" v="2339;2345;2347"/><tag k="addr:street" v="McKee Road"/><tag k="addr:postcode" v="95116"/></node>
<node visible="true" id="-79" lat="37.365891379000004" lon="-121.849996618"><tag k="addr:city" v="San Jose"/><tag k="addr:housenumber" v="2307"/><tag k="addr:street" v="McKee Road"/><tag k="addr:postcode" v="95116"/></node>
<node visible="true" id="-80" lat="37.367522777000005" lon="-121.84928820300001"><tag k="addr:city" v="San Jose"/><tag k="addr:housenumber" v="2351"/><tag k="addr:street" v="McKee Road"/><tag k="addr:postcode" v="95116"/></node>
<node visible="true" id="-81" lat="37.367481614" lon="-121.848082324"><tag k="addr:city" v="San Jose"/><tag k="addr:housenumber" v="2357;2359;2361;2363;2365;2367"/><tag k="addr:street" v="McKee Road"/><tag k="addr:postcode" v="95133"/></node>
<node visible="true" id="-82" lat="37.367406614000004" lon="-121.849503032"><tag k="addr:city" v="San Jose"/><tag k="addr:housenumber" v="2331"/><tag k="addr:street" v="McKee Road"/><tag k="addr:postcode" v="95116"/></node>
<node visible="true" id="-83" lat="37.367664551000004" lon="-121.84799298600001"><tag k="addr:city" v="San Jose"/><tag k="addr:housenumber" v="2355"/><tag k="addr:street" v="McKee Road"/><tag k="addr:postcode" v="95133"/></node>
<node visible="true" id="-85" lat="37.366766676000005" lon="-121.848670728"/>
<node visible="true" id="-86" lat="37.366802225" lon="-121.84870836500001"/>
<node visible="true" id="-87" lat="37.366794932000005" lon="-121.848719177"/>
<node visible="true" id="-88" lat="37.366815502" lon="-121.84874095400001"/>
<node visible="true" id="-89" lat="37.36678236" lon="-121.84879011800001"/>
<node visible="true" id="-90" lat="37.366839158000005" lon="-121.84885026600001"/>
<node visible="true" id="-91" lat="37.366871741000004" lon="-121.848801918"/>
<node visible="true" id="-92" lat="37.366914971" lon="-121.84884767800001"/>
<node visible="true" id="-93" lat="37.366997853" lon="-121.848724699"/>
<node visible="true" id="-94" lat="37.36704263" lon="-121.84877207100001"/>
<node visible="true" id="-95" lat="37.3670879" lon="-121.84870491900001"/>
<node visible="true" id="-96" lat="37.366923612" lon="-121.848531054"/>
<node visible="true" id="-97" lat="37.366916625" lon="-121.848541389"/>
<node visible="true" id="-98" lat="37.366841537" lon="-121.84846191300001"/>
<node visible="true" id="-99" lat="37.366800766000004" lon="-121.84852240000001"/>
<node visible="true" id="-100" lat="37.366839247" lon="-121.848563118"/>
<way visible="true" id="-1"><nd ref="-2"/><nd ref="-3"/><nd ref="-4"/><nd ref="-5"/><nd ref="-2"/><tag k="building" v="yes"/><tag k="height" v="4.31"/><tag k="ele" v="39.33"/></way>
<way visible="true" id="-6"><nd ref="-7"/><nd ref="-8"/><nd ref="-9"/><nd ref="-10"/><nd ref="-11"/><nd ref="-12"/><nd ref="-13"/><nd ref="-14"/><nd ref="-15"/><nd ref="-16"/><nd ref="-17"/><nd ref="-18"/><nd ref="-19"/><nd ref="-20"/><nd ref="-21"/><nd ref="-22"/><nd ref="-23"/><nd ref="-24"/><nd ref="-25"/><nd ref="-26"/><nd ref="-27"/><nd ref="-28"/><nd ref="-29"/><nd ref="-30"/><nd ref="-31"/><nd ref="-32"/><nd ref="-33"/><nd ref="-34"/><nd ref="-35"/><nd ref="-36"/><nd ref="-37"/><nd ref="-38"/><nd ref="-39"/><nd ref="-40"/><nd ref="-41"/><nd ref="-42"/><nd ref="-43"/><nd ref="-44"/><nd ref="-45"/><nd ref="-46"/><nd ref="-47"/><nd ref="-48"/><nd ref="-49"/><nd ref="-50"/><nd ref="-7"/><tag k="building" v="yes"/><tag k="height" v="6.39"/><tag k="ele" v="42.82"/></way>
<way visible="true" id="-51"><nd ref="-52"/><nd ref="-53"/><nd ref="-54"/><nd ref="-55"/><nd ref="-56"/><nd ref="-57"/><nd ref="-58"/><nd ref="-59"/><nd ref="-60"/><nd ref="-61"/><nd ref="-62"/><nd ref="-63"/><nd ref="-64"/><nd ref="-65"/><nd ref="-66"/><nd ref="-67"/><nd ref="-52"/><tag k="building" v="yes"/><tag k="height" v="4.36"/><tag k="ele" v="41.63"/></way>
<way visible="true" id="-84"><nd ref="-85"/><nd ref="-86"/><nd ref="-87"/><nd ref="-88"/><nd ref="-89"/><nd ref="-90"/><nd ref="-91"/><nd ref="-92"/><nd ref="-93"/><nd ref="-94"/><nd ref="-95"/><nd ref="-96"/><nd ref="-97"/><nd ref="-98"/><nd ref="-99"/><nd ref="-100"/><nd ref="-85"/><tag k="building" v="yes"/><tag k="height" v="5.39"/><tag k="ele" v="40.61"/><tag k="addr:city" v="San Jose"/><tag k="addr:housenumber" v="2353"/><tag k="addr:street" v="McKee Road"/><tag k="addr:postcode" v="95116"/></way>
</osm>