<?xml version="1.0"?>
<osm version="0.6" generator="uvmogr2osm" upload="false">
<node visible="true" id="-1" lat="37.391140623000005" lon="-121.81887603800001"><tag k="addr:city" v="San Jose"/><tag k="addr:housenumber" v="11050"/><tag k="addr:street" v="Enchanto Vista Drive"/><tag k="addr:postcode" v="95127"/></node>
<node visible="true" id="-2" lat="37.391714847" lon="-121.821393036"><tag k="addr:city" v="San Jose"/><tag k="addr:housenumber" v="11250"/><tag k="addr:street" v="Enchanto Vista Drive"/><tag k="addr:postcode" v="95127"/></node>
<node visible="true" id="-3" lat="37.39193263" lon="-121.82177140600001"><tag k="addr:city" v="San Jose"/><tag k="addr:housenumber" v="11270"/><tag k="addr:street" v="Enchanto Vista Drive"/><tag k="addr:postcode" v="95127"/></node>
<node visible="true" id="-4" lat="37.392215295" lon="-121.821323023"><tag k="addr:city" v="San Jose"/><tag k="addr:housenumber" v="11271"/><tag k="addr:street" v="Enchanto Vista Drive"/><tag k="addr:postcode" v="95127"/></node>
<node visible="true" id="-5" lat="37.393726944" lon="-121.822964776"><tag k="addr:city" v="San Jose"/><tag k="addr:housenumber" v="11391"/><tag k="addr:street" v="Enchanto Vista Drive"/><tag k="addr:postcode" v="95127"/></node>
<node visible="true" id="-6" lat="37.392602403000005" lon="-121.824517994"><tag k="addr:city" v="San Jose"/><tag k="addr:housenumber" v="11402"/><tag k="addr:street" v="Chula Vista Court"/><tag k="addr:postcode" v="95127"/></node>
<node visible="true" id="-7" lat="37.393735363000005" lon="-121.82447744900001"><tag k="addr:city" v="San Jose"/><tag k="addr:housenumber" v="11450"/><tag k="addr:street" v="Enchanto Vista Drive"/><tag k="addr:postcode" v="95127"/></node>
<node visible="true" id="-8" lat="37.389219714" lon="-121.823409733"><tag k="addr:city" v="San Jose"/><tag k="addr:housenumber" v="500"/><tag k="addr:street" v="Golf View Drive"/><tag k="addr:postcode" v="95127"/></node>
<node visible="true" id="-9" lat="37.38964569" lon="-121.82368131700001"><tag k="addr:city" v="San Jose"/><tag k="addr:housenumber" v="505"/><tag k="addr:street" v="Golf View Drive"/><tag k="addr:postcode" v="95127"/></node>
<node visible="true" id="-10" lat="37.388911314000005" lon="-121.82557897800001"><tag k="addr:city" v="San Jose"/><tag k="addr:housenumber" v="718"/><tag k="addr:street" v="Tallent Avenue"/><tag k="addr:postcode" v="95127"/></node>
<node visible="true" id="-11" lat="37.389019378" lon="-121.82637048400001"><tag k="addr:city" v="San Jose"/><tag k="addr:housenumber" v="735"/><tag k="addr:street" v="Tallent Avenue"/><tag k="addr:postcode" v="95127"/></node>
<node visible="true" id="-12" lat="37.392102805" lon="-121.829724221"><tag k="addr:city" v="San Jose"/><tag k="addr:housenumber" v="12575"/><tag k="addr:street" v="Tallent Avenue"/><tag k="addr:postcode" v="95127"/></node>
<node visible="true" id="-13" lat="37.391152694000006" lon="-121.827157016"><tag k="addr:city" v="San Jose"/><tag k="addr:housenumber" v="840"/><tag k="addr:street" v="Tallent Avenue"/><tag k="addr:postcode" v="95127"/></node>
<node visible="true" id="-14" lat="37.389212705000006" lon="-121.831593639"><tag k="addr:city" v="San Jose"/><tag k="addr:housenumber" v="14888"/><tag k="addr:street" v="Joanne Avenue"/><tag k="addr:postcode" v="95127"/></node>
<node visible="true" id="-15" lat="37.392198775000004" lon="-121.833182198"><tag k="addr:city" v="San Jose"/><tag k="addr:housenumber" v="14901"/><tag k="addr:street" v="Freeman Avenue"/><tag k="addr:postcode" v="95127"/></node>
<node visible="true" id="-16" lat="37.392858554" lon="-121.832535753"><tag k="addr:city" v="San Jose"/><tag k="addr:housenumber" v="14940"/><tag k="addr:street" v="Penitencia Creek Road"/><tag k="addr:postcode" v="95132"/></node>
<node visible="true" id="-17" lat="37.391037399000005" lon="-121.83169244300001"><tag k="addr:city" v="San Jose"/><tag k="addr:housenumber" v="14940"/><tag k="addr:street" v="Ridgetop Drive"/><tag k="addr:postcode" v="95127"/></node>
<node visible="true" id="-18" lat="37.392194472" lon="-121.83234251500001"><tag k="addr:city" v="San Jose"/><tag k="addr:housenumber" v="14941"/><tag k="addr:street" v="Freeman Avenue"/><tag k="addr:postcode" v="95127"/></node>
<node visible="true" id="-19" lat="37.392355192000004" lon="-121.831466183"><tag k="addr:city" v="San Jose"/><tag k="addr:housenumber" v="15001"/><tag k="addr:street" v="Freeman Avenue"/><tag k="addr:postcode" v="95127"/></node>
<node visible="true" id="-20" lat="37.391152025000004" lon="-121.829110497"><tag k="addr:city" v="San Jose"/><tag k="addr:housenumber" v="15074"/><tag k="addr:street" v="San Pablo Avenue"/><tag k="addr:postcode" v="95127"/></node>
<node visible="true" id="-21" lat="37.391238839" lon="-121.82890049900001"><tag k="addr:city" v="San Jose"/><tag k="addr:housenumber" v="15088"/><tag k="addr:street" v="San Pablo Avenue"/><tag k="addr:postcode" v="95127"/></node>
<node visible="true" id="-22" lat="37.391130086000004" lon="-121.82839468200001"><tag k="addr:city" v="San Jose"/><tag k="addr:housenumber" v="15121"/><tag k="addr:street" v="Joanne Avenue"/><tag k="addr:postcode" v="95127"/></node>
<node visible="true" id="-23" lat="37.394618663" lon="-121.82647781700001"><tag k="addr:city" v="San Jose"/><tag k="addr:housenumber" v="15280"/><tag k="addr:street" v="Penitencia Creek Road"/><tag k="addr:postcode" v="95132"/></node>
<node visible="true" id="-24" lat="37.391076285000004" lon="-121.818138962"><tag k="addr:city" v="San Jose"/><tag k="addr:housenumber" v="11020"/><tag k="addr:street" v="Enchanto Vista Drive"/><tag k="addr:postcode" v="95127"/></node>
<node visible="true" id="-25" lat="37.389279764" lon="-121.818145259"><tag k="addr:city" v="San Jose"/><tag k="addr:housenumber" v="11036"/><tag k="addr:street" v="Canyon Drive"/><tag k="addr:postcode" v="95127"/></node>
<node visible="true" id="-26" lat="37.389442237000004" lon="-121.81920781000001"><tag k="addr:city" v="San Jose"/><tag k="addr:housenumber" v="11060"/><tag k="addr:street" v="Canyon Drive"/><tag k="addr:postcode" v="95127"/></node>
<node visible="true" id="-27" lat="37.391236308" lon="-121.81921657500001"><tag k="addr:city" v="San Jose"/><tag k="addr:housenumber" v="11060"/><tag k="addr:street" v="Enchanto Vista Drive"/><tag k="addr:postcode" v="95127"/></node>
<node visible="true" id="-28" lat="37.391760768000005" lon="-121.818606078"><tag k="addr:city" v="San Jose"/><tag k="addr:housenumber" v="11061"/><tag k="addr:street" v="Enchanto Vista Drive"/><tag k="addr:postcode" v="95127"/></node>
<node visible="true" id="-29" lat="37.389122621000006" lon="-121.81877923900001"><tag k="addr:city" v="San Jose"/><tag k="addr:housenumber" v="11080"/><tag k="addr:street" v="Canyon Drive"/><tag k="addr:postcode" v="95127"/></node>
<node visible="true" id="-30" lat="37.391331017" lon="-121.819521741"><tag k="addr:city" v="San Jose"/><tag k="addr:housenumber" v="11100"/><tag k="addr:street" v="Enchanto Vista Drive"/><tag k="addr:postcode" v="95127"/></node>
<node visible="true" id="-31" lat="37.391353412" lon="-121.82019945200001"><tag k="addr:city" v="San Jose"/><tag k="addr:housenumber" v="11140"/><tag k="addr:street" v="Enchanto Vista Drive"/><tag k="addr:postcode" v="95127"/></node>
<node visible="true" id="-32" lat="37.388547555" lon="-121.82129146300001"><tag k="addr:city" v="San Jose"/><tag k="addr:housenumber" v="11260"/><tag k="addr:street" v="Canyon Drive"/><tag k="addr:postcode" v="95127"/></node>
<node visible="true" id="-33" lat="37.388758971" lon="-121.82152648900001"><tag k="addr:city" v="San Jose"/><tag k="addr:housenumber" v="11265"/><tag k="addr:street" v="Canyon Drive"/><tag k="addr:postcode" v="95127"/></node>
<node visible="true" id="-34" lat="37.392402169" lon="-121.82270118900001"><tag k="addr:city" v="San Jose"/><tag k="addr:housenumber" v="11320"/><tag k="addr:street" v="Enchanto Vista Drive"/><tag k="addr:postcode" v="95127"/></node>
<node visible="true" id="-35" lat="37.392875684" lon="-121.822128362"><tag k="addr:city" v="San Jose"/><tag k="addr:housenumber" v="11331"/><tag k="addr:street" v="Enchanto Vista Drive"/><tag k="addr:postcode" v="95127"/></node>
<node visible="true" id="-36" lat="37.393035778000005" lon="-121.82314284"><tag k="addr:city" v="San Jose"/><tag k="addr:housenumber" v="11370"/><tag k="addr:street" v="Enchanto Vista Drive"/><tag k="addr:postcode" v="95127"/></node>
<node visible="true" id="-37" lat="37.387512089000005" lon="-121.830496807"><tag k="addr:city" v="San Jose"/><tag k="addr:housenumber" v="3900"/><tag k="addr:street" v="Holly Drive"/><tag k="addr:postcode" v="95127"/></node>
<node visible="true" id="-38" lat="37.387265839" lon="-121.830269563"><tag k="addr:city" v="San Jose"/><tag k="addr:housenumber" v="3955"/><tag k="addr:street" v="Golf Drive"/><tag k="addr:postcode" v="95127"/></node>
<node visible="true" id="-39" lat="37.387938232" lon="-121.83054901300001"><tag k="addr:city" v="San Jose"/><tag k="addr:housenumber" v="3955"/><tag k="addr:street" v="Holly Drive"/><tag k="addr:postcode" v="95127"/></node>
<node visible="true" id="-40" lat="37.387675684" lon="-121.830206399"><tag k="addr:city" v="San Jose"/><tag k="addr:housenumber" v="3960"/><tag k="addr:street" v="Holly Drive"/><tag k="addr:postcode" v="95127"/></node>
<node visible="true" id="-41" lat="37.388618403" lon="-121.83089804000001"><tag k="addr:city" v="San Jose"/><tag k="addr:housenumber" v="3960"/><tag k="addr:street" v="Pepper Tree Lane"/><tag k="addr:postcode" v="95127"/></node>
<node visible="true" id="-42" lat="37.389080133" lon="-121.83117143800001"><tag k="addr:city" v="San Jose"/><tag k="addr:housenumber" v="3961"/><tag k="addr:street" v="Pepper Tree Lane"/><tag k="addr:postcode" v="95127"/></node>
<node visible="true" id="-43" lat="37.388069533" lon="-121.830245703"><tag k="addr:city" v="San Jose"/><tag k="addr:housenumber" v="3963"/><tag k="addr:street" v="Holly Drive"/><tag k="addr:postcode" v="95127"/></node>
<node visible="true" id="-44" lat="37.386991137" lon="-121.829494451"><tag k="addr:city" v="San Jose"/><tag k="addr:housenumber" v="3968"/><tag k="addr:street" v="Golf Drive"/><tag k="addr:postcode" v="95127"/></node>
<node visible="true" id="-45" lat="37.388293973" lon="-121.829879645"><tag k="addr:city" v="San Jose"/><tag k="addr:housenumber" v="3975"/><tag k="addr:street" v="Holly Drive"/><tag k="addr:postcode" v="95127"/></node>
<node visible="true" id="-46" lat="37.389276467" lon="-121.83061013700001"><tag k="addr:city" v="San Jose"/><tag k="addr:housenumber" v="3973"/><tag k="addr:street" v="Pepper Tree Lane"/><tag k="addr:postcode" v="95127"/></node>
<node visible="true" id="-47" lat="37.388356623" lon="-121.82967889700001"><tag k="addr:city" v="San Jose"/><tag k="addr:housenumber" v="3979"/><tag k="addr:street" v="Holly Drive"/><tag k="addr:postcode" v="95127"/></node>
<node visible="true" id="-48" lat="37.387720599000005" lon="-121.82897434300001"><tag k="addr:city" v="San Jose"/><tag k="addr:housenumber" v="3989"/><tag k="addr:street" v="Golf Drive"/><tag k="addr:postcode" v="95127"/></node>
<node visible="true" id="-49" lat="37.387390214" lon="-121.828573051"><tag k="addr:city" v="San Jose"/><tag k="addr:housenumber" v="3990"/><tag k="addr:street" v="Golf Drive"/><tag k="addr:postcode" v="95127"/></node>
<node visible="true" id="-50" lat="37.387881062000005" lon="-121.828781198"><tag k="addr:city" v="San Jose"/><tag k="addr:housenumber" v="3991"/><tag k="addr:street" v="Golf Drive"/><tag k="addr:postcode" v="95127"/></node>
<node visible="true" id="-51" lat="37.388570849000004" lon="-121.829256544"><tag k="addr:city" v="San Jose"/><tag k="addr:housenumber" v="3991"/><tag k="addr:street" v="Holly Drive"/><tag k="addr:postcode" v="95127"/></node>
<node visible="true" id="-52" lat="37.388211971000004" lon="-121.828135375"><tag k="addr:city" v="San Jose"/><tag k="addr:housenumber" v="4001"/><tag k="addr:street" v="Golf Drive"/><tag k="addr:postcode" v="95127"/></node>
<node visible="true" id="-53" lat="37.388552859" lon="-121.82803923200001"><tag k="addr:city" v="San Jose"/><tag k="addr:housenumber" v="4010"/><tag k="addr:street" v="Holly Drive"/><tag k="addr:postcode" v="95127"/></node>
<node visible="true" id="-54" lat="37.388956899" lon="-121.82831137900001"><tag k="addr:city" v="San Jose"/><tag k="addr:housenumber" v="4015"/><tag k="addr:street" v="Holly Drive"/><tag k="addr:postcode" v="95127"/></node>
<node visible="true" id="-55" lat="37.389347866" lon="-121.827581549"><tag k="addr:city" v="San Jose"/><tag k="addr:housenumber" v="4049"/><tag k="addr:street" v="Holly Drive"/><tag k="addr:postcode" v="95127"/></node>
<node visible="true" id="-56" lat="37.389449878" lon="-121.827266175"><tag k="addr:city" v="San Jose"/><tag k="addr:housenumber" v="4067"/><tag k="addr:street" v="Holly Drive"/><tag k="addr:postcode" v="95127"/></node>
<node visible="true" id="-57" lat="37.389144157000004" lon="-121.82683728900001"><tag k="addr:city" v="San Jose"/><tag k="addr:housenumber" v="4074"/><tag k="addr:street" v="Holly Drive"/><tag k="addr:postcode" v="95127"/></node>
<node visible="true" id="-58" lat="37.389640143" lon="-121.826768646"><tag k="addr:city" v="San Jose"/><tag k="addr:housenumber" v="4089"/><tag k="addr:street" v="Holly Drive"/><tag k="addr:postcode" v="95127"/></node>
<node visible="true" id="-59" lat="37.388118297000005" lon="-121.82493288200001"><tag k="addr:city" v="San Jose"/><tag k="addr:housenumber" v="4110"/><tag k="addr:street" v="Golf Drive"/><tag k="addr:postcode" v="95127"/></node>
<node visible="true" id="-60" lat="37.388754717000005" lon="-121.824847785"><tag k="addr:city" v="San Jose"/><tag k="addr:housenumber" v="4125"/><tag k="addr:street" v="Golf Drive"/><tag k="addr:postcode" v="95127"/></node>
<node visible="true" id="-61" lat="37.388337275000005" lon="-121.824445814"><tag k="addr:city" v="San Jose"/><tag k="addr:housenumber" v="4130"/><tag k="addr:street" v="Golf Drive"/><tag k="addr:postcode" v="95127"/></node>
<node visible="true" id="-62" lat="37.388812625" lon="-121.824608912"><tag k="addr:city" v="San Jose"/><tag k="addr:housenumber" v="4135"/><tag k="addr:street" v="Golf Drive"/><tag k="addr:postcode" v="95127"/></node>
<node visible="true" id="-63" lat="37.388536719" lon="-121.823963731"><tag k="addr:city" v="San Jose"/><tag k="addr:housenumber" v="4150"/><tag k="addr:street" v="Golf Drive"/><tag k="addr:postcode" v="95127"/></node>
<node visible="true" id="-64" lat="37.390991425" lon="-121.825432964"><tag k="addr:city" v="San Jose"/><tag k="addr:housenumber" v="4150"/><tag k="addr:street" v="Pepper Tree Lane"/><tag k="addr:postcode" v="95127"/></node>
<node visible="true" id="-65" lat="37.389882616" lon="-121.824382854"><tag k="addr:city" v="San Jose"/><tag k="addr:housenumber" v="4161"/><tag k="addr:street" v="Regal Court"/><tag k="addr:postcode" v="95127"/></node>
<node visible="true" id="-66" lat="37.388735668" lon="-121.82346463300001"><tag k="addr:city" v="San Jose"/><tag k="addr:housenumber" v="4170"/><tag k="addr:street" v="Golf Drive"/><tag k="addr:postcode" v="95127"/></node>
<node visible="true" id="-67" lat="37.388463145" lon="-121.82184890200001"><tag k="addr:city" v="San Jose"/><tag k="addr:housenumber" v="452"/><tag k="addr:street" v="Golf View Drive"/><tag k="addr:postcode" v="95127"/></node>
<node visible="true" id="-68" lat="37.388384452000004" lon="-121.82207794300001"><tag k="addr:city" v="San Jose"/><tag k="addr:housenumber" v="454"/><tag k="addr:street" v="Golf View Drive"/><tag k="addr:postcode" v="95127"/></node>
<node visible="true" id="-69" lat="37.388452638000004" lon="-121.822218222"><tag k="addr:city" v="San Jose"/><tag k="addr:housenumber" v="456"/><tag k="addr:street" v="Golf View Drive"/><tag k="addr:postcode" v="95127"/></node>
<node visible="true" id="-70" lat="37.388703118" lon="-121.82222265700001"><tag k="addr:city" v="San Jose"/><tag k="addr:housenumber" v="460"/><tag k="addr:street" v="Golf View Drive"/><tag k="addr:postcode" v="95127"/></node>
<node visible="true" id="-71" lat="37.388799837" lon="-121.822363408"><tag k="addr:city" v="San Jose"/><tag k="addr:housenumber" v="464"/><tag k="addr:street" v="Golf View Drive"/><tag k="addr:postcode" v="95127"/></node>
<node visible="true" id="-72" lat="37.388794168000004" lon="-121.82301446900001"><tag k="addr:city" v="San Jose"/><tag k="addr:housenumber" v="484"/><tag k="addr:street" v="Golf View Drive"/><tag k="addr:postcode" v="95127"/></node>
<node visible="true" id="-73" lat="37.389426356" lon="-121.82275675100001"><tag k="addr:city" v="San Jose"/><tag k="addr:housenumber" v="485"/><tag k="addr:street" v="Golf View Drive"/><tag k="addr:postcode" v="95127"/></node>
<node visible="true" id="-74" lat="37.388841761" lon="-121.823146886"><tag k="addr:city" v="San Jose"/><tag k="addr:housenumber" v="490"/><tag k="addr:street" v="Golf View Drive"/><tag k="addr:postcode" v="95127"/></node>
<node visible="true" id="-75" lat="37.389485623" lon="-121.823047239"><tag k="addr:city" v="San Jose"/><tag k="addr:housenumber" v="491"/><tag k="addr:street" v="Golf View Drive"/><tag k="addr:postcode" v="95127"/></node>
<node visible="true" id="-76" lat="37.389620032" lon="-121.82323127800001"><tag k="addr:city" v="San Jose"/><tag k="addr:housenumber" v="495"/><tag k="addr:street" v="Golf View Drive"/><tag k="addr:postcode" v="95127"/></node>
<node visible="true" id="-77" lat="37.389735555" lon="-121.82356283600001"><tag k="addr:city" v="San Jose"/><tag k="addr:housenumber" v="503"/><tag k="addr:street" v="Golf View Drive"/><tag k="addr:postcode" v="95127"/></node>
<node visible="true" id="-78" lat="37.388858345" lon="-121.826265281"><tag k="addr:city" v="San Jose"/><tag k="addr:housenumber" v="725"/><tag k="addr:street" v="Tallent Avenue"/><tag k="addr:postcode" v="95127"/></node>
<node visible="true" id="-79" lat="37.391764390000006" lon="-121.829531712"><tag k="addr:city" v="San Jose"/><tag k="addr:housenumber" v="12555"/><tag k="addr:street" v="Tallent Avenue"/><tag k="addr:postcode" v="95127"/></node>
<node visible="true" id="-80" lat="37.38870621" lon="-121.82037796200001"><tag k="addr:city" v="San Jose"/><tag k="addr:housenumber" v="1"/><tag k="addr:street" v="Bay Tree Lane"/><tag k="addr:postcode" v="95127"/></node>
<node visible="true" id="-81" lat="37.39192637" lon="-121.82959429"><tag k="addr:city" v="San Jose"/><tag k="addr:housenumber" v="12565"/><tag k="addr:street" v="Tallent Avenue"/><tag k="addr:postcode" v="95127"/></node>
<node visible="true" id="-82" lat="37.392391026000006" lon="-121.82995150200001"><tag k="addr:city" v="San Jose"/><tag k="addr:housenumber" v="12595"/><tag k="addr:street" v="Tallent Avenue"/><tag k="addr:postcode" v="95127"/></node>
<node visible="true" id="-83" lat="37.390104201" lon="-121.826368372"><tag k="addr:city" v="San Jose"/><tag k="addr:housenumber" v="766"/><tag k="addr:street" v="Tallent Avenue"/><tag k="addr:postcode" v="95127"/></node>
<node visible="true" id="-84" lat="37.389220273" lon="-121.82877318400001"><tag k="addr:city" v="San Jose"/><tag k="addr:housenumber" v="772"/><tag k="addr:street" v="Gordon Avenue"/><tag k="addr:postcode" v="95127"/></node>
<node visible="true" id="-85" lat="37.389272371000004" lon="-121.828439231"><tag k="addr:city" v="San Jose"/><tag k="addr:housenumber" v="780"/><tag k="addr:street" v="Gordon Avenue"/><tag k="addr:postcode" v="95127"/></node>
<node visible="true" id="-86" lat="37.390258667000005" lon="-121.82707351900001"><tag k="addr:city" v="San Jose"/><tag k="addr:housenumber" v="791"/><tag k="addr:street" v="Tallent Avenue"/><tag k="addr:postcode" v="95127"/></node>
<node visible="true" id="-87" lat="37.392162674000005" lon="-121.831937894"><tag k="addr:city" v="San Jose"/><tag k="addr:housenumber" v="12631"/><tag k="addr:street" v="Sheree Court"/><tag k="addr:postcode" v="95127"/></node>
<node visible="true" id="-88" lat="37.392284307000004" lon="-121.83207738600001"><tag k="addr:city" v="San Jose"/><tag k="addr:housenumber" v="12641"/><tag k="addr:street" v="Sheree Court"/><tag k="addr:postcode" v="95127"/></node>
<node visible="true" id="-89" lat="37.393076138000005" lon="-121.830780462"><tag k="addr:city" v="San Jose"/><tag k="addr:housenumber" v="12650"/><tag k="addr:street" v="Gina Court"/><tag k="addr:postcode" v="95127"/></node>
<node visible="true" id="-90" lat="37.393152853000004" lon="-121.831008112"><tag k="addr:city" v="San Jose"/><tag k="addr:housenumber" v="12660"/><tag k="addr:street" v="Gina Court"/><tag k="addr:postcode" v="95127"/></node>
<node visible="true" id="-91" lat="37.393018618" lon="-121.831276892"><tag k="addr:city" v="San Jose"/><tag k="addr:housenumber" v="12665"/><tag k="addr:street" v="Gina Court"/><tag k="addr:postcode" v="95127"/></node>
<node visible="true" id="-92" lat="37.390669316" lon="-121.832547914"><tag k="addr:city" v="San Jose"/><tag k="addr:housenumber" v="860"/><tag k="addr:street" v="Toyon Avenue"/><tag k="addr:postcode" v="95127"/></node>
<node visible="true" id="-93" lat="37.390818483000004" lon="-121.832676675"><tag k="addr:city" v="San Jose"/><tag k="addr:housenumber" v="880"/><tag k="addr:street" v="Toyon Avenue"/><tag k="addr:postcode" v="95127"/></node>
<node visible="true" id="-94" lat="37.391344267" lon="-121.83312625500001"><tag k="addr:city" v="San Jose"/><tag k="addr:housenumber" v="912"/><tag k="addr:street" v="Toyon Avenue"/><tag k="addr:postcode" v="95127"/></node>
<node visible="true" id="-95" lat="37.391606661000004" lon="-121.83330523400001"><tag k="addr:city" v="San Jose"/><tag k="addr:housenumber" v="920"/><tag k="addr:street" v="Toyon Avenue"/><tag k="addr:postcode" v="95127"/></node>
<node visible="true" id="-96" lat="37.392014246" lon="-121.833585884"><tag k="addr:city" v="San Jose"/><tag k="addr:housenumber" v="950"/><tag k="addr:street" v="Toyon Avenue"/><tag k="addr:postcode" v="95127"/></node>
<node visible="true" id="-97" lat="37.393197784" lon="-121.83163058000001"><tag k="addr:city" v="San Jose"/><tag k="addr:housenumber" v="15010"/><tag k="addr:street" v="Penitencia Creek Road"/><tag k="addr:postcode" v="95132"/></node>
<node visible="true" id="-98" lat="37.390787370000005" lon="-121.829955991"><tag k="addr:city" v="San Jose"/><tag k="addr:housenumber" v="15018"/><tag k="addr:street" v="San Pablo Avenue"/><tag k="addr:postcode" v="95127"/></node>
<node visible="true" id="-99" lat="37.391328197" lon="-121.82869385000001"><tag k="addr:city" v="San Jose"/><tag k="addr:housenumber" v="15102"/><tag k="addr:street" v="San Pablo Avenue"/><tag k="addr:postcode" v="95127"/></node>
<node visible="true" id="-100" lat="37.392772288" lon="-121.829320241"><tag k="addr:city" v="San Jose"/><tag k="addr:housenumber" v="15104"/><tag k="addr:street" v="Barbee Court"/><tag k="addr:postcode" v="95127"/></node>
<node visible="true" id="-101" lat="37.393584089" lon="-121.829632789"><tag k="addr:city" v="San Jose"/><tag k="addr:housenumber" v="15118"/><tag k="addr:street" v="Penitencia Creek Road"/><tag k="addr:postcode" v="95127"/></node>
<node visible="true" id="-102" lat="37.391505918" lon="-121.82826407900001"><tag k="addr:city" v="San Jose"/><tag k="addr:housenumber" v="15128"/><tag k="addr:street" v="San Pablo Avenue"/><tag k="addr:postcode" v="95127"/></node>
<node visible="true" id="-103" lat="37.390844103" lon="-121.827872325"><tag k="addr:city" v="San Jose"/><tag k="addr:housenumber" v="15132"/><tag k="addr:street" v="Joanne Avenue"/><tag k="addr:postcode" v="95127"/></node>
<node visible="true" id="-104" lat="37.391349793" lon="-121.82788565300001"><tag k="addr:city" v="San Jose"/><tag k="addr:housenumber" v="15149"/><tag k="addr:street" v="Joanne Avenue"/><tag k="addr:postcode" v="95127"/></node>
<node visible="true" id="-105" lat="37.392556372" lon="-121.83004904900001"><tag k="addr:city" v="San Jose"/><tag k="addr:housenumber" v="15166"/><tag k="addr:street" v="Freeman Avenue"/><tag k="addr:postcode" v="95127"/></node>
<node visible="true" id="-106" lat="37.388688494" lon="-121.81604232500001"><tag k="addr:city" v="San Jose"/><tag k="addr:housenumber" v="15920"/><tag k="addr:street" v="Alum Rock Avenue"/><tag k="addr:postcode" v="95127"/></node>
<node visible="true" id="-107" lat="37.392613003" lon="-121.83288594800001"><tag k="addr:city" v="San Jose"/><tag k="addr:housenumber" v="3552"/><tag k="addr:street" v="Penitencia Creek Road"/><tag k="addr:postcode" v="95132"/></node>
<node visible="true" id="-108" lat="37.392639616000004" lon="-121.832999419"><tag k="addr:city" v="San Jose"/><tag k="addr:housenumber" v="3554"/><tag k="addr:street" v="Penitencia Creek Road"/><tag k="addr:postcode" v="95132"/></node>
<node visible="true" id="-109" lat="37.392871696" lon="-121.83025994600001"><tag k="addr:city" v="San Jose"/><tag k="addr:housenumber" v="12631"/><tag k="addr:street" v="Tallent Avenue"/><tag k="addr:postcode" v="95127"/></node>
<node visible="true" id="-110" lat="37.392910166" lon="-121.83068724"><tag k="addr:city" v="San Jose"/><tag k="addr:housenumber" v="12640"/><tag k="addr:street" v="Gina Court"/><tag k="addr:postcode" v="95127"/></node>
<node visible="true" id="-111" lat="37.392500437" lon="-121.83153411100001"><tag k="addr:city" v="San Jose"/><tag k="addr:housenumber" v="12640"/><tag k="addr:street" v="Sheree Court"/><tag k="addr:postcode" v="95127"/></node>
<node visible="true" id="-112" lat="37.392653189" lon="-121.83121664100001"><tag k="addr:city" v="San Jose"/><tag k="addr:housenumber" v="12641"/><tag k="addr:street" v="Gina Court"/><tag k="addr:postcode" v="95127"/></node>
<node visible="true" id="-113" lat="37.392776408" lon="-121.831894101"><tag k="addr:city" v="San Jose"/><tag k="addr:housenumber" v="12660"/><tag k="addr:street" v="Sheree Court"/><tag k="addr:postcode" v="95127"/></node>
<node visible="true" id="-114" lat="37.392630728" lon="-121.83220309100001"><tag k="addr:city" v="San Jose"/><tag k="addr:housenumber" v="12661"/><tag k="addr:street" v="Sheree Court"/><tag k="addr:postcode" v="95127"/></node>
<node visible="true" id="-115" lat="37.391000185" lon="-121.832773071"><tag k="addr:city" v="San Jose"/><tag k="addr:housenumber" v="904"/><tag k="addr:street" v="Toyon Avenue"/><tag k="addr:postcode" v="95127"/></node>
<node visible="true" id="-116" lat="37.392244404" lon="-121.833650344"><tag k="addr:city" v="San Jose"/><tag k="addr:housenumber" v="960"/><tag k="addr:street" v="Toyon Avenue"/><tag k="addr:postcode" v="95127"/></node>
<node visible="true" id="-117" lat="37.390061521" lon="-121.831655041"><tag k="addr:city" v="San Jose"/><tag k="addr:housenumber" v="14908"/><tag k="addr:street" v="San Pablo Avenue"/><tag k="addr:postcode" v="95127"/></node>
<node visible="true" id="-118" lat="37.392412851" lon="-121.833762413"><tag k="addr:city" v="San Jose"/><tag k="addr:housenumber" v="14876"/><tag k="addr:street" v="Penitencia Creek Road"/><tag k="addr:postcode" v="95132"/></node>
<node visible="true" id="-119" lat="37.391378634000006" lon="-121.83211262900001"><tag k="addr:city" v="San Jose"/><tag k="addr:housenumber" v="14941"/><tag k="addr:street" v="Ridgetop Drive"/><tag k="addr:postcode" v="95127"/></node>
<node visible="true" id="-120" lat="37.391751566" lon="-121.830931362"><tag k="addr:city" v="San Jose"/><tag k="addr:housenumber" v="15001"/><tag k="addr:street" v="Ridgetop Drive"/><tag k="addr:postcode" v="95127"/></node>
<node visible="true" id="-121" lat="37.391416665" lon="-121.83041724"><tag k="addr:city" v="San Jose"/><tag k="addr:housenumber" v="15004"/><tag k="addr:street" v="Ridgetop Drive"/><tag k="addr:postcode" v="95127"/></node>
<node visible="true" id="-122" lat="37.394258366" lon="-121.82724068"><tag k="addr:city" v="San Jose"/><tag k="addr:housenumber" v="12500"/><tag k="addr:street" v="Poppy Lane"/><tag k="addr:postcode" v="95127"/></node>
<node visible="true" id="-123" lat="37.394154102" lon="-121.82576626500001"><tag k="addr:city" v="San Jose"/><tag k="addr:housenumber" v="12530"/><tag k="addr:street" v="Poppy Lane"/><tag k="addr:postcode" v="95127"/></node>
<node visible="true" id="-124" lat="37.394147956000005" lon="-121.82587566100001"><tag k="addr:city" v="San Jose"/><tag k="addr:housenumber" v="12535"/><tag k="addr:street" v="Poppy Lane"/><tag k="addr:postcode" v="95127"/></node>
<node visible="true" id="-125" lat="37.394617926" lon="-121.82714262100001"><tag k="addr:city" v="San Jose"/><tag k="addr:housenumber" v="12540"/><tag k="addr:street" v="Poppy Lane"/><tag k="addr:postcode" v="95127"/></node>
<node visible="true" id="-126" lat="37.393869412" lon="-121.827018878"><tag k="addr:city" v="San Jose"/><tag k="addr:housenumber" v="12640"/><tag k="addr:street" v="Poppy Lane"/><tag k="addr:postcode" v="95127"/></node>
<node visible="true" id="-127" lat="37.393390709" lon="-121.830064769"><tag k="addr:city" v="San Jose"/><tag k="addr:housenumber" v="12650"/><tag k="addr:street" v="Tallent Avenue"/><tag k="addr:postcode" v="95127"/></node>
<node visible="true" id="-128" lat="37.393315008" lon="-121.830607321"><tag k="addr:city" v="San Jose"/><tag k="addr:housenumber" v="12661"/><tag k="addr:street" v="Tallent Avenue"/><tag k="addr:postcode" v="95127"/></node>
<node visible="true" id="-129" lat="37.393327466" lon="-121.832331331"><tag k="addr:city" v="San Jose"/><tag k="addr:housenumber" v="14970"/><tag k="addr:street" v="Penitencia Creek Road"/><tag k="addr:postcode" v="95132"/></node>
<node visible="true" id="-130" lat="37.391964325000004" lon="-121.817804803"><tag k="addr:city" v="San Jose"/><tag k="addr:housenumber" v="11005"/><tag k="addr:street" v="Enchanto Vista Drive"/><tag k="addr:postcode" v="95127"/></node>
<node visible="true" id="-131" lat="37.393503221" lon="-121.831867715"><tag k="addr:city" v="San Jose"/><tag k="addr:housenumber" v="15000"/><tag k="addr:street" v="Penitencia Creek Road"/><tag k="addr:postcode" v="95132"/></node>
<node visible="true" id="-132" lat="37.393422589000004" lon="-121.831506145"><tag k="addr:city" v="San Jose"/><tag k="addr:housenumber" v="15020"/><tag k="addr:street" v="Penitencia Creek Road"/><tag k="addr:postcode" v="95132"/></node>
<node visible="true" id="-133" lat="37.393448611000004" lon="-121.83118348400001"><tag k="addr:city" v="San Jose"/><tag k="addr:housenumber" v="15030"/><tag k="addr:street" v="Penitencia Creek Road"/><tag k="addr:postcode" v="95132"/></node>
<node visible="true" id="-134" lat="37.393499796" lon="-121.830896523"><tag k="addr:city" v="San Jose"/><tag k="addr:housenumber" v="15040"/><tag k="addr:street" v="Penitencia Creek Road"/><tag k="addr:postcode" v="95132"/></node>
<node visible="true" id="-135" lat="37.393472528000004" lon="-121.829847344"><tag k="addr:city" v="San Jose"/><tag k="addr:housenumber" v="15104"/><tag k="addr:street" v="Penitencia Creek Road"/><tag k="addr:postcode" v="95132"/></node>
<node visible="true" id="-136" lat="37.393392599" lon="-121.829425576"><tag k="addr:city" v="San Jose"/><tag k="addr:housenumber" v="15119"/><tag k="addr:street" v="Barbee Court"/><tag k="addr:postcode" v="95127"/></node>
<node visible="true" id="-137" lat="37.386787105" lon="-121.829955049"><tag k="addr:city" v="San Jose"/><tag k="addr:housenumber" v="3954"/><tag k="addr:street" v="Golf Drive"/><tag k="addr:postcode" v="95127"/></node>
<node visible="true" id="-138" lat="37.386889056" lon="-121.82973042900001"><tag k="addr:city" v="San Jose"/><tag k="addr:housenumber" v="3966"/><tag k="addr:street" v="Golf Drive"/><tag k="addr:postcode" v="95127"/></node>
<node visible="true" id="-139" lat="37.387464177000005" lon="-121.82976380100001"><tag k="addr:city" v="San Jose"/><tag k="addr:housenumber" v="3967"/><tag k="addr:street" v="Golf Drive"/><tag k="addr:postcode" v="95127"/></node>
<node visible="true" id="-140" lat="37.387075045" lon="-121.82926947400001"><tag k="addr:city" v="San Jose"/><tag k="addr:housenumber" v="3972"/><tag k="addr:street" v="Golf Drive"/><tag k="addr:postcode" v="95127"/></node>
<node visible="true" id="-141" lat="37.389037548000005" lon="-121.82933163300001"><tag k="addr:city" v="San Jose"/><tag k="addr:housenumber" v="781"/><tag k="addr:street" v="Gordon Avenue"/><tag k="addr:postcode" v="95127"/></node>
<node visible="true" id="-142" lat="37.389037052" lon="-121.82986733300001"><tag k="addr:city" v="San Jose"/><tag k="addr:housenumber" v="3986"/><tag k="addr:street" v="Pepper Tree Lane"/><tag k="addr:postcode" v="95127"/></node>
<node visible="true" id="-143" lat="37.389135201" lon="-121.82963888600001"><tag k="addr:city" v="San Jose"/><tag k="addr:housenumber" v="3990"/><tag k="addr:street" v="Pepper Tree Lane"/><tag k="addr:postcode" v="95127"/></node>
<node visible="true" id="-144" lat="37.389585501" lon="-121.82992009700001"><tag k="addr:city" v="San Jose"/><tag k="addr:housenumber" v="3991"/><tag k="addr:street" v="Pepper Tree Lane"/><tag k="addr:postcode" v="95127"/></node>
<node visible="true" id="-145" lat="37.389698207" lon="-121.82966016700001"><tag k="addr:city" v="San Jose"/><tag k="addr:housenumber" v="3995"/><tag k="addr:street" v="Pepper Tree Lane"/><tag k="addr:postcode" v="95127"/></node>
<node visible="true" id="-146" lat="37.388156438" lon="-121.830703506"><tag k="addr:city" v="San Jose"/><tag k="addr:housenumber" v="770"/><tag k="addr:street" v="Toyon Avenue"/><tag k="addr:postcode" v="95127"/></node>
<node visible="true" id="-147" lat="37.388380107" lon="-121.83083888600001"><tag k="addr:city" v="San Jose"/><tag k="addr:housenumber" v="790"/><tag k="addr:street" v="Toyon Avenue"/><tag k="addr:postcode" v="95127"/></node>
<node visible="true" id="-148" lat="37.389646504000005" lon="-121.83185680300001"><tag k="addr:city" v="San Jose"/><tag k="addr:housenumber" v="14889"/><tag k="addr:street" v="Joanne Avenue"/><tag k="addr:postcode" v="95127"/></node>
<node visible="true" id="-149" lat="37.396265849" lon="-121.82598192"><tag k="addr:city" v="San Jose"/><tag k="addr:housenumber" v="15350"/><tag k="addr:street" v="Penitencia Creek Road"/><tag k="addr:postcode" v="95127"/></node>
<node visible="true" id="-150" lat="37.391556438" lon="-121.818095282"><tag k="addr:city" v="San Jose"/><tag k="addr:housenumber" v="11011"/><tag k="addr:street" v="Enchanto Vista Drive"/><tag k="addr:postcode" v="95127"/></node>
<node visible="true" id="-151" lat="37.389736967000005" lon="-121.818315673"><tag k="addr:city" v="San Jose"/><tag k="addr:housenumber" v="11037"/><tag k="addr:street" v="Canyon Drive"/><tag k="addr:postcode" v="95127"/></node>
<node visible="true" id="-152" lat="37.391099725000004" lon="-121.81857795200001"><tag k="addr:city" v="San Jose"/><tag k="addr:housenumber" v="11040"/><tag k="addr:street" v="Enchanto Vista Drive"/><tag k="addr:postcode" v="95127"/></node>
<node visible="true" id="-153" lat="37.389236961" lon="-121.81846867600001"><tag k="addr:city" v="San Jose"/><tag k="addr:housenumber" v="11050"/><tag k="addr:street" v="Canyon Drive"/><tag k="addr:postcode" v="95127"/></node>
<node visible="true" id="-154" lat="37.38979578" lon="-121.81891373500001"><tag k="addr:city" v="San Jose"/><tag k="addr:housenumber" v="11051"/><tag k="addr:street" v="Canyon Drive"/><tag k="addr:postcode" v="95127"/></node>
<node visible="true" id="-155" lat="37.392076451" lon="-121.81919234300001"><tag k="addr:city" v="San Jose"/><tag k="addr:housenumber" v="11081"/><tag k="addr:street" v="Enchanto Vista Drive"/><tag k="addr:postcode" v="95127"/></node>
<node visible="true" id="-156" lat="37.38895625" lon="-121.81921557800001"><tag k="addr:city" v="San Jose"/><tag k="addr:housenumber" v="11090"/><tag k="addr:street" v="Canyon Drive"/><tag k="addr:postcode" v="95127"/></node>
<node visible="true" id="-157" lat="37.391820191" lon="-121.81951127600001"><tag k="addr:city" v="San Jose"/><tag k="addr:housenumber" v="11101"/><tag k="addr:street" v="Enchanto Vista Drive"/><tag k="addr:postcode" v="95127"/></node>
<node visible="true" id="-158" lat="37.391872648" lon="-121.81988778600001"><tag k="addr:city" v="San Jose"/><tag k="addr:housenumber" v="11121"/><tag k="addr:street" v="Enchanto Vista Drive"/><tag k="addr:postcode" v="95127"/></node>
<node visible="true" id="-159" lat="37.391777949" lon="-121.82030675700001"><tag k="addr:city" v="San Jose"/><tag k="addr:housenumber" v="11159"/><tag k="addr:street" v="Enchanto Vista Drive"/><tag k="addr:postcode" v="95127"/></node>
<node visible="true" id="-160" lat="37.391345044000005" lon="-121.82057684600001"><tag k="addr:city" v="San Jose"/><tag k="addr:housenumber" v="11160"/><tag k="addr:street" v="Enchanto Vista Drive"/><tag k="addr:postcode" v="95127"/></node>
<node visible="true" id="-161" lat="37.391296368" lon="-121.82089679500001"><tag k="addr:city" v="San Jose"/><tag k="addr:housenumber" v="11180"/><tag k="addr:street" v="Enchanto Vista Drive"/><tag k="addr:postcode" v="95127"/></node>
<node visible="true" id="-162" lat="37.389342649" lon="-121.820190897"><tag k="addr:city" v="San Jose"/><tag k="addr:housenumber" v="11201"/><tag k="addr:street" v="Canyon Drive"/><tag k="addr:postcode" v="95127"/></node>
<node visible="true" id="-163" lat="37.389143533" lon="-121.820715788"><tag k="addr:city" v="San Jose"/><tag k="addr:housenumber" v="11225"/><tag k="addr:street" v="Canyon Drive"/><tag k="addr:postcode" v="95127"/></node>
<node visible="true" id="-164" lat="37.392115362000006" lon="-121.82235952900001"><tag k="addr:city" v="San Jose"/><tag k="addr:housenumber" v="11300"/><tag k="addr:street" v="Enchanto Vista Drive"/><tag k="addr:postcode" v="95127"/></node>
<node visible="true" id="-165" lat="37.392447439" lon="-121.82180182500001"><tag k="addr:city" v="San Jose"/><tag k="addr:housenumber" v="11301"/><tag k="addr:street" v="Enchanto Vista Drive"/><tag k="addr:postcode" v="95127"/></node>
<node visible="true" id="-166" lat="37.392645556000005" lon="-121.82208005000001"><tag k="addr:city" v="San Jose"/><tag k="addr:housenumber" v="11311"/><tag k="addr:street" v="Enchanto Vista Drive"/><tag k="addr:postcode" v="95127"/></node>
<node visible="true" id="-167" lat="37.392707913" lon="-121.822927343"><tag k="addr:city" v="San Jose"/><tag k="addr:housenumber" v="11340"/><tag k="addr:street" v="Enchanto Vista Drive"/><tag k="addr:postcode" v="95127"/></node>
<node visible="true" id="-168" lat="37.39314541" lon="-121.82234799000001"><tag k="addr:city" v="San Jose"/><tag k="addr:housenumber" v="11351"/><tag k="addr:street" v="Enchanto Vista Drive"/><tag k="addr:postcode" v="95127"/></node>
<node visible="true" id="-169" lat="37.393430176" lon="-121.82253948600001"><tag k="addr:city" v="San Jose"/><tag k="addr:housenumber" v="11371"/><tag k="addr:street" v="Enchanto Vista Drive"/><tag k="addr:postcode" v="95127"/></node>
<node visible="true" id="-170" lat="37.393286411000005" lon="-121.823479355"><tag k="addr:city" v="San Jose"/><tag k="addr:housenumber" v="11390"/><tag k="addr:street" v="Enchanto Vista Drive"/><tag k="addr:postcode" v="95127"/></node>
<node visible="true" id="-171" lat="37.393423888" lon="-121.823919864"><tag k="addr:city" v="San Jose"/><tag k="addr:housenumber" v="11410"/><tag k="addr:street" v="Enchanto Vista Drive"/><tag k="addr:postcode" v="95127"/></node>
<node visible="true" id="-172" lat="37.393877227000004" lon="-121.823343823"><tag k="addr:city" v="San Jose"/><tag k="addr:housenumber" v="11411"/><tag k="addr:street" v="Enchanto Vista Drive"/><tag k="addr:postcode" v="95127"/></node>
<node visible="true" id="-173" lat="37.394009254000004" lon="-121.823695212"><tag k="addr:city" v="San Jose"/><tag k="addr:housenumber" v="11425"/><tag k="addr:street" v="Enchanto Vista Drive"/><tag k="addr:postcode" v="95127"/></node>
<node visible="true" id="-174" lat="37.394177573" lon="-121.82409200200001"><tag k="addr:city" v="San Jose"/><tag k="addr:housenumber" v="11427"/><tag k="addr:street" v="Enchanto Vista Drive"/><tag k="addr:postcode" v="95127"/></node>
<node visible="true" id="-175" lat="37.393550256000005" lon="-121.82419792900001"><tag k="addr:city" v="San Jose"/><tag k="addr:housenumber" v="11430"/><tag k="addr:street" v="Enchanto Vista Drive"/><tag k="addr:postcode" v="95127"/></node>
<node visible="true" id="-176" lat="37.393680257" lon="-121.825134598"><tag k="addr:city" v="San Jose"/><tag k="addr:housenumber" v="11432"/><tag k="addr:street" v="Chula Vista Court"/><tag k="addr:postcode" v="95127"/></node>
<node visible="true" id="-177" lat="37.394061380000004" lon="-121.82477358300001"><tag k="addr:city" v="San Jose"/><tag k="addr:housenumber" v="11470"/><tag k="addr:street" v="Chula Vista Court"/><tag k="addr:postcode" v="95127"/></node>
<node visible="true" id="-178" lat="37.38788925" lon="-121.83074821100001"><tag k="addr:city" v="San Jose"/><tag k="addr:housenumber" v="3901"/><tag k="addr:street" v="Holly Drive"/><tag k="addr:postcode" v="95127"/></node>
<node visible="true" id="-179" lat="37.388490527" lon="-121.83113411100001"><tag k="addr:city" v="San Jose"/><tag k="addr:housenumber" v="3954"/><tag k="addr:street" v="Pepper Tree Lane"/><tag k="addr:postcode" v="95127"/></node>
<node visible="true" id="-180" lat="37.388967654000005" lon="-121.83143997100001"><tag k="addr:city" v="San Jose"/><tag k="addr:housenumber" v="3955"/><tag k="addr:street" v="Pepper Tree Lane"/><tag k="addr:postcode" v="95127"/></node>
<node visible="true" id="-181" lat="37.387602418" lon="-121.83035246200001"><tag k="addr:city" v="San Jose"/><tag k="addr:housenumber" v="3956"/><tag k="addr:street" v="Holly Drive"/><tag k="addr:postcode" v="95127"/></node>
<node visible="true" id="-182" lat="37.388005919" lon="-121.83042973600001"><tag k="addr:city" v="San Jose"/><tag k="addr:housenumber" v="3959"/><tag k="addr:street" v="Holly Drive"/><tag k="addr:postcode" v="95127"/></node>
<node visible="true" id="-183" lat="37.388059767" lon="-121.82925853200001"><tag k="addr:city" v="San Jose"/><tag k="addr:housenumber" v="3984"/><tag k="addr:street" v="Holly Drive"/><tag k="addr:postcode" v="95127"/></node>
<node visible="true" id="-184" lat="37.387387328" lon="-121.83002728700001"><tag k="addr:city" v="San Jose"/><tag k="addr:housenumber" v="3961"/><tag k="addr:street" v="Golf Drive"/><tag k="addr:postcode" v="95127"/></node>
<node visible="true" id="-185" lat="37.387728634000005" lon="-121.83004717000001"><tag k="addr:city" v="San Jose"/><tag k="addr:housenumber" v="3964"/><tag k="addr:street" v="Holly Drive"/><tag k="addr:postcode" v="95127"/></node>
<node visible="true" id="-186" lat="37.388719127" lon="-121.83063655800001"><tag k="addr:city" v="San Jose"/><tag k="addr:housenumber" v="3966"/><tag k="addr:street" v="Pepper Tree Lane"/><tag k="addr:postcode" v="95127"/></node>
<node visible="true" id="-187" lat="37.388141579" lon="-121.83008595300001"><tag k="addr:city" v="San Jose"/><tag k="addr:housenumber" v="3967"/><tag k="addr:street" v="Holly Drive"/><tag k="addr:postcode" v="95127"/></node>
<node visible="true" id="-188" lat="37.389163620000005" lon="-121.830896706"><tag k="addr:city" v="San Jose"/><tag k="addr:housenumber" v="3967"/><tag k="addr:street" v="Pepper Tree Lane"/><tag k="addr:postcode" v="95127"/></node>
<node visible="true" id="-189" lat="37.3877918" lon="-121.829888087"><tag k="addr:city" v="San Jose"/><tag k="addr:housenumber" v="3968"/><tag k="addr:street" v="Holly Drive"/><tag k="addr:postcode" v="95127"/></node>
<node visible="true" id="-190" lat="37.388213754" lon="-121.82996565200001"><tag k="addr:city" v="San Jose"/><tag k="addr:housenumber" v="3971"/><tag k="addr:street" v="Holly Drive"/><tag k="addr:postcode" v="95127"/></node>
<node visible="true" id="-191" lat="37.387849857" lon="-121.829728947"><tag k="addr:city" v="San Jose"/><tag k="addr:housenumber" v="3972"/><tag k="addr:street" v="Holly Drive"/><tag k="addr:postcode" v="95127"/></node>
<node visible="true" id="-192" lat="37.388818937" lon="-121.830402222"><tag k="addr:city" v="San Jose"/><tag k="addr:housenumber" v="3972"/><tag k="addr:street" v="Pepper Tree Lane"/><tag k="addr:postcode" v="95127"/></node>
<node visible="true" id="-193" lat="37.38757942" lon="-121.82952237500001"><tag k="addr:city" v="San Jose"/><tag k="addr:housenumber" v="3973"/><tag k="addr:street" v="Golf Drive"/><tag k="addr:postcode" v="95127"/></node>
<node visible="true" id="-194" lat="37.387186159" lon="-121.82903368900001"><tag k="addr:city" v="San Jose"/><tag k="addr:housenumber" v="3978"/><tag k="addr:street" v="Golf Drive"/><tag k="addr:postcode" v="95127"/></node>
<node visible="true" id="-195" lat="37.387684302000004" lon="-121.82929357"><tag k="addr:city" v="San Jose"/><tag k="addr:housenumber" v="3979"/><tag k="addr:street" v="Golf Drive"/><tag k="addr:postcode" v="95127"/></node>
<node visible="true" id="-196" lat="37.389369120000005" lon="-121.83039653200001"><tag k="addr:city" v="San Jose"/><tag k="addr:housenumber" v="3979"/><tag k="addr:street" v="Pepper Tree Lane"/><tag k="addr:postcode" v="95127"/></node>
<node visible="true" id="-197" lat="37.387970092" lon="-121.82950041500001"><tag k="addr:city" v="San Jose"/><tag k="addr:housenumber" v="3980"/><tag k="addr:street" v="Holly Drive"/><tag k="addr:postcode" v="95127"/></node>
<node visible="true" id="-198" lat="37.388427552" lon="-121.82959575400001"><tag k="addr:city" v="San Jose"/><tag k="addr:housenumber" v="3983"/><tag k="addr:street" v="Holly Drive"/><tag k="addr:postcode" v="95127"/></node>
<node visible="true" id="-199" lat="37.387288136" lon="-121.82880903200001"><tag k="addr:city" v="San Jose"/><tag k="addr:housenumber" v="3984"/><tag k="addr:street" v="Golf Drive"/><tag k="addr:postcode" v="95127"/></node>
<node visible="true" id="-200" lat="37.388931876" lon="-121.83014619000001"><tag k="addr:city" v="San Jose"/><tag k="addr:housenumber" v="3984"/><tag k="addr:street" v="Pepper Tree Lane"/><tag k="addr:postcode" v="95127"/></node>
<node visible="true" id="-201" lat="37.387786278" lon="-121.829022992"><tag k="addr:city" v="San Jose"/><tag k="addr:housenumber" v="3985"/><tag k="addr:street" v="Golf Drive"/><tag k="addr:postcode" v="95127"/></node>
<node visible="true" id="-202" lat="37.389486332000004" lon="-121.83016563400001"><tag k="addr:city" v="San Jose"/><tag k="addr:housenumber" v="3985"/><tag k="addr:street" v="Pepper Tree Lane"/><tag k="addr:postcode" v="95127"/></node>
<node visible="true" id="-203" lat="37.388489312000004" lon="-121.82937168500001"><tag k="addr:city" v="San Jose"/><tag k="addr:housenumber" v="3987"/><tag k="addr:street" v="Holly Drive"/><tag k="addr:postcode" v="95127"/></node>
<node visible="true" id="-204" lat="37.388159105" lon="-121.829068077"><tag k="addr:city" v="San Jose"/><tag k="addr:housenumber" v="3988"/><tag k="addr:street" v="Holly Drive"/><tag k="addr:postcode" v="95127"/></node>
<node visible="true" id="-205" lat="37.387491907000005" lon="-121.828371039"><tag k="addr:city" v="San Jose"/><tag k="addr:housenumber" v="3992"/><tag k="addr:street" v="Golf Drive"/><tag k="addr:postcode" v="95127"/></node>
<node visible="true" id="-206" lat="37.38864671" lon="-121.829072623"><tag k="addr:city" v="San Jose"/><tag k="addr:housenumber" v="3995"/><tag k="addr:street" v="Holly Drive"/><tag k="addr:postcode" v="95127"/></node>
<node visible="true" id="-207" lat="37.387593754" lon="-121.82815773700001"><tag k="addr:city" v="San Jose"/><tag k="addr:housenumber" v="3996"/><tag k="addr:street" v="Golf Drive"/><tag k="addr:postcode" v="95127"/></node>
<node visible="true" id="-208" lat="37.388253598000006" lon="-121.828851923"><tag k="addr:city" v="San Jose"/><tag k="addr:housenumber" v="3996"/><tag k="addr:street" v="Holly Drive"/><tag k="addr:postcode" v="95127"/></node>
<node visible="true" id="-209" lat="37.387996593000004" lon="-121.828514165"><tag k="addr:city" v="San Jose"/><tag k="addr:housenumber" v="3997"/><tag k="addr:street" v="Golf Drive"/><tag k="addr:postcode" v="95127"/></node>
<node visible="true" id="-210" lat="37.388728910000005" lon="-121.82897174400001"><tag k="addr:city" v="San Jose"/><tag k="addr:housenumber" v="3999"/><tag k="addr:street" v="Holly Drive"/><tag k="addr:postcode" v="95127"/></node>
<node visible="true" id="-211" lat="37.387696088000006" lon="-121.827899109"><tag k="addr:city" v="San Jose"/><tag k="addr:housenumber" v="4000"/><tag k="addr:street" v="Golf Drive"/><tag k="addr:postcode" v="95127"/></node>
<node visible="true" id="-212" lat="37.38843262" lon="-121.82826832"><tag k="addr:city" v="San Jose"/><tag k="addr:housenumber" v="4000"/><tag k="addr:street" v="Holly Drive"/><tag k="addr:postcode" v="95127"/></node>
<node visible="true" id="-213" lat="37.388891027" lon="-121.82858102300001"><tag k="addr:city" v="San Jose"/><tag k="addr:housenumber" v="4001"/><tag k="addr:street" v="Holly Drive"/><tag k="addr:postcode" v="95127"/></node>
<node visible="true" id="-214" lat="37.389820514" lon="-121.82941342100001"><tag k="addr:city" v="San Jose"/><tag k="addr:housenumber" v="4003"/><tag k="addr:street" v="Pepper Tree Lane"/><tag k="addr:postcode" v="95127"/></node>
<node visible="true" id="-215" lat="37.388311814000005" lon="-121.82790007400001"><tag k="addr:city" v="San Jose"/><tag k="addr:housenumber" v="4011"/><tag k="addr:street" v="Golf Drive"/><tag k="addr:postcode" v="95127"/></node>
<node visible="true" id="-216" lat="37.389503242" lon="-121.828760973"><tag k="addr:city" v="San Jose"/><tag k="addr:housenumber" v="4012"/><tag k="addr:street" v="Pepper Tree Lane"/><tag k="addr:postcode" v="95127"/></node>
<node visible="true" id="-217" lat="37.388361076" lon="-121.827612614"><tag k="addr:city" v="San Jose"/><tag k="addr:housenumber" v="4013"/><tag k="addr:street" v="Golf Drive"/><tag k="addr:postcode" v="95127"/></node>
<node visible="true" id="-218" lat="37.389905898" lon="-121.82914797800001"><tag k="addr:city" v="San Jose"/><tag k="addr:housenumber" v="4013"/><tag k="addr:street" v="Pepper Tree Lane"/><tag k="addr:postcode" v="95127"/></node>
<node visible="true" id="-219" lat="37.387761924" lon="-121.827673805"><tag k="addr:city" v="San Jose"/><tag k="addr:housenumber" v="4018"/><tag k="addr:street" v="Golf Drive"/><tag k="addr:postcode" v="95127"/></node>
<node visible="true" id="-220" lat="37.388651556" lon="-121.827885734"><tag k="addr:city" v="San Jose"/><tag k="addr:housenumber" v="4022"/><tag k="addr:street" v="Holly Drive"/><tag k="addr:postcode" v="95127"/></node>
<node visible="true" id="-221" lat="37.389024992" lon="-121.82816329200001"><tag k="addr:city" v="San Jose"/><tag k="addr:housenumber" v="4023"/><tag k="addr:street" v="Holly Drive"/><tag k="addr:postcode" v="95127"/></node>
<node visible="true" id="-222" lat="37.389627283" lon="-121.82856241600001"><tag k="addr:city" v="San Jose"/><tag k="addr:housenumber" v="4024"/><tag k="addr:street" v="Pepper Tree Lane"/><tag k="addr:postcode" v="95127"/></node>
<node visible="true" id="-223" lat="37.389496308000005" lon="-121.82818017800001"><tag k="addr:city" v="San Jose"/><tag k="addr:housenumber" v="4025"/><tag k="addr:street" v="Holly Drive"/><tag k="addr:postcode" v="95127"/></node>
<node visible="true" id="-224" lat="37.39002858" lon="-121.828919068"><tag k="addr:city" v="San Jose"/><tag k="addr:housenumber" v="4025"/><tag k="addr:street" v="Pepper Tree Lane"/><tag k="addr:postcode" v="95127"/></node>
<node visible="true" id="-225" lat="37.389308343" lon="-121.82803153100001"><tag k="addr:city" v="San Jose"/><tag k="addr:housenumber" v="4027"/><tag k="addr:street" v="Holly Drive"/><tag k="addr:postcode" v="95127"/></node>
<node visible="true" id="-226" lat="37.387836637" lon="-121.82746002"><tag k="addr:city" v="San Jose"/><tag k="addr:housenumber" v="4028"/><tag k="addr:street" v="Golf Drive"/><tag k="addr:postcode" v="95127"/></node>
<node visible="true" id="-227" lat="37.388724818" lon="-121.827739668"><tag k="addr:city" v="San Jose"/><tag k="addr:housenumber" v="4028"/><tag k="addr:street" v="Holly Drive"/><tag k="addr:postcode" v="95127"/></node>
<node visible="true" id="-228" lat="37.388486197" lon="-121.827403407"><tag k="addr:city" v="San Jose"/><tag k="addr:housenumber" v="4029"/><tag k="addr:street" v="Golf Drive"/><tag k="addr:postcode" v="95127"/></node>
<node visible="true" id="-229" lat="37.388787980000004" lon="-121.82758061400001"><tag k="addr:city" v="San Jose"/><tag k="addr:housenumber" v="4034"/><tag k="addr:street" v="Holly Drive"/><tag k="addr:postcode" v="95127"/></node>
<node visible="true" id="-230" lat="37.389112858000004" lon="-121.827908015"><tag k="addr:city" v="San Jose"/><tag k="addr:housenumber" v="4035"/><tag k="addr:street" v="Holly Drive"/><tag k="addr:postcode" v="95127"/></node>
<node visible="true" id="-231" lat="37.387884375000006" lon="-121.827234395"><tag k="addr:city" v="San Jose"/><tag k="addr:housenumber" v="4036"/><tag k="addr:street" v="Golf Drive"/><tag k="addr:postcode" v="95127"/></node>
<node visible="true" id="-232" lat="37.389694236000004" lon="-121.828345217"><tag k="addr:city" v="San Jose"/><tag k="addr:housenumber" v="4036"/><tag k="addr:street" v="Pepper Tree Lane"/><tag k="addr:postcode" v="95127"/></node>
<node visible="true" id="-233" lat="37.388596400000004" lon="-121.827155481"><tag k="addr:city" v="San Jose"/><tag k="addr:housenumber" v="4037"/><tag k="addr:street" v="Golf Drive"/><tag k="addr:postcode" v="95127"/></node>
<node visible="true" id="-234" lat="37.390129253000005" lon="-121.828661572"><tag k="addr:city" v="San Jose"/><tag k="addr:housenumber" v="4037"/><tag k="addr:street" v="Pepper Tree Lane"/><tag k="addr:postcode" v="95127"/></node>
<node visible="true" id="-235" lat="37.388866349000004" lon="-121.82743463800001"><tag k="addr:city" v="San Jose"/><tag k="addr:housenumber" v="4042"/><tag k="addr:street" v="Holly Drive"/><tag k="addr:postcode" v="95127"/></node>
<node visible="true" id="-236" lat="37.389283126" lon="-121.82773430900001"><tag k="addr:city" v="San Jose"/><tag k="addr:housenumber" v="4043"/><tag k="addr:street" v="Holly Drive"/><tag k="addr:postcode" v="95127"/></node>
<node visible="true" id="-237" lat="37.387941403" lon="-121.826986285"><tag k="addr:city" v="San Jose"/><tag k="addr:housenumber" v="4046"/><tag k="addr:street" v="Golf Drive"/><tag k="addr:postcode" v="95127"/></node>
<node visible="true" id="-238" lat="37.388559176" lon="-121.82682803300001"><tag k="addr:city" v="San Jose"/><tag k="addr:housenumber" v="4047"/><tag k="addr:street" v="Golf Drive"/><tag k="addr:postcode" v="95127"/></node>
<node visible="true" id="-239" lat="37.388944645" lon="-121.82729506300001"><tag k="addr:city" v="San Jose"/><tag k="addr:housenumber" v="4048"/><tag k="addr:street" v="Holly Drive"/><tag k="addr:postcode" v="95127"/></node>
<node visible="true" id="-240" lat="37.389805415000005" lon="-121.82814230000001"><tag k="addr:city" v="San Jose"/><tag k="addr:housenumber" v="4048"/><tag k="addr:street" v="Pepper Tree Lane"/><tag k="addr:postcode" v="95127"/></node>
<node visible="true" id="-241" lat="37.390270120000004" lon="-121.82841050500001"><tag k="addr:city" v="San Jose"/><tag k="addr:housenumber" v="4049"/><tag k="addr:street" v="Pepper Tree Lane"/><tag k="addr:postcode" v="95127"/></node>
<node visible="true" id="-242" lat="37.387980103000004" lon="-121.82676053300001"><tag k="addr:city" v="San Jose"/><tag k="addr:housenumber" v="4050"/><tag k="addr:street" v="Golf Drive"/><tag k="addr:postcode" v="95127"/></node>
<node visible="true" id="-243" lat="37.388027867000005" lon="-121.82653490800001"><tag k="addr:city" v="San Jose"/><tag k="addr:housenumber" v="4056"/><tag k="addr:street" v="Golf Drive"/><tag k="addr:postcode" v="95127"/></node>
<node visible="true" id="-244" lat="37.389007735" lon="-121.827142412"><tag k="addr:city" v="San Jose"/><tag k="addr:housenumber" v="4056"/><tag k="addr:street" v="Holly Drive"/><tag k="addr:postcode" v="95127"/></node>
<node visible="true" id="-245" lat="37.388628489000006" lon="-121.82657938000001"><tag k="addr:city" v="San Jose"/><tag k="addr:housenumber" v="4057"/><tag k="addr:street" v="Golf Drive"/><tag k="addr:postcode" v="95127"/></node>
<node visible="true" id="-246" lat="37.389404363000004" lon="-121.82741198000001"><tag k="addr:city" v="San Jose"/><tag k="addr:housenumber" v="4057"/><tag k="addr:street" v="Holly Drive"/><tag k="addr:postcode" v="95127"/></node>
<node visible="true" id="-247" lat="37.389872688000004" lon="-121.82789922"><tag k="addr:city" v="San Jose"/><tag k="addr:housenumber" v="4058"/><tag k="addr:street" v="Pepper Tree Lane"/><tag k="addr:postcode" v="95127"/></node>
<node visible="true" id="-248" lat="37.390362924" lon="-121.828137205"><tag k="addr:city" v="San Jose"/><tag k="addr:housenumber" v="4061"/><tag k="addr:street" v="Pepper Tree Lane"/><tag k="addr:postcode" v="95127"/></node>
<node visible="true" id="-249" lat="37.389982691" lon="-121.82770536800001"><tag k="addr:city" v="San Jose"/><tag k="addr:housenumber" v="4064"/><tag k="addr:street" v="Pepper Tree Lane"/><tag k="addr:postcode" v="95127"/></node>
<node visible="true" id="-250" lat="37.388075731" lon="-121.82629795800001"><tag k="addr:city" v="San Jose"/><tag k="addr:housenumber" v="4066"/><tag k="addr:street" v="Golf Drive"/><tag k="addr:postcode" v="95127"/></node>
<node visible="true" id="-251" lat="37.389086103000004" lon="-121.82699643400001"><tag k="addr:city" v="San Jose"/><tag k="addr:housenumber" v="4066"/><tag k="addr:street" v="Holly Drive"/><tag k="addr:postcode" v="95127"/></node>
<node visible="true" id="-252" lat="37.388576748000006" lon="-121.82629449800001"><tag k="addr:city" v="San Jose"/><tag k="addr:housenumber" v="4067"/><tag k="addr:street" v="Golf Drive"/><tag k="addr:postcode" v="95127"/></node>
<node visible="true" id="-253" lat="37.390101509000004" lon="-121.82753611400001"><tag k="addr:city" v="San Jose"/><tag k="addr:housenumber" v="4072"/><tag k="addr:street" v="Pepper Tree Lane"/><tag k="addr:postcode" v="95127"/></node>
<node visible="true" id="-254" lat="37.390467686" lon="-121.82792849100001"><tag k="addr:city" v="San Jose"/><tag k="addr:housenumber" v="4073"/><tag k="addr:street" v="Pepper Tree Lane"/><tag k="addr:postcode" v="95127"/></node>
<node visible="true" id="-255" lat="37.389494832000004" lon="-121.827092339"><tag k="addr:city" v="San Jose"/><tag k="addr:housenumber" v="4075"/><tag k="addr:street" v="Holly Drive"/><tag k="addr:postcode" v="95127"/></node>
<node visible="true" id="-256" lat="37.38804726" lon="-121.82601500700001"><tag k="addr:city" v="San Jose"/><tag k="addr:housenumber" v="4076"/><tag k="addr:street" v="Golf Drive"/><tag k="addr:postcode" v="95127"/></node>
<node visible="true" id="-257" lat="37.38857868" lon="-121.825980345"><tag k="addr:city" v="San Jose"/><tag k="addr:housenumber" v="4077"/><tag k="addr:street" v="Golf Drive"/><tag k="addr:postcode" v="95127"/></node>
<node visible="true" id="-258" lat="37.388024841000004" lon="-121.82577742900001"><tag k="addr:city" v="San Jose"/><tag k="addr:housenumber" v="4080"/><tag k="addr:street" v="Golf Drive"/><tag k="addr:postcode" v="95127"/></node>
<node visible="true" id="-259" lat="37.389202283" lon="-121.82667170900001"><tag k="addr:city" v="San Jose"/><tag k="addr:housenumber" v="4080"/><tag k="addr:street" v="Holly Drive"/><tag k="addr:postcode" v="95127"/></node>
<node visible="true" id="-260" lat="37.38956685" lon="-121.826920121"><tag k="addr:city" v="San Jose"/><tag k="addr:housenumber" v="4083"/><tag k="addr:street" v="Holly Drive"/><tag k="addr:postcode" v="95127"/></node>
<node visible="true" id="-261" lat="37.390170932000004" lon="-121.82729468800001"><tag k="addr:city" v="San Jose"/><tag k="addr:housenumber" v="4084"/><tag k="addr:street" v="Pepper Tree Lane"/><tag k="addr:postcode" v="95127"/></node>
<node visible="true" id="-262" lat="37.390582185" lon="-121.82766514500001"><tag k="addr:city" v="San Jose"/><tag k="addr:housenumber" v="4085"/><tag k="addr:street" v="Pepper Tree Lane"/><tag k="addr:postcode" v="95127"/></node>
<node visible="true" id="-263" lat="37.389265326" lon="-121.82652545900001"><tag k="addr:city" v="San Jose"/><tag k="addr:housenumber" v="4088"/><tag k="addr:street" v="Holly Drive"/><tag k="addr:postcode" v="95127"/></node>
<node visible="true" id="-264" lat="37.388123292" lon="-121.82550457800001"><tag k="addr:city" v="San Jose"/><tag k="addr:housenumber" v="4090"/><tag k="addr:street" v="Golf Drive"/><tag k="addr:postcode" v="95127"/></node>
<node visible="true" id="-265" lat="37.389327981" lon="-121.826411249"><tag k="addr:city" v="San Jose"/><tag k="addr:housenumber" v="4096"/><tag k="addr:street" v="Holly Drive"/><tag k="addr:postcode" v="95127"/></node>
<node visible="true" id="-266" lat="37.389711101" lon="-121.826682813"><tag k="addr:city" v="San Jose"/><tag k="addr:housenumber" v="4097"/><tag k="addr:street" v="Holly Drive"/><tag k="addr:postcode" v="95127"/></node>
<node visible="true" id="-267" lat="37.390694765" lon="-121.827406275"><tag k="addr:city" v="San Jose"/><tag k="addr:housenumber" v="4097"/><tag k="addr:street" v="Pepper Tree Lane"/><tag k="addr:postcode" v="95127"/></node>
<node visible="true" id="-268" lat="37.388100431000005" lon="-121.825225684"><tag k="addr:city" v="San Jose"/><tag k="addr:housenumber" v="4100"/><tag k="addr:street" v="Golf Drive"/><tag k="addr:postcode" v="95127"/></node>
<node visible="true" id="-269" lat="37.389488885000006" lon="-121.82598610900001"><tag k="addr:city" v="San Jose"/><tag k="addr:housenumber" v="4100"/><tag k="addr:street" v="Holly Drive"/><tag k="addr:postcode" v="95127"/></node>
<node visible="true" id="-270" lat="37.38982265" lon="-121.82630846500001"><tag k="addr:city" v="San Jose"/><tag k="addr:housenumber" v="4101"/><tag k="addr:street" v="Holly Drive"/><tag k="addr:postcode" v="95127"/></node>
<node visible="true" id="-271" lat="37.390856946" lon="-121.82693660500001"><tag k="addr:city" v="San Jose"/><tag k="addr:housenumber" v="4101"/><tag k="addr:street" v="Pepper Tree Lane"/><tag k="addr:postcode" v="95127"/></node>
<node visible="true" id="-272" lat="37.389925722" lon="-121.826151667"><tag k="addr:city" v="San Jose"/><tag k="addr:housenumber" v="4107"/><tag k="addr:street" v="Holly Drive"/><tag k="addr:postcode" v="95127"/></node>
<node visible="true" id="-273" lat="37.389587258" lon="-121.825725093"><tag k="addr:city" v="San Jose"/><tag k="addr:housenumber" v="4110"/><tag k="addr:street" v="Holly Drive"/><tag k="addr:postcode" v="95127"/></node>
<node visible="true" id="-274" lat="37.389048917000004" lon="-121.825285682"><tag k="addr:city" v="San Jose"/><tag k="addr:housenumber" v="4110"/><tag k="addr:street" v="Regal Court"/><tag k="addr:postcode" v="95127"/></node>
<node visible="true" id="-275" lat="37.390582724000005" lon="-121.82641084900001"><tag k="addr:city" v="San Jose"/><tag k="addr:housenumber" v="4112"/><tag k="addr:street" v="Pepper Tree Lane"/><tag k="addr:postcode" v="95127"/></node>
<node visible="true" id="-276" lat="37.390923136000005" lon="-121.826677355"><tag k="addr:city" v="San Jose"/><tag k="addr:housenumber" v="4113"/><tag k="addr:street" v="Pepper Tree Lane"/><tag k="addr:postcode" v="95127"/></node>
<node visible="true" id="-277" lat="37.388667511" lon="-121.82506634600001"><tag k="addr:city" v="San Jose"/><tag k="addr:housenumber" v="4115"/><tag k="addr:street" v="Golf Drive"/><tag k="addr:postcode" v="95127"/></node>
<node visible="true" id="-278" lat="37.38821627" lon="-121.82466329100001"><tag k="addr:city" v="San Jose"/><tag k="addr:housenumber" v="4120"/><tag k="addr:street" v="Golf Drive"/><tag k="addr:postcode" v="95127"/></node>
<node visible="true" id="-279" lat="37.389661228" lon="-121.82557920800001"><tag k="addr:city" v="San Jose"/><tag k="addr:housenumber" v="4120"/><tag k="addr:street" v="Holly Drive"/><tag k="addr:postcode" v="95127"/></node>
<node visible="true" id="-280" lat="37.389067893" lon="-121.82497485900001"><tag k="addr:city" v="San Jose"/><tag k="addr:housenumber" v="4120"/><tag k="addr:street" v="Regal Court"/><tag k="addr:postcode" v="95127"/></node>
<node visible="true" id="-281" lat="37.389982931000006" lon="-121.82590196800001"><tag k="addr:city" v="San Jose"/><tag k="addr:housenumber" v="4121"/><tag k="addr:street" v="Holly Drive"/><tag k="addr:postcode" v="95127"/></node>
<node visible="true" id="-282" lat="37.38943942" lon="-121.82521292000001"><tag k="addr:city" v="San Jose"/><tag k="addr:housenumber" v="4121"/><tag k="addr:street" v="Regal Court"/><tag k="addr:postcode" v="95127"/></node>
<node visible="true" id="-283" lat="37.390702612000005" lon="-121.82619782200001"><tag k="addr:city" v="San Jose"/><tag k="addr:housenumber" v="4124"/><tag k="addr:street" v="Pepper Tree Lane"/><tag k="addr:postcode" v="95127"/></node>
<node visible="true" id="-284" lat="37.391043179" lon="-121.826453004"><tag k="addr:city" v="San Jose"/><tag k="addr:housenumber" v="4127"/><tag k="addr:street" v="Pepper Tree Lane"/><tag k="addr:postcode" v="95127"/></node>
<node visible="true" id="-285" lat="37.390270414" lon="-121.82605427300001"><tag k="addr:city" v="San Jose"/><tag k="addr:housenumber" v="4129"/><tag k="addr:street" v="Holly Drive"/><tag k="addr:postcode" v="95127"/></node>
<node visible="true" id="-286" lat="37.390178194" lon="-121.82541853100001"><tag k="addr:city" v="San Jose"/><tag k="addr:housenumber" v="4130"/><tag k="addr:street" v="Holly Drive"/><tag k="addr:postcode" v="95127"/></node>
<node visible="true" id="-287" lat="37.389146610000005" lon="-121.82473211800001"><tag k="addr:city" v="San Jose"/><tag k="addr:housenumber" v="4130"/><tag k="addr:street" v="Regal Court"/><tag k="addr:postcode" v="95127"/></node>
<node visible="true" id="-288" lat="37.389532072" lon="-121.82501073600001"><tag k="addr:city" v="San Jose"/><tag k="addr:housenumber" v="4131"/><tag k="addr:street" v="Regal Court"/><tag k="addr:postcode" v="95127"/></node>
<node visible="true" id="-289" lat="37.389775706" lon="-121.82527110900001"><tag k="addr:city" v="San Jose"/><tag k="addr:housenumber" v="4134"/><tag k="addr:street" v="Holly Drive"/><tag k="addr:postcode" v="95127"/></node>
<node visible="true" id="-290" lat="37.390451909" lon="-121.82598954000001"><tag k="addr:city" v="San Jose"/><tag k="addr:housenumber" v="4135"/><tag k="addr:street" v="Holly Drive"/><tag k="addr:postcode" v="95127"/></node>
<node visible="true" id="-291" lat="37.39078687" lon="-121.82593889300001"><tag k="addr:city" v="San Jose"/><tag k="addr:housenumber" v="4136"/><tag k="addr:street" v="Pepper Tree Lane"/><tag k="addr:postcode" v="95127"/></node>
<node visible="true" id="-292" lat="37.391163322000004" lon="-121.826217329"><tag k="addr:city" v="San Jose"/><tag k="addr:housenumber" v="4137"/><tag k="addr:street" v="Pepper Tree Lane"/><tag k="addr:postcode" v="95127"/></node>
<node visible="true" id="-293" lat="37.388424996000005" lon="-121.824196075"><tag k="addr:city" v="San Jose"/><tag k="addr:housenumber" v="4140"/><tag k="addr:street" v="Golf Drive"/><tag k="addr:postcode" v="95127"/></node>
<node visible="true" id="-294" lat="37.389885687" lon="-121.82503270800001"><tag k="addr:city" v="San Jose"/><tag k="addr:housenumber" v="4140"/><tag k="addr:street" v="Holly Drive"/><tag k="addr:postcode" v="95127"/></node>
<node visible="true" id="-295" lat="37.389239389000004" lon="-121.824518646"><tag k="addr:city" v="San Jose"/><tag k="addr:housenumber" v="4140"/><tag k="addr:street" v="Regal Court"/><tag k="addr:postcode" v="95127"/></node>
<node visible="true" id="-296" lat="37.389625135" lon="-121.824774583"><tag k="addr:city" v="San Jose"/><tag k="addr:housenumber" v="4141"/><tag k="addr:street" v="Regal Court"/><tag k="addr:postcode" v="95127"/></node>
<node visible="true" id="-297" lat="37.38890388" lon="-121.82438191800001"><tag k="addr:city" v="San Jose"/><tag k="addr:housenumber" v="4145"/><tag k="addr:street" v="Golf Drive"/><tag k="addr:postcode" v="95127"/></node>
<node visible="true" id="-298" lat="37.391299161" lon="-121.825965855"><tag k="addr:city" v="San Jose"/><tag k="addr:housenumber" v="4147"/><tag k="addr:street" v="Pepper Tree Lane"/><tag k="addr:postcode" v="95127"/></node>
<node visible="true" id="-299" lat="37.390871028" lon="-121.825691253"><tag k="addr:city" v="San Jose"/><tag k="addr:housenumber" v="4148"/><tag k="addr:street" v="Pepper Tree Lane"/><tag k="addr:postcode" v="95127"/></node>
<node visible="true" id="-300" lat="37.38934133" lon="-121.82429397700001"><tag k="addr:city" v="San Jose"/><tag k="addr:housenumber" v="4150"/><tag k="addr:street" v="Regal Court"/><tag k="addr:postcode" v="95127"/></node>
<node visible="true" id="-301" lat="37.391432419000004" lon="-121.825656155"><tag k="addr:city" v="San Jose"/><tag k="addr:housenumber" v="4151"/><tag k="addr:street" v="Pepper Tree Lane"/><tag k="addr:postcode" v="95127"/></node>
<node visible="true" id="-302" lat="37.389726693" lon="-121.824583883"><tag k="addr:city" v="San Jose"/><tag k="addr:housenumber" v="4151"/><tag k="addr:street" v="Regal Court"/><tag k="addr:postcode" v="95127"/></node>
<node visible="true" id="-303" lat="37.389003002" lon="-121.82416852600001"><tag k="addr:city" v="San Jose"/><tag k="addr:housenumber" v="4155"/><tag k="addr:street" v="Golf Drive"/><tag k="addr:postcode" v="95127"/></node>
<node visible="true" id="-304" lat="37.390528155000005" lon="-121.825639863"><tag k="addr:city" v="San Jose"/><tag k="addr:housenumber" v="4155"/><tag k="addr:street" v="Holly Drive"/><tag k="addr:postcode" v="95127"/></node>
<node visible="true" id="-305" lat="37.388641606" lon="-121.823721421"><tag k="addr:city" v="San Jose"/><tag k="addr:housenumber" v="4160"/><tag k="addr:street" v="Golf Drive"/><tag k="addr:postcode" v="95127"/></node>
<node visible="true" id="-306" lat="37.390019845000005" lon="-121.82480595800001"><tag k="addr:city" v="San Jose"/><tag k="addr:housenumber" v="4160"/><tag k="addr:street" v="Holly Drive"/><tag k="addr:postcode" v="95127"/></node>
<node visible="true" id="-307" lat="37.391111976000005" lon="-121.825163317"><tag k="addr:city" v="San Jose"/><tag k="addr:housenumber" v="4160"/><tag k="addr:street" v="Pepper Tree Lane"/><tag k="addr:postcode" v="95127"/></node>
<node visible="true" id="-308" lat="37.389407670000004" lon="-121.82402340700001"><tag k="addr:city" v="San Jose"/><tag k="addr:housenumber" v="4160"/><tag k="addr:street" v="Regal Court"/><tag k="addr:postcode" v="95127"/></node>
<node visible="true" id="-309" lat="37.38909692" lon="-121.823941613"><tag k="addr:city" v="San Jose"/><tag k="addr:housenumber" v="4165"/><tag k="addr:street" v="Golf Drive"/><tag k="addr:postcode" v="95127"/></node>
<node visible="true" id="-310" lat="37.390203308000004" lon="-121.82430661100001"><tag k="addr:city" v="San Jose"/><tag k="addr:housenumber" v="4168"/><tag k="addr:street" v="Holly Drive"/><tag k="addr:postcode" v="95127"/></node>
<node visible="true" id="-311" lat="37.39120578" lon="-121.82485925200001"><tag k="addr:city" v="San Jose"/><tag k="addr:housenumber" v="4168"/><tag k="addr:street" v="Pepper Tree Lane"/><tag k="addr:postcode" v="95127"/></node>
<node visible="true" id="-312" lat="37.389840865000004" lon="-121.82407635700001"><tag k="addr:city" v="San Jose"/><tag k="addr:housenumber" v="4173"/><tag k="addr:street" v="Regal Court"/><tag k="addr:postcode" v="95127"/></node>
<node visible="true" id="-313" lat="37.389616524000004" lon="-121.823936505"><tag k="addr:city" v="San Jose"/><tag k="addr:housenumber" v="4174"/><tag k="addr:street" v="Regal Court"/><tag k="addr:postcode" v="95127"/></node>
<node visible="true" id="-314" lat="37.389196583" lon="-121.82374595700001"><tag k="addr:city" v="San Jose"/><tag k="addr:housenumber" v="4175"/><tag k="addr:street" v="Golf Drive"/><tag k="addr:postcode" v="95127"/></node>
<node visible="true" id="-315" lat="37.390451619000004" lon="-121.82441556200001"><tag k="addr:city" v="San Jose"/><tag k="addr:housenumber" v="4178"/><tag k="addr:street" v="Holly Drive"/><tag k="addr:postcode" v="95127"/></node>
<node visible="true" id="-316" lat="37.390656732000004" lon="-121.825421"><tag k="addr:city" v="San Jose"/><tag k="addr:housenumber" v="4185"/><tag k="addr:street" v="Holly Drive"/><tag k="addr:postcode" v="95127"/></node>
<node visible="true" id="-317" lat="37.390586148000004" lon="-121.824508554"><tag k="addr:city" v="San Jose"/><tag k="addr:housenumber" v="4188"/><tag k="addr:street" v="Holly Drive"/><tag k="addr:postcode" v="95127"/></node>
<node visible="true" id="-318" lat="37.390335911" lon="-121.825058975"><tag k="addr:city" v="San Jose"/><tag k="addr:housenumber" v="4191"/><tag k="addr:street" v="Holly Drive"/><tag k="addr:postcode" v="95127"/></node>
<node visible="true" id="-319" lat="37.39078817" lon="-121.824613209"><tag k="addr:city" v="San Jose"/><tag k="addr:housenumber" v="4192"/><tag k="addr:street" v="Holly Drive"/><tag k="addr:postcode" v="95127"/></node>
<node visible="true" id="-320" lat="37.390791789000005" lon="-121.825109819"><tag k="addr:city" v="San Jose"/><tag k="addr:housenumber" v="4195"/><tag k="addr:street" v="Holly Drive"/><tag k="addr:postcode" v="95127"/></node>
<node visible="true" id="-321" lat="37.388771623000004" lon="-121.822617199"><tag k="addr:city" v="San Jose"/><tag k="addr:housenumber" v="474"/><tag k="addr:street" v="Golf View Drive"/><tag k="addr:postcode" v="95127"/></node>
<node visible="true" id="-322" lat="37.389239947" lon="-121.822426831"><tag k="addr:city" v="San Jose"/><tag k="addr:housenumber" v="475"/><tag k="addr:street" v="Golf View Drive"/><tag k="addr:postcode" v="95127"/></node>
<node visible="true" id="-323" lat="37.3888301" lon="-121.822773178"><tag k="addr:city" v="San Jose"/><tag k="addr:housenumber" v="476"/><tag k="addr:street" v="Golf View Drive"/><tag k="addr:postcode" v="95127"/></node>
<node visible="true" id="-324" lat="37.389191128" lon="-121.822537225"><tag k="addr:city" v="San Jose"/><tag k="addr:housenumber" v="477"/><tag k="addr:street" v="Golf View Drive"/><tag k="addr:postcode" v="95127"/></node>
<node visible="true" id="-325" lat="37.38948793" lon="-121.822647785"><tag k="addr:city" v="San Jose"/><tag k="addr:housenumber" v="483"/><tag k="addr:street" v="Golf View Drive"/><tag k="addr:postcode" v="95127"/></node>
<node visible="true" id="-326" lat="37.389536081" lon="-121.82293930600001"><tag k="addr:city" v="San Jose"/><tag k="addr:housenumber" v="487"/><tag k="addr:street" v="Golf View Drive"/><tag k="addr:postcode" v="95127"/></node>
<node visible="true" id="-327" lat="37.389299039" lon="-121.82330266800001"><tag k="addr:city" v="San Jose"/><tag k="addr:housenumber" v="496"/><tag k="addr:street" v="Golf View Drive"/><tag k="addr:postcode" v="95127"/></node>
<node visible="true" id="-328" lat="37.389536408000005" lon="-121.82334205500001"><tag k="addr:city" v="San Jose"/><tag k="addr:housenumber" v="497"/><tag k="addr:street" v="Golf View Drive"/><tag k="addr:postcode" v="95127"/></node>
<node visible="true" id="-329" lat="37.388684255" lon="-121.82542224500001"><tag k="addr:city" v="San Jose"/><tag k="addr:housenumber" v="708"/><tag k="addr:street" v="Tallent Avenue"/><tag k="addr:postcode" v="95127"/></node>
<node visible="true" id="-330" lat="37.394128453" lon="-121.82510245900001"><tag k="addr:city" v="San Jose"/><tag k="addr:housenumber" v="12526"/><tag k="addr:street" v="Poppy Lane"/><tag k="addr:postcode" v="95127"/></node>
<node visible="true" id="-331" lat="37.392022737000005" lon="-121.82909652500001"><tag k="addr:city" v="San Jose"/><tag k="addr:housenumber" v="12560"/><tag k="addr:street" v="Tallent Avenue"/><tag k="addr:postcode" v="95127"/></node>
<node visible="true" id="-332" lat="37.388342474000005" lon="-121.82868049100001"><tag k="addr:city" v="San Jose"/><tag k="addr:housenumber" v="745"/><tag k="addr:street" v="Gordon Avenue"/><tag k="addr:postcode" v="95127"/></node>
<node visible="true" id="-333" lat="37.392245612" lon="-121.82984746000001"><tag k="addr:city" v="San Jose"/><tag k="addr:housenumber" v="12585"/><tag k="addr:street" v="Tallent Avenue"/><tag k="addr:postcode" v="95127"/></node>
<node visible="true" id="-334" lat="37.388849601000004" lon="-121.82921902500001"><tag k="addr:city" v="San Jose"/><tag k="addr:housenumber" v="765"/><tag k="addr:street" v="Gordon Avenue"/><tag k="addr:postcode" v="95127"/></node>
<node visible="true" id="-335" lat="37.389789464" lon="-121.826986418"><tag k="addr:city" v="San Jose"/><tag k="addr:housenumber" v="765"/><tag k="addr:street" v="Tallent Avenue"/><tag k="addr:postcode" v="95127"/></node>
<node visible="true" id="-336" lat="37.389074832000006" lon="-121.828671317"><tag k="addr:city" v="San Jose"/><tag k="addr:housenumber" v="766"/><tag k="addr:street" v="Gordon Avenue"/><tag k="addr:postcode" v="95127"/></node>
<node visible="true" id="-337" lat="37.388823503000005" lon="-121.829549032"><tag k="addr:city" v="San Jose"/><tag k="addr:housenumber" v="769"/><tag k="addr:street" v="Gordon Avenue"/><tag k="addr:postcode" v="95127"/></node>
<node visible="true" id="-338" lat="37.39022063" lon="-121.82646104700001"><tag k="addr:city" v="San Jose"/><tag k="addr:housenumber" v="770"/><tag k="addr:street" v="Tallent Avenue"/><tag k="addr:postcode" v="95127"/></node>
<node visible="true" id="-339" lat="37.389926880000004" lon="-121.82711547400001"><tag k="addr:city" v="San Jose"/><tag k="addr:housenumber" v="775"/><tag k="addr:street" v="Tallent Avenue"/><tag k="addr:postcode" v="95127"/></node>
<node visible="true" id="-340" lat="37.388274788000004" lon="-121.83080589000001"><tag k="addr:city" v="San Jose"/><tag k="addr:housenumber" v="780"/><tag k="addr:street" v="Toyon Avenue"/><tag k="addr:postcode" v="95127"/></node>
<node visible="true" id="-341" lat="37.39267214" lon="-121.82956759800001"><tag k="addr:city" v="San Jose"/><tag k="addr:housenumber" v="12600"/><tag k="addr:street" v="Tallent Avenue"/><tag k="addr:postcode" v="95127"/></node>
<node visible="true" id="-342" lat="37.390463987000004" lon="-121.826631469"><tag k="addr:city" v="San Jose"/><tag k="addr:housenumber" v="794"/><tag k="addr:street" v="Tallent Avenue"/><tag k="addr:postcode" v="95127"/></node>
<node visible="true" id="-343" lat="37.389412337" lon="-121.82896848200001"><tag k="addr:city" v="San Jose"/><tag k="addr:housenumber" v="800"/><tag k="addr:street" v="Gordon Avenue"/><tag k="addr:postcode" v="95127"/></node>
<node visible="true" id="-344" lat="37.389250644" lon="-121.82943319200001"><tag k="addr:city" v="San Jose"/><tag k="addr:housenumber" v="801"/><tag k="addr:street" v="Gordon Avenue"/><tag k="addr:postcode" v="95127"/></node>
<node visible="true" id="-345" lat="37.393085334000006" lon="-121.82987281000001"><tag k="addr:city" v="San Jose"/><tag k="addr:housenumber" v="12636"/><tag k="addr:street" v="Tallent Avenue"/><tag k="addr:postcode" v="95127"/></node>
<node visible="true" id="-346" lat="37.393008938" lon="-121.83040147300001"><tag k="addr:city" v="San Jose"/><tag k="addr:housenumber" v="12641"/><tag k="addr:street" v="Tallent Avenue"/><tag k="addr:postcode" v="95127"/></node>
<node visible="true" id="-347" lat="37.392695256" lon="-121.831619449"><tag k="addr:city" v="San Jose"/><tag k="addr:housenumber" v="12650"/><tag k="addr:street" v="Sheree Court"/><tag k="addr:postcode" v="95127"/></node>
<node visible="true" id="-348" lat="37.392466785" lon="-121.832177895"><tag k="addr:city" v="San Jose"/><tag k="addr:housenumber" v="12651"/><tag k="addr:street" v="Sheree Court"/><tag k="addr:postcode" v="95127"/></node>
<node visible="true" id="-349" lat="37.393182782000004" lon="-121.830515145"><tag k="addr:city" v="San Jose"/><tag k="addr:housenumber" v="12651"/><tag k="addr:street" v="Tallent Avenue"/><tag k="addr:postcode" v="95127"/></node>
<node visible="true" id="-350" lat="37.392835374" lon="-121.831401072"><tag k="addr:city" v="San Jose"/><tag k="addr:housenumber" v="12653"/><tag k="addr:street" v="Gina Court"/><tag k="addr:postcode" v="95127"/></node>
<node visible="true" id="-351" lat="37.390508281" lon="-121.832416706"><tag k="addr:city" v="San Jose"/><tag k="addr:housenumber" v="850"/><tag k="addr:street" v="Toyon Avenue"/><tag k="addr:postcode" v="95127"/></node>
<node visible="true" id="-352" lat="37.391601422" lon="-121.82743674500001"><tag k="addr:city" v="San Jose"/><tag k="addr:housenumber" v="860"/><tag k="addr:street" v="Tallent Avenue"/><tag k="addr:postcode" v="95127"/></node>
<node visible="true" id="-353" lat="37.389871103000004" lon="-121.83206739"><tag k="addr:city" v="San Jose"/><tag k="addr:housenumber" v="14880"/><tag k="addr:street" v="San Pablo Avenue"/><tag k="addr:postcode" v="95127"/></node>
<node visible="true" id="-354" lat="37.390293486000004" lon="-121.83239005"><tag k="addr:city" v="San Jose"/><tag k="addr:housenumber" v="14881"/><tag k="addr:street" v="San Pablo Avenue"/><tag k="addr:postcode" v="95127"/></node>
<node visible="true" id="-355" lat="37.392447237" lon="-121.833431782"><tag k="addr:city" v="San Jose"/><tag k="addr:housenumber" v="14884"/><tag k="addr:street" v="Penitencia Creek Road"/><tag k="addr:postcode" v="95132"/></node>
<node visible="true" id="-356" lat="37.392110105" lon="-121.833402456"><tag k="addr:city" v="San Jose"/><tag k="addr:housenumber" v="14891"/><tag k="addr:street" v="Freeman Avenue"/><tag k="addr:postcode" v="95127"/></node>
<node visible="true" id="-357" lat="37.391717750000005" lon="-121.83311092400001"><tag k="addr:city" v="San Jose"/><tag k="addr:housenumber" v="14892"/><tag k="addr:street" v="Freeman Avenue"/><tag k="addr:postcode" v="95127"/></node>
<node visible="true" id="-358" lat="37.391050919" lon="-121.83236190900001"><tag k="addr:city" v="San Jose"/><tag k="addr:housenumber" v="14892"/><tag k="addr:street" v="Ridgetop Drive"/><tag k="addr:postcode" v="95127"/></node>
<node visible="true" id="-359" lat="37.391405155" lon="-121.83291417900001"><tag k="addr:city" v="San Jose"/><tag k="addr:housenumber" v="14893"/><tag k="addr:street" v="Ridgetop Drive"/><tag k="addr:postcode" v="95127"/></node>
<node visible="true" id="-360" lat="37.389974236" lon="-121.831869706"><tag k="addr:city" v="San Jose"/><tag k="addr:housenumber" v="14894"/><tag k="addr:street" v="San Pablo Avenue"/><tag k="addr:postcode" v="95127"/></node>
<node visible="true" id="-361" lat="37.390390731000004" lon="-121.83214736800001"><tag k="addr:city" v="San Jose"/><tag k="addr:housenumber" v="14895"/><tag k="addr:street" v="San Pablo Avenue"/><tag k="addr:postcode" v="95127"/></node>
<node visible="true" id="-362" lat="37.392541051" lon="-121.83323251200001"><tag k="addr:city" v="San Jose"/><tag k="addr:housenumber" v="14896"/><tag k="addr:street" v="Penitencia Creek Road"/><tag k="addr:postcode" v="95132"/></node>
<node visible="true" id="-363" lat="37.391782568" lon="-121.832891516"><tag k="addr:city" v="San Jose"/><tag k="addr:housenumber" v="14904"/><tag k="addr:street" v="Freeman Avenue"/><tag k="addr:postcode" v="95127"/></node>
<node visible="true" id="-364" lat="37.390863796000005" lon="-121.83230022000001"><tag k="addr:city" v="San Jose"/><tag k="addr:housenumber" v="14904"/><tag k="addr:street" v="Ridgetop Drive"/><tag k="addr:postcode" v="95127"/></node>
<node visible="true" id="-365" lat="37.391447362" lon="-121.83271440600001"><tag k="addr:city" v="San Jose"/><tag k="addr:housenumber" v="14905"/><tag k="addr:street" v="Ridgetop Drive"/><tag k="addr:postcode" v="95127"/></node>
<node visible="true" id="-366" lat="37.389308262" lon="-121.831327728"><tag k="addr:city" v="San Jose"/><tag k="addr:housenumber" v="14906"/><tag k="addr:street" v="Joanne Avenue"/><tag k="addr:postcode" v="95127"/></node>
<node visible="true" id="-367" lat="37.389737868000005" lon="-121.831614258"><tag k="addr:city" v="San Jose"/><tag k="addr:housenumber" v="14907"/><tag k="addr:street" v="Joanne Avenue"/><tag k="addr:postcode" v="95127"/></node>
<node visible="true" id="-368" lat="37.390490041" lon="-121.83194045500001"><tag k="addr:city" v="San Jose"/><tag k="addr:housenumber" v="14909"/><tag k="addr:street" v="San Pablo Avenue"/><tag k="addr:postcode" v="95127"/></node>
<node visible="true" id="-369" lat="37.392176771" lon="-121.832957558"><tag k="addr:city" v="San Jose"/><tag k="addr:housenumber" v="14911"/><tag k="addr:street" v="Freeman Avenue"/><tag k="addr:postcode" v="95127"/></node>
<node visible="true" id="-370" lat="37.391746365" lon="-121.83269092600001"><tag k="addr:city" v="San Jose"/><tag k="addr:housenumber" v="14916"/><tag k="addr:street" v="Freeman Avenue"/><tag k="addr:postcode" v="95127"/></node>
<node visible="true" id="-371" lat="37.390737266" lon="-121.83208153300001"><tag k="addr:city" v="San Jose"/><tag k="addr:housenumber" v="14916"/><tag k="addr:street" v="Ridgetop Drive"/><tag k="addr:postcode" v="95127"/></node>
<node visible="true" id="-372" lat="37.391489928000006" lon="-121.832487888"><tag k="addr:city" v="San Jose"/><tag k="addr:housenumber" v="14917"/><tag k="addr:street" v="Ridgetop Drive"/><tag k="addr:postcode" v="95127"/></node>
<node visible="true" id="-373" lat="37.392216865" lon="-121.83273598500001"><tag k="addr:city" v="San Jose"/><tag k="addr:housenumber" v="14921"/><tag k="addr:street" v="Freeman Avenue"/><tag k="addr:postcode" v="95127"/></node>
<node visible="true" id="-374" lat="37.390158515" lon="-121.83144629700001"><tag k="addr:city" v="San Jose"/><tag k="addr:housenumber" v="14922"/><tag k="addr:street" v="San Pablo Avenue"/><tag k="addr:postcode" v="95127"/></node>
<node visible="true" id="-375" lat="37.390557301" lon="-121.83171624"><tag k="addr:city" v="San Jose"/><tag k="addr:housenumber" v="14923"/><tag k="addr:street" v="San Pablo Avenue"/><tag k="addr:postcode" v="95127"/></node>
<node visible="true" id="-376" lat="37.38985832" lon="-121.831357155"><tag k="addr:city" v="San Jose"/><tag k="addr:housenumber" v="14925"/><tag k="addr:street" v="Joanne Avenue"/><tag k="addr:postcode" v="95127"/></node>
<node visible="true" id="-377" lat="37.391791581" lon="-121.83246810700001"><tag k="addr:city" v="San Jose"/><tag k="addr:housenumber" v="14928"/><tag k="addr:street" v="Freeman Avenue"/><tag k="addr:postcode" v="95127"/></node>
<node visible="true" id="-378" lat="37.390854215000005" lon="-121.831709728"><tag k="addr:city" v="San Jose"/><tag k="addr:housenumber" v="14928"/><tag k="addr:street" v="Ridgetop Drive"/><tag k="addr:postcode" v="95127"/></node>
<node visible="true" id="-379" lat="37.391411764000004" lon="-121.832305829"><tag k="addr:city" v="San Jose"/><tag k="addr:housenumber" v="14929"/><tag k="addr:street" v="Ridgetop Drive"/><tag k="addr:postcode" v="95127"/></node>
<node visible="true" id="-380" lat="37.392813479000004" lon="-121.832804228"><tag k="addr:city" v="San Jose"/><tag k="addr:housenumber" v="14930"/><tag k="addr:street" v="Penitencia Creek Road"/><tag k="addr:postcode" v="95132"/></node>
<node visible="true" id="-381" lat="37.392296402" lon="-121.832572334"><tag k="addr:city" v="San Jose"/><tag k="addr:housenumber" v="14931"/><tag k="addr:street" v="Freeman Avenue"/><tag k="addr:postcode" v="95127"/></node>
<node visible="true" id="-382" lat="37.390251753" lon="-121.83124185800001"><tag k="addr:city" v="San Jose"/><tag k="addr:housenumber" v="14936"/><tag k="addr:street" v="San Pablo Avenue"/><tag k="addr:postcode" v="95127"/></node>
<node visible="true" id="-383" lat="37.390662072000005" lon="-121.831482987"><tag k="addr:city" v="San Jose"/><tag k="addr:housenumber" v="14937"/><tag k="addr:street" v="San Pablo Avenue"/><tag k="addr:postcode" v="95127"/></node>
<node visible="true" id="-384" lat="37.391760984" lon="-121.83226476"><tag k="addr:city" v="San Jose"/><tag k="addr:housenumber" v="14940"/><tag k="addr:street" v="Freeman Avenue"/><tag k="addr:postcode" v="95127"/></node>
<node visible="true" id="-385" lat="37.38943237" lon="-121.83106298000001"><tag k="addr:city" v="San Jose"/><tag k="addr:housenumber" v="14942"/><tag k="addr:street" v="Joanne Avenue"/><tag k="addr:postcode" v="95127"/></node>
<node visible="true" id="-386" lat="37.389971842" lon="-121.83111032400001"><tag k="addr:city" v="San Jose"/><tag k="addr:housenumber" v="14943"/><tag k="addr:street" v="Joanne Avenue"/><tag k="addr:postcode" v="95127"/></node>
<node visible="true" id="-387" lat="37.391708242" lon="-121.83207175800001"><tag k="addr:city" v="San Jose"/><tag k="addr:housenumber" v="14950"/><tag k="addr:street" v="Freeman Avenue"/><tag k="addr:postcode" v="95127"/></node>
<node visible="true" id="-388" lat="37.389530628" lon="-121.830822623"><tag k="addr:city" v="San Jose"/><tag k="addr:housenumber" v="14950"/><tag k="addr:street" v="Joanne Avenue"/><tag k="addr:postcode" v="95127"/></node>
<node visible="true" id="-389" lat="37.392951972000006" lon="-121.83223588300001"><tag k="addr:city" v="San Jose"/><tag k="addr:housenumber" v="14950"/><tag k="addr:street" v="Penitencia Creek Road"/><tag k="addr:postcode" v="95132"/></node>
<node visible="true" id="-390" lat="37.390335482000005" lon="-121.83102100100001"><tag k="addr:city" v="San Jose"/><tag k="addr:housenumber" v="14950"/><tag k="addr:street" v="San Pablo Avenue"/><tag k="addr:postcode" v="95127"/></node>
<node visible="true" id="-391" lat="37.391446416" lon="-121.831869107"><tag k="addr:city" v="San Jose"/><tag k="addr:housenumber" v="14951"/><tag k="addr:street" v="Ridgetop Drive"/><tag k="addr:postcode" v="95127"/></node>
<node visible="true" id="-392" lat="37.390741942000005" lon="-121.83128016600001"><tag k="addr:city" v="San Jose"/><tag k="addr:housenumber" v="14951"/><tag k="addr:street" v="San Pablo Avenue"/><tag k="addr:postcode" v="95127"/></node>
<node visible="true" id="-393" lat="37.391024814000005" lon="-121.831383219"><tag k="addr:city" v="San Jose"/><tag k="addr:housenumber" v="14952"/><tag k="addr:street" v="Ridgetop Drive"/><tag k="addr:postcode" v="95127"/></node>
<node visible="true" id="-394" lat="37.391750614" lon="-121.83185973100001"><tag k="addr:city" v="San Jose"/><tag k="addr:housenumber" v="14960"/><tag k="addr:street" v="Freeman Avenue"/><tag k="addr:postcode" v="95127"/></node>
<node visible="true" id="-395" lat="37.389665887" lon="-121.83057986200001"><tag k="addr:city" v="San Jose"/><tag k="addr:housenumber" v="14960"/><tag k="addr:street" v="Joanne Avenue"/><tag k="addr:postcode" v="95127"/></node>
<node visible="true" id="-396" lat="37.393092635" lon="-121.83191637"><tag k="addr:city" v="San Jose"/><tag k="addr:housenumber" v="14960"/><tag k="addr:street" v="Penitencia Creek Road"/><tag k="addr:postcode" v="95132"/></node>
<node visible="true" id="-397" lat="37.390071114" lon="-121.83087039700001"><tag k="addr:city" v="San Jose"/><tag k="addr:housenumber" v="14961"/><tag k="addr:street" v="Joanne Avenue"/><tag k="addr:postcode" v="95127"/></node>
<node visible="true" id="-398" lat="37.391410915" lon="-121.831659755"><tag k="addr:city" v="San Jose"/><tag k="addr:housenumber" v="14961"/><tag k="addr:street" v="Ridgetop Drive"/><tag k="addr:postcode" v="95127"/></node>
<node visible="true" id="-399" lat="37.391109435000004" lon="-121.83121907200001"><tag k="addr:city" v="San Jose"/><tag k="addr:housenumber" v="14964"/><tag k="addr:street" v="Ridgetop Drive"/><tag k="addr:postcode" v="95127"/></node>
<node visible="true" id="-400" lat="37.390432014000005" lon="-121.830806945"><tag k="addr:city" v="San Jose"/><tag k="addr:housenumber" v="14964"/><tag k="addr:street" v="San Pablo Avenue"/><tag k="addr:postcode" v="95127"/></node>
<node visible="true" id="-401" lat="37.390830005000005" lon="-121.83106214000001"><tag k="addr:city" v="San Jose"/><tag k="addr:housenumber" v="14965"/><tag k="addr:street" v="San Pablo Avenue"/><tag k="addr:postcode" v="95127"/></node>
<node visible="true" id="-402" lat="37.391806267" lon="-121.831668319"><tag k="addr:city" v="San Jose"/><tag k="addr:housenumber" v="14970"/><tag k="addr:street" v="Freeman Avenue"/><tag k="addr:postcode" v="95127"/></node>
<node visible="true" id="-403" lat="37.390523044000005" lon="-121.830596028"><tag k="addr:city" v="San Jose"/><tag k="addr:housenumber" v="14970"/><tag k="addr:street" v="San Pablo Avenue"/><tag k="addr:postcode" v="95127"/></node>
<node visible="true" id="-404" lat="37.391494131" lon="-121.83146239800001"><tag k="addr:city" v="San Jose"/><tag k="addr:housenumber" v="14971"/><tag k="addr:street" v="Ridgetop Drive"/><tag k="addr:postcode" v="95127"/></node>
<node visible="true" id="-405" lat="37.391185307" lon="-121.83101525000001"><tag k="addr:city" v="San Jose"/><tag k="addr:housenumber" v="14976"/><tag k="addr:street" v="Ridgetop Drive"/><tag k="addr:postcode" v="95127"/></node>
<node visible="true" id="-406" lat="37.390187295000004" lon="-121.83063848200001"><tag k="addr:city" v="San Jose"/><tag k="addr:housenumber" v="14979"/><tag k="addr:street" v="Joanne Avenue"/><tag k="addr:postcode" v="95127"/></node>
<node visible="true" id="-407" lat="37.390915182" lon="-121.830836934"><tag k="addr:city" v="San Jose"/><tag k="addr:housenumber" v="14979"/><tag k="addr:street" v="San Pablo Avenue"/><tag k="addr:postcode" v="95127"/></node>
<node visible="true" id="-408" lat="37.391877016" lon="-121.83146337000001"><tag k="addr:city" v="San Jose"/><tag k="addr:housenumber" v="14980"/><tag k="addr:street" v="Freeman Avenue"/><tag k="addr:postcode" v="95127"/></node>
<node visible="true" id="-409" lat="37.389755647" lon="-121.83035487900001"><tag k="addr:city" v="San Jose"/><tag k="addr:housenumber" v="14980"/><tag k="addr:street" v="Joanne Avenue"/><tag k="addr:postcode" v="95127"/></node>
<node visible="true" id="-410" lat="37.393412548" lon="-121.83228734500001"><tag k="addr:city" v="San Jose"/><tag k="addr:housenumber" v="14980"/><tag k="addr:street" v="Penitencia Creek Road"/><tag k="addr:postcode" v="95132"/></node>
<node visible="true" id="-411" lat="37.391596071" lon="-121.83128730300001"><tag k="addr:city" v="San Jose"/><tag k="addr:housenumber" v="14981"/><tag k="addr:street" v="Ridgetop Drive"/><tag k="addr:postcode" v="95127"/></node>
<node visible="true" id="-412" lat="37.391253798" lon="-121.83081539300001"><tag k="addr:city" v="San Jose"/><tag k="addr:housenumber" v="14988"/><tag k="addr:street" v="Ridgetop Drive"/><tag k="addr:postcode" v="95127"/></node>
<node visible="true" id="-413" lat="37.391939591" lon="-121.831303203"><tag k="addr:city" v="San Jose"/><tag k="addr:housenumber" v="14990"/><tag k="addr:street" v="Freeman Avenue"/><tag k="addr:postcode" v="95127"/></node>
<node visible="true" id="-414" lat="37.390614881000005" lon="-121.83038164800001"><tag k="addr:city" v="San Jose"/><tag k="addr:housenumber" v="14990"/><tag k="addr:street" v="San Pablo Avenue"/><tag k="addr:postcode" v="95127"/></node>
<node visible="true" id="-415" lat="37.391671631" lon="-121.83109397400001"><tag k="addr:city" v="San Jose"/><tag k="addr:housenumber" v="14991"/><tag k="addr:street" v="Ridgetop Drive"/><tag k="addr:postcode" v="95127"/></node>
<node visible="true" id="-416" lat="37.391012616000005" lon="-121.83063542500001"><tag k="addr:city" v="San Jose"/><tag k="addr:housenumber" v="14993"/><tag k="addr:street" v="San Pablo Avenue"/><tag k="addr:postcode" v="95127"/></node>
<node visible="true" id="-417" lat="37.390279985" lon="-121.830380434"><tag k="addr:city" v="San Jose"/><tag k="addr:housenumber" v="14997"/><tag k="addr:street" v="Joanne Avenue"/><tag k="addr:postcode" v="95127"/></node>
<node visible="true" id="-418" lat="37.389846863" lon="-121.83010096900001"><tag k="addr:city" v="San Jose"/><tag k="addr:housenumber" v="14998"/><tag k="addr:street" v="Joanne Avenue"/><tag k="addr:postcode" v="95127"/></node>
<node visible="true" id="-419" lat="37.392022532000006" lon="-121.83112498000001"><tag k="addr:city" v="San Jose"/><tag k="addr:housenumber" v="15000"/><tag k="addr:street" v="Freeman Avenue"/><tag k="addr:postcode" v="95127"/></node>
<node visible="true" id="-420" lat="37.391350154" lon="-121.830641127"><tag k="addr:city" v="San Jose"/><tag k="addr:housenumber" v="15000"/><tag k="addr:street" v="Ridgetop Drive"/><tag k="addr:postcode" v="95127"/></node>
<node visible="true" id="-421" lat="37.390701494000005" lon="-121.83017764"><tag k="addr:city" v="San Jose"/><tag k="addr:housenumber" v="15004"/><tag k="addr:street" v="San Pablo Avenue"/><tag k="addr:postcode" v="95127"/></node>
<node visible="true" id="-422" lat="37.391851238" lon="-121.83061728300001"><tag k="addr:city" v="San Jose"/><tag k="addr:housenumber" v="15005"/><tag k="addr:street" v="Ridgetop Drive"/><tag k="addr:postcode" v="95127"/></node>
<node visible="true" id="-423" lat="37.391110131000005" lon="-121.830404998"><tag k="addr:city" v="San Jose"/><tag k="addr:housenumber" v="15007"/><tag k="addr:street" v="San Pablo Avenue"/><tag k="addr:postcode" v="95127"/></node>
<node visible="true" id="-424" lat="37.391510613" lon="-121.830152427"><tag k="addr:city" v="San Jose"/><tag k="addr:housenumber" v="15008"/><tag k="addr:street" v="Ridgetop Drive"/><tag k="addr:postcode" v="95127"/></node>
<node visible="true" id="-425" lat="37.392180248" lon="-121.83086619000001"><tag k="addr:city" v="San Jose"/><tag k="addr:housenumber" v="15010"/><tag k="addr:street" v="Freeman Avenue"/><tag k="addr:postcode" v="95127"/></node>
<node visible="true" id="-426" lat="37.392494025000005" lon="-121.83116003"><tag k="addr:city" v="San Jose"/><tag k="addr:housenumber" v="15011"/><tag k="addr:street" v="Freeman Avenue"/><tag k="addr:postcode" v="95127"/></node>
<node visible="true" id="-427" lat="37.391678123000005" lon="-121.82996951400001"><tag k="addr:city" v="San Jose"/><tag k="addr:housenumber" v="15012"/><tag k="addr:street" v="Ridgetop Drive"/><tag k="addr:postcode" v="95127"/></node>
<node visible="true" id="-428" lat="37.389976892" lon="-121.829868441"><tag k="addr:city" v="San Jose"/><tag k="addr:housenumber" v="15014"/><tag k="addr:street" v="Joanne Avenue"/><tag k="addr:postcode" v="95127"/></node>
<node visible="true" id="-429" lat="37.390372924000005" lon="-121.83013929"><tag k="addr:city" v="San Jose"/><tag k="addr:housenumber" v="15015"/><tag k="addr:street" v="Joanne Avenue"/><tag k="addr:postcode" v="95127"/></node>
<node visible="true" id="-430" lat="37.391897400000005" lon="-121.83002495400001"><tag k="addr:city" v="San Jose"/><tag k="addr:housenumber" v="15016"/><tag k="addr:street" v="Ridgetop Drive"/><tag k="addr:postcode" v="95127"/></node>
<node visible="true" id="-431" lat="37.392106388" lon="-121.830151885"><tag k="addr:city" v="San Jose"/><tag k="addr:housenumber" v="15020"/><tag k="addr:street" v="Ridgetop Drive"/><tag k="addr:postcode" v="95127"/></node>
<node visible="true" id="-432" lat="37.392026216000005" lon="-121.830800412"><tag k="addr:city" v="San Jose"/><tag k="addr:housenumber" v="15021"/><tag k="addr:street" v="Ridgetop Drive"/><tag k="addr:postcode" v="95127"/></node>
<node visible="true" id="-433" lat="37.391216022" lon="-121.830203603"><tag k="addr:city" v="San Jose"/><tag k="addr:housenumber" v="15021"/><tag k="addr:street" v="San Pablo Avenue"/><tag k="addr:postcode" v="95127"/></node>
<node visible="true" id="-434" lat="37.392258760000004" lon="-121.83028183500001"><tag k="addr:city" v="San Jose"/><tag k="addr:housenumber" v="15024"/><tag k="addr:street" v="Ridgetop Drive"/><tag k="addr:postcode" v="95127"/></node>
<node visible="true" id="-435" lat="37.392414808000005" lon="-121.83039994200001"><tag k="addr:city" v="San Jose"/><tag k="addr:housenumber" v="15028"/><tag k="addr:street" v="Ridgetop Drive"/><tag k="addr:postcode" v="95127"/></node>
<node visible="true" id="-436" lat="37.390102177" lon="-121.82958690900001"><tag k="addr:city" v="San Jose"/><tag k="addr:housenumber" v="15030"/><tag k="addr:street" v="Joanne Avenue"/><tag k="addr:postcode" v="95127"/></node>
<node visible="true" id="-437" lat="37.390465465000005" lon="-121.82987986"><tag k="addr:city" v="San Jose"/><tag k="addr:housenumber" v="15031"/><tag k="addr:street" v="Joanne Avenue"/><tag k="addr:postcode" v="95127"/></node>
<node visible="true" id="-438" lat="37.390887910000004" lon="-121.829761387"><tag k="addr:city" v="San Jose"/><tag k="addr:housenumber" v="15032"/><tag k="addr:street" v="San Pablo Avenue"/><tag k="addr:postcode" v="95127"/></node>
<node visible="true" id="-439" lat="37.391305771" lon="-121.829991593"><tag k="addr:city" v="San Jose"/><tag k="addr:housenumber" v="15035"/><tag k="addr:street" v="San Pablo Avenue"/><tag k="addr:postcode" v="95127"/></node>
<node visible="true" id="-440" lat="37.390189625000005" lon="-121.82933310300001"><tag k="addr:city" v="San Jose"/><tag k="addr:housenumber" v="15046"/><tag k="addr:street" v="Joanne Avenue"/><tag k="addr:postcode" v="95127"/></node>
<node visible="true" id="-441" lat="37.390988755" lon="-121.829559316"><tag k="addr:city" v="San Jose"/><tag k="addr:housenumber" v="15046"/><tag k="addr:street" v="San Pablo Avenue"/><tag k="addr:postcode" v="95127"/></node>
<node visible="true" id="-442" lat="37.390576987" lon="-121.82962004500001"><tag k="addr:city" v="San Jose"/><tag k="addr:housenumber" v="15047"/><tag k="addr:street" v="Joanne Avenue"/><tag k="addr:postcode" v="95127"/></node>
<node visible="true" id="-443" lat="37.391398166" lon="-121.82975956000001"><tag k="addr:city" v="San Jose"/><tag k="addr:housenumber" v="15049"/><tag k="addr:street" v="San Pablo Avenue"/><tag k="addr:postcode" v="95127"/></node>
<node visible="true" id="-444" lat="37.391083318" lon="-121.829341747"><tag k="addr:city" v="San Jose"/><tag k="addr:housenumber" v="15060"/><tag k="addr:street" v="San Pablo Avenue"/><tag k="addr:postcode" v="95127"/></node>
<node visible="true" id="-445" lat="37.390293443000004" lon="-121.829086817"><tag k="addr:city" v="San Jose"/><tag k="addr:housenumber" v="15062"/><tag k="addr:street" v="Joanne Avenue"/><tag k="addr:postcode" v="95127"/></node>
<node visible="true" id="-446" lat="37.390694625" lon="-121.82939273100001"><tag k="addr:city" v="San Jose"/><tag k="addr:housenumber" v="15063"/><tag k="addr:street" v="Joanne Avenue"/><tag k="addr:postcode" v="95127"/></node>
<node visible="true" id="-447" lat="37.391494637" lon="-121.82951200400001"><tag k="addr:city" v="San Jose"/><tag k="addr:housenumber" v="15063"/><tag k="addr:street" v="San Pablo Avenue"/><tag k="addr:postcode" v="95127"/></node>
<node visible="true" id="-448" lat="37.39159213" lon="-121.829304949"><tag k="addr:city" v="San Jose"/><tag k="addr:housenumber" v="15077"/><tag k="addr:street" v="San Pablo Avenue"/><tag k="addr:postcode" v="95127"/></node>
<node visible="true" id="-449" lat="37.390413702000004" lon="-121.828855832"><tag k="addr:city" v="San Jose"/><tag k="addr:housenumber" v="15078"/><tag k="addr:street" v="Joanne Avenue"/><tag k="addr:postcode" v="95127"/></node>
<node visible="true" id="-450" lat="37.390803207000005" lon="-121.829145287"><tag k="addr:city" v="San Jose"/><tag k="addr:housenumber" v="15079"/><tag k="addr:street" v="Joanne Avenue"/><tag k="addr:postcode" v="95127"/></node>
<node visible="true" id="-451" lat="37.390514026000005" lon="-121.828595265"><tag k="addr:city" v="San Jose"/><tag k="addr:housenumber" v="15090"/><tag k="addr:street" v="Joanne Avenue"/><tag k="addr:postcode" v="95127"/></node>
<node visible="true" id="-452" lat="37.392439970000005" lon="-121.82939677600001"><tag k="addr:city" v="San Jose"/><tag k="addr:housenumber" v="15091"/><tag k="addr:street" v="Bellflower Court"/><tag k="addr:postcode" v="95127"/></node>
<node visible="true" id="-453" lat="37.390904724" lon="-121.82889334800001"><tag k="addr:city" v="San Jose"/><tag k="addr:housenumber" v="15093"/><tag k="addr:street" v="Joanne Avenue"/><tag k="addr:postcode" v="95127"/></node>
<node visible="true" id="-454" lat="37.392097621000005" lon="-121.82888008100001"><tag k="addr:city" v="San Jose"/><tag k="addr:housenumber" v="15104"/><tag k="addr:street" v="Bellflower Court"/><tag k="addr:postcode" v="95127"/></node>
<node visible="true" id="-455" lat="37.393246424000004" lon="-121.829664921"><tag k="addr:city" v="San Jose"/><tag k="addr:housenumber" v="15105"/><tag k="addr:street" v="Barbee Court"/><tag k="addr:postcode" v="95127"/></node>
<node visible="true" id="-456" lat="37.392541311" lon="-121.82920421200001"><tag k="addr:city" v="San Jose"/><tag k="addr:housenumber" v="15105"/><tag k="addr:street" v="Bellflower Court"/><tag k="addr:postcode" v="95127"/></node>
<node visible="true" id="-457" lat="37.391747306" lon="-121.82889171400001"><tag k="addr:city" v="San Jose"/><tag k="addr:housenumber" v="15105"/><tag k="addr:street" v="San Pablo Avenue"/><tag k="addr:postcode" v="95127"/></node>
<node visible="true" id="-458" lat="37.390624919000004" lon="-121.828315814"><tag k="addr:city" v="San Jose"/><tag k="addr:housenumber" v="15106"/><tag k="addr:street" v="Joanne Avenue"/><tag k="addr:postcode" v="95127"/></node>
<node visible="true" id="-459" lat="37.391019215" lon="-121.828628523"><tag k="addr:city" v="San Jose"/><tag k="addr:housenumber" v="15107"/><tag k="addr:street" v="Joanne Avenue"/><tag k="addr:postcode" v="95127"/></node>
<node visible="true" id="-460" lat="37.390729421" lon="-121.82809852300001"><tag k="addr:city" v="San Jose"/><tag k="addr:housenumber" v="15114"/><tag k="addr:street" v="Joanne Avenue"/><tag k="addr:postcode" v="95127"/></node>
<node visible="true" id="-461" lat="37.391418698" lon="-121.828476033"><tag k="addr:city" v="San Jose"/><tag k="addr:housenumber" v="15116"/><tag k="addr:street" v="San Pablo Avenue"/><tag k="addr:postcode" v="95127"/></node>
<node visible="true" id="-462" lat="37.392876687000005" lon="-121.829049205"><tag k="addr:city" v="San Jose"/><tag k="addr:housenumber" v="15118"/><tag k="addr:street" v="Barbee Court"/><tag k="addr:postcode" v="95127"/></node>
<node visible="true" id="-463" lat="37.392196727000005" lon="-121.82862513200001"><tag k="addr:city" v="San Jose"/><tag k="addr:housenumber" v="15118"/><tag k="addr:street" v="Bellflower Court"/><tag k="addr:postcode" v="95127"/></node>
<node visible="true" id="-464" lat="37.392714668" lon="-121.82897781400001"><tag k="addr:city" v="San Jose"/><tag k="addr:housenumber" v="15119"/><tag k="addr:street" v="Bellflower Court"/><tag k="addr:postcode" v="95127"/></node>
<node visible="true" id="-465" lat="37.391869004" lon="-121.828657445"><tag k="addr:city" v="San Jose"/><tag k="addr:housenumber" v="15119"/><tag k="addr:street" v="San Pablo Avenue"/><tag k="addr:postcode" v="95127"/></node>
<node visible="true" id="-466" lat="37.392395497" lon="-121.82859228000001"><tag k="addr:city" v="San Jose"/><tag k="addr:housenumber" v="15133"/><tag k="addr:street" v="Bellflower Court"/><tag k="addr:postcode" v="95127"/></node>
<node visible="true" id="-467" lat="37.391980564" lon="-121.82844041400001"><tag k="addr:city" v="San Jose"/><tag k="addr:housenumber" v="15133"/><tag k="addr:street" v="San Pablo Avenue"/><tag k="addr:postcode" v="95127"/></node>
<node visible="true" id="-468" lat="37.391229028000005" lon="-121.828132366"><tag k="addr:city" v="San Jose"/><tag k="addr:housenumber" v="15135"/><tag k="addr:street" v="Joanne Avenue"/><tag k="addr:postcode" v="95127"/></node>
<node visible="true" id="-469" lat="37.391612222" lon="-121.82804774700001"><tag k="addr:city" v="San Jose"/><tag k="addr:housenumber" v="15140"/><tag k="addr:street" v="San Pablo Avenue"/><tag k="addr:postcode" v="95127"/></node>
<node visible="true" id="-470" lat="37.392733485" lon="-121.83059847400001"><tag k="addr:city" v="San Jose"/><tag k="addr:housenumber" v="15145"/><tag k="addr:street" v="Freeman Avenue"/><tag k="addr:postcode" v="95127"/></node>
<node visible="true" id="-471" lat="37.392052608" lon="-121.828212593"><tag k="addr:city" v="San Jose"/><tag k="addr:housenumber" v="15145"/><tag k="addr:street" v="San Pablo Avenue"/><tag k="addr:postcode" v="95127"/></node>
<node visible="true" id="-472" lat="37.390955906" lon="-121.827597259"><tag k="addr:city" v="San Jose"/><tag k="addr:housenumber" v="15148"/><tag k="addr:street" v="Joanne Avenue"/><tag k="addr:postcode" v="95127"/></node>
<node visible="true" id="-473" lat="37.391254512" lon="-121.826943669"><tag k="addr:city" v="San Jose"/><tag k="addr:housenumber" v="15180"/><tag k="addr:street" v="Joanne Avenue"/><tag k="addr:postcode" v="95127"/></node>
<node visible="true" id="-474" lat="37.391723105000004" lon="-121.82706522000001"><tag k="addr:city" v="San Jose"/><tag k="addr:housenumber" v="15187"/><tag k="addr:street" v="Joanne Avenue"/><tag k="addr:postcode" v="95127"/></node>
<node visible="true" id="-475" lat="37.391356869" lon="-121.82668506"><tag k="addr:city" v="San Jose"/><tag k="addr:housenumber" v="15196"/><tag k="addr:street" v="Joanne Avenue"/><tag k="addr:postcode" v="95127"/></node>
<node visible="true" id="-476" lat="37.394881489" lon="-121.82587368"><tag k="addr:city" v="San Jose"/><tag k="addr:housenumber" v="15295"/><tag k="addr:street" v="Penitencia Creek Road"/><tag k="addr:postcode" v="95132"/></node>
<node visible="true" id="-477" lat="37.388556801" lon="-121.81549266500001"><tag k="addr:city" v="San Jose"/><tag k="addr:housenumber" v="15884"/><tag k="addr:street" v="Alum Rock Avenue"/><tag k="addr:postcode" v="95127"/></node>
<node visible="true" id="-478" lat="37.388625863" lon="-121.815775985"><tag k="addr:city" v="San Jose"/><tag k="addr:housenumber" v="15900"/><tag k="addr:street" v="Alum Rock Avenue"/><tag k="addr:postcode" v="95127"/></node>
<node visible="true" id="-479" lat="37.388844397" lon="-121.816338676"><tag k="addr:city" v="San Jose"/><tag k="addr:housenumber" v="15950"/><tag k="addr:street" v="Alum Rock Avenue"/><tag k="addr:postcode" v="95127"/></node>
<node visible="true" id="-480" lat="37.389347231" lon="-121.817865994"><tag k="addr:city" v="San Jose"/><tag k="addr:housenumber" v="16041"/><tag k="addr:street" v="Alum Rock Avenue"/><tag k="addr:postcode" v="95127"/></node>
</osm>