<?xml version="1.0"?>
<osm version="0.6" generator="uvmogr2osm" upload="false">
<node visible="true" id="-2" lat="37.303221325" lon="-122.03271385900001"/>
<node visible="true" id="-3" lat="37.303285578" lon="-122.032715589"/>
<node visible="true" id="-4" lat="37.303287789" lon="-122.03258644700001"/>
<node visible="true" id="-5" lat="37.303223563" lon="-122.03258471800001"/>
<node visible="true" id="-7" lat="37.302659325" lon="-122.032665269"/>
<node visible="true" id="-8" lat="37.302660382" lon="-122.032779726"/>
<node visible="true" id="-9" lat="37.30269585" lon="-122.03277918"/>
<node visible="true" id="-10" lat="37.30269603" lon="-122.032798991"/>
<node visible="true" id="-11" lat="37.302817547000004" lon="-122.03279721800001"/>
<node visible="true" id="-12" lat="37.302816331" lon="-122.03266759300001"/>
<node visible="true" id="-13" lat="37.302778143000005" lon="-122.03266815200001"/>
<node visible="true" id="-14" lat="37.302778093" lon="-122.03266350800001"/>
<node visible="true" id="-16" lat="37.302909807" lon="-122.03266958"/>
<node visible="true" id="-17" lat="37.302908845000005" lon="-122.032776705"/>
<node visible="true" id="-18" lat="37.303064975000005" lon="-122.03277891"/>
<node visible="true" id="-19" lat="37.303063647" lon="-122.03292866700001"/>
<node visible="true" id="-20" lat="37.303049173000005" lon="-122.03292847200001"/>
<node visible="true" id="-21" lat="37.303048761" lon="-122.032974678"/>
<node visible="true" id="-22" lat="37.303041593" lon="-122.03297456600001"/>
<node visible="true" id="-23" lat="37.303041371" lon="-122.032999903"/>
<node visible="true" id="-24" lat="37.303114095000005" lon="-122.03300091400001"/>
<node visible="true" id="-25" lat="37.303117019000005" lon="-122.03267248700001"/>
<node visible="true" id="-27" lat="37.303274550000005" lon="-122.03273970800001"/>
<node visible="true" id="-28" lat="37.303274111" lon="-122.03281101600001"/>
<node visible="true" id="-29" lat="37.303410722" lon="-122.03281233800001"/>
<node visible="true" id="-30" lat="37.303411161" lon="-122.032741032"/>
<node visible="true" id="-32" lat="37.302872959000005" lon="-122.03289319000001"/>
<node visible="true" id="-33" lat="37.302875045" lon="-122.03300240700001"/>
<node visible="true" id="-34" lat="37.3028873" lon="-122.03300207400001"/>
<node visible="true" id="-35" lat="37.302953855000005" lon="-122.03300006900001"/>
<node visible="true" id="-36" lat="37.302952972" lon="-122.032954215"/>
<node visible="true" id="-37" lat="37.302953329000005" lon="-122.032954222"/>
<node visible="true" id="-38" lat="37.302952137000005" lon="-122.032892028"/>
<node visible="true" id="-39" lat="37.302951836000005" lon="-122.03289202200001"/>
<node visible="true" id="-40" lat="37.302951363000005" lon="-122.032867185"/>
<node visible="true" id="-41" lat="37.302923225" lon="-122.032868019"/>
<node visible="true" id="-42" lat="37.302923685" lon="-122.03289168600001"/>
<node visible="true" id="-44" lat="37.302621431000006" lon="-122.03276080600001"/>
<node visible="true" id="-45" lat="37.302621711" lon="-122.032831782"/>
<node visible="true" id="-46" lat="37.302652506" lon="-122.03283158900001"/>
<node visible="true" id="-47" lat="37.302652226" lon="-122.03276057800001"/>
<node visible="true" id="-48" lat="37.302970526" lon="-122.032632233"><tag k="addr:city" v="San Jose"/><tag k="addr:housenumber" v="1189"/><tag k="addr:street" v="South De Anza Boulevard"/><tag k="addr:postcode" v="95129"/></node>
<node visible="true" id="-49" lat="37.303049474000005" lon="-122.03268784400001"><tag k="addr:city" v="San Jose"/><tag k="addr:housenumber" v="1189"/><tag k="addr:street" v="South De Anza Boulevard"/><tag k="addr:unit" v="A"/><tag k="addr:postcode" v="95129"/></node>
<node visible="true" id="-50" lat="37.303046849000005" lon="-122.032742712"><tag k="addr:city" v="San Jose"/><tag k="addr:housenumber" v="1189"/><tag k="addr:street" v="South De Anza Boulevard"/><tag k="addr:unit" v="B"/><tag k="addr:postcode" v="95129"/></node>
<node visible="true" id="-51" lat="37.302440987000004" lon="-122.03265971900001"><tag k="addr:city" v="San Jose"/><tag k="addr:housenumber" v="1197"/><tag k="addr:street" v="South De Anza Boulevard"/><tag k="addr:postcode" v="95129"/></node>
<node visible="true" id="-52" lat="37.303336229" lon="-122.03296689400001"><tag k="addr:city" v="San Jose"/><tag k="addr:housenumber" v="1299"/><tag k="addr:street" v="Water Lily Way"/><tag k="addr:unit" v="60"/><tag k="addr:postcode" v="95129"/></node>
<node visible="true" id="-53" lat="37.303549995000004" lon="-122.03296149900001"><tag k="addr:city" v="San Jose"/><tag k="addr:housenumber" v="1299"/><tag k="addr:street" v="Water Lily Way"/><tag k="addr:unit" v="20"/><tag k="addr:postcode" v="95129"/></node>
<node visible="true" id="-54" lat="37.303646406000006" lon="-122.032972365"><tag k="addr:city" v="San Jose"/><tag k="addr:housenumber" v="1299"/><tag k="addr:street" v="Water Lily Way"/><tag k="addr:unit" v="10"/><tag k="addr:postcode" v="95129"/></node>
<node visible="true" id="-55" lat="37.303271617" lon="-122.032967346"><tag k="addr:city" v="San Jose"/><tag k="addr:housenumber" v="1299"/><tag k="addr:street" v="Water Lily Way"/><tag k="addr:unit" v="70"/><tag k="addr:postcode" v="95129"/></node>
<node visible="true" id="-57" lat="37.303499152" lon="-122.032551306"/>
<node visible="true" id="-58" lat="37.303499542000004" lon="-122.03274607600001"/>
<node visible="true" id="-59" lat="37.303581924" lon="-122.032745804"/>
<node visible="true" id="-60" lat="37.303581507000004" lon="-122.03255103400001"/>
<way visible="true" id="-1"><nd ref="-2"/><nd ref="-3"/><nd ref="-4"/><nd ref="-5"/><nd ref="-2"/><tag k="building" v="yes"/><tag k="height" v="3.18"/><tag k="ele" v="90.11"/></way>
<way visible="true" id="-6"><nd ref="-7"/><nd ref="-8"/><nd ref="-9"/><nd ref="-10"/><nd ref="-11"/><nd ref="-12"/><nd ref="-13"/><nd ref="-14"/><nd ref="-7"/><tag k="building" v="yes"/><tag k="height" v="4.46"/><tag k="ele" v="91.39"/></way>
<way visible="true" id="-15"><nd ref="-16"/><nd ref="-17"/><nd ref="-18"/><nd ref="-19"/><nd ref="-20"/><nd ref="-21"/><nd ref="-22"/><nd ref="-23"/><nd ref="-24"/><nd ref="-25"/><nd ref="-16"/><tag k="building" v="yes"/><tag k="height" v="4.53"/><tag k="ele" v="90.83"/></way>
<way visible="true" id="-26"><nd ref="-27"/><nd ref="-28"/><nd ref="-29"/><nd ref="-30"/><nd ref="-27"/><tag k="building" v="yes"/><tag k="height" v="3.38"/><tag k="ele" v="90.83"/></way>
<way visible="true" id="-31"><nd ref="-32"/><nd ref="-33"/><nd ref="-34"/><nd ref="-35"/><nd ref="-36"/><nd ref="-37"/><nd ref="-38"/><nd ref="-39"/><nd ref="-40"/><nd ref="-41"/><nd ref="-42"/><nd ref="-32"/><tag k="building" v="yes"/><tag k="height" v="2.49"/><tag k="ele" v="89.63"/></way>
<way visible="true" id="-43"><nd ref="-44"/><nd ref="-45"/><nd ref="-46"/><nd ref="-47"/><nd ref="-44"/><tag k="building" v="yes"/><tag k="height" v="9.69"/><tag k="ele" v="89.95"/></way>
<way visible="true" id="-56"><nd ref="-57"/><nd ref="-58"/><nd ref="-59"/><nd ref="-60"/><nd ref="-57"/><tag k="building" v="yes"/><tag k="height" v="4.90"/><tag k="ele" v="92.34"/><tag k="addr:city" v="San Jose"/><tag k="addr:housenumber" v="1185"/><tag k="addr:street" v="South De Anza Boulevard"/><tag k="addr:postcode" v="95129"/></way>
</osm>