<?xml version="1.0"?>
<osm version="0.6" generator="uvmogr2osm" upload="false">
<node visible="true" id="-2" lat="37.33456554" lon="-121.889802797"/>
<node visible="true" id="-3" lat="37.334596268000006" lon="-121.88982435400001"/>
<node visible="true" id="-4" lat="37.334612153" lon="-121.889788873"/>
<node visible="true" id="-5" lat="37.334581398000005" lon="-121.88976731700001"/>
<node visible="true" id="-7" lat="37.334403824" lon="-121.89034580900001"/>
<node visible="true" id="-8" lat="37.334423065" lon="-121.890305233"/>
<node visible="true" id="-9" lat="37.334395730000004" lon="-121.89028491"/>
<node visible="true" id="-10" lat="37.334376487" lon="-121.89032548600001"/>
<node visible="true" id="-12" lat="37.334567694" lon="-121.89007283800001"/>
<node visible="true" id="-13" lat="37.334620332" lon="-121.890111313"/>
<node visible="true" id="-14" lat="37.33466664" lon="-121.89001196900001"/>
<node visible="true" id="-15" lat="37.334614002" lon="-121.889973494"/>
<node visible="true" id="-17" lat="37.334457332" lon="-121.88972049700001"/>
<node visible="true" id="-18" lat="37.334485846" lon="-121.88974338700001"/>
<node visible="true" id="-19" lat="37.334503421" lon="-121.88970900400001"/>
<node visible="true" id="-20" lat="37.334474906000004" lon="-121.88968614900001"/>
<way visible="true" id="-1"><nd ref="-2"/><nd ref="-3"/><nd ref="-4"/><nd ref="-5"/><nd ref="-2"/><tag k="building" v="yes"/><tag k="height" v="7.00"/><tag k="ele" v="33.17"/></way>
<way visible="true" id="-6"><nd ref="-7"/><nd ref="-8"/><nd ref="-9"/><nd ref="-10"/><nd ref="-7"/><tag k="building" v="yes"/><tag k="height" v="12.21"/><tag k="ele" v="38.04"/></way>
<way visible="true" id="-11"><nd ref="-12"/><nd ref="-13"/><nd ref="-14"/><nd ref="-15"/><nd ref="-12"/><tag k="building" v="yes"/><tag k="height" v="8.44"/><tag k="ele" v="35.20"/><tag k="addr:city" v="San Jose"/><tag k="addr:housenumber" v="71"/><tag k="addr:street" v="South 1st Street"/><tag k="addr:postcode" v="95113"/></way>
<way visible="true" id="-16"><nd ref="-17"/><nd ref="-18"/><nd ref="-19"/><nd ref="-20"/><nd ref="-17"/><tag k="building" v="yes"/><tag k="height" v="6.47"/><tag k="ele" v="33.17"/><tag k="addr:city" v="San Jose"/><tag k="addr:housenumber" v="89"/><tag k="addr:street" v="South 1st Street"/><tag k="addr:postcode" v="95113"/></way>
</osm>